{"type":"FeatureCollection","features":[{"type":"Feature","id":"af-afghanistan","properties":{"id":"af-afghanistan","name":"Afghanistan","region":"af-afghanistan","level":"region","parent":"","country":"Afghanistan","sourceCode":"AF","sourceParentCode":"","sourceLevel":"ADM0","sourceValidOn":"2025-06-01","center":[66.02602576935534,33.83141138485839],"bbox":[60.47197723300019,29.377065966000146,74.88956179300015,38.490842400000076],"source":"Afghanistan Geodesy and Cartography Head Office (AGCHO), National Statistics and Information Authority (NSIA) · OCHA/HDX v03 · valid 2025-06-01 · CC BY-IGO"},"geometry":{"type":"Point","coordinates":[66.02602576935534,33.83141138485839]}}]}
