{"type":"FeatureCollection","features":[{"type":"Feature","id":"af-afghanistan-p-af17","properties":{"id":"af-afghanistan-p-af17","name":"Badakhshan","region":"af-afghanistan","level":"province","parent":"af-afghanistan","country":"Afghanistan","sourceCode":"AF17","sourceParentCode":"AF","sourceLevel":"ADM1","sourceValidOn":"2025-06-01","center":[71.112816956084,36.66210844860011],"bbox":[69.96217385800009,35.442952481000134,74.88956179300015,38.490842400000076],"source":"Afghanistan Geodesy and Cartography Head Office (AGCHO), National Statistics and Information Authority (NSIA) · OCHA/HDX v03 · valid 2025-06-01 · CC BY-IGO"},"geometry":{"type":"Point","coordinates":[71.112816956084,36.66210844860011]}},{"type":"Feature","id":"af-afghanistan-p-af20","properties":{"id":"af-afghanistan-p-af20","name":"Samangan","region":"af-afghanistan","level":"province","parent":"af-afghanistan","country":"Afghanistan","sourceCode":"AF20","sourceParentCode":"AF","sourceLevel":"ADM1","sourceValidOn":"2025-06-01","center":[67.7426892505552,36.14995557654633],"bbox":[66.86878532500003,35.3456545410001,68.54295000000013,37.07779760800008],"source":"Afghanistan Geodesy and Cartography Head Office (AGCHO), National Statistics and Information Authority (NSIA) · OCHA/HDX v03 · valid 2025-06-01 · CC BY-IGO"},"geometry":{"type":"Point","coordinates":[67.7426892505552,36.14995557654633]}},{"type":"Feature","id":"af-afghanistan-p-af05","properties":{"id":"af-afghanistan-p-af05","name":"Logar","region":"af-afghanistan","level":"province","parent":"af-afghanistan","country":"Afghanistan","sourceCode":"AF05","sourceParentCode":"AF","sourceLevel":"ADM1","sourceValidOn":"2025-06-01","center":[69.17159602393106,34.013174608357964],"bbox":[68.71277820000012,33.59532676700013,69.90827108800005,34.36787293200007],"source":"Afghanistan Geodesy and Cartography Head Office (AGCHO), National Statistics and Information Authority (NSIA) · OCHA/HDX v03 · valid 2025-06-01 · CC BY-IGO"},"geometry":{"type":"Point","coordinates":[69.17159602393106,34.013174608357964]}},{"type":"Feature","id":"af-afghanistan-p-af12","properties":{"id":"af-afghanistan-p-af12","name":"Paktika","region":"af-afghanistan","level":"province","parent":"af-afghanistan","country":"Afghanistan","sourceCode":"AF12","sourceParentCode":"AF","sourceLevel":"ADM1","sourceValidOn":"2025-06-01","center":[68.75111821084916,32.481676056185556],"bbox":[67.85672429000016,31.59320555100004,69.54757754100012,33.42023405800006],"source":"Afghanistan Geodesy and Cartography Head Office (AGCHO), National Statistics and Information Authority (NSIA) · OCHA/HDX v03 · valid 2025-06-01 · CC BY-IGO"},"geometry":{"type":"Point","coordinates":[68.75111821084916,32.481676056185556]}},{"type":"Feature","id":"af-afghanistan-p-af22","properties":{"id":"af-afghanistan-p-af22","name":"Sar-e-Pul","region":"af-afghanistan","level":"province","parent":"af-afghanistan","country":"Afghanistan","sourceCode":"AF22","sourceParentCode":"AF","sourceLevel":"ADM1","sourceValidOn":"2025-06-01","center":[66.13301960462896,35.732533941130185],"bbox":[65.38035582900005,34.85569153200015,67.008193028,36.514012502000185],"source":"Afghanistan Geodesy and Cartography Head Office (AGCHO), National Statistics and Information Authority (NSIA) · OCHA/HDX v03 · valid 2025-06-01 · CC BY-IGO"},"geometry":{"type":"Point","coordinates":[66.13301960462896,35.732533941130185]}},{"type":"Feature","id":"af-afghanistan-p-af13","properties":{"id":"af-afghanistan-p-af13","name":"Paktya","region":"af-afghanistan","level":"province","parent":"af-afghanistan","country":"Afghanistan","sourceCode":"AF13","sourceParentCode":"AF","sourceLevel":"ADM1","sourceValidOn":"2025-06-01","center":[69.40191172618432,33.62919456721469],"bbox":[68.76685819000005,33.15168158800003,70.04911610600004,34.08561079800006],"source":"Afghanistan Geodesy and Cartography Head Office (AGCHO), National Statistics and Information Authority (NSIA) · OCHA/HDX v03 · valid 2025-06-01 · CC BY-IGO"},"geometry":{"type":"Point","coordinates":[69.40191172618432,33.62919456721469]}},{"type":"Feature","id":"af-afghanistan-p-af16","properties":{"id":"af-afghanistan-p-af16","name":"Nuristan","region":"af-afghanistan","level":"province","parent":"af-afghanistan","country":"Afghanistan","sourceCode":"AF16","sourceParentCode":"AF","sourceLevel":"ADM1","sourceValidOn":"2025-06-01","center":[70.80698851438348,35.403434917769715],"bbox":[69.91360071800017,34.91955886000005,71.65714,36.03919433300007],"source":"Afghanistan Geodesy and Cartography Head Office (AGCHO), National Statistics and Information Authority (NSIA) · OCHA/HDX v03 · valid 2025-06-01 · CC BY-IGO"},"geometry":{"type":"Point","coordinates":[70.80698851438348,35.403434917769715]}},{"type":"Feature","id":"af-afghanistan-p-af21","properties":{"id":"af-afghanistan-p-af21","name":"Balkh","region":"af-afghanistan","level":"province","parent":"af-afghanistan","country":"Afghanistan","sourceCode":"AF21","sourceParentCode":"AF","sourceLevel":"ADM1","sourceValidOn":"2025-06-01","center":[66.91866365020401,36.6396574761063],"bbox":[66.21798091500006,35.671269169000084,67.80249653000004,37.39867565800006],"source":"Afghanistan Geodesy and Cartography Head Office (AGCHO), National Statistics and Information Authority (NSIA) · OCHA/HDX v03 · valid 2025-06-01 · CC BY-IGO"},"geometry":{"type":"Point","coordinates":[66.91866365020401,36.6396574761063]}},{"type":"Feature","id":"af-afghanistan-p-af08","properties":{"id":"af-afghanistan-p-af08","name":"Panjsher","region":"af-afghanistan","level":"province","parent":"af-afghanistan","country":"Afghanistan","sourceCode":"AF08","sourceParentCode":"AF","sourceLevel":"ADM1","sourceValidOn":"2025-06-01","center":[69.79482177415235,35.44593019117383],"bbox":[69.24062034900015,35.07536258400012,70.2941484690001,35.89005195800007],"source":"Afghanistan Geodesy and Cartography Head Office (AGCHO), National Statistics and Information Authority (NSIA) · OCHA/HDX v03 · valid 2025-06-01 · CC BY-IGO"},"geometry":{"type":"Point","coordinates":[69.79482177415235,35.44593019117383]}},{"type":"Feature","id":"af-afghanistan-p-af28","properties":{"id":"af-afghanistan-p-af28","name":"Jawzjan","region":"af-afghanistan","level":"province","parent":"af-afghanistan","country":"Afghanistan","sourceCode":"AF28","sourceParentCode":"AF","sourceLevel":"ADM1","sourceValidOn":"2025-06-01","center":[65.84132393443203,36.82841837518731],"bbox":[65.1534694610001,35.9139702010001,66.58095000000014,37.55096153700009],"source":"Afghanistan Geodesy and Cartography Head Office (AGCHO), National Statistics and Information Authority (NSIA) · OCHA/HDX v03 · valid 2025-06-01 · CC BY-IGO"},"geometry":{"type":"Point","coordinates":[65.84132393443203,36.82841837518731]}},{"type":"Feature","id":"af-afghanistan-p-af27","properties":{"id":"af-afghanistan-p-af27","name":"Kandahar","region":"af-afghanistan","level":"province","parent":"af-afghanistan","country":"Afghanistan","sourceCode":"AF27","sourceParentCode":"AF","sourceLevel":"ADM1","sourceValidOn":"2025-06-01","center":[65.71254736336823,31.052451991405327],"bbox":[64.50538358800003,29.534670236000125,67.79666707100006,32.557056574000114],"source":"Afghanistan Geodesy and Cartography Head Office (AGCHO), National Statistics and Information Authority (NSIA) · OCHA/HDX v03 · valid 2025-06-01 · CC BY-IGO"},"geometry":{"type":"Point","coordinates":[65.71254736336823,31.052451991405327]}},{"type":"Feature","id":"af-afghanistan-p-af24","properties":{"id":"af-afghanistan-p-af24","name":"Daykundi","region":"af-afghanistan","level":"province","parent":"af-afghanistan","country":"Afghanistan","sourceCode":"AF24","sourceParentCode":"AF","sourceLevel":"ADM1","sourceValidOn":"2025-06-01","center":[66.18473821415404,33.76402091140595],"bbox":[65.3418913540001,33.034093969000025,67.42173102800012,34.36165088400003],"source":"Afghanistan Geodesy and Cartography Head Office (AGCHO), National Statistics and Information Authority (NSIA) · OCHA/HDX v03 · valid 2025-06-01 · CC BY-IGO"},"geometry":{"type":"Point","coordinates":[66.18473821415404,33.76402091140595]}},{"type":"Feature","id":"af-afghanistan-p-af25","properties":{"id":"af-afghanistan-p-af25","name":"Uruzgan","region":"af-afghanistan","level":"province","parent":"af-afghanistan","country":"Afghanistan","sourceCode":"AF25","sourceParentCode":"AF","sourceLevel":"ADM1","sourceValidOn":"2025-06-01","center":[66.13225837237631,32.9423629908147],"bbox":[65.1719616360001,32.36127737400005,67.04298881200009,33.59936967800007],"source":"Afghanistan Geodesy and Cartography Head Office (AGCHO), National Statistics and Information Authority (NSIA) · OCHA/HDX v03 · valid 2025-06-01 · CC BY-IGO"},"geometry":{"type":"Point","coordinates":[66.13225837237631,32.9423629908147]}},{"type":"Feature","id":"af-afghanistan-p-af23","properties":{"id":"af-afghanistan-p-af23","name":"Ghor","region":"af-afghanistan","level":"province","parent":"af-afghanistan","country":"Afghanistan","sourceCode":"AF23","sourceParentCode":"AF","sourceLevel":"ADM1","sourceValidOn":"2025-06-01","center":[64.92895870127789,34.22385313441229],"bbox":[63.25076119200014,33.125922329000105,66.72636817900008,35.281756630000075],"source":"Afghanistan Geodesy and Cartography Head Office (AGCHO), National Statistics and Information Authority (NSIA) · OCHA/HDX v03 · valid 2025-06-01 · CC BY-IGO"},"geometry":{"type":"Point","coordinates":[64.92895870127789,34.22385313441229]}},{"type":"Feature","id":"af-afghanistan-p-af33","properties":{"id":"af-afghanistan-p-af33","name":"Farah","region":"af-afghanistan","level":"province","parent":"af-afghanistan","country":"Afghanistan","sourceCode":"AF33","sourceParentCode":"AF","sourceLevel":"ADM1","sourceValidOn":"2025-06-01","center":[62.46235164092371,32.497556546066235],"bbox":[60.689140856999984,31.387476132000074,64.40067452000005,33.65570140900013],"source":"Afghanistan Geodesy and Cartography Head Office (AGCHO), National Statistics and Information Authority (NSIA) · OCHA/HDX v03 · valid 2025-06-01 · CC BY-IGO"},"geometry":{"type":"Point","coordinates":[62.46235164092371,32.497556546066235]}},{"type":"Feature","id":"af-afghanistan-p-af03","properties":{"id":"af-afghanistan-p-af03","name":"Parwan","region":"af-afghanistan","level":"province","parent":"af-afghanistan","country":"Afghanistan","sourceCode":"AF03","sourceParentCode":"AF","sourceLevel":"ADM1","sourceValidOn":"2025-06-01","center":[68.88632904932633,34.95853745093317],"bbox":[68.18957924700015,34.58387827000013,69.623134623,35.421494110000026],"source":"Afghanistan Geodesy and Cartography Head Office (AGCHO), National Statistics and Information Authority (NSIA) · OCHA/HDX v03 · valid 2025-06-01 · CC BY-IGO"},"geometry":{"type":"Point","coordinates":[68.88632904932633,34.95853745093317]}},{"type":"Feature","id":"af-afghanistan-p-af29","properties":{"id":"af-afghanistan-p-af29","name":"Faryab","region":"af-afghanistan","level":"province","parent":"af-afghanistan","country":"Afghanistan","sourceCode":"AF29","sourceParentCode":"AF","sourceLevel":"ADM1","sourceValidOn":"2025-06-01","center":[64.85992334230534,36.05451527829559],"bbox":[63.822180958000104,35.14490798200018,65.79720884400012,37.251235559000065],"source":"Afghanistan Geodesy and Cartography Head Office (AGCHO), National Statistics and Information Authority (NSIA) · OCHA/HDX v03 · valid 2025-06-01 · CC BY-IGO"},"geometry":{"type":"Point","coordinates":[64.85992334230534,36.05451527829559]}},{"type":"Feature","id":"af-afghanistan-p-af19","properties":{"id":"af-afghanistan-p-af19","name":"Kunduz","region":"af-afghanistan","level":"province","parent":"af-afghanistan","country":"Afghanistan","sourceCode":"AF19","sourceParentCode":"AF","sourceLevel":"ADM1","sourceValidOn":"2025-06-01","center":[68.74173814181803,36.84618910948121],"bbox":[68.03140067900006,36.34762,69.33780129600018,37.33476145100008],"source":"Afghanistan Geodesy and Cartography Head Office (AGCHO), National Statistics and Information Authority (NSIA) · OCHA/HDX v03 · valid 2025-06-01 · CC BY-IGO"},"geometry":{"type":"Point","coordinates":[68.74173814181803,36.84618910948121]}},{"type":"Feature","id":"af-afghanistan-p-af14","properties":{"id":"af-afghanistan-p-af14","name":"Khost","region":"af-afghanistan","level":"province","parent":"af-afghanistan","country":"Afghanistan","sourceCode":"AF14","sourceParentCode":"AF","sourceLevel":"ADM1","sourceValidOn":"2025-06-01","center":[69.83073424954102,33.366602787719266],"bbox":[69.35163312000014,33.00829404900014,70.32869528800006,33.73143673400011],"source":"Afghanistan Geodesy and Cartography Head Office (AGCHO), National Statistics and Information Authority (NSIA) · OCHA/HDX v03 · valid 2025-06-01 · CC BY-IGO"},"geometry":{"type":"Point","coordinates":[69.83073424954102,33.366602787719266]}},{"type":"Feature","id":"af-afghanistan-p-af32","properties":{"id":"af-afghanistan-p-af32","name":"Hirat","region":"af-afghanistan","level":"province","parent":"af-afghanistan","country":"Afghanistan","sourceCode":"AF32","sourceParentCode":"AF","sourceLevel":"ADM1","sourceValidOn":"2025-06-01","center":[61.98802457580686,34.0598119731324],"bbox":[60.47197723300019,32.68759160600007,64.13208286900004,35.625492852000036],"source":"Afghanistan Geodesy and Cartography Head Office (AGCHO), National Statistics and Information Authority (NSIA) · OCHA/HDX v03 · valid 2025-06-01 · CC BY-IGO"},"geometry":{"type":"Point","coordinates":[61.98802457580686,34.0598119731324]}},{"type":"Feature","id":"af-afghanistan-p-af15","properties":{"id":"af-afghanistan-p-af15","name":"Kunar","region":"af-afghanistan","level":"province","parent":"af-afghanistan","country":"Afghanistan","sourceCode":"AF15","sourceParentCode":"AF","sourceLevel":"ADM1","sourceValidOn":"2025-06-01","center":[71.09897848249456,34.94148046711572],"bbox":[70.58839682900009,34.54515444900005,71.68082089900008,35.36679442400015],"source":"Afghanistan Geodesy and Cartography Head Office (AGCHO), National Statistics and Information Authority (NSIA) · OCHA/HDX v03 · valid 2025-06-01 · CC BY-IGO"},"geometry":{"type":"Point","coordinates":[71.09897848249456,34.94148046711572]}},{"type":"Feature","id":"af-afghanistan-p-af01","properties":{"id":"af-afghanistan-p-af01","name":"Kabul","region":"af-afghanistan","level":"province","parent":"af-afghanistan","country":"Afghanistan","sourceCode":"AF01","sourceParentCode":"AF","sourceLevel":"ADM1","sourceValidOn":"2025-06-01","center":[69.33259350841487,34.55406635244821],"bbox":[68.83280972900019,34.146659791000104,69.94624875500006,34.932013072000075],"source":"Afghanistan Geodesy and Cartography Head Office (AGCHO), National Statistics and Information Authority (NSIA) · OCHA/HDX v03 · valid 2025-06-01 · CC BY-IGO"},"geometry":{"type":"Point","coordinates":[69.33259350841487,34.55406635244821]}},{"type":"Feature","id":"af-afghanistan-p-af30","properties":{"id":"af-afghanistan-p-af30","name":"Hilmand","region":"af-afghanistan","level":"province","parent":"af-afghanistan","country":"Afghanistan","sourceCode":"AF30","sourceParentCode":"AF","sourceLevel":"ADM1","sourceValidOn":"2025-06-01","center":[64.05275583083855,31.185119129698386],"bbox":[62.553492678,29.377065966000146,65.68412262600009,33.68824868100012],"source":"Afghanistan Geodesy and Cartography Head Office (AGCHO), National Statistics and Information Authority (NSIA) · OCHA/HDX v03 · valid 2025-06-01 · CC BY-IGO"},"geometry":{"type":"Point","coordinates":[64.05275583083855,31.185119129698386]}},{"type":"Feature","id":"af-afghanistan-p-af11","properties":{"id":"af-afghanistan-p-af11","name":"Ghazni","region":"af-afghanistan","level":"province","parent":"af-afghanistan","country":"Afghanistan","sourceCode":"AF11","sourceParentCode":"AF","sourceLevel":"ADM1","sourceValidOn":"2025-06-01","center":[67.8117892428549,33.29882224615118],"bbox":[66.82494842400001,32.02418000000017,68.82355093000018,34.21455059500005],"source":"Afghanistan Geodesy and Cartography Head Office (AGCHO), National Statistics and Information Authority (NSIA) · OCHA/HDX v03 · valid 2025-06-01 · CC BY-IGO"},"geometry":{"type":"Point","coordinates":[67.8117892428549,33.29882224615118]}},{"type":"Feature","id":"af-afghanistan-p-af04","properties":{"id":"af-afghanistan-p-af04","name":"Maidan Wardak","region":"af-afghanistan","level":"province","parent":"af-afghanistan","country":"Afghanistan","sourceCode":"AF04","sourceParentCode":"AF","sourceLevel":"ADM1","sourceValidOn":"2025-06-01","center":[68.20295035992764,34.29207803528492],"bbox":[67.22388585000016,33.65880634000007,68.9686219960002,34.79758601900011],"source":"Afghanistan Geodesy and Cartography Head Office (AGCHO), National Statistics and Information Authority (NSIA) · OCHA/HDX v03 · valid 2025-06-01 · CC BY-IGO"},"geometry":{"type":"Point","coordinates":[68.20295035992764,34.29207803528492]}},{"type":"Feature","id":"af-afghanistan-p-af02","properties":{"id":"af-afghanistan-p-af02","name":"Kapisa","region":"af-afghanistan","level":"province","parent":"af-afghanistan","country":"Afghanistan","sourceCode":"AF02","sourceParentCode":"AF","sourceLevel":"ADM1","sourceValidOn":"2025-06-01","center":[69.622633149466,34.962935903435195],"bbox":[69.2736767310002,34.633835699000144,69.92600861200003,35.178984178000064],"source":"Afghanistan Geodesy and Cartography Head Office (AGCHO), National Statistics and Information Authority (NSIA) · OCHA/HDX v03 · valid 2025-06-01 · CC BY-IGO"},"geometry":{"type":"Point","coordinates":[69.622633149466,34.962935903435195]}},{"type":"Feature","id":"af-afghanistan-p-af06","properties":{"id":"af-afghanistan-p-af06","name":"Nangarhar","region":"af-afghanistan","level":"province","parent":"af-afghanistan","country":"Afghanistan","sourceCode":"AF06","sourceParentCode":"AF","sourceLevel":"ADM1","sourceValidOn":"2025-06-01","center":[70.47255341765938,34.2728681398571],"bbox":[69.47761092900004,33.939240550000136,71.1765104380001,34.80901804200016],"source":"Afghanistan Geodesy and Cartography Head Office (AGCHO), National Statistics and Information Authority (NSIA) · OCHA/HDX v03 · valid 2025-06-01 · CC BY-IGO"},"geometry":{"type":"Point","coordinates":[70.47255341765938,34.2728681398571]}},{"type":"Feature","id":"af-afghanistan-p-af26","properties":{"id":"af-afghanistan-p-af26","name":"Zabul","region":"af-afghanistan","level":"province","parent":"af-afghanistan","country":"Afghanistan","sourceCode":"AF26","sourceParentCode":"AF","sourceLevel":"ADM1","sourceValidOn":"2025-06-01","center":[67.15969156351767,32.19343673753385],"bbox":[66.18545952000011,31.497956032000104,68.17122775200005,33.05],"source":"Afghanistan Geodesy and Cartography Head Office (AGCHO), National Statistics and Information Authority (NSIA) · OCHA/HDX v03 · valid 2025-06-01 · CC BY-IGO"},"geometry":{"type":"Point","coordinates":[67.15969156351767,32.19343673753385]}},{"type":"Feature","id":"af-afghanistan-p-af18","properties":{"id":"af-afghanistan-p-af18","name":"Takhar","region":"af-afghanistan","level":"province","parent":"af-afghanistan","country":"Afghanistan","sourceCode":"AF18","sourceParentCode":"AF","sourceLevel":"ADM1","sourceValidOn":"2025-06-01","center":[69.7762805342356,36.70230682006769],"bbox":[69.12926,35.78736037000016,70.48916215300005,37.62036250800003],"source":"Afghanistan Geodesy and Cartography Head Office (AGCHO), National Statistics and Information Authority (NSIA) · OCHA/HDX v03 · valid 2025-06-01 · CC BY-IGO"},"geometry":{"type":"Point","coordinates":[69.7762805342356,36.70230682006769]}},{"type":"Feature","id":"af-afghanistan-p-af34","properties":{"id":"af-afghanistan-p-af34","name":"Nimroz","region":"af-afghanistan","level":"province","parent":"af-afghanistan","country":"Afghanistan","sourceCode":"AF34","sourceParentCode":"AF","sourceLevel":"ADM1","sourceValidOn":"2025-06-01","center":[62.31666773714238,30.789338910250105],"bbox":[60.87316702099997,29.379339448000167,63.57692503400011,32.243425474000105],"source":"Afghanistan Geodesy and Cartography Head Office (AGCHO), National Statistics and Information Authority (NSIA) · OCHA/HDX v03 · valid 2025-06-01 · CC BY-IGO"},"geometry":{"type":"Point","coordinates":[62.31666773714238,30.789338910250105]}},{"type":"Feature","id":"af-afghanistan-p-af07","properties":{"id":"af-afghanistan-p-af07","name":"Laghman","region":"af-afghanistan","level":"province","parent":"af-afghanistan","country":"Afghanistan","sourceCode":"AF07","sourceParentCode":"AF","sourceLevel":"ADM1","sourceValidOn":"2025-06-01","center":[70.17018744655626,34.76293462115695],"bbox":[69.80615426200012,34.42531746300011,70.629809,35.21834437400014],"source":"Afghanistan Geodesy and Cartography Head Office (AGCHO), National Statistics and Information Authority (NSIA) · OCHA/HDX v03 · valid 2025-06-01 · CC BY-IGO"},"geometry":{"type":"Point","coordinates":[70.17018744655626,34.76293462115695]}},{"type":"Feature","id":"af-afghanistan-p-af09","properties":{"id":"af-afghanistan-p-af09","name":"Baghlan","region":"af-afghanistan","level":"province","parent":"af-afghanistan","country":"Afghanistan","sourceCode":"AF09","sourceParentCode":"AF","sourceLevel":"ADM1","sourceValidOn":"2025-06-01","center":[68.93818477158699,35.77317809954777],"bbox":[68.00412277300012,35.004261813000085,69.97155602300006,36.54806249800015],"source":"Afghanistan Geodesy and Cartography Head Office (AGCHO), National Statistics and Information Authority (NSIA) · OCHA/HDX v03 · valid 2025-06-01 · CC BY-IGO"},"geometry":{"type":"Point","coordinates":[68.93818477158699,35.77317809954777]}},{"type":"Feature","id":"af-afghanistan-p-af31","properties":{"id":"af-afghanistan-p-af31","name":"Badghis","region":"af-afghanistan","level":"province","parent":"af-afghanistan","country":"Afghanistan","sourceCode":"AF31","sourceParentCode":"AF","sourceLevel":"ADM1","sourceValidOn":"2025-06-01","center":[63.67718609230026,35.13996637824448],"bbox":[62.67812397900002,34.51189901700002,64.80604051000006,36.03251962600012],"source":"Afghanistan Geodesy and Cartography Head Office (AGCHO), National Statistics and Information Authority (NSIA) · OCHA/HDX v03 · valid 2025-06-01 · CC BY-IGO"},"geometry":{"type":"Point","coordinates":[63.67718609230026,35.13996637824448]}},{"type":"Feature","id":"af-afghanistan-p-af10","properties":{"id":"af-afghanistan-p-af10","name":"Bamyan","region":"af-afghanistan","level":"province","parent":"af-afghanistan","country":"Afghanistan","sourceCode":"AF10","sourceParentCode":"AF","sourceLevel":"ADM1","sourceValidOn":"2025-06-01","center":[67.23370380626231,34.798638192069234],"bbox":[66.2768168950002,33.83453536400009,68.28169,35.481774608000194],"source":"Afghanistan Geodesy and Cartography Head Office (AGCHO), National Statistics and Information Authority (NSIA) · OCHA/HDX v03 · valid 2025-06-01 · CC BY-IGO"},"geometry":{"type":"Point","coordinates":[67.23370380626231,34.798638192069234]}}]}
