{"type":"FeatureCollection","features":[{"type":"Feature","id":"bd-bangladesh-d-bd1004","properties":{"id":"bd-bangladesh-d-bd1004","name":"Barguna","region":"bd-bangladesh","level":"district","parent":"bd-bangladesh-p-bd10","country":"Bangladesh","sourceCode":"BD1004","sourceParentCode":"BD10","sourceLevel":"ADM2","sourceValidOn":"2023-05-21","center":[90.11013296643817,22.128261755824543],"bbox":[89.87748492500015,21.844804644000078,90.37389362600015,22.48301845700007],"source":"Bangladesh Bureau of Statistics (BBS) · OCHA/HDX v03 · valid 2023-05-21 · CC BY-IGO","province":"Barishal"},"geometry":{"type":"Point","coordinates":[90.11013296643817,22.128261755824543]}},{"type":"Feature","id":"bd-bangladesh-d-bd1006","properties":{"id":"bd-bangladesh-d-bd1006","name":"Barishal","region":"bd-bangladesh","level":"district","parent":"bd-bangladesh-p-bd10","country":"Bangladesh","sourceCode":"BD1006","sourceParentCode":"BD10","sourceLevel":"ADM2","sourceValidOn":"2023-05-21","center":[90.36878698518335,22.819387121758844],"bbox":[90.01724254800007,22.453568824000115,90.70154151999998,23.081365127000083],"source":"Bangladesh Bureau of Statistics (BBS) · OCHA/HDX v03 · valid 2023-05-21 · CC BY-IGO","province":"Barishal"},"geometry":{"type":"Point","coordinates":[90.36878698518335,22.819387121758844]}},{"type":"Feature","id":"bd-bangladesh-d-bd1009","properties":{"id":"bd-bangladesh-d-bd1009","name":"Bhola","region":"bd-bangladesh","level":"district","parent":"bd-bangladesh-p-bd10","country":"Bangladesh","sourceCode":"BD1009","sourceParentCode":"BD10","sourceLevel":"ADM2","sourceValidOn":"2023-05-21","center":[90.76398250999678,22.310320752846884],"bbox":[90.52266803000003,21.838527058000068,91.02367076600012,22.86847967200015],"source":"Bangladesh Bureau of Statistics (BBS) · OCHA/HDX v03 · valid 2023-05-21 · CC BY-IGO","province":"Barishal"},"geometry":{"type":"Point","coordinates":[90.76398250999678,22.310320752846884]}},{"type":"Feature","id":"bd-bangladesh-d-bd1042","properties":{"id":"bd-bangladesh-d-bd1042","name":"Jhalokati","region":"bd-bangladesh","level":"district","parent":"bd-bangladesh-p-bd10","country":"Bangladesh","sourceCode":"BD1042","sourceParentCode":"BD10","sourceLevel":"ADM2","sourceValidOn":"2023-05-21","center":[90.18189780127244,22.572341475700338],"bbox":[90.01766698600005,22.335213332000023,90.38435123700009,22.786353677000022],"source":"Bangladesh Bureau of Statistics (BBS) · OCHA/HDX v03 · valid 2023-05-21 · CC BY-IGO","province":"Barishal"},"geometry":{"type":"Point","coordinates":[90.18189780127244,22.572341475700338]}},{"type":"Feature","id":"bd-bangladesh-d-bd1078","properties":{"id":"bd-bangladesh-d-bd1078","name":"Patuakhali","region":"bd-bangladesh","level":"district","parent":"bd-bangladesh-p-bd10","country":"Bangladesh","sourceCode":"BD1078","sourceParentCode":"BD10","sourceLevel":"ADM2","sourceValidOn":"2023-05-21","center":[90.4072572113594,22.165187230648673],"bbox":[90.07846804700017,21.79440667900019,90.66446254900012,22.593480143000022],"source":"Bangladesh Bureau of Statistics (BBS) · OCHA/HDX v03 · valid 2023-05-21 · CC BY-IGO","province":"Barishal"},"geometry":{"type":"Point","coordinates":[90.4072572113594,22.165187230648673]}},{"type":"Feature","id":"bd-bangladesh-d-bd1079","properties":{"id":"bd-bangladesh-d-bd1079","name":"Pirojpur","region":"bd-bangladesh","level":"district","parent":"bd-bangladesh-p-bd10","country":"Bangladesh","sourceCode":"BD1079","sourceParentCode":"BD10","sourceLevel":"ADM2","sourceValidOn":"2023-05-21","center":[89.99209018684093,22.532036576540065],"bbox":[89.85735570300017,22.156418286000132,90.18908192900011,22.869013892000112],"source":"Bangladesh Bureau of Statistics (BBS) · OCHA/HDX v03 · valid 2023-05-21 · CC BY-IGO","province":"Barishal"},"geometry":{"type":"Point","coordinates":[89.99209018684093,22.532036576540065]}},{"type":"Feature","id":"bd-bangladesh-d-bd2003","properties":{"id":"bd-bangladesh-d-bd2003","name":"Bandarban","region":"bd-bangladesh","level":"district","parent":"bd-bangladesh-p-bd20","country":"Bangladesh","sourceCode":"BD2003","sourceParentCode":"BD20","sourceLevel":"ADM2","sourceValidOn":"2023-05-21","center":[92.3651357797123,21.804506205927424],"bbox":[92.06212887200013,21.18348796200013,92.68005782300008,22.351209131000076],"source":"Bangladesh Bureau of Statistics (BBS) · OCHA/HDX v03 · valid 2023-05-21 · CC BY-IGO","province":"Chattogram"},"geometry":{"type":"Point","coordinates":[92.3651357797123,21.804506205927424]}},{"type":"Feature","id":"bd-bangladesh-d-bd2012","properties":{"id":"bd-bangladesh-d-bd2012","name":"Brahmanbaria","region":"bd-bangladesh","level":"district","parent":"bd-bangladesh-p-bd20","country":"Bangladesh","sourceCode":"BD2012","sourceParentCode":"BD20","sourceLevel":"ADM2","sourceValidOn":"2023-05-21","center":[91.08317151351127,23.953342651156166],"bbox":[90.72118216400008,23.646293997000157,91.32898707900006,24.269012586000088],"source":"Bangladesh Bureau of Statistics (BBS) · OCHA/HDX v03 · valid 2023-05-21 · CC BY-IGO","province":"Chattogram"},"geometry":{"type":"Point","coordinates":[91.08317151351127,23.953342651156166]}},{"type":"Feature","id":"bd-bangladesh-d-bd2013","properties":{"id":"bd-bangladesh-d-bd2013","name":"Chandpur","region":"bd-bangladesh","level":"district","parent":"bd-bangladesh-p-bd20","country":"Bangladesh","sourceCode":"BD2013","sourceParentCode":"BD20","sourceLevel":"ADM2","sourceValidOn":"2023-05-21","center":[90.74888905412206,23.261109897592345],"bbox":[90.52720869199999,22.983006697000064,91.02818810300005,23.504371198000115],"source":"Bangladesh Bureau of Statistics (BBS) · OCHA/HDX v03 · valid 2023-05-21 · CC BY-IGO","province":"Chattogram"},"geometry":{"type":"Point","coordinates":[90.74888905412206,23.261109897592345]}},{"type":"Feature","id":"bd-bangladesh-d-bd2015","properties":{"id":"bd-bangladesh-d-bd2015","name":"Chattogram","region":"bd-bangladesh","level":"district","parent":"bd-bangladesh-p-bd20","country":"Bangladesh","sourceCode":"BD2015","sourceParentCode":"BD20","sourceLevel":"ADM2","sourceValidOn":"2023-05-21","center":[91.85070315333355,22.441167921973467],"bbox":[91.31120302500017,21.855339392000076,92.21807487200005,22.98974349400015],"source":"Bangladesh Bureau of Statistics (BBS) · OCHA/HDX v03 · valid 2023-05-21 · CC BY-IGO","province":"Chattogram"},"geometry":{"type":"Point","coordinates":[91.85070315333355,22.441167921973467]}},{"type":"Feature","id":"bd-bangladesh-d-bd2019","properties":{"id":"bd-bangladesh-d-bd2019","name":"Cumilla","region":"bd-bangladesh","level":"district","parent":"bd-bangladesh-p-bd20","country":"Bangladesh","sourceCode":"BD2019","sourceParentCode":"BD20","sourceLevel":"ADM2","sourceValidOn":"2023-05-21","center":[91.03297862651769,23.43704815030037],"bbox":[90.62519797900012,23.049819846000105,91.36940819800009,23.796295289000113],"source":"Bangladesh Bureau of Statistics (BBS) · OCHA/HDX v03 · valid 2023-05-21 · CC BY-IGO","province":"Chattogram"},"geometry":{"type":"Point","coordinates":[91.03297862651769,23.43704815030037]}},{"type":"Feature","id":"bd-bangladesh-d-bd2022","properties":{"id":"bd-bangladesh-d-bd2022","name":"Cox's Bazar","region":"bd-bangladesh","level":"district","parent":"bd-bangladesh-p-bd20","country":"Bangladesh","sourceCode":"BD2022","sourceParentCode":"BD20","sourceLevel":"ADM2","sourceValidOn":"2023-05-21","center":[92.0685213389113,21.465694892035568],"bbox":[91.82916685900011,20.590608254000188,92.36885924100005,21.92349336100017],"source":"Bangladesh Bureau of Statistics (BBS) · OCHA/HDX v03 · valid 2023-05-21 · CC BY-IGO","province":"Chattogram"},"geometry":{"type":"Point","coordinates":[92.0685213389113,21.465694892035568]}},{"type":"Feature","id":"bd-bangladesh-d-bd2030","properties":{"id":"bd-bangladesh-d-bd2030","name":"Feni","region":"bd-bangladesh","level":"district","parent":"bd-bangladesh-p-bd20","country":"Bangladesh","sourceCode":"BD2030","sourceParentCode":"BD20","sourceLevel":"ADM2","sourceValidOn":"2023-05-21","center":[91.41199796789421,22.994954557605162],"bbox":[91.24826480200011,22.73748322800003,91.57889069700002,23.284770839000032],"source":"Bangladesh Bureau of Statistics (BBS) · OCHA/HDX v03 · valid 2023-05-21 · CC BY-IGO","province":"Chattogram"},"geometry":{"type":"Point","coordinates":[91.41199796789421,22.994954557605162]}},{"type":"Feature","id":"bd-bangladesh-d-bd2046","properties":{"id":"bd-bangladesh-d-bd2046","name":"Khagrachhari","region":"bd-bangladesh","level":"district","parent":"bd-bangladesh-p-bd20","country":"Bangladesh","sourceCode":"BD2046","sourceParentCode":"BD20","sourceLevel":"ADM2","sourceValidOn":"2023-05-21","center":[91.95645652329479,23.171941431790366],"bbox":[91.71044126900011,22.68753238100004,92.19960193500009,23.734904672000027],"source":"Bangladesh Bureau of Statistics (BBS) · OCHA/HDX v03 · valid 2023-05-21 · CC BY-IGO","province":"Chattogram"},"geometry":{"type":"Point","coordinates":[91.95645652329479,23.171941431790366]}},{"type":"Feature","id":"bd-bangladesh-d-bd2051","properties":{"id":"bd-bangladesh-d-bd2051","name":"Lakshmipur","region":"bd-bangladesh","level":"district","parent":"bd-bangladesh-p-bd20","country":"Bangladesh","sourceCode":"BD2051","sourceParentCode":"BD20","sourceLevel":"ADM2","sourceValidOn":"2023-05-21","center":[90.85368875354847,22.85093416194817],"bbox":[90.65177034000004,22.493449556000087,91.02346467600012,23.168272483000123],"source":"Bangladesh Bureau of Statistics (BBS) · OCHA/HDX v03 · valid 2023-05-21 · CC BY-IGO","province":"Chattogram"},"geometry":{"type":"Point","coordinates":[90.85368875354847,22.85093416194817]}},{"type":"Feature","id":"bd-bangladesh-d-bd2075","properties":{"id":"bd-bangladesh-d-bd2075","name":"Noakhali","region":"bd-bangladesh","level":"district","parent":"bd-bangladesh-p-bd20","country":"Bangladesh","sourceCode":"BD2075","sourceParentCode":"BD20","sourceLevel":"ADM2","sourceValidOn":"2023-05-21","center":[91.13045181097678,22.6688916592172],"bbox":[90.88795009600011,22.018565346000116,91.49458285800006,23.133542373000182],"source":"Bangladesh Bureau of Statistics (BBS) · OCHA/HDX v03 · valid 2023-05-21 · CC BY-IGO","province":"Chattogram"},"geometry":{"type":"Point","coordinates":[91.13045181097678,22.6688916592172]}},{"type":"Feature","id":"bd-bangladesh-d-bd2084","properties":{"id":"bd-bangladesh-d-bd2084","name":"Rangamati","region":"bd-bangladesh","level":"district","parent":"bd-bangladesh-p-bd20","country":"Bangladesh","sourceCode":"BD2084","sourceParentCode":"BD20","sourceLevel":"ADM2","sourceValidOn":"2023-05-21","center":[92.28109044966355,22.825070509394653],"bbox":[91.92674828700012,21.850996162000058,92.63238566000012,23.739468095000063],"source":"Bangladesh Bureau of Statistics (BBS) · OCHA/HDX v03 · valid 2023-05-21 · CC BY-IGO","province":"Chattogram"},"geometry":{"type":"Point","coordinates":[92.28109044966355,22.825070509394653]}},{"type":"Feature","id":"bd-bangladesh-d-bd3026","properties":{"id":"bd-bangladesh-d-bd3026","name":"Dhaka","region":"bd-bangladesh","level":"district","parent":"bd-bangladesh-p-bd30","country":"Bangladesh","sourceCode":"BD3026","sourceParentCode":"BD30","sourceLevel":"ADM2","sourceValidOn":"2023-05-21","center":[90.25058527504322,23.788450909260536],"bbox":[90.00462592300005,23.526698009000143,90.51198070400017,24.045746634000068],"source":"Bangladesh Bureau of Statistics (BBS) · OCHA/HDX v03 · valid 2023-05-21 · CC BY-IGO","province":"Dhaka"},"geometry":{"type":"Point","coordinates":[90.25058527504322,23.788450909260536]}},{"type":"Feature","id":"bd-bangladesh-d-bd3029","properties":{"id":"bd-bangladesh-d-bd3029","name":"Faridpur","region":"bd-bangladesh","level":"district","parent":"bd-bangladesh-p-bd30","country":"Bangladesh","sourceCode":"BD3029","sourceParentCode":"BD30","sourceLevel":"ADM2","sourceValidOn":"2023-05-21","center":[89.83590069500863,23.47760066546574],"bbox":[89.48853967800011,23.21105074500008,90.18088325800005,23.721224322000182],"source":"Bangladesh Bureau of Statistics (BBS) · OCHA/HDX v03 · valid 2023-05-21 · CC BY-IGO","province":"Dhaka"},"geometry":{"type":"Point","coordinates":[89.83590069500863,23.47760066546574]}},{"type":"Feature","id":"bd-bangladesh-d-bd3033","properties":{"id":"bd-bangladesh-d-bd3033","name":"Gazipur","region":"bd-bangladesh","level":"district","parent":"bd-bangladesh-p-bd30","country":"Bangladesh","sourceCode":"BD3033","sourceParentCode":"BD30","sourceLevel":"ADM2","sourceValidOn":"2023-05-21","center":[90.44618397734934,24.09865562021793],"bbox":[90.14803429000011,23.847074654000096,90.70498344100014,24.341021795000188],"source":"Bangladesh Bureau of Statistics (BBS) · OCHA/HDX v03 · valid 2023-05-21 · CC BY-IGO","province":"Dhaka"},"geometry":{"type":"Point","coordinates":[90.44618397734934,24.09865562021793]}},{"type":"Feature","id":"bd-bangladesh-d-bd3035","properties":{"id":"bd-bangladesh-d-bd3035","name":"Gopalganj","region":"bd-bangladesh","level":"district","parent":"bd-bangladesh-p-bd30","country":"Bangladesh","sourceCode":"BD3035","sourceParentCode":"BD30","sourceLevel":"ADM2","sourceValidOn":"2023-05-21","center":[89.89924093647211,23.10480259834595],"bbox":[89.67009425400005,22.84596310300003,90.1438540200001,23.361033649000092],"source":"Bangladesh Bureau of Statistics (BBS) · OCHA/HDX v03 · valid 2023-05-21 · CC BY-IGO","province":"Dhaka"},"geometry":{"type":"Point","coordinates":[89.89924093647211,23.10480259834595]}},{"type":"Feature","id":"bd-bangladesh-d-bd3048","properties":{"id":"bd-bangladesh-d-bd3048","name":"Kishoreganj","region":"bd-bangladesh","level":"district","parent":"bd-bangladesh-p-bd30","country":"Bangladesh","sourceCode":"BD3048","sourceParentCode":"BD30","sourceLevel":"ADM2","sourceValidOn":"2023-05-21","center":[90.94330612407568,24.378015263898753],"bbox":[90.57563189900009,24.035309430000154,91.25667973100008,24.646481988000176],"source":"Bangladesh Bureau of Statistics (BBS) · OCHA/HDX v03 · valid 2023-05-21 · CC BY-IGO","province":"Dhaka"},"geometry":{"type":"Point","coordinates":[90.94330612407568,24.378015263898753]}},{"type":"Feature","id":"bd-bangladesh-d-bd3054","properties":{"id":"bd-bangladesh-d-bd3054","name":"Madaripur","region":"bd-bangladesh","level":"district","parent":"bd-bangladesh-p-bd30","country":"Bangladesh","sourceCode":"BD3054","sourceParentCode":"BD30","sourceLevel":"ADM2","sourceValidOn":"2023-05-21","center":[90.16623391770061,23.222073398667536],"bbox":[89.9351740950001,22.962689696000098,90.35515338400018,23.499270403000025],"source":"Bangladesh Bureau of Statistics (BBS) · OCHA/HDX v03 · valid 2023-05-21 · CC BY-IGO","province":"Dhaka"},"geometry":{"type":"Point","coordinates":[90.16623391770061,23.222073398667536]}},{"type":"Feature","id":"bd-bangladesh-d-bd3056","properties":{"id":"bd-bangladesh-d-bd3056","name":"Manikganj","region":"bd-bangladesh","level":"district","parent":"bd-bangladesh-p-bd30","country":"Bangladesh","sourceCode":"BD3056","sourceParentCode":"BD30","sourceLevel":"ADM2","sourceValidOn":"2023-05-21","center":[89.95119194912725,23.840803987961856],"bbox":[89.68710309600016,23.626202587000137,90.2570383220002,24.035739785000146],"source":"Bangladesh Bureau of Statistics (BBS) · OCHA/HDX v03 · valid 2023-05-21 · CC BY-IGO","province":"Dhaka"},"geometry":{"type":"Point","coordinates":[89.95119194912725,23.840803987961856]}},{"type":"Feature","id":"bd-bangladesh-d-bd3059","properties":{"id":"bd-bangladesh-d-bd3059","name":"Munshiganj","region":"bd-bangladesh","level":"district","parent":"bd-bangladesh-p-bd30","country":"Bangladesh","sourceCode":"BD3059","sourceParentCode":"BD30","sourceLevel":"ADM2","sourceValidOn":"2023-05-21","center":[90.41611008281322,23.525842174990196],"bbox":[90.15887607899998,23.379713095,90.70762612200019,23.67362836100017],"source":"Bangladesh Bureau of Statistics (BBS) · OCHA/HDX v03 · valid 2023-05-21 · CC BY-IGO","province":"Dhaka"},"geometry":{"type":"Point","coordinates":[90.41611008281322,23.525842174990196]}},{"type":"Feature","id":"bd-bangladesh-d-bd3067","properties":{"id":"bd-bangladesh-d-bd3067","name":"Narayanganj","region":"bd-bangladesh","level":"district","parent":"bd-bangladesh-p-bd30","country":"Bangladesh","sourceCode":"BD3067","sourceParentCode":"BD30","sourceLevel":"ADM2","sourceValidOn":"2023-05-21","center":[90.578145837798,23.72381056703122],"bbox":[90.42920437600014,23.536132402000135,90.74156867800019,23.895628744000078],"source":"Bangladesh Bureau of Statistics (BBS) · OCHA/HDX v03 · valid 2023-05-21 · CC BY-IGO","province":"Dhaka"},"geometry":{"type":"Point","coordinates":[90.578145837798,23.72381056703122]}},{"type":"Feature","id":"bd-bangladesh-d-bd3068","properties":{"id":"bd-bangladesh-d-bd3068","name":"Narsingdi","region":"bd-bangladesh","level":"district","parent":"bd-bangladesh-p-bd30","country":"Bangladesh","sourceCode":"BD3068","sourceParentCode":"BD30","sourceLevel":"ADM2","sourceValidOn":"2023-05-21","center":[90.77405372894515,24.0032130609971],"bbox":[90.5611311150002,23.761840749000044,90.98668248600018,24.252756873000067],"source":"Bangladesh Bureau of Statistics (BBS) · OCHA/HDX v03 · valid 2023-05-21 · CC BY-IGO","province":"Dhaka"},"geometry":{"type":"Point","coordinates":[90.77405372894515,24.0032130609971]}},{"type":"Feature","id":"bd-bangladesh-d-bd3082","properties":{"id":"bd-bangladesh-d-bd3082","name":"Rajbari","region":"bd-bangladesh","level":"district","parent":"bd-bangladesh-p-bd30","country":"Bangladesh","sourceCode":"BD3082","sourceParentCode":"BD30","sourceLevel":"ADM2","sourceValidOn":"2023-05-21","center":[89.56051711296132,23.72854142583219],"bbox":[89.29649427300018,23.561727873000052,89.8497464960002,23.90887860800018],"source":"Bangladesh Bureau of Statistics (BBS) · OCHA/HDX v03 · valid 2023-05-21 · CC BY-IGO","province":"Dhaka"},"geometry":{"type":"Point","coordinates":[89.56051711296132,23.72854142583219]}},{"type":"Feature","id":"bd-bangladesh-d-bd3086","properties":{"id":"bd-bangladesh-d-bd3086","name":"Shariatpur","region":"bd-bangladesh","level":"district","parent":"bd-bangladesh-p-bd30","country":"Bangladesh","sourceCode":"BD3086","sourceParentCode":"BD30","sourceLevel":"ADM2","sourceValidOn":"2023-05-21","center":[90.4146412482626,23.24458484965894],"bbox":[90.22988328300005,23.00669066300003,90.59555090000015,23.446072301000072],"source":"Bangladesh Bureau of Statistics (BBS) · OCHA/HDX v03 · valid 2023-05-21 · CC BY-IGO","province":"Dhaka"},"geometry":{"type":"Point","coordinates":[90.4146412482626,23.24458484965894]}},{"type":"Feature","id":"bd-bangladesh-d-bd3093","properties":{"id":"bd-bangladesh-d-bd3093","name":"Tangail","region":"bd-bangladesh","level":"district","parent":"bd-bangladesh-p-bd30","country":"Bangladesh","sourceCode":"BD3093","sourceParentCode":"BD30","sourceLevel":"ADM2","sourceValidOn":"2023-05-21","center":[90.00040534847841,24.35844942022814],"bbox":[89.7366989190001,23.965900668000188,90.30500060600008,24.787018864],"source":"Bangladesh Bureau of Statistics (BBS) · OCHA/HDX v03 · valid 2023-05-21 · CC BY-IGO","province":"Dhaka"},"geometry":{"type":"Point","coordinates":[90.00040534847841,24.35844942022814]}},{"type":"Feature","id":"bd-bangladesh-d-bd4001","properties":{"id":"bd-bangladesh-d-bd4001","name":"Bagerhat","region":"bd-bangladesh","level":"district","parent":"bd-bangladesh-p-bd40","country":"Bangladesh","sourceCode":"BD4001","sourceParentCode":"BD40","sourceLevel":"ADM2","sourceValidOn":"2023-05-21","center":[89.74397498947553,22.328846155484044],"bbox":[89.530965788,21.72932159700008,89.96720462100018,22.984512498000072],"source":"Bangladesh Bureau of Statistics (BBS) · OCHA/HDX v03 · valid 2023-05-21 · CC BY-IGO","province":"Khulna"},"geometry":{"type":"Point","coordinates":[89.74397498947553,22.328846155484044]}},{"type":"Feature","id":"bd-bangladesh-d-bd4018","properties":{"id":"bd-bangladesh-d-bd4018","name":"Chuadanga","region":"bd-bangladesh","level":"district","parent":"bd-bangladesh-p-bd40","country":"Bangladesh","sourceCode":"BD4018","sourceParentCode":"BD40","sourceLevel":"ADM2","sourceValidOn":"2023-05-21","center":[88.84861979076814,23.60906907865676],"bbox":[88.63526942300018,23.36918552700007,89.01643411200018,23.837838050000016],"source":"Bangladesh Bureau of Statistics (BBS) · OCHA/HDX v03 · valid 2023-05-21 · CC BY-IGO","province":"Khulna"},"geometry":{"type":"Point","coordinates":[88.84861979076814,23.60906907865676]}},{"type":"Feature","id":"bd-bangladesh-d-bd4041","properties":{"id":"bd-bangladesh-d-bd4041","name":"Jashore","region":"bd-bangladesh","level":"district","parent":"bd-bangladesh-p-bd40","country":"Bangladesh","sourceCode":"BD4041","sourceParentCode":"BD40","sourceLevel":"ADM2","sourceValidOn":"2023-05-21","center":[89.17481232118887,23.08947487590466],"bbox":[88.84597194500009,22.79536967900009,89.56210319200011,23.374869294000064],"source":"Bangladesh Bureau of Statistics (BBS) · OCHA/HDX v03 · valid 2023-05-21 · CC BY-IGO","province":"Khulna"},"geometry":{"type":"Point","coordinates":[89.17481232118887,23.08947487590466]}},{"type":"Feature","id":"bd-bangladesh-d-bd4044","properties":{"id":"bd-bangladesh-d-bd4044","name":"Jhenaidah","region":"bd-bangladesh","level":"district","parent":"bd-bangladesh-p-bd40","country":"Bangladesh","sourceCode":"BD4044","sourceParentCode":"BD40","sourceLevel":"ADM2","sourceValidOn":"2023-05-21","center":[89.08704706291374,23.488475707392205],"bbox":[88.69652757200015,23.218598350000093,89.37660522700008,23.77190744500018],"source":"Bangladesh Bureau of Statistics (BBS) · OCHA/HDX v03 · valid 2023-05-21 · CC BY-IGO","province":"Khulna"},"geometry":{"type":"Point","coordinates":[89.08704706291374,23.488475707392205]}},{"type":"Feature","id":"bd-bangladesh-d-bd4047","properties":{"id":"bd-bangladesh-d-bd4047","name":"Khulna","region":"bd-bangladesh","level":"district","parent":"bd-bangladesh-p-bd40","country":"Bangladesh","sourceCode":"BD4047","sourceParentCode":"BD40","sourceLevel":"ADM2","sourceValidOn":"2023-05-21","center":[89.45281579037746,22.36573943060467],"bbox":[89.23552498900006,21.663505230000055,89.75506259200012,23.01173195400014],"source":"Bangladesh Bureau of Statistics (BBS) · OCHA/HDX v03 · valid 2023-05-21 · CC BY-IGO","province":"Khulna"},"geometry":{"type":"Point","coordinates":[89.45281579037746,22.36573943060467]}},{"type":"Feature","id":"bd-bangladesh-d-bd4050","properties":{"id":"bd-bangladesh-d-bd4050","name":"Kushtia","region":"bd-bangladesh","level":"district","parent":"bd-bangladesh-p-bd40","country":"Bangladesh","sourceCode":"BD4050","sourceParentCode":"BD40","sourceLevel":"ADM2","sourceValidOn":"2023-05-21","center":[89.0184502751806,23.926195002241275],"bbox":[88.69412738100004,23.693417443999977,89.36384052500017,24.219466142999977],"source":"Bangladesh Bureau of Statistics (BBS) · OCHA/HDX v03 · valid 2023-05-21 · CC BY-IGO","province":"Khulna"},"geometry":{"type":"Point","coordinates":[89.0184502751806,23.926195002241275]}},{"type":"Feature","id":"bd-bangladesh-d-bd4055","properties":{"id":"bd-bangladesh-d-bd4055","name":"Magura","region":"bd-bangladesh","level":"district","parent":"bd-bangladesh-p-bd40","country":"Bangladesh","sourceCode":"BD4055","sourceParentCode":"BD40","sourceLevel":"ADM2","sourceValidOn":"2023-05-21","center":[89.43284888129554,23.443658711993667],"bbox":[89.24414288500003,23.256804683000155,89.62052835600002,23.684162998000033],"source":"Bangladesh Bureau of Statistics (BBS) · OCHA/HDX v03 · valid 2023-05-21 · CC BY-IGO","province":"Khulna"},"geometry":{"type":"Point","coordinates":[89.43284888129554,23.443658711993667]}},{"type":"Feature","id":"bd-bangladesh-d-bd4057","properties":{"id":"bd-bangladesh-d-bd4057","name":"Meherpur","region":"bd-bangladesh","level":"district","parent":"bd-bangladesh-p-bd40","country":"Bangladesh","sourceCode":"BD4057","sourceParentCode":"BD40","sourceLevel":"ADM2","sourceValidOn":"2023-05-21","center":[88.70675739662505,23.79355066918065],"bbox":[88.55672385600019,23.600051114,88.88390295700003,23.97525388300005],"source":"Bangladesh Bureau of Statistics (BBS) · OCHA/HDX v03 · valid 2023-05-21 · CC BY-IGO","province":"Khulna"},"geometry":{"type":"Point","coordinates":[88.70675739662505,23.79355066918065]}},{"type":"Feature","id":"bd-bangladesh-d-bd4065","properties":{"id":"bd-bangladesh-d-bd4065","name":"Narail","region":"bd-bangladesh","level":"district","parent":"bd-bangladesh-p-bd40","country":"Bangladesh","sourceCode":"BD4065","sourceParentCode":"BD40","sourceLevel":"ADM2","sourceValidOn":"2023-05-21","center":[89.57821255834237,23.131201132247718],"bbox":[89.37567209900016,22.955199565000044,89.80341294900018,23.321380493999982],"source":"Bangladesh Bureau of Statistics (BBS) · OCHA/HDX v03 · valid 2023-05-21 · CC BY-IGO","province":"Khulna"},"geometry":{"type":"Point","coordinates":[89.57821255834237,23.131201132247718]}},{"type":"Feature","id":"bd-bangladesh-d-bd4087","properties":{"id":"bd-bangladesh-d-bd4087","name":"Satkhira","region":"bd-bangladesh","level":"district","parent":"bd-bangladesh-p-bd40","country":"Bangladesh","sourceCode":"BD4087","sourceParentCode":"BD40","sourceLevel":"ADM2","sourceValidOn":"2023-05-21","center":[89.14334959136491,22.307896715548825],"bbox":[88.89523384400007,21.64549565600015,89.37267219900008,22.94618729399997],"source":"Bangladesh Bureau of Statistics (BBS) · OCHA/HDX v03 · valid 2023-05-21 · CC BY-IGO","province":"Khulna"},"geometry":{"type":"Point","coordinates":[89.14334959136491,22.307896715548825]}},{"type":"Feature","id":"bd-bangladesh-d-bd4539","properties":{"id":"bd-bangladesh-d-bd4539","name":"Jamalpur","region":"bd-bangladesh","level":"district","parent":"bd-bangladesh-p-bd45","country":"Bangladesh","sourceCode":"BD4539","sourceParentCode":"BD45","sourceLevel":"ADM2","sourceValidOn":"2023-05-21","center":[89.84721434846857,24.977242376217557],"bbox":[89.63911071400014,24.5705171620001,90.20212109699997,25.43525149300018],"source":"Bangladesh Bureau of Statistics (BBS) · OCHA/HDX v03 · valid 2023-05-21 · CC BY-IGO","province":"Mymensingh"},"geometry":{"type":"Point","coordinates":[89.84721434846857,24.977242376217557]}},{"type":"Feature","id":"bd-bangladesh-d-bd4561","properties":{"id":"bd-bangladesh-d-bd4561","name":"Mymensingh","region":"bd-bangladesh","level":"district","parent":"bd-bangladesh-p-bd45","country":"Bangladesh","sourceCode":"BD4561","sourceParentCode":"BD45","sourceLevel":"ADM2","sourceValidOn":"2023-05-21","center":[90.42961789597439,24.69929007186115],"bbox":[90.07769713700014,24.24765157800016,90.8224024220001,25.197921821000136],"source":"Bangladesh Bureau of Statistics (BBS) · OCHA/HDX v03 · valid 2023-05-21 · CC BY-IGO","province":"Mymensingh"},"geometry":{"type":"Point","coordinates":[90.42961789597439,24.69929007186115]}},{"type":"Feature","id":"bd-bangladesh-d-bd4572","properties":{"id":"bd-bangladesh-d-bd4572","name":"Netrakona","region":"bd-bangladesh","level":"district","parent":"bd-bangladesh-p-bd45","country":"Bangladesh","sourceCode":"BD4572","sourceParentCode":"BD45","sourceLevel":"ADM2","sourceValidOn":"2023-05-21","center":[90.84529937911779,24.87076400284929],"bbox":[90.493003305,24.574588876000178,91.24341259100015,25.19790008800004],"source":"Bangladesh Bureau of Statistics (BBS) · OCHA/HDX v03 · valid 2023-05-21 · CC BY-IGO","province":"Mymensingh"},"geometry":{"type":"Point","coordinates":[90.84529937911779,24.87076400284929]}},{"type":"Feature","id":"bd-bangladesh-d-bd4589","properties":{"id":"bd-bangladesh-d-bd4589","name":"Sherpur","region":"bd-bangladesh","level":"district","parent":"bd-bangladesh-p-bd45","country":"Bangladesh","sourceCode":"BD4589","sourceParentCode":"BD45","sourceLevel":"ADM2","sourceValidOn":"2023-05-21","center":[90.07545686793955,25.08294035257934],"bbox":[89.88340851600009,24.883077122000145,90.31239609700009,25.304524943000047],"source":"Bangladesh Bureau of Statistics (BBS) · OCHA/HDX v03 · valid 2023-05-21 · CC BY-IGO","province":"Mymensingh"},"geometry":{"type":"Point","coordinates":[90.07545686793955,25.08294035257934]}},{"type":"Feature","id":"bd-bangladesh-d-bd5010","properties":{"id":"bd-bangladesh-d-bd5010","name":"Bogura","region":"bd-bangladesh","level":"district","parent":"bd-bangladesh-p-bd50","country":"Bangladesh","sourceCode":"BD5010","sourceParentCode":"BD50","sourceLevel":"ADM2","sourceValidOn":"2023-05-21","center":[89.38040124189791,24.824330947357204],"bbox":[88.9630558360002,24.535122898000054,89.75289640699998,25.12269277500019],"source":"Bangladesh Bureau of Statistics (BBS) · OCHA/HDX v03 · valid 2023-05-21 · CC BY-IGO","province":"Rajshahi"},"geometry":{"type":"Point","coordinates":[89.38040124189791,24.824330947357204]}},{"type":"Feature","id":"bd-bangladesh-d-bd5038","properties":{"id":"bd-bangladesh-d-bd5038","name":"Joypurhat","region":"bd-bangladesh","level":"district","parent":"bd-bangladesh-p-bd50","country":"Bangladesh","sourceCode":"BD5038","sourceParentCode":"BD50","sourceLevel":"ADM2","sourceValidOn":"2023-05-21","center":[89.0838165522804,25.0929837878507],"bbox":[88.92003120200013,24.84983450900006,89.28298482100007,25.27684120300006],"source":"Bangladesh Bureau of Statistics (BBS) · OCHA/HDX v03 · valid 2023-05-21 · CC BY-IGO","province":"Rajshahi"},"geometry":{"type":"Point","coordinates":[89.0838165522804,25.0929837878507]}},{"type":"Feature","id":"bd-bangladesh-d-bd5064","properties":{"id":"bd-bangladesh-d-bd5064","name":"Naogaon","region":"bd-bangladesh","level":"district","parent":"bd-bangladesh-p-bd50","country":"Bangladesh","sourceCode":"BD5064","sourceParentCode":"BD50","sourceLevel":"ADM2","sourceValidOn":"2023-05-21","center":[88.75167889781153,24.900210704722888],"bbox":[88.38231692800008,24.533988932,89.14957278200006,25.214285484000072],"source":"Bangladesh Bureau of Statistics (BBS) · OCHA/HDX v03 · valid 2023-05-21 · CC BY-IGO","province":"Rajshahi"},"geometry":{"type":"Point","coordinates":[88.75167889781153,24.900210704722888]}},{"type":"Feature","id":"bd-bangladesh-d-bd5069","properties":{"id":"bd-bangladesh-d-bd5069","name":"Natore","region":"bd-bangladesh","level":"district","parent":"bd-bangladesh-p-bd50","country":"Bangladesh","sourceCode":"BD5069","sourceParentCode":"BD50","sourceLevel":"ADM2","sourceValidOn":"2023-05-21","center":[89.08741491765913,24.380561743956893],"bbox":[88.84483828300006,24.106267587000104,89.3378271040001,24.688275133],"source":"Bangladesh Bureau of Statistics (BBS) · OCHA/HDX v03 · valid 2023-05-21 · CC BY-IGO","province":"Rajshahi"},"geometry":{"type":"Point","coordinates":[89.08741491765913,24.380561743956893]}},{"type":"Feature","id":"bd-bangladesh-d-bd5070","properties":{"id":"bd-bangladesh-d-bd5070","name":"Chapainababganj","region":"bd-bangladesh","level":"district","parent":"bd-bangladesh-p-bd50","country":"Bangladesh","sourceCode":"BD5070","sourceParentCode":"BD50","sourceLevel":"ADM2","sourceValidOn":"2023-05-21","center":[88.26399218092428,24.715596199247095],"bbox":[88.00816912400006,24.416130831000146,88.51225356000009,24.969925326000123],"source":"Bangladesh Bureau of Statistics (BBS) · OCHA/HDX v03 · valid 2023-05-21 · CC BY-IGO","province":"Rajshahi"},"geometry":{"type":"Point","coordinates":[88.26399218092428,24.715596199247095]}},{"type":"Feature","id":"bd-bangladesh-d-bd5076","properties":{"id":"bd-bangladesh-d-bd5076","name":"Pabna","region":"bd-bangladesh","level":"district","parent":"bd-bangladesh-p-bd50","country":"Bangladesh","sourceCode":"BD5076","sourceParentCode":"BD50","sourceLevel":"ADM2","sourceValidOn":"2023-05-21","center":[89.38618127649829,24.053047359436242],"bbox":[88.99534720200018,23.806272905000185,89.73578682300013,24.353879770000106],"source":"Bangladesh Bureau of Statistics (BBS) · OCHA/HDX v03 · valid 2023-05-21 · CC BY-IGO","province":"Rajshahi"},"geometry":{"type":"Point","coordinates":[89.38618127649829,24.053047359436242]}},{"type":"Feature","id":"bd-bangladesh-d-bd5081","properties":{"id":"bd-bangladesh-d-bd5081","name":"Rajshahi","region":"bd-bangladesh","level":"district","parent":"bd-bangladesh-p-bd50","country":"Bangladesh","sourceCode":"BD5081","sourceParentCode":"BD50","sourceLevel":"ADM2","sourceValidOn":"2023-05-21","center":[88.65065420114588,24.468377367404823],"bbox":[88.29178408600012,24.11407382700014,88.96439329900011,24.720282784000062],"source":"Bangladesh Bureau of Statistics (BBS) · OCHA/HDX v03 · valid 2023-05-21 · CC BY-IGO","province":"Rajshahi"},"geometry":{"type":"Point","coordinates":[88.65065420114588,24.468377367404823]}},{"type":"Feature","id":"bd-bangladesh-d-bd5088","properties":{"id":"bd-bangladesh-d-bd5088","name":"Sirajganj","region":"bd-bangladesh","level":"district","parent":"bd-bangladesh-p-bd50","country":"Bangladesh","sourceCode":"BD5088","sourceParentCode":"BD50","sourceLevel":"ADM2","sourceValidOn":"2023-05-21","center":[89.60146460676275,24.391523721288596],"bbox":[89.24801850000017,24.011584794000044,89.82626140100007,24.782537269000045],"source":"Bangladesh Bureau of Statistics (BBS) · OCHA/HDX v03 · valid 2023-05-21 · CC BY-IGO","province":"Rajshahi"},"geometry":{"type":"Point","coordinates":[89.60146460676275,24.391523721288596]}},{"type":"Feature","id":"bd-bangladesh-d-bd5527","properties":{"id":"bd-bangladesh-d-bd5527","name":"Dinajpur","region":"bd-bangladesh","level":"district","parent":"bd-bangladesh-p-bd55","country":"Bangladesh","sourceCode":"BD5527","sourceParentCode":"BD55","sourceLevel":"ADM2","sourceValidOn":"2023-05-21","center":[88.78628241562744,25.630427395090003],"bbox":[88.38256204300006,25.22285725400019,89.30317874000019,26.064128204000156],"source":"Bangladesh Bureau of Statistics (BBS) · OCHA/HDX v03 · valid 2023-05-21 · CC BY-IGO","province":"Rangpur"},"geometry":{"type":"Point","coordinates":[88.78628241562744,25.630427395090003]}},{"type":"Feature","id":"bd-bangladesh-d-bd5532","properties":{"id":"bd-bangladesh-d-bd5532","name":"Gaibandha","region":"bd-bangladesh","level":"district","parent":"bd-bangladesh-p-bd55","country":"Bangladesh","sourceCode":"BD5532","sourceParentCode":"BD55","sourceLevel":"ADM2","sourceValidOn":"2023-05-21","center":[89.50543517730918,25.298284537240132],"bbox":[89.18417976900002,25.036090027000114,89.75687137900007,25.643969324000068],"source":"Bangladesh Bureau of Statistics (BBS) · OCHA/HDX v03 · valid 2023-05-21 · CC BY-IGO","province":"Rangpur"},"geometry":{"type":"Point","coordinates":[89.50543517730918,25.298284537240132]}},{"type":"Feature","id":"bd-bangladesh-d-bd5549","properties":{"id":"bd-bangladesh-d-bd5549","name":"Kurigram","region":"bd-bangladesh","level":"district","parent":"bd-bangladesh-p-bd55","country":"Bangladesh","sourceCode":"BD5549","sourceParentCode":"BD55","sourceLevel":"ADM2","sourceValidOn":"2023-05-21","center":[89.69509010700077,25.79047676370882],"bbox":[89.45046508800016,25.374454404000176,89.88667614800005,26.237746565000123],"source":"Bangladesh Bureau of Statistics (BBS) · OCHA/HDX v03 · valid 2023-05-21 · CC BY-IGO","province":"Rangpur"},"geometry":{"type":"Point","coordinates":[89.69509010700077,25.79047676370882]}},{"type":"Feature","id":"bd-bangladesh-d-bd5552","properties":{"id":"bd-bangladesh-d-bd5552","name":"Lalmonirhat","region":"bd-bangladesh","level":"district","parent":"bd-bangladesh-p-bd55","country":"Bangladesh","sourceCode":"BD5552","sourceParentCode":"BD55","sourceLevel":"ADM2","sourceValidOn":"2023-05-21","center":[89.24103974973795,26.059160742441513],"bbox":[88.90484769000011,25.78914721400008,89.57550369100016,26.458167580000065],"source":"Bangladesh Bureau of Statistics (BBS) · OCHA/HDX v03 · valid 2023-05-21 · CC BY-IGO","province":"Rangpur"},"geometry":{"type":"Point","coordinates":[89.24103974973795,26.059160742441513]}},{"type":"Feature","id":"bd-bangladesh-d-bd5573","properties":{"id":"bd-bangladesh-d-bd5573","name":"Nilphamari","region":"bd-bangladesh","level":"district","parent":"bd-bangladesh-p-bd55","country":"Bangladesh","sourceCode":"BD5573","sourceParentCode":"BD55","sourceLevel":"ADM2","sourceValidOn":"2023-05-21","center":[88.9300604111223,26.02555723710691],"bbox":[88.73489373400002,25.735426129000075,89.14318827400007,26.310575621000055],"source":"Bangladesh Bureau of Statistics (BBS) · OCHA/HDX v03 · valid 2023-05-21 · CC BY-IGO","province":"Rangpur"},"geometry":{"type":"Point","coordinates":[88.9300604111223,26.02555723710691]}},{"type":"Feature","id":"bd-bangladesh-d-bd5577","properties":{"id":"bd-bangladesh-d-bd5577","name":"Panchagarh","region":"bd-bangladesh","level":"district","parent":"bd-bangladesh-p-bd55","country":"Bangladesh","sourceCode":"BD5577","sourceParentCode":"BD55","sourceLevel":"ADM2","sourceValidOn":"2023-05-21","center":[88.57854182596958,26.285310347527137],"bbox":[88.31999283600015,26.006484250000028,88.79720812200009,26.634548266000024],"source":"Bangladesh Bureau of Statistics (BBS) · OCHA/HDX v03 · valid 2023-05-21 · CC BY-IGO","province":"Rangpur"},"geometry":{"type":"Point","coordinates":[88.57854182596958,26.285310347527137]}},{"type":"Feature","id":"bd-bangladesh-d-bd5585","properties":{"id":"bd-bangladesh-d-bd5585","name":"Rangpur","region":"bd-bangladesh","level":"district","parent":"bd-bangladesh-p-bd55","country":"Bangladesh","sourceCode":"BD5585","sourceParentCode":"BD55","sourceLevel":"ADM2","sourceValidOn":"2023-05-21","center":[89.2368321627512,25.65134796494514],"bbox":[88.92784695300014,25.29998132600008,89.53357086900019,25.969278404000192],"source":"Bangladesh Bureau of Statistics (BBS) · OCHA/HDX v03 · valid 2023-05-21 · CC BY-IGO","province":"Rangpur"},"geometry":{"type":"Point","coordinates":[89.2368321627512,25.65134796494514]}},{"type":"Feature","id":"bd-bangladesh-d-bd5594","properties":{"id":"bd-bangladesh-d-bd5594","name":"Thakurgaon","region":"bd-bangladesh","level":"district","parent":"bd-bangladesh-p-bd55","country":"Bangladesh","sourceCode":"BD5594","sourceParentCode":"BD55","sourceLevel":"ADM2","sourceValidOn":"2023-05-21","center":[88.34454480189346,25.990096106771993],"bbox":[88.0856713330001,25.66788061300008,88.64117897500012,26.20461322000017],"source":"Bangladesh Bureau of Statistics (BBS) · OCHA/HDX v03 · valid 2023-05-21 · CC BY-IGO","province":"Rangpur"},"geometry":{"type":"Point","coordinates":[88.34454480189346,25.990096106771993]}},{"type":"Feature","id":"bd-bangladesh-d-bd6036","properties":{"id":"bd-bangladesh-d-bd6036","name":"Habiganj","region":"bd-bangladesh","level":"district","parent":"bd-bangladesh-p-bd60","country":"Bangladesh","sourceCode":"BD6036","sourceParentCode":"BD60","sourceLevel":"ADM2","sourceValidOn":"2023-05-21","center":[91.4317068513235,24.36943191955275],"bbox":[91.15067115500005,23.974685420000128,91.66956147700006,24.698069144999977],"source":"Bangladesh Bureau of Statistics (BBS) · OCHA/HDX v03 · valid 2023-05-21 · CC BY-IGO","province":"Sylhet"},"geometry":{"type":"Point","coordinates":[91.4317068513235,24.36943191955275]}},{"type":"Feature","id":"bd-bangladesh-d-bd6058","properties":{"id":"bd-bangladesh-d-bd6058","name":"Moulvibazar","region":"bd-bangladesh","level":"district","parent":"bd-bangladesh-p-bd60","country":"Bangladesh","sourceCode":"BD6058","sourceParentCode":"BD60","sourceLevel":"ADM2","sourceValidOn":"2023-05-21","center":[91.91646744942265,24.48107680996688],"bbox":[91.60019653700004,24.13721488000016,92.29628929600011,24.836149921000015],"source":"Bangladesh Bureau of Statistics (BBS) · OCHA/HDX v03 · valid 2023-05-21 · CC BY-IGO","province":"Sylhet"},"geometry":{"type":"Point","coordinates":[91.91646744942265,24.48107680996688]}},{"type":"Feature","id":"bd-bangladesh-d-bd6090","properties":{"id":"bd-bangladesh-d-bd6090","name":"Sunamganj","region":"bd-bangladesh","level":"district","parent":"bd-bangladesh-p-bd60","country":"Bangladesh","sourceCode":"BD6090","sourceParentCode":"BD60","sourceLevel":"ADM2","sourceValidOn":"2023-05-21","center":[91.34559611086694,24.93984869030056],"bbox":[90.9290470860002,24.57016040300016,91.73457518800006,25.205696196000076],"source":"Bangladesh Bureau of Statistics (BBS) · OCHA/HDX v03 · valid 2023-05-21 · CC BY-IGO","province":"Sylhet"},"geometry":{"type":"Point","coordinates":[91.34559611086694,24.93984869030056]}},{"type":"Feature","id":"bd-bangladesh-d-bd6091","properties":{"id":"bd-bangladesh-d-bd6091","name":"Sylhet","region":"bd-bangladesh","level":"district","parent":"bd-bangladesh-p-bd60","country":"Bangladesh","sourceCode":"BD6091","sourceParentCode":"BD60","sourceLevel":"ADM2","sourceValidOn":"2023-05-21","center":[91.9876834369634,24.919686178152833],"bbox":[91.63376021700014,24.59542424000017,92.4970559800002,25.187451258000067],"source":"Bangladesh Bureau of Statistics (BBS) · OCHA/HDX v03 · valid 2023-05-21 · CC BY-IGO","province":"Sylhet"},"geometry":{"type":"Point","coordinates":[91.9876834369634,24.919686178152833]}}]}
