{"type":"FeatureCollection","features":[{"type":"Feature","id":"bd-bangladesh-p-bd10","properties":{"id":"bd-bangladesh-p-bd10","name":"Barishal","region":"bd-bangladesh","level":"province","parent":"bd-bangladesh","country":"Bangladesh","sourceCode":"BD10","sourceParentCode":"BD","sourceLevel":"ADM1","sourceValidOn":"2023-05-21","center":[90.40639486667787,22.392842730695833],"bbox":[89.85735570300017,21.79440667900019,91.02367076600012,23.081365127000083],"source":"Bangladesh Bureau of Statistics (BBS) · OCHA/HDX v03 · valid 2023-05-21 · CC BY-IGO"},"geometry":{"type":"Point","coordinates":[90.40639486667787,22.392842730695833]}},{"type":"Feature","id":"bd-bangladesh-p-bd20","properties":{"id":"bd-bangladesh-p-bd20","name":"Chattogram","region":"bd-bangladesh","level":"province","parent":"bd-bangladesh","country":"Bangladesh","sourceCode":"BD20","sourceParentCode":"BD","sourceLevel":"ADM1","sourceValidOn":"2023-05-21","center":[91.70926946030072,22.706849720578763],"bbox":[90.52720869199999,20.590608254000188,92.68005782300008,24.269012586000088],"source":"Bangladesh Bureau of Statistics (BBS) · OCHA/HDX v03 · valid 2023-05-21 · CC BY-IGO"},"geometry":{"type":"Point","coordinates":[91.70926946030072,22.706849720578763]}},{"type":"Feature","id":"bd-bangladesh-p-bd30","properties":{"id":"bd-bangladesh-p-bd30","name":"Dhaka","region":"bd-bangladesh","level":"province","parent":"bd-bangladesh","country":"Bangladesh","sourceCode":"BD30","sourceParentCode":"BD","sourceLevel":"ADM1","sourceValidOn":"2023-05-21","center":[90.24215888016413,23.839021306872898],"bbox":[89.29649427300018,22.84596310300003,91.25667973100008,24.787018864],"source":"Bangladesh Bureau of Statistics (BBS) · OCHA/HDX v03 · valid 2023-05-21 · CC BY-IGO"},"geometry":{"type":"Point","coordinates":[90.24215888016413,23.839021306872898]}},{"type":"Feature","id":"bd-bangladesh-p-bd40","properties":{"id":"bd-bangladesh-p-bd40","name":"Khulna","region":"bd-bangladesh","level":"province","parent":"bd-bangladesh","country":"Bangladesh","sourceCode":"BD40","sourceParentCode":"BD","sourceLevel":"ADM1","sourceValidOn":"2023-05-21","center":[89.30477869882849,22.83771757139292],"bbox":[88.55672385600019,21.64549565600015,89.96720462100018,24.219466142999977],"source":"Bangladesh Bureau of Statistics (BBS) · OCHA/HDX v03 · valid 2023-05-21 · CC BY-IGO"},"geometry":{"type":"Point","coordinates":[89.30477869882849,22.83771757139292]}},{"type":"Feature","id":"bd-bangladesh-p-bd45","properties":{"id":"bd-bangladesh-p-bd45","name":"Mymensingh","region":"bd-bangladesh","level":"province","parent":"bd-bangladesh","country":"Bangladesh","sourceCode":"BD45","sourceParentCode":"BD","sourceLevel":"ADM1","sourceValidOn":"2023-05-21","center":[90.38174541488463,24.84783034961329],"bbox":[89.63911071400014,24.24765157800016,91.24341259100015,25.43525149300018],"source":"Bangladesh Bureau of Statistics (BBS) · OCHA/HDX v03 · valid 2023-05-21 · CC BY-IGO"},"geometry":{"type":"Point","coordinates":[90.38174541488463,24.84783034961329]}},{"type":"Feature","id":"bd-bangladesh-p-bd50","properties":{"id":"bd-bangladesh-p-bd50","name":"Rajshahi","region":"bd-bangladesh","level":"province","parent":"bd-bangladesh","country":"Bangladesh","sourceCode":"BD50","sourceParentCode":"BD","sourceLevel":"ADM1","sourceValidOn":"2023-05-21","center":[89.04636293825187,24.589338409459913],"bbox":[88.00816912400006,23.806272905000185,89.82626140100007,25.27684120300006],"source":"Bangladesh Bureau of Statistics (BBS) · OCHA/HDX v03 · valid 2023-05-21 · CC BY-IGO"},"geometry":{"type":"Point","coordinates":[89.04636293825187,24.589338409459913]}},{"type":"Feature","id":"bd-bangladesh-p-bd55","properties":{"id":"bd-bangladesh-p-bd55","name":"Rangpur","region":"bd-bangladesh","level":"province","parent":"bd-bangladesh","country":"Bangladesh","sourceCode":"BD55","sourceParentCode":"BD","sourceLevel":"ADM1","sourceValidOn":"2023-05-21","center":[89.05422084508871,25.779809396597376],"bbox":[88.0856713330001,25.036090027000114,89.88667614800005,26.634548266000024],"source":"Bangladesh Bureau of Statistics (BBS) · OCHA/HDX v03 · valid 2023-05-21 · CC BY-IGO"},"geometry":{"type":"Point","coordinates":[89.05422084508871,25.779809396597376]}},{"type":"Feature","id":"bd-bangladesh-p-bd60","properties":{"id":"bd-bangladesh-p-bd60","name":"Sylhet","region":"bd-bangladesh","level":"province","parent":"bd-bangladesh","country":"Bangladesh","sourceCode":"BD60","sourceParentCode":"BD","sourceLevel":"ADM1","sourceValidOn":"2023-05-21","center":[91.66471318356926,24.715288514124445],"bbox":[90.9290470860002,23.974685420000128,92.4970559800002,25.205696196000076],"source":"Bangladesh Bureau of Statistics (BBS) · OCHA/HDX v03 · valid 2023-05-21 · CC BY-IGO"},"geometry":{"type":"Point","coordinates":[91.66471318356926,24.715288514124445]}}]}
