{"type":"FeatureCollection","features":[{"type":"Feature","id":"bd-bangladesh","properties":{"id":"bd-bangladesh","name":"Bangladesh","region":"bd-bangladesh","level":"region","parent":"","country":"Bangladesh","sourceCode":"BD","sourceParentCode":"","sourceLevel":"ADM0","sourceValidOn":"2023-05-21","center":[90.28157776538207,23.773702881276037],"bbox":[88.00816912400006,20.590608254000188,92.68005782300008,26.634548266000024],"source":"Bangladesh Bureau of Statistics (BBS) · OCHA/HDX v03 · valid 2023-05-21 · CC BY-IGO"},"geometry":{"type":"Point","coordinates":[90.28157776538207,23.773702881276037]}}]}
