{"type":"FeatureCollection","features":[{"type":"Feature","id":"bt-bhutan-d-bt001","properties":{"id":"bt-bhutan-d-bt001","name":"Bumthang","region":"bt-bhutan","level":"district","parent":"bt-bhutan","country":"Bhutan","sourceCode":"BT001","sourceParentCode":"BT","sourceLevel":"ADM1","sourceValidOn":"2020-10-26","center":[90.74313501893684,27.699305782395243],"bbox":[90.47641590900014,27.336398209000038,91.01224434500011,28.079014597000025],"source":"OCHA ROAP · OCHA/HDX v01 · valid 2020-10-26 · CC BY-IGO"},"geometry":{"type":"Point","coordinates":[90.74313501893684,27.699305782395243]}},{"type":"Feature","id":"bt-bhutan-d-bt002","properties":{"id":"bt-bhutan-d-bt002","name":"Chhukha","region":"bt-bhutan","level":"district","parent":"bt-bhutan","country":"Bhutan","sourceCode":"BT002","sourceParentCode":"BT","sourceLevel":"ADM1","sourceValidOn":"2020-10-26","center":[89.54473135437088,26.987309892350456],"bbox":[89.26479637300008,26.717662230000087,89.82599936100007,27.314578802000085],"source":"OCHA ROAP · OCHA/HDX v01 · valid 2020-10-26 · CC BY-IGO"},"geometry":{"type":"Point","coordinates":[89.54473135437088,26.987309892350456]}},{"type":"Feature","id":"bt-bhutan-d-bt003","properties":{"id":"bt-bhutan-d-bt003","name":"Dagana","region":"bt-bhutan","level":"district","parent":"bt-bhutan","country":"Bhutan","sourceCode":"BT003","sourceParentCode":"BT","sourceLevel":"ADM1","sourceValidOn":"2020-10-26","center":[89.87147934641841,26.998383423268933],"bbox":[89.63396488800015,26.700655537000102,90.07544424400004,27.280893317000107],"source":"OCHA ROAP · OCHA/HDX v01 · valid 2020-10-26 · CC BY-IGO"},"geometry":{"type":"Point","coordinates":[89.87147934641841,26.998383423268933]}},{"type":"Feature","id":"bt-bhutan-d-bt004","properties":{"id":"bt-bhutan-d-bt004","name":"Gasa","region":"bt-bhutan","level":"district","parent":"bt-bhutan","country":"Bhutan","sourceCode":"BT004","sourceParentCode":"BT","sourceLevel":"ADM1","sourceValidOn":"2020-10-26","center":[89.89315680339844,27.998771983705936],"bbox":[89.45158251600009,27.723409124000057,90.45895773600012,28.247679301000176],"source":"OCHA ROAP · OCHA/HDX v01 · valid 2020-10-26 · CC BY-IGO"},"geometry":{"type":"Point","coordinates":[89.89315680339844,27.998771983705936]}},{"type":"Feature","id":"bt-bhutan-d-bt005","properties":{"id":"bt-bhutan-d-bt005","name":"Haa","region":"bt-bhutan","level":"district","parent":"bt-bhutan","country":"Bhutan","sourceCode":"BT005","sourceParentCode":"BT","sourceLevel":"ADM1","sourceValidOn":"2020-10-26","center":[89.15125103813851,27.312543162985328],"bbox":[88.90785296700017,27.027046002000077,89.38600737700017,27.618433395000068],"source":"OCHA ROAP · OCHA/HDX v01 · valid 2020-10-26 · CC BY-IGO"},"geometry":{"type":"Point","coordinates":[89.15125103813851,27.312543162985328]}},{"type":"Feature","id":"bt-bhutan-d-bt006","properties":{"id":"bt-bhutan-d-bt006","name":"Lhuentse","region":"bt-bhutan","level":"district","parent":"bt-bhutan","country":"Bhutan","sourceCode":"BT006","sourceParentCode":"BT","sourceLevel":"ADM1","sourceValidOn":"2020-10-26","center":[91.12920270605696,27.768881097562836],"bbox":[90.77135703700009,27.390792336000118,91.47668569100006,28.072374207000166],"source":"OCHA ROAP · OCHA/HDX v01 · valid 2020-10-26 · CC BY-IGO"},"geometry":{"type":"Point","coordinates":[91.12920270605696,27.768881097562836]}},{"type":"Feature","id":"bt-bhutan-d-bt007","properties":{"id":"bt-bhutan-d-bt007","name":"Monggar","region":"bt-bhutan","level":"district","parent":"bt-bhutan","country":"Bhutan","sourceCode":"BT007","sourceParentCode":"BT","sourceLevel":"ADM1","sourceValidOn":"2020-10-26","center":[91.22056043365485,27.264409541861014],"bbox":[90.95571328500006,26.933551406000163,91.49681915100007,27.605893913000102],"source":"OCHA ROAP · OCHA/HDX v01 · valid 2020-10-26 · CC BY-IGO"},"geometry":{"type":"Point","coordinates":[91.22056043365485,27.264409541861014]}},{"type":"Feature","id":"bt-bhutan-d-bt008","properties":{"id":"bt-bhutan-d-bt008","name":"Paro","region":"bt-bhutan","level":"district","parent":"bt-bhutan","country":"Bhutan","sourceCode":"BT008","sourceParentCode":"BT","sourceLevel":"ADM1","sourceValidOn":"2020-10-26","center":[89.36661658380937,27.494751689434253],"bbox":[89.12218470400006,27.188853837000124,89.54905194700018,27.784994378000135],"source":"OCHA ROAP · OCHA/HDX v01 · valid 2020-10-26 · CC BY-IGO"},"geometry":{"type":"Point","coordinates":[89.36661658380937,27.494751689434253]}},{"type":"Feature","id":"bt-bhutan-d-bt009","properties":{"id":"bt-bhutan-d-bt009","name":"Pemagatshel","region":"bt-bhutan","level":"district","parent":"bt-bhutan","country":"Bhutan","sourceCode":"BT009","sourceParentCode":"BT","sourceLevel":"ADM1","sourceValidOn":"2020-10-26","center":[91.30931935965694,26.954239876426808],"bbox":[91.00083766200004,26.78123388000006,91.54973738600006,27.179859062000105],"source":"OCHA ROAP · OCHA/HDX v01 · valid 2020-10-26 · CC BY-IGO"},"geometry":{"type":"Point","coordinates":[91.30931935965694,26.954239876426808]}},{"type":"Feature","id":"bt-bhutan-d-bt010","properties":{"id":"bt-bhutan-d-bt010","name":"Punakha","region":"bt-bhutan","level":"district","parent":"bt-bhutan","country":"Bhutan","sourceCode":"BT010","sourceParentCode":"BT","sourceLevel":"ADM1","sourceValidOn":"2020-10-26","center":[89.84998448937593,27.66345502066243],"bbox":[89.63253136800017,27.467387873000064,90.06760660400005,27.863536819000046],"source":"OCHA ROAP · OCHA/HDX v01 · valid 2020-10-26 · CC BY-IGO"},"geometry":{"type":"Point","coordinates":[89.84998448937593,27.66345502066243]}},{"type":"Feature","id":"bt-bhutan-d-bt011","properties":{"id":"bt-bhutan-d-bt011","name":"Samdrupjongkhar","region":"bt-bhutan","level":"district","parent":"bt-bhutan","country":"Bhutan","sourceCode":"BT011","sourceParentCode":"BT","sourceLevel":"ADM1","sourceValidOn":"2020-10-26","center":[91.7773571462153,26.97083237497755],"bbox":[91.39163405500011,26.791383458000155,92.12217965200011,27.250003615000082],"source":"OCHA ROAP · OCHA/HDX v01 · valid 2020-10-26 · CC BY-IGO"},"geometry":{"type":"Point","coordinates":[91.7773571462153,26.97083237497755]}},{"type":"Feature","id":"bt-bhutan-d-bt012","properties":{"id":"bt-bhutan-d-bt012","name":"Samtse","region":"bt-bhutan","level":"district","parent":"bt-bhutan","country":"Bhutan","sourceCode":"BT012","sourceParentCode":"BT","sourceLevel":"ADM1","sourceValidOn":"2020-10-26","center":[89.06167806992761,27.024412637105442],"bbox":[88.7460414140001,26.807836913000187,89.37376709200004,27.27667815200016],"source":"OCHA ROAP · OCHA/HDX v01 · valid 2020-10-26 · CC BY-IGO"},"geometry":{"type":"Point","coordinates":[89.06167806992761,27.024412637105442]}},{"type":"Feature","id":"bt-bhutan-d-bt013","properties":{"id":"bt-bhutan-d-bt013","name":"Sarpang","region":"bt-bhutan","level":"district","parent":"bt-bhutan","country":"Bhutan","sourceCode":"BT013","sourceParentCode":"BT","sourceLevel":"ADM1","sourceValidOn":"2020-10-26","center":[90.41927595829961,26.96376035646196],"bbox":[90.00971275800003,26.730702470999972,90.77682427900004,27.220950032000076],"source":"OCHA ROAP · OCHA/HDX v01 · valid 2020-10-26 · CC BY-IGO"},"geometry":{"type":"Point","coordinates":[90.41927595829961,26.96376035646196]}},{"type":"Feature","id":"bt-bhutan-d-bt014","properties":{"id":"bt-bhutan-d-bt014","name":"Thimphu","region":"bt-bhutan","level":"district","parent":"bt-bhutan","country":"Bhutan","sourceCode":"BT014","sourceParentCode":"BT","sourceLevel":"ADM1","sourceValidOn":"2020-10-26","center":[89.54013925756156,27.599410472128877],"bbox":[89.22581396400005,27.14463564,89.76564449500017,28.000884564000103],"source":"OCHA ROAP · OCHA/HDX v01 · valid 2020-10-26 · CC BY-IGO"},"geometry":{"type":"Point","coordinates":[89.54013925756156,27.599410472128877]}},{"type":"Feature","id":"bt-bhutan-d-bt015","properties":{"id":"bt-bhutan-d-bt015","name":"Trashigang","region":"bt-bhutan","level":"district","parent":"bt-bhutan","country":"Bhutan","sourceCode":"BT015","sourceParentCode":"BT","sourceLevel":"ADM1","sourceValidOn":"2020-10-26","center":[91.74205926564821,27.272843298683792],"bbox":[91.37525649500003,27.01559320100006,92.12475435900006,27.486255669000116],"source":"OCHA ROAP · OCHA/HDX v01 · valid 2020-10-26 · CC BY-IGO"},"geometry":{"type":"Point","coordinates":[91.74205926564821,27.272843298683792]}},{"type":"Feature","id":"bt-bhutan-d-bt017","properties":{"id":"bt-bhutan-d-bt017","name":"Trongsa","region":"bt-bhutan","level":"district","parent":"bt-bhutan","country":"Bhutan","sourceCode":"BT017","sourceParentCode":"BT","sourceLevel":"ADM1","sourceValidOn":"2020-10-26","center":[90.49601836603901,27.418654668671838],"bbox":[90.26151279800007,27.136823901000184,90.749559444,27.789842874000044],"source":"OCHA ROAP · OCHA/HDX v01 · valid 2020-10-26 · CC BY-IGO"},"geometry":{"type":"Point","coordinates":[90.49601836603901,27.418654668671838]}},{"type":"Feature","id":"bt-bhutan-d-bt018","properties":{"id":"bt-bhutan-d-bt018","name":"Tsirang","region":"bt-bhutan","level":"district","parent":"bt-bhutan","country":"Bhutan","sourceCode":"BT018","sourceParentCode":"BT","sourceLevel":"ADM1","sourceValidOn":"2020-10-26","center":[90.14663178403354,27.024307927411456],"bbox":[90.00575192400004,26.817752207000126,90.34654220700008,27.192193396000164],"source":"OCHA ROAP · OCHA/HDX v01 · valid 2020-10-26 · CC BY-IGO"},"geometry":{"type":"Point","coordinates":[90.14663178403354,27.024307927411456]}},{"type":"Feature","id":"bt-bhutan-d-bt019","properties":{"id":"bt-bhutan-d-bt019","name":"Wangduephodrang","region":"bt-bhutan","level":"district","parent":"bt-bhutan","country":"Bhutan","sourceCode":"BT019","sourceParentCode":"BT","sourceLevel":"ADM1","sourceValidOn":"2020-10-26","center":[90.15324186871814,27.543093938270648],"bbox":[89.70739906000006,27.11366935600006,90.53424555400011,28.051822476000154],"source":"OCHA ROAP · OCHA/HDX v01 · valid 2020-10-26 · CC BY-IGO"},"geometry":{"type":"Point","coordinates":[90.15324186871814,27.543093938270648]}},{"type":"Feature","id":"bt-bhutan-d-bt016","properties":{"id":"bt-bhutan-d-bt016","name":"Yangtse","region":"bt-bhutan","level":"district","parent":"bt-bhutan","country":"Bhutan","sourceCode":"BT016","sourceParentCode":"BT","sourceLevel":"ADM1","sourceValidOn":"2020-10-26","center":[91.50024923863111,27.6675202843918],"bbox":[91.33727372600015,27.373773843000038,91.7675890490001,27.98063396700013],"source":"OCHA ROAP · OCHA/HDX v01 · valid 2020-10-26 · CC BY-IGO"},"geometry":{"type":"Point","coordinates":[91.50024923863111,27.6675202843918]}},{"type":"Feature","id":"bt-bhutan-d-bt020","properties":{"id":"bt-bhutan-d-bt020","name":"Zhemgang","region":"bt-bhutan","level":"district","parent":"bt-bhutan","country":"Bhutan","sourceCode":"BT020","sourceParentCode":"BT","sourceLevel":"ADM1","sourceValidOn":"2020-10-26","center":[90.85615876436057,27.056260210139037],"bbox":[90.53095718800017,26.77586329200011,91.18200407400019,27.388549446000184],"source":"OCHA ROAP · OCHA/HDX v01 · valid 2020-10-26 · CC BY-IGO"},"geometry":{"type":"Point","coordinates":[90.85615876436057,27.056260210139037]}}]}
