{"type":"FeatureCollection","features":[{"type":"Feature","id":"bt-bhutan","properties":{"id":"bt-bhutan","name":"Bhutan","region":"bt-bhutan","level":"region","parent":"","country":"Bhutan","sourceCode":"BT","sourceParentCode":"","sourceLevel":"ADM0","sourceValidOn":"2020-10-26","center":[90.42840744531327,27.39567173074362],"bbox":[88.7460414140001,26.700655537000102,92.12475435900006,28.247679301000176],"source":"OCHA ROAP · OCHA/HDX v01 · valid 2020-10-26 · CC BY-IGO"},"geometry":{"type":"Point","coordinates":[90.42840744531327,27.39567173074362]}}]}
