{"type":"FeatureCollection","features":[{"type":"Feature","id":"ch-ward-0","properties":{"id":"ch-ward-0","name":"Ward 13","region":"chandigarh","level":"uc","parent":"in-d-44","district":"Chandigarh","source":"OpenCity via Bharatlas \u00b7 28-ward historical layer \u00b7 CC-BY-SA-4.0","center":[76.74749808999763,30.699750826089797],"bbox":[76.73572092028428,30.68756274832225,76.76115979838602,30.71223110168404]},"geometry":{"type":"Point","coordinates":[76.74749808999763,30.699750826089797]}},{"type":"Feature","id":"ch-ward-1","properties":{"id":"ch-ward-1","name":"Ward 22","region":"chandigarh","level":"uc","parent":"in-d-44","district":"Chandigarh","source":"OpenCity via Bharatlas \u00b7 28-ward historical layer \u00b7 CC-BY-SA-4.0","center":[76.77972756955477,30.69609167129363],"bbox":[76.74930244585124,30.684358333470357,76.79765736719378,30.709076923861005]},"geometry":{"type":"Point","coordinates":[76.77972756955477,30.69609167129363]}},{"type":"Feature","id":"ch-ward-2","properties":{"id":"ch-ward-2","name":"Ward 21","region":"chandigarh","level":"uc","parent":"in-d-44","district":"Chandigarh","source":"OpenCity via Bharatlas \u00b7 28-ward historical layer \u00b7 CC-BY-SA-4.0","center":[76.76953692362616,30.70464009291601],"bbox":[76.75598595728616,30.694982286503375,76.78374208612843,30.714747297749625]},"geometry":{"type":"Point","coordinates":[76.76953692362616,30.70464009291601]}},{"type":"Feature","id":"ch-ward-3","properties":{"id":"ch-ward-3","name":"Ward 14","region":"chandigarh","level":"uc","parent":"in-d-44","district":"Chandigarh","source":"OpenCity via Bharatlas \u00b7 28-ward historical layer \u00b7 CC-BY-SA-4.0","center":[76.75874790683193,30.706829616543615],"bbox":[76.75090708369504,30.700609606248406,76.7672471087671,30.713494026827902]},"geometry":{"type":"Point","coordinates":[76.75874790683193,30.706829616543615]}},{"type":"Feature","id":"ch-ward-4","properties":{"id":"ch-ward-4","name":"Ward reserve","region":"chandigarh","level":"uc","parent":"in-d-44","district":"Chandigarh","source":"OpenCity via Bharatlas \u00b7 28-ward historical layer \u00b7 CC-BY-SA-4.0","center":[76.79775827496675,30.67861552458683],"bbox":[76.76915828772485,30.66494195160982,76.83106662182718,30.692169904117804]},"geometry":{"type":"Point","coordinates":[76.79775827496675,30.67861552458683]}},{"type":"Feature","id":"ch-ward-5","properties":{"id":"ch-ward-5","name":"Ward 15","region":"chandigarh","level":"uc","parent":"in-d-44","district":"Chandigarh","source":"OpenCity via Bharatlas \u00b7 28-ward historical layer \u00b7 CC-BY-SA-4.0","center":[76.7645414483301,30.7199351098175],"bbox":[76.74588177012765,30.706414264206956,76.7733511564308,30.73300143986461]},"geometry":{"type":"Point","coordinates":[76.7645414483301,30.7199351098175]}},{"type":"Feature","id":"ch-ward-6","properties":{"id":"ch-ward-6","name":"Ward 16","region":"chandigarh","level":"uc","parent":"in-d-44","district":"Chandigarh","source":"OpenCity via Bharatlas \u00b7 28-ward historical layer \u00b7 CC-BY-SA-4.0","center":[76.77773534075983,30.718769129791553],"bbox":[76.76213144840767,30.707750976026773,76.79005401388167,30.727672132962596]},"geometry":{"type":"Point","coordinates":[76.77773534075983,30.718769129791553]}},{"type":"Feature","id":"ch-ward-7","properties":{"id":"ch-ward-7","name":"Ward 18","region":"chandigarh","level":"uc","parent":"in-d-44","district":"Chandigarh","source":"OpenCity via Bharatlas \u00b7 28-ward historical layer \u00b7 CC-BY-SA-4.0","center":[76.79848962565416,30.719749109783663],"bbox":[76.77848106295073,30.709076923861005,76.81237280116392,30.729022581926642]},"geometry":{"type":"Point","coordinates":[76.79848962565416,30.719749109783663]}},{"type":"Feature","id":"ch-ward-8","properties":{"id":"ch-ward-8","name":"Ward 19","region":"chandigarh","level":"uc","parent":"in-d-44","district":"Chandigarh","source":"OpenCity via Bharatlas \u00b7 28-ward historical layer \u00b7 CC-BY-SA-4.0","center":[76.81619477065075,30.725985573625366],"bbox":[76.80140159380858,30.71325266857582,76.8320224518747,30.737554648028663]},"geometry":{"type":"Point","coordinates":[76.81619477065075,30.725985573625366]}},{"type":"Feature","id":"ch-ward-9","properties":{"id":"ch-ward-9","name":"Ward 26","region":"chandigarh","level":"uc","parent":"in-d-44","district":"Chandigarh","source":"OpenCity via Bharatlas \u00b7 28-ward historical layer \u00b7 CC-BY-SA-4.0","center":[76.83783621512089,30.725312195001834],"bbox":[76.81914174189791,30.711629961553513,76.84881464348109,30.738446554265124]},"geometry":{"type":"Point","coordinates":[76.83783621512089,30.725312195001834]}},{"type":"Feature","id":"ch-ward-10","properties":{"id":"ch-ward-10","name":"Ward 12","region":"chandigarh","level":"uc","parent":"in-d-44","district":"Chandigarh","source":"OpenCity via Bharatlas \u00b7 28-ward historical layer \u00b7 CC-BY-SA-4.0","center":[76.7433788369369,30.716603958905637],"bbox":[76.72930242736521,30.706016994988374,76.75714155643772,30.72596803819448]},"geometry":{"type":"Point","coordinates":[76.7433788369369,30.716603958905637]}},{"type":"Feature","id":"ch-ward-11","properties":{"id":"ch-ward-11","name":"Ward 10","region":"chandigarh","level":"uc","parent":"in-d-44","district":"Chandigarh","source":"OpenCity via Bharatlas \u00b7 28-ward historical layer \u00b7 CC-BY-SA-4.0","center":[76.74082914933359,30.72915605211017],"bbox":[76.7310934299179,30.718903320332004,76.75172061491452,30.738099633591276]},"geometry":{"type":"Point","coordinates":[76.74082914933359,30.72915605211017]}},{"type":"Feature","id":"ch-ward-12","properties":{"id":"ch-ward-12","name":"Ward 17","region":"chandigarh","level":"uc","parent":"in-d-44","district":"Chandigarh","source":"OpenCity via Bharatlas \u00b7 28-ward historical layer \u00b7 CC-BY-SA-4.0","center":[76.78733789546607,30.729881983516776],"bbox":[76.76833014971669,30.720521635964758,76.80140159380858,30.74046781563726]},"geometry":{"type":"Point","coordinates":[76.78733789546607,30.729881983516776]}},{"type":"Feature","id":"ch-ward-13","properties":{"id":"ch-ward-13","name":"Ward 3","region":"chandigarh","level":"uc","parent":"in-d-44","district":"Chandigarh","source":"OpenCity via Bharatlas \u00b7 28-ward historical layer \u00b7 CC-BY-SA-4.0","center":[76.77687790039282,30.736665558468815],"bbox":[76.7629286389456,30.726347973879967,76.79097056244154,30.752904414307352]},"geometry":{"type":"Point","coordinates":[76.77687790039282,30.736665558468815]}},{"type":"Feature","id":"ch-ward-14","properties":{"id":"ch-ward-14","name":"Ward 9","region":"chandigarh","level":"uc","parent":"in-d-44","district":"Chandigarh","source":"OpenCity via Bharatlas \u00b7 28-ward historical layer \u00b7 CC-BY-SA-4.0","center":[76.7322736166527,30.740731310251817],"bbox":[76.72072636732804,30.730949012486974,76.74240101339609,30.751087367388152]},"geometry":{"type":"Point","coordinates":[76.7322736166527,30.740731310251817]}},{"type":"Feature","id":"ch-ward-15","properties":{"id":"ch-ward-15","name":"Ward 8","region":"chandigarh","level":"uc","parent":"in-d-44","district":"Chandigarh","source":"OpenCity via Bharatlas \u00b7 28-ward historical layer \u00b7 CC-BY-SA-4.0","center":[76.7458172266825,30.744608835279564],"bbox":[76.73314294439143,30.731978081523323,76.75821368231567,30.75818827936564]},"geometry":{"type":"Point","coordinates":[76.7458172266825,30.744608835279564]}},{"type":"Feature","id":"ch-ward-16","properties":{"id":"ch-ward-16","name":"Ward 4","region":"chandigarh","level":"uc","parent":"in-d-44","district":"Chandigarh","source":"OpenCity via Bharatlas \u00b7 28-ward historical layer \u00b7 CC-BY-SA-4.0","center":[76.76262995943134,30.73725346822303],"bbox":[76.74702327060749,30.72596803819448,76.77410867877256,30.751846459046874]},"geometry":{"type":"Point","coordinates":[76.76262995943134,30.73725346822303]}},{"type":"Feature","id":"ch-ward-17","properties":{"id":"ch-ward-17","name":"Ward 2","region":"chandigarh","level":"uc","parent":"in-d-44","district":"Chandigarh","source":"OpenCity via Bharatlas \u00b7 28-ward historical layer \u00b7 CC-BY-SA-4.0","center":[76.77992546540975,30.770202342364257],"bbox":[76.75730885911662,30.74582552492808,76.79136004802785,30.79495287217736]},"geometry":{"type":"Point","coordinates":[76.77992546540975,30.770202342364257]}},{"type":"Feature","id":"ch-ward-18","properties":{"id":"ch-ward-18","name":"Ward 5","region":"chandigarh","level":"uc","parent":"in-d-44","district":"Chandigarh","source":"OpenCity via Bharatlas \u00b7 28-ward historical layer \u00b7 CC-BY-SA-4.0","center":[76.75772528786717,30.780029193892233],"bbox":[76.75528178812408,30.777792500823296,76.76218222502973,30.783289055545538]},"geometry":{"type":"Point","coordinates":[76.75772528786717,30.780029193892233]}},{"type":"Feature","id":"ch-ward-19","properties":{"id":"ch-ward-19","name":"Ward 11","region":"chandigarh","level":"uc","parent":"in-d-44","district":"Chandigarh","source":"OpenCity via Bharatlas \u00b7 28-ward historical layer \u00b7 CC-BY-SA-4.0","center":[76.72781968690653,30.72886266852737],"bbox":[76.71372073042744,30.71294315790044,76.74040626853451,30.745231947196658]},"geometry":{"type":"Point","coordinates":[76.72781968690653,30.72886266852737]}},{"type":"Feature","id":"ch-ward-20","properties":{"id":"ch-ward-20","name":"Ward 7","region":"chandigarh","level":"uc","parent":"in-d-44","district":"Chandigarh","source":"OpenCity via Bharatlas \u00b7 28-ward historical layer \u00b7 CC-BY-SA-4.0","center":[76.72011518167284,30.752007685906023],"bbox":[76.7049847628366,30.7406814513879,76.73314294439143,30.763231057767143]},"geometry":{"type":"Point","coordinates":[76.72011518167284,30.752007685906023]}},{"type":"Feature","id":"ch-ward-21","properties":{"id":"ch-ward-21","name":"Ward 6","region":"chandigarh","level":"uc","parent":"in-d-44","district":"Chandigarh","source":"OpenCity via Bharatlas \u00b7 28-ward historical layer \u00b7 CC-BY-SA-4.0","center":[76.73237586845588,30.75877108007134],"bbox":[76.71833806474996,30.751087367388152,76.74284636396857,30.766387478499382]},"geometry":{"type":"Point","coordinates":[76.73237586845588,30.75877108007134]}},{"type":"Feature","id":"ch-ward-22","properties":{"id":"ch-ward-22","name":"Ward 5","region":"chandigarh","level":"uc","parent":"in-d-44","district":"Chandigarh","source":"OpenCity via Bharatlas \u00b7 28-ward historical layer \u00b7 CC-BY-SA-4.0","center":[76.74942549539321,30.75877108007134],"bbox":[76.73419649657114,30.745089624086916,76.76452056127494,30.77301494868101]},"geometry":{"type":"Point","coordinates":[76.74942549539321,30.75877108007134]}},{"type":"Feature","id":"ch-ward-23","properties":{"id":"ch-ward-23","name":"Ward 1","region":"chandigarh","level":"uc","parent":"in-d-44","district":"Chandigarh","source":"OpenCity via Bharatlas \u00b7 28-ward historical layer \u00b7 CC-BY-SA-4.0","center":[76.79681369654315,30.754140530211373],"bbox":[76.77586981663876,30.729022581926642,76.83791897378165,30.78020408864785]},"geometry":{"type":"Point","coordinates":[76.79681369654315,30.754140530211373]}},{"type":"Feature","id":"ch-ward-24","properties":{"id":"ch-ward-24","name":"Ward 25","region":"chandigarh","level":"uc","parent":"in-d-44","district":"Chandigarh","source":"OpenCity via Bharatlas \u00b7 28-ward historical layer \u00b7 CC-BY-SA-4.0","center":[76.83655799090562,30.713766786258248],"bbox":[76.82502910061254,30.707549639404363,76.84902828103043,30.720362173575495]},"geometry":{"type":"Point","coordinates":[76.83655799090562,30.713766786258248]}},{"type":"Feature","id":"ch-ward-25","properties":{"id":"ch-ward-25","name":"Ward 24","region":"chandigarh","level":"uc","parent":"in-d-44","district":"Chandigarh","source":"OpenCity via Bharatlas \u00b7 28-ward historical layer \u00b7 CC-BY-SA-4.0","center":[76.82585801462126,30.702845507913906],"bbox":[76.81427116118522,30.692037664206907,76.84681085143973,30.713508518503374]},"geometry":{"type":"Point","coordinates":[76.82585801462126,30.702845507913906]}},{"type":"Feature","id":"ch-ward-26","properties":{"id":"ch-ward-26","name":"Ward 23","region":"chandigarh","level":"uc","parent":"in-d-44","district":"Chandigarh","source":"OpenCity via Bharatlas \u00b7 28-ward historical layer \u00b7 CC-BY-SA-4.0","center":[76.7672857260648,30.683437658371275],"bbox":[76.76150317303308,30.670326274538013,76.8050317135428,30.69678171480433]},"geometry":{"type":"Point","coordinates":[76.7672857260648,30.683437658371275]}},{"type":"Feature","id":"ch-ward-27","properties":{"id":"ch-ward-27","name":"Ward 20","region":"chandigarh","level":"uc","parent":"in-d-44","district":"Chandigarh","source":"OpenCity via Bharatlas \u00b7 28-ward historical layer \u00b7 CC-BY-SA-4.0","center":[76.80628191283913,30.69945712144903],"bbox":[76.78374208612843,30.68612172953425,76.82773537648649,30.717901587088647]},"geometry":{"type":"Point","coordinates":[76.80628191283913,30.69945712144903]}}]}