{"type":"FeatureCollection","features":[{"type":"Feature","id":"in-t-277","properties":{"id":"in-t-277","name":"Chandigarh","region":"chandigarh","level":"tehsil","parent":"in-d-44","district":"Chandigarh","source":"LGD via Bharatlas \u00b7 2024 snapshot","center":[76.78422074586383,30.730854100000002],"bbox":[76.7051834,30.6663591,76.8494453,30.7952086]},"geometry":{"type":"Polygon","coordinates":[[[76.7723345,30.7941403],[76.7729147,30.7933073],[76.7729153,30.7933065],[76.7732345,30.7927926],[76.77381,30.7920444],[76.7739443,30.7919097],[76.7744166,30.791436],[76.7750075,30.7908592],[76.7753611,30.7906357],[76.7755352,30.7905257],[76.7755563,30.7905124],[76.776267,30.7902964],[76.7765074,30.790247],[76.7768678,30.7901886],[76.7771291,30.7901391],[76.778639,30.7899735],[76.7792086,30.789825],[76.779914,30.7896046],[76.7803791,30.78942],[76.7810741,30.7892266],[76.7813302,30.789105],[76.7816436,30.7890646],[76.7819832,30.7891144],[76.7823801,30.7891553],[76.782462,30.7891582],[76.7826465,30.7891646],[76.7827808,30.7891735],[76.7827823,30.7891736],[76.783196,30.7881637],[76.7833366,30.7877957],[76.783594,30.7871222],[76.7837353,30.7868292],[76.7850945,30.7840237],[76.7850961,30.7840204],[76.785157,30.7838842],[76.7858813,30.7822665],[76.786137,30.7817009],[76.7864622,30.7809816],[76.7868757,30.7800032],[76.7869519,30.7798138],[76.7872999,30.7789481],[76.7861455,30.7789158],[76.7849548,30.7787301],[76.7838475,30.7786346],[76.7829074,30.778431],[76.7818786,30.7782905],[76.7805938,30.7780685],[76.7799187,30.7778172],[76.7795862,30.7776935],[76.7801235,30.7767994],[76.780418,30.7763095],[76.7813965,30.7744206],[76.7823646,30.7726788],[76.7834225,30.7706709],[76.7834769,30.7705676],[76.7835678,30.7705616],[76.7841553,30.7705702],[76.7861996,30.770718],[76.7868737,30.7707668],[76.7886763,30.7707386],[76.790187,30.770715],[76.7904723,30.7707106],[76.7906448,30.770625],[76.7915202,30.7689232],[76.7915237,30.7689163],[76.7916858,30.7687089],[76.7957786,30.7709529],[76.7960502,30.7710297],[76.7983377,30.7711078],[76.7983687,30.7713381],[76.7983741,30.7713784],[76.7982222,30.7719736],[76.7981751,30.7720593],[76.7993081,30.7725921],[76.7999712,30.7728631],[76.800206,30.7731293],[76.8003208,30.7733142],[76.8004773,30.7735444],[76.8005921,30.7736887],[76.8007172,30.773991],[76.8008201,30.774232],[76.8009309,30.7744917],[76.8010573,30.7745587],[76.8013487,30.774713],[76.8018916,30.7751462],[76.8019596,30.7752692],[76.8021262,30.7755703],[76.8030766,30.7760353],[76.803818,30.7763469],[76.8042775,30.7765456],[76.804596,30.776681],[76.8052122,30.776925],[76.805301,30.7768754],[76.8054107,30.7768259],[76.8055205,30.7766951],[76.8056929,30.7767076],[76.8059593,30.7767269],[76.806351,30.7768488],[76.8064397,30.7768941],[76.8064158,30.7770312],[76.8063925,30.7771647],[76.8065744,30.7772634],[76.806617,30.7772865],[76.8067633,30.7773407],[76.8068159,30.7773717],[76.8070026,30.7774814],[76.8070243,30.7774941],[76.807207,30.777598],[76.8074422,30.7773906],[76.8077608,30.7775757],[76.8079069,30.777693],[76.8081,30.7778375],[76.8082775,30.7779999],[76.8084185,30.7781353],[76.8085385,30.7782391],[76.8085484,30.7782634],[76.8088671,30.779042],[76.8091698,30.7793579],[76.8095068,30.7792446],[76.8095982,30.7792138],[76.8100003,30.7793583],[76.8105278,30.7795886],[76.8108621,30.7795301],[76.8115301,30.7793797],[76.8121208,30.7792466],[76.8121211,30.7792466],[76.81245,30.7794181],[76.8130139,30.7797927],[76.8133889,30.780073],[76.8135152,30.7801673],[76.8144768,30.7792747],[76.8149968,30.778596],[76.8154439,30.7780124],[76.8179859,30.7781817],[76.8180346,30.778185],[76.818066,30.7781706],[76.8184109,30.778013],[76.8185509,30.777949],[76.8186459,30.7779056],[76.8183802,30.7766698],[76.8182308,30.7759632],[76.8181198,30.7754384],[76.818153,30.7754217],[76.8188184,30.7750864],[76.8191752,30.7749067],[76.8195253,30.7745641],[76.8195486,30.7740613],[76.8195676,30.773653],[76.8191698,30.7730037],[76.8187069,30.7722482],[76.8181222,30.7712938],[76.8164513,30.7703459],[76.8146657,30.7695062],[76.8138436,30.7692401],[76.8137315,30.7692038],[76.8129938,30.7689649],[76.8117362,30.7685578],[76.8115892,30.768492],[76.811282,30.7683546],[76.8082433,30.7668557],[76.8073504,30.7666389],[76.8053722,30.7649736],[76.8072119,30.7630218],[76.8099926,30.7595686],[76.8132957,30.7554209],[76.8153427,30.7530158],[76.8156055,30.752707],[76.8164982,30.7531043],[76.8176778,30.7540924],[76.8178447,30.7544398],[76.8179487,30.7552833],[76.8180341,30.7562914],[76.8181302,30.7574255],[76.8183127,30.7578811],[76.819229,30.7587318],[76.8195132,30.7589956],[76.819748,30.7593881],[76.8201127,30.7608495],[76.820238,30.7609623],[76.8242071,30.7609639],[76.8244629,30.7610722],[76.8245929,30.7622042],[76.8247755,30.7624704],[76.8256318,30.7628316],[76.8263523,30.7633008],[76.828139,30.7618673],[76.8288078,30.7612858],[76.8301557,30.7601227],[76.8333633,30.7575304],[76.8343245,30.7569264],[76.8357976,30.7558084],[76.8367536,30.7549834],[76.8374536,30.7541492],[76.8375111,30.7540481],[76.8377462,30.7536352],[76.8378562,30.7529677],[76.838149,30.7517952],[76.8386347,30.7516781],[76.8389928,30.7516782],[76.8390733,30.7516782],[76.8390213,30.7511956],[76.8388751,30.7510061],[76.8383269,30.7508617],[76.8376899,30.750857],[76.8369014,30.7507621],[76.8363636,30.7506086],[76.8352391,30.7503073],[76.8348808,30.7502113],[76.8343962,30.7500538],[76.8342708,30.7500002],[76.8338425,30.7498257],[76.8338271,30.7481885],[76.8338548,30.747719],[76.8338237,30.7475105],[76.833783,30.7472374],[76.8335777,30.7469441],[76.8334985,30.7468309],[76.8334523,30.7466415],[76.8334305,30.7465522],[76.8334452,30.7464558],[76.8334677,30.7463081],[76.8334969,30.7461626],[76.8335822,30.7457382],[76.8336429,30.7455545],[76.8337304,30.7452895],[76.8337888,30.744788],[76.8338372,30.744537],[76.8338744,30.7443447],[76.8341581,30.7438851],[76.8343536,30.7434539],[76.834455,30.7430194],[76.834747,30.7421673],[76.8349444,30.7418352],[76.8349464,30.7418362],[76.8352131,30.7419622],[76.8361067,30.742545],[76.8365523,30.7429085],[76.8366993,30.7429516],[76.8367003,30.7429497],[76.8368609,30.7426606],[76.836702,30.7425456],[76.8364993,30.7424169],[76.8359515,30.742069],[76.8346242,30.7411992],[76.8333671,30.7404502],[76.8328128,30.7400839],[76.8327593,30.7400485],[76.832759,30.7400483],[76.832259,30.7398349],[76.8315008,30.7395112],[76.8319596,30.7386477],[76.8319606,30.7386479],[76.8320251,30.7386563],[76.8330485,30.7387902],[76.83349,30.7381119],[76.8344905,30.7369068],[76.8347828,30.7365548],[76.8359456,30.7351542],[76.8360101,30.7349729],[76.8362091,30.734731],[76.8363467,30.7345532],[76.8367291,30.7340651],[76.8371614,30.7334546],[76.8372216,30.7334791],[76.837514,30.7335984],[76.8377977,30.7336936],[76.8378568,30.7337063],[76.8379459,30.7337254],[76.8380547,30.7337486],[76.8381198,30.7337456],[76.8383312,30.7337357],[76.8385646,30.7336557],[76.8386993,30.7335997],[76.8387113,30.7336326],[76.8387434,30.7337208],[76.8388538,30.7337599],[76.8388934,30.7337315],[76.8390599,30.7336126],[76.8391761,30.7335926],[76.8392889,30.7335733],[76.8393441,30.733556],[76.8399689,30.7333606],[76.8412244,30.7329324],[76.8415333,30.7328255],[76.8418365,30.7327207],[76.8431949,30.7311136],[76.8432816,30.7311366],[76.8450107,30.731593],[76.8452917,30.7316458],[76.8455891,30.7317017],[76.8456133,30.7317062],[76.8456312,30.7317026],[76.846045,30.7316189],[76.8469082,30.7314307],[76.8470116,30.7314274],[76.8474196,30.7314144],[76.8474201,30.7314137],[76.8482059,30.7303209],[76.8482232,30.730297],[76.8482237,30.7302963],[76.8480512,30.7301996],[76.8479752,30.730157],[76.8478413,30.7300947],[76.8474115,30.7298944],[76.847032,30.7297059],[76.8467805,30.7296643],[76.8463959,30.7296788],[76.8463944,30.7296789],[76.8465388,30.7293467],[76.8465995,30.7292068],[76.8467164,30.7289213],[76.846854,30.7285852],[76.8473605,30.7275568],[76.847608,30.7270544],[76.8476887,30.7268724],[76.8481436,30.725847],[76.8483653,30.7254492],[76.8487696,30.7247239],[76.8491025,30.7239439],[76.8491744,30.7237754],[76.8494021,30.7233933],[76.849158,30.7233504],[76.849093,30.723339],[76.8490114,30.7233099],[76.8486672,30.7231872],[76.8481411,30.723017],[76.8477058,30.7228761],[76.8471508,30.722729],[76.8468661,30.7226535],[76.8467978,30.7226178],[76.8466816,30.7225569],[76.8460655,30.722286],[76.845626,30.721963],[76.8451588,30.7215547],[76.8450594,30.7214632],[76.8448399,30.7212615],[76.8450868,30.7207889],[76.8451188,30.7205597],[76.8451189,30.7205584],[76.8447982,30.7204411],[76.844664,30.7203561],[76.844645,30.7203441],[76.844645,30.7203437],[76.844655,30.7203],[76.8446594,30.7202807],[76.8446696,30.720183],[76.8446815,30.7200684],[76.844673,30.7200477],[76.8446541,30.7200011],[76.8446154,30.7199901],[76.8445334,30.7199668],[76.8444298,30.7199593],[76.8444288,30.7199592],[76.8441272,30.7196961],[76.843575,30.7192144],[76.843574,30.7192136],[76.8438756,30.7186004],[76.8441906,30.7181448],[76.8443573,30.7179209],[76.8445572,30.7176525],[76.8450275,30.7171959],[76.8450288,30.7171947],[76.8451416,30.7172465],[76.8452289,30.7172866],[76.8461238,30.7176708],[76.8467337,30.7178967],[76.8474741,30.7181207],[76.8483626,30.7184463],[76.8485458,30.718501],[76.8492133,30.7187003],[76.8494453,30.718273],[76.8492367,30.7181361],[76.8489747,30.717964],[76.848233,30.7173972],[76.848089,30.7173439],[76.8480805,30.7173407],[76.8480361,30.7173259],[76.8475603,30.7171677],[76.8469178,30.7169379],[76.8467718,30.7168857],[76.8467722,30.7168854],[76.8468733,30.7168048],[76.8469158,30.7167709],[76.8475012,30.7162574],[76.847543,30.7162172],[76.8480395,30.71574],[76.8481684,30.7155416],[76.8483235,30.7153029],[76.8483334,30.7150477],[76.8483399,30.7148815],[76.848348,30.7146711],[76.8483545,30.7144635],[76.8482823,30.7143184],[76.8482297,30.7142127],[76.8479587,30.7139685],[76.8478066,30.7138273],[76.8476186,30.713653],[76.847441,30.7133759],[76.8473307,30.7130662],[76.8473008,30.712593],[76.8472323,30.7122828],[76.847084,30.712034],[76.8470058,30.7119026],[76.8469608,30.7118585],[76.8468834,30.7117826],[76.8465925,30.7114809],[76.8464414,30.7113242],[76.8458248,30.7107466],[76.8455999,30.7105558],[76.8454746,30.7104494],[76.8453524,30.7103382],[76.8452355,30.7102318],[76.8450659,30.7100987],[76.8449758,30.710028],[76.8448306,30.7098545],[76.8447034,30.7097025],[76.8445007,30.7092002],[76.8443962,30.7089221],[76.8443465,30.708726],[76.8442833,30.7084771],[76.8441818,30.708294],[76.8441319,30.7082041],[76.8440294,30.7080942],[76.8439241,30.7079815],[76.8437447,30.7078803],[76.8434564,30.7078168],[76.8431221,30.707808],[76.8429896,30.7077547],[76.842938,30.7077339],[76.8429372,30.7077333],[76.8428897,30.7076952],[76.8426835,30.70753],[76.8424404,30.7074238],[76.8423835,30.707399],[76.8420511,30.7072142],[76.8419264,30.7071641],[76.8416934,30.7070705],[76.8413394,30.7068454],[76.8410286,30.7066545],[76.8405788,30.7063781],[76.8402952,30.7062919],[76.839893,30.7062309],[76.8398869,30.70623],[76.8398686,30.7062236],[76.8397029,30.706165],[76.8394144,30.7060924],[76.8390052,30.7059809],[76.8387005,30.7058815],[76.83841,30.7057051],[76.8383105,30.705647],[76.8381989,30.7055818],[76.8378861,30.7053292],[76.837885,30.705328],[76.837604,30.7050445],[76.8373328,30.7047777],[76.8370782,30.7045648],[76.8368575,30.7044356],[76.8367245,30.7043578],[76.8363647,30.7041012],[76.8358561,30.7038089],[76.8357366,30.7037402],[76.8355522,30.7035816],[76.8355509,30.7035805],[76.8354529,30.7033653],[76.8354217,30.7030996],[76.8353892,30.702949],[76.8353702,30.7028613],[76.8353729,30.70283],[76.8353831,30.7027123],[76.8355093,30.702485],[76.8355347,30.7023341],[76.8355374,30.7023177],[76.8355173,30.7022291],[76.8354463,30.7019175],[76.835361,30.7017339],[76.8352776,30.7015545],[76.8348851,30.7012218],[76.8345957,30.7010186],[76.8344883,30.7009432],[76.8341665,30.7007754],[76.8339245,30.7006491],[76.8339242,30.7006489],[76.8337546,30.7004862],[76.833638,30.7003742],[76.8336371,30.7003733],[76.8335973,30.7002817],[76.8334734,30.6999968],[76.8332802,30.6997198],[76.8327634,30.6990397],[76.8327354,30.6990028],[76.8327342,30.6990013],[76.8322674,30.6986064],[76.8312653,30.6975775],[76.8311017,30.6974095],[76.8299425,30.696005],[76.8295524,30.6955446],[76.8292324,30.695167],[76.8285964,30.6946527],[76.8289507,30.6943577],[76.8292798,30.6940837],[76.830216,30.6934493],[76.8302178,30.693448],[76.8299055,30.6932147],[76.8297202,30.6930761],[76.8287878,30.6926247],[76.8287526,30.6926039],[76.828318,30.6923471],[76.827598,30.6920821],[76.8273839,30.691969],[76.8273818,30.6919679],[76.8272117,30.6915282],[76.8272016,30.6913756],[76.8271825,30.6910866],[76.8273046,30.6906633],[76.8273785,30.6904072],[76.8274429,30.6902403],[76.8275377,30.6899945],[76.8275549,30.6897958],[76.8274785,30.6896879],[76.8274315,30.6896216],[76.8269898,30.6892765],[76.82687,30.6891829],[76.8266379,30.6890001],[76.8263252,30.6887537],[76.8263243,30.6887531],[76.8257,30.6885814],[76.8251585,30.6882477],[76.8251561,30.6882462],[76.8257016,30.6875575],[76.8262122,30.6866797],[76.8262126,30.6866799],[76.8270796,30.6872881],[76.8276244,30.6876702],[76.8282593,30.6870163],[76.8288853,30.686173],[76.8291766,30.6858441],[76.8296308,30.6855716],[76.8300167,30.6852774],[76.8301636,30.6851416],[76.8304578,30.6848698],[76.8312616,30.684042],[76.8318882,30.6832302],[76.8315982,30.6830765],[76.8302069,30.6824156],[76.8299657,30.6823011],[76.8301379,30.682019],[76.829797,30.6818645],[76.8296746,30.681809],[76.8295987,30.6819164],[76.8294815,30.6820824],[76.8292181,30.6819553],[76.8292182,30.6819552],[76.8295771,30.6813413],[76.8295723,30.6813368],[76.8291603,30.6809548],[76.8291362,30.6809325],[76.8285973,30.6808589],[76.8285817,30.6808761],[76.827447,30.6821336],[76.82737,30.6820803],[76.8240947,30.6798171],[76.822876,30.6789752],[76.8226036,30.678787],[76.8219866,30.6784438],[76.8210485,30.6776811],[76.8209996,30.6775736],[76.8210446,30.6763595],[76.8209234,30.6757388],[76.8209231,30.6748907],[76.8208395,30.6748512],[76.8197648,30.6743431],[76.817971,30.6733037],[76.8177607,30.673221],[76.8170319,30.6730372],[76.8169052,30.6729578],[76.8164999,30.6713802],[76.8150818,30.6708903],[76.8148461,30.6708146],[76.8140841,30.6705701],[76.8137483,30.6704623],[76.8132008,30.6702038],[76.8131587,30.6702631],[76.8128804,30.6706549],[76.8127642,30.6705968],[76.811985,30.6702073],[76.8116688,30.6700448],[76.8113974,30.6697599],[76.810777,30.6692318],[76.8103611,30.6687549],[76.8095844,30.6682425],[76.8094517,30.668118],[76.8094087,30.668083],[76.8092999,30.6679943],[76.809245,30.6679495],[76.8087636,30.6673157],[76.808617,30.6673338],[76.8084356,30.6673563],[76.8080707,30.6673749],[76.8080467,30.6673671],[76.8078449,30.6673014],[76.8074635,30.6669955],[76.8073221,30.6669704],[76.8072335,30.6669891],[76.8070259,30.6670331],[76.8062629,30.6672512],[76.8060594,30.6672541],[76.8060566,30.6672535],[76.8058081,30.6672079],[76.804516,30.6664771],[76.8040234,30.6663622],[76.8038883,30.6663759],[76.8037161,30.6663935],[76.803494,30.6665138],[76.8034145,30.6664597],[76.8032667,30.6663591],[76.8031826,30.6664316],[76.8029637,30.6666204],[76.8028698,30.6666217],[76.8028201,30.6665871],[76.8027112,30.6665112],[76.8025908,30.6664903],[76.8025428,30.6665284],[76.8023594,30.6666739],[76.8021668,30.6669833],[76.8022478,30.6671266],[76.8016754,30.6677795],[76.8015498,30.6677587],[76.8015092,30.6678179],[76.8016935,30.6681898],[76.8016693,30.6682893],[76.8010587,30.6691323],[76.8011502,30.6695641],[76.8009581,30.6695584],[76.8009414,30.6695579],[76.8009348,30.669567],[76.8004681,30.670205],[76.8004628,30.6702006],[76.8003397,30.6701221],[76.8002621,30.6700726],[76.7984506,30.6686226],[76.7974652,30.6678243],[76.7970574,30.6675007],[76.7969101,30.6674351],[76.7968003,30.6674817],[76.7967967,30.6674833],[76.7967237,30.6675143],[76.7965226,30.6676479],[76.7958689,30.6681351],[76.7949847,30.6688555],[76.7943132,30.6695098],[76.7942087,30.6697819],[76.793871,30.6704271],[76.7934168,30.6709837],[76.792763,30.6717505],[76.7921629,30.6723182],[76.791523,30.6729901],[76.7914001,30.6733977],[76.7911002,30.6743942],[76.7909079,30.6747217],[76.7905537,30.6750423],[76.7902946,30.6754203],[76.7901721,30.6755708],[76.7899482,30.6755965],[76.7899132,30.6755933],[76.7895979,30.6755652],[76.7889771,30.6752941],[76.7881849,30.6750659],[76.7872518,30.6748352],[76.7867868,30.67481],[76.7862174,30.6747772],[76.785683,30.6746628],[76.7851716,30.6743811],[76.7848657,30.6742049],[76.7846562,30.6742232],[76.7836986,30.6743066],[76.783694,30.6743056],[76.7831693,30.6741831],[76.7823235,30.6738789],[76.7819497,30.6737036],[76.7819122,30.6738035],[76.78189,30.6738623],[76.781727,30.6740766],[76.7814488,30.6742744],[76.7813529,30.6742079],[76.7809572,30.6739338],[76.7808791,30.6738572],[76.7807393,30.6737202],[76.7804998,30.6734619],[76.7807316,30.6732963],[76.7800557,30.672868],[76.7798804,30.672699],[76.7797285,30.672665],[76.7795913,30.6725857],[76.7795586,30.6725095],[76.7795941,30.6724504],[76.7798357,30.6722531],[76.7798546,30.6721446],[76.7798015,30.6720957],[76.7796342,30.6720799],[76.7796077,30.6720577],[76.7796144,30.6718501],[76.7793894,30.671533],[76.7789864,30.6711866],[76.778651,30.6711055],[76.7776252,30.6706595],[76.7777316,30.6704866],[76.7771231,30.6703145],[76.7770613,30.6703232],[76.7769411,30.67034],[76.7768733,30.6703495],[76.7765351,30.6709721],[76.7761976,30.6710669],[76.7759631,30.6716565],[76.7750128,30.6719086],[76.7743953,30.672102],[76.774252,30.6728257],[76.7737816,30.673644],[76.7733368,30.674435],[76.7730386,30.6749623],[76.7728502,30.675222],[76.7725309,30.6754564],[76.772221,30.675632],[76.7720462,30.6757743],[76.7718433,30.6760928],[76.7717209,30.6762523],[76.7718473,30.6763138],[76.7720325,30.6764511],[76.7720343,30.6765503],[76.7719687,30.676673],[76.7717992,30.6768241],[76.7715987,30.6769893],[76.7714876,30.6771938],[76.7712932,30.6776926],[76.7712625,30.6777291],[76.7705397,30.6781539],[76.7704909,30.6783396],[76.7705659,30.6787355],[76.7705277,30.67893],[76.7703351,30.6792438],[76.7703332,30.6794243],[76.7701787,30.6798234],[76.7699635,30.6800428],[76.7699064,30.6800943],[76.769409,30.680542],[76.7687249,30.6810927],[76.7672699,30.6822988],[76.7672297,30.682385],[76.7667437,30.6829239],[76.7665028,30.6832736],[76.7657525,30.6843626],[76.7657115,30.684422],[76.7652308,30.685254],[76.7649203,30.6856823],[76.7645718,30.6860343],[76.7643115,30.6863627],[76.7641187,30.686244],[76.7640318,30.6861905],[76.7639135,30.6862972],[76.7635491,30.6866256],[76.7633848,30.6865163],[76.7629046,30.6861968],[76.762826,30.6861798],[76.7627797,30.6862211],[76.7627249,30.6862739],[76.7625899,30.6864041],[76.7623897,30.6865872],[76.7622497,30.6866342],[76.7620877,30.6866274],[76.7620282,30.686613],[76.7618413,30.6865676],[76.7613737,30.6863935],[76.760901,30.686233],[76.7606074,30.6861603],[76.7603551,30.6861737],[76.7602633,30.6861785],[76.7599209,30.6862959],[76.759427,30.6865068],[76.7593098,30.6865568],[76.7592835,30.6865436],[76.7591798,30.6864853],[76.7587667,30.6862529],[76.758662,30.6862363],[76.7568696,30.6861162],[76.7568701,30.6858546],[76.7567331,30.6857843],[76.7563491,30.685618],[76.7558546,30.6854037],[76.7549832,30.6851268],[76.7546844,30.6850541],[76.7542847,30.6848836],[76.7538982,30.6848708],[76.753485,30.6848177],[76.7532589,30.6847261],[76.7527589,30.6844937],[76.7527045,30.6846164],[76.7524028,30.685297],[76.7520233,30.6862448],[76.7513823,30.6868805],[76.7502598,30.6883075],[76.7499999,30.6883018],[76.749949,30.6883063],[76.7499426,30.6883023],[76.7489469,30.6876981],[76.7488575,30.6876467],[76.7488156,30.6876017],[76.748633,30.6875703],[76.7483668,30.6874804],[76.7483623,30.6874805],[76.7481319,30.6874896],[76.7477667,30.687544],[76.7476782,30.6877291],[76.7477099,30.6879905],[76.7479921,30.6884008],[76.7479041,30.6889285],[76.7474879,30.6898625],[76.7478013,30.6901283],[76.7476616,30.6911161],[76.7473417,30.6939622],[76.7471714,30.6955003],[76.7471664,30.6954985],[76.746571,30.6952934],[76.7451504,30.6944559],[76.7431976,30.6936504],[76.7414904,30.6931513],[76.7414841,30.6931497],[76.7400079,30.6927693],[76.7398284,30.6927918],[76.7393191,30.6928556],[76.7392689,30.6944792],[76.7390864,30.6946689],[76.7395046,30.6952638],[76.7395902,30.696982],[76.7394556,30.6979472],[76.7396228,30.6980644],[76.7395498,30.6981772],[76.739409,30.698254],[76.7393663,30.6982413],[76.7391219,30.6981686],[76.73912,30.6981705],[76.7384963,30.6988051],[76.7378973,30.6998068],[76.7393593,30.7003286],[76.73906,30.7032424],[76.7391445,30.7040947],[76.7396413,30.7049287],[76.7391047,30.7057499],[76.7375598,30.7057693],[76.7361193,30.7058066],[76.7351695,30.7060029],[76.735133,30.7060104],[76.7351325,30.7060106],[76.7334999,30.7064584],[76.7315011,30.7067396],[76.7305834,30.7067938],[76.7300294,30.7068265],[76.7300295,30.706828],[76.730156,30.7081479],[76.7296565,30.7095103],[76.7290899,30.7117747],[76.7307555,30.7122109],[76.7313667,30.7125802],[76.7300789,30.7140289],[76.7300391,30.7140746],[76.7285532,30.7157829],[76.7287044,30.7158812],[76.7287081,30.7158837],[76.7299983,30.7167215],[76.7312101,30.717406],[76.7311643,30.7175725],[76.7309658,30.7182947],[76.730945,30.7184481],[76.7309097,30.7188342],[76.7308935,30.7190118],[76.7306761,30.7206176],[76.7307653,30.721082],[76.7310007,30.7216231],[76.7310969,30.7235577],[76.7305076,30.72414],[76.7305062,30.724139],[76.7295724,30.7234823],[76.7295707,30.7234846],[76.7281598,30.7253506],[76.7267728,30.7269709],[76.7257557,30.727833],[76.7257546,30.727832],[76.7254996,30.7275942],[76.7254969,30.7275974],[76.7248426,30.7283659],[76.7244568,30.7283493],[76.7237149,30.7283172],[76.7234734,30.728363],[76.7232138,30.7284123],[76.7221079,30.7292294],[76.721268,30.7299652],[76.7206894,30.7307458],[76.7205486,30.7309624],[76.7203165,30.7312064],[76.7202883,30.731236],[76.7201291,30.7314033],[76.7189683,30.7326232],[76.7185126,30.7332193],[76.7184991,30.733237],[76.7184861,30.7332532],[76.7177534,30.7341666],[76.717571,30.734514],[76.7174899,30.7347543],[76.71699,30.7357155],[76.7169509,30.7357907],[76.716933,30.7358261],[76.7168469,30.7359969],[76.7163885,30.7364415],[76.7163615,30.7364677],[76.7157201,30.7372122],[76.7153448,30.7379116],[76.7148186,30.7391612],[76.7143653,30.7401041],[76.7141885,30.740925],[76.7141846,30.7409231],[76.7132953,30.7404882],[76.7132939,30.7404905],[76.7128364,30.7412417],[76.7128323,30.7412405],[76.7126168,30.7411799],[76.7125805,30.7411697],[76.7124546,30.7411337],[76.7117293,30.7409268],[76.7111842,30.7407895],[76.7107109,30.7406703],[76.7104694,30.7405845],[76.7095462,30.7402562],[76.7083022,30.7397346],[76.7082038,30.7396933],[76.7080532,30.7396445],[76.7074674,30.7394547],[76.7074668,30.7394561],[76.7074205,30.7395676],[76.7067477,30.7404519],[76.7058144,30.742013],[76.7051834,30.7429199],[76.7056642,30.7434022],[76.7060509,30.7438123],[76.7064272,30.7442089],[76.7065057,30.7443692],[76.7066416,30.7446463],[76.7067047,30.7450973],[76.7062253,30.7462656],[76.7059024,30.7471723],[76.7059025,30.7473979],[76.7060644,30.747497],[76.7071283,30.7478143],[76.7071508,30.747821],[76.7071532,30.7478241],[76.7077154,30.7485693],[76.7076691,30.7493044],[76.7076692,30.7493987],[76.7076692,30.7494713],[76.7077481,30.7495467],[76.7079372,30.7497275],[76.7079231,30.7498527],[76.7079065,30.7500001],[76.707759,30.7508611],[76.7076434,30.7509041],[76.7074953,30.751733],[76.7072645,30.7523476],[76.7071828,30.7532744],[76.7070676,30.7538175],[76.7068365,30.7541035],[76.7064566,30.7543895],[76.7053623,30.7551215],[76.7052468,30.7553359],[76.7052305,30.7556074],[76.7052896,30.7558534],[76.70533,30.7560218],[76.7056114,30.7564504],[76.7059422,30.7566931],[76.7063296,30.7569797],[76.7064053,30.7570357],[76.7069603,30.7574412],[76.7070503,30.7575069],[76.707927,30.7583066],[76.7079794,30.7583439],[76.7080868,30.7584203],[76.7091508,30.7591774],[76.7103285,30.7599049],[76.7101988,30.7602328],[76.7101306,30.7604052],[76.7101605,30.7604323],[76.7107592,30.7609764],[76.7117846,30.7616187],[76.7118984,30.7616631],[76.7124791,30.7618897],[76.7133938,30.7619705],[76.7136031,30.761989],[76.7136054,30.7619986],[76.7136197,30.7620604],[76.7137521,30.7622461],[76.713868,30.7624175],[76.7139182,30.7630891],[76.7150917,30.7630597],[76.7151576,30.7627739],[76.7157363,30.7629878],[76.7157857,30.7627306],[76.7163492,30.7629877],[76.7170768,30.7633873],[76.7173467,30.763487],[76.7184658,30.7639007],[76.7188458,30.7637147],[76.718893,30.7636771],[76.7192139,30.7634214],[76.7192587,30.7633857],[76.7193065,30.7633416],[76.7195064,30.7631569],[76.7201679,30.7634708],[76.7204485,30.7631133],[76.7206965,30.763156],[76.7209446,30.7632844],[76.7213912,30.7635699],[76.7211769,30.7639706],[76.7210777,30.764156],[76.7212297,30.7642137],[76.7219045,30.7644698],[76.7227476,30.7650651],[76.7228142,30.7651121],[76.7247815,30.7660551],[76.7250162,30.7661676],[76.7256777,30.7664243],[76.7260409,30.7659667],[76.7266361,30.7660949],[76.726704,30.7652662],[76.7268424,30.7652223],[76.7273815,30.7650513],[76.7280094,30.7648079],[76.7287035,30.7646501],[76.7296659,30.7646494],[76.7301911,30.7646489],[76.7313492,30.7648857],[76.7315063,30.7649285],[76.7317874,30.7650783],[76.7323746,30.7654422],[76.7327997,30.765661],[76.7328873,30.7657061],[76.7334066,30.7659375],[76.7338796,30.7661483],[76.7342104,30.766298],[76.7349607,30.7665116],[76.7350839,30.7665467],[76.7358858,30.7667318],[76.7361587,30.7668816],[76.7362664,30.7670672],[76.7367378,30.7672883],[76.7373768,30.7675564],[76.7380465,30.7677844],[76.738271,30.7679006],[76.7382946,30.7679128],[76.738299,30.7679092],[76.7384433,30.7677912],[76.7388898,30.7680123],[76.7392206,30.7681478],[76.739634,30.7682689],[76.7397997,30.7683384],[76.7398962,30.7684008],[76.7400975,30.768531],[76.7403705,30.7687666],[76.7405938,30.7688664],[76.7407839,30.7688877],[76.7410769,30.768803],[76.7411061,30.7687945],[76.741445,30.7688156],[76.7416848,30.7689012],[76.7424025,30.7692587],[76.7429019,30.769398],[76.7429896,30.7694225],[76.7432451,30.7695662],[76.7437505,30.7698505],[76.7437359,30.7714152],[76.7438515,30.7714642],[76.7439239,30.7714948],[76.744134,30.7715838],[76.7444592,30.7717101],[76.7448865,30.771876],[76.7454987,30.7722684],[76.7453939,30.7725991],[76.7453908,30.772609],[76.745227,30.7731261],[76.7451717,30.7732274],[76.7449412,30.7736499],[76.7449744,30.7737427],[76.7450744,30.7738147],[76.7450985,30.7738321],[76.7450246,30.774268],[76.7449699,30.7743097],[76.7448182,30.7744254],[76.7445713,30.7746371],[76.7444562,30.7751231],[76.7437206,30.7751309],[76.7433082,30.7759172],[76.7436829,30.7760868],[76.7439699,30.7762167],[76.745179,30.7768641],[76.745394,30.7769068],[76.7456749,30.7767851],[76.7458072,30.7768421],[76.7461628,30.7769632],[76.7464605,30.7770344],[76.7466108,30.777133],[76.7466673,30.77717],[76.7470313,30.777434],[76.7471722,30.7777196],[76.7473956,30.7778695],[76.7477908,30.778143],[76.7480657,30.7783333],[76.7490797,30.7785054],[76.7498019,30.7786279],[76.7499999,30.7786616],[76.750287,30.7789541],[76.7505321,30.7792385],[76.7509286,30.7796222],[76.7511166,30.7797487],[76.7513254,30.7798255],[76.7515968,30.7799475],[76.7518683,30.7800561],[76.7521764,30.7801736],[76.7523434,30.7802549],[76.7524058,30.7804895],[76.7522695,30.7808456],[76.7522638,30.7812606],[76.7526293,30.7813466],[76.7522684,30.7819997],[76.7522681,30.7820002],[76.7522682,30.7820003],[76.7525238,30.7821764],[76.752522,30.7821804],[76.7521571,30.7829562],[76.7521591,30.7829573],[76.7524129,30.7831008],[76.7524094,30.7831065],[76.7520517,30.7836958],[76.7517115,30.7842366],[76.7517119,30.7842368],[76.7521813,30.7845212],[76.7536537,30.7850502],[76.7551102,30.7857596],[76.7562323,30.7863409],[76.7563806,30.7864177],[76.7565406,30.7865006],[76.7572611,30.7868485],[76.7579194,30.7873416],[76.7587182,30.7879399],[76.7587382,30.7879548],[76.7592393,30.7881897],[76.7589722,30.7888119],[76.7589719,30.7889833],[76.7592017,30.7891459],[76.759494,30.789313],[76.7596714,30.7894755],[76.7599167,30.7896335],[76.7602247,30.7897736],[76.7605483,30.7900355],[76.7606579,30.7901934],[76.7608399,30.7908611],[76.7611688,30.7911049],[76.7617169,30.7914661],[76.7629649,30.7919498],[76.7644583,30.7925509],[76.7654502,30.793102],[76.7659462,30.793373],[76.7665884,30.7937027],[76.7674446,30.7942266],[76.7675561,30.7942704],[76.7677892,30.7943622],[76.7678018,30.7943497],[76.7682337,30.7939205],[76.7694925,30.7941877],[76.7694909,30.7941916],[76.7694514,30.7942845],[76.7694139,30.7943726],[76.7697428,30.7945306],[76.7701763,30.7947204],[76.7711852,30.7950902],[76.771508,30.7952086],[76.77178,30.7949156],[76.7723345,30.7941403]]]}}]}