{"type":"FeatureCollection","features":[{"type":"Feature","id":434,"properties":{"name":"Asadabad","population":48400,"rank":10},"geometry":{"type":"Point","coordinates":[71.150005,34.866]}},{"type":"Feature","id":436,"properties":{"name":"Mahmud-E Eraqi","population":7407,"rank":10},"geometry":{"type":"Point","coordinates":[69.333301,35.016696]}},{"type":"Feature","id":437,"properties":{"name":"Mehtar Lam","population":17345,"rank":10},"geometry":{"type":"Point","coordinates":[70.166701,34.65]}},{"type":"Feature","id":438,"properties":{"name":"Baraki Barak","population":22305,"rank":10},"geometry":{"type":"Point","coordinates":[68.966703,33.966702]}},{"type":"Feature","id":440,"properties":{"name":"Mayda Shahr","population":35008,"rank":10},"geometry":{"type":"Point","coordinates":[68.799997,34.450002]}},{"type":"Feature","id":992,"properties":{"name":"Parachinar","population":55685,"rank":8},"geometry":{"type":"Point","coordinates":[70.100827,33.899183]}},{"type":"Feature","id":993,"properties":{"name":"Sialkote","population":477396,"rank":8},"geometry":{"type":"Point","coordinates":[74.560038,32.520016]}},{"type":"Feature","id":994,"properties":{"name":"Sheikhu Pura","population":361303,"rank":8},"geometry":{"type":"Point","coordinates":[73.989995,31.719988]}},{"type":"Feature","id":995,"properties":{"name":"Gujrat","population":301506,"rank":8},"geometry":{"type":"Point","coordinates":[74.080015,32.579987]}},{"type":"Feature","id":996,"properties":{"name":"Sahiwal","population":235695,"rank":8},"geometry":{"type":"Point","coordinates":[73.111806,30.671731]}},{"type":"Feature","id":997,"properties":{"name":"Chiniot","population":201781,"rank":8},"geometry":{"type":"Point","coordinates":[72.979979,31.719988]}},{"type":"Feature","id":998,"properties":{"name":"Rahim Yar Khan","population":353203,"rank":8},"geometry":{"type":"Point","coordinates":[70.295182,28.420241]}},{"type":"Feature","id":1004,"properties":{"name":"Mansehra","population":66486,"rank":8},"geometry":{"type":"Point","coordinates":[73.196814,34.341791]}},{"type":"Feature","id":1005,"properties":{"name":"Kohat","population":343027,"rank":8},"geometry":{"type":"Point","coordinates":[71.432683,33.602689]}},{"type":"Feature","id":1006,"properties":{"name":"Abbottabad","population":1183647,"rank":8},"geometry":{"type":"Point","coordinates":[73.199501,34.149503]}},{"type":"Feature","id":1007,"properties":{"name":"Mardan","population":300424,"rank":8},"geometry":{"type":"Point","coordinates":[72.039985,34.200043]}},{"type":"Feature","id":1352,"properties":{"name":"Simla","population":173503,"rank":8},"geometry":{"type":"Point","coordinates":[77.166597,31.100026]}},{"type":"Feature","id":1353,"properties":{"name":"Gurgaon","population":197340,"rank":8},"geometry":{"type":"Point","coordinates":[77.019991,28.450006]}},{"type":"Feature","id":1354,"properties":{"name":"Sonipat","population":250521,"rank":8},"geometry":{"type":"Point","coordinates":[77.019991,28.999999]}},{"type":"Feature","id":1355,"properties":{"name":"Rohtak","population":317245,"rank":8},"geometry":{"type":"Point","coordinates":[76.580018,28.900005]}},{"type":"Feature","id":1356,"properties":{"name":"Hisar","population":544829,"rank":8},"geometry":{"type":"Point","coordinates":[75.725031,29.169988]}},{"type":"Feature","id":1357,"properties":{"name":"Bhiwani","population":190855,"rank":8},"geometry":{"type":"Point","coordinates":[76.125007,28.81001]}},{"type":"Feature","id":1358,"properties":{"name":"Ambala","population":146787,"rank":8},"geometry":{"type":"Point","coordinates":[76.791822,30.377311]}},{"type":"Feature","id":1359,"properties":{"name":"Sopore","population":63035,"rank":8},"geometry":{"type":"Point","coordinates":[74.466658,34.299959]}},{"type":"Feature","id":1436,"properties":{"name":"Hoshiarpur","population":158142,"rank":8},"geometry":{"type":"Point","coordinates":[75.980003,31.519974]}},{"type":"Feature","id":2679,"properties":{"name":"Zhob","population":88356,"rank":7},"geometry":{"type":"Point","coordinates":[69.438593,31.348977]}},{"type":"Feature","id":2681,"properties":{"name":"Kasur","population":290643,"rank":7},"geometry":{"type":"Point","coordinates":[74.455031,31.125373]}},{"type":"Feature","id":2682,"properties":{"name":"Kundian","population":35406,"rank":7},"geometry":{"type":"Point","coordinates":[71.471802,32.452191]}},{"type":"Feature","id":2683,"properties":{"name":"Okara","population":223648,"rank":7},"geometry":{"type":"Point","coordinates":[73.450028,30.810405]}},{"type":"Feature","id":2684,"properties":{"name":"Jhang","population":341210,"rank":7},"geometry":{"type":"Point","coordinates":[72.32498,31.280376]}},{"type":"Feature","id":2685,"properties":{"name":"Sargodha","population":542603,"rank":7},"geometry":{"type":"Point","coordinates":[72.674985,32.085366]}},{"type":"Feature","id":2686,"properties":{"name":"Dera Ghazi Khan","population":236093,"rank":7},"geometry":{"type":"Point","coordinates":[70.635058,30.060399]}},{"type":"Feature","id":2687,"properties":{"name":"Sadiqabad","population":189876,"rank":7},"geometry":{"type":"Point","coordinates":[70.130231,28.300636]}},{"type":"Feature","id":2696,"properties":{"name":"Bannu","population":622419,"rank":7},"geometry":{"type":"Point","coordinates":[70.598574,32.98898]}},{"type":"Feature","id":2697,"properties":{"name":"Dera Ismail Khan","population":101616,"rank":7},"geometry":{"type":"Point","coordinates":[70.898556,31.828999]}},{"type":"Feature","id":3845,"properties":{"name":"Pathankot","population":253987,"rank":7},"geometry":{"type":"Point","coordinates":[75.720019,32.270342]}},{"type":"Feature","id":3846,"properties":{"name":"Sirsa","population":181639,"rank":7},"geometry":{"type":"Point","coordinates":[75.029983,29.490382]}},{"type":"Feature","id":3847,"properties":{"name":"Panipat","population":292808,"rank":7},"geometry":{"type":"Point","coordinates":[76.969968,29.400413]}},{"type":"Feature","id":3848,"properties":{"name":"Karnal","population":225049,"rank":7},"geometry":{"type":"Point","coordinates":[76.969968,29.680448]}},{"type":"Feature","id":3849,"properties":{"name":"Baramula","population":167986,"rank":7},"geometry":{"type":"Point","coordinates":[74.350025,34.200431]}},{"type":"Feature","id":4066,"properties":{"name":"Abohar","population":130603,"rank":7},"geometry":{"type":"Point","coordinates":[74.182342,30.126338]}},{"type":"Feature","id":4067,"properties":{"name":"Patiala","population":329224,"rank":7},"geometry":{"type":"Point","coordinates":[76.384991,30.320409]}},{"type":"Feature","id":4071,"properties":{"name":"Sikar","population":400000,"rank":7},"geometry":{"type":"Point","coordinates":[75.140002,27.610394]}},{"type":"Feature","id":4072,"properties":{"name":"Bikaner","population":576015,"rank":7},"geometry":{"type":"Point","coordinates":[73.332243,28.015083]}},{"type":"Feature","id":4074,"properties":{"name":"Alwar","population":283228,"rank":7},"geometry":{"type":"Point","coordinates":[76.604926,27.545359]}},{"type":"Feature","id":4483,"properties":{"name":"Jalalabad","population":597971,"rank":7},"geometry":{"type":"Point","coordinates":[70.436104,34.441527]}},{"type":"Feature","id":4484,"properties":{"name":"Charikar","population":53676,"rank":7},"geometry":{"type":"Point","coordinates":[69.167912,35.018262]}},{"type":"Feature","id":4786,"properties":{"name":"Gardiz","population":103601,"rank":7},"geometry":{"type":"Point","coordinates":[69.214628,33.600054]}},{"type":"Feature","id":4989,"properties":{"name":"Faisalabad","population":2617000,"rank":6},"geometry":{"type":"Point","coordinates":[73.108051,31.411927]}},{"type":"Feature","id":4990,"properties":{"name":"Rawalpindi","population":1858000,"rank":6},"geometry":{"type":"Point","coordinates":[73.067502,33.591002]}},{"type":"Feature","id":4991,"properties":{"name":"Bahawalpur","population":552607,"rank":6},"geometry":{"type":"Point","coordinates":[71.674994,29.389975]}},{"type":"Feature","id":4993,"properties":{"name":"Sukkur","population":417767,"rank":6},"geometry":{"type":"Point","coordinates":[68.848552,27.713566]}},{"type":"Feature","id":4995,"properties":{"name":"Saidu","population":1860310,"rank":6},"geometry":{"type":"Point","coordinates":[72.349992,34.750035]}},{"type":"Feature","id":6171,"properties":{"name":"Gujranwala","population":1513000,"rank":4},"geometry":{"type":"Point","coordinates":[74.183076,32.162372]}},{"type":"Feature","id":6185,"properties":{"name":"Chandigarh","population":979000,"rank":4},"geometry":{"type":"Point","coordinates":[76.77806,30.721943]}},{"type":"Feature","id":6186,"properties":{"name":"Jammu","population":791000,"rank":4},"geometry":{"type":"Point","coordinates":[74.844793,32.713733]}},{"type":"Feature","id":6191,"properties":{"name":"Jullundur","population":855000,"rank":4},"geometry":{"type":"Point","coordinates":[75.567074,31.336866]}},{"type":"Feature","id":6562,"properties":{"name":"Srinagar","population":1140000,"rank":4},"geometry":{"type":"Point","coordinates":[74.828309,34.069474]}},{"type":"Feature","id":6622,"properties":{"name":"Ludhiana","population":1649000,"rank":4},"geometry":{"type":"Point","coordinates":[75.870312,30.929708]}},{"type":"Feature","id":6848,"properties":{"name":"Islamabad","population":780000,"rank":3},"geometry":{"type":"Point","coordinates":[73.08063,33.689368]}},{"type":"Feature","id":6849,"properties":{"name":"Multan","population":1522000,"rank":3},"geometry":{"type":"Point","coordinates":[71.453062,30.201923]}},{"type":"Feature","id":6851,"properties":{"name":"Peshawar","population":1303000,"rank":3},"geometry":{"type":"Point","coordinates":[71.533057,34.006962]}},{"type":"Feature","id":6995,"properties":{"name":"Amritsar","population":1212000,"rank":3},"geometry":{"type":"Point","coordinates":[74.868047,31.641938]}},{"type":"Feature","id":7132,"properties":{"name":"Lahore","population":6577000,"rank":2},"geometry":{"type":"Point","coordinates":[74.348079,31.561917]}},{"type":"Feature","id":7246,"properties":{"name":"New Delhi","population":317797,"rank":1},"geometry":{"type":"Point","coordinates":[77.19998,28.600023]}},{"type":"Feature","id":7255,"properties":{"name":"Kabul","population":3277000,"rank":1},"geometry":{"type":"Point","coordinates":[69.181314,34.518636]}}]}