{"type":"FeatureCollection","features":[{"type":"Feature","id":"cn-qinghai","properties":{"region":"cn-qinghai","country":"Qinghai · China","sourceValidOn":"2023","source":"cn-atlas / Amll (ISC), derived from CTAmap / Rui Cheng (MIT) · 2023 · simplified source geometry","id":"cn-qinghai","name":"Qinghai · China","level":"region","parent":"","sourceCode":"630000","sourceLevel":"ADM1 context outline","center":[96.03939742457604,35.67068517829404],"bbox":[89.4010164,31.60066822,103.06889724,39.21185102]},"geometry":{"type":"Polygon","coordinates":[[[100.9012128,38.00808615],[100.89457315,38.01645399],[100.89549314,38.03012599],[100.88902315,38.038697],[100.88598898,38.05382458],[100.92127416,38.08545002],[100.92160415,38.09932402],[100.91657514,38.11255004],[100.91742862,38.12833174],[100.92316514,38.14884706],[100.93688271,38.16016348],[100.91024341,38.17811797],[100.89977641,38.17944535],[100.89024091,38.16787096],[100.86896283,38.15706779],[100.85900668,38.14738673],[100.84287627,38.14770512],[100.81859993,38.16153453],[100.80566993,38.18221431],[100.78680948,38.19312788],[100.78436243,38.2029118],[100.77021299,38.22121538],[100.75522401,38.23548732],[100.71120737,38.25343299],[100.69066307,38.24760128],[100.64679116,38.26084914],[100.62023503,38.26635438],[100.60367232,38.25611348],[100.5940563,38.24290046],[100.5746124,38.25043147],[100.56044179,38.24750196],[100.53989675,38.25398414],[100.51923699,38.27322322],[100.49497032,38.27254915],[100.48119386,38.28615095],[100.46716607,38.27961014],[100.46932756,38.27219186],[100.45760831,38.26477416],[100.42976943,38.27228768],[100.43529689,38.28180666],[100.436003,38.29577157],[100.41820502,38.30774604],[100.39454021,38.29235175],[100.38034788,38.29840453],[100.37265923,38.30915963],[100.35875381,38.30740135],[100.34688018,38.31106867],[100.32209459,38.3244086],[100.32384686,38.33505471],[100.33120019,38.34060614],[100.32065797,38.35382338],[100.3188707,38.36246442],[100.29738766,38.3880939],[100.28617537,38.37782646],[100.27371184,38.37913813],[100.25953649,38.3641709],[100.24704309,38.37333035],[100.25250595,38.38239794],[100.24411152,38.41054235],[100.24762639,38.41826518],[100.23820431,38.4419134],[100.21453727,38.45310281],[100.16305909,38.46021115],[100.15381572,38.46746813],[100.14805349,38.4789573],[100.13152856,38.48164874],[100.1115642,38.49644979],[100.08899121,38.49232097],[100.0714333,38.5048071],[100.06081234,38.51977011],[100.03827706,38.50876404],[100.02204997,38.50713665],[100.0213164,38.49672175],[100.01395794,38.49084818],[99.99926499,38.46751016],[100.0293387,38.4441511],[100.02063095,38.43272304],[100.04467619,38.42826715],[100.04627104,38.42077079],[100.06087084,38.41990998],[100.08042361,38.40518091],[100.09034794,38.40749949],[100.09669408,38.38935728],[100.10955519,38.37733305],[100.10978122,38.37013353],[100.11944927,38.35642331],[100.11687554,38.3428402],[100.13957467,38.33189668],[100.16209879,38.32743058],[100.16734844,38.32049353],[100.15650868,38.30904977],[100.16230313,38.30013365],[100.15870327,38.29201226],[100.16483599,38.2816257],[100.16591562,38.26613763],[100.18357353,38.2416067],[100.18032046,38.21985571],[100.16250812,38.21512099],[100.15359256,38.22210097],[100.12711424,38.22890694],[100.11472006,38.25302077],[100.09872257,38.25864195],[100.09186088,38.27239958],[100.07508291,38.28509248],[100.05562355,38.2809186],[100.03928354,38.28631788],[100.00686595,38.31277094],[99.99014377,38.31225915],[99.97111309,38.31654684],[99.95765425,38.31502865],[99.94300688,38.33180139],[99.93850788,38.34120773],[99.92268971,38.33528184],[99.91305498,38.33682318],[99.89919345,38.34795821],[99.86319214,38.35822782],[99.84440926,38.35954548],[99.83915396,38.36648539],[99.81444274,38.36729812],[99.80573717,38.37885655],[99.79320135,38.38768339],[99.77707001,38.39035741],[99.77080849,38.40697035],[99.74420564,38.41086159],[99.73226775,38.40818044],[99.71888396,38.42151695],[99.7009216,38.42767059],[99.67640633,38.42985534],[99.65486862,38.4429366],[99.65905765,38.46481077],[99.64225027,38.47699761],[99.62881882,38.47454181],[99.61769857,38.48409584],[99.59807378,38.48900503],[99.59491463,38.49625703],[99.55176986,38.52304251],[99.54848062,38.5339294],[99.52686644,38.54701553],[99.51218854,38.5679337],[99.50991617,38.58632696],[99.513774,38.59819314],[99.50910448,38.60975567],[99.48992197,38.61026545],[99.48307683,38.61550491],[99.46412498,38.6052854],[99.44371384,38.60916187],[99.42656042,38.62422745],[99.43552197,38.63048455],[99.4308732,38.64373973],[99.41509006,38.66012292],[99.41626922,38.6695521],[99.39519686,38.67052906],[99.38561058,38.67610321],[99.37736517,38.69081456],[99.37756968,38.70590201],[99.36208274,38.71331502],[99.36107465,38.72330045],[99.34939764,38.73666779],[99.32142985,38.7397479],[99.31914758,38.74964918],[99.30541365,38.7600936],[99.23769835,38.78570788],[99.23500007,38.79209053],[99.21782244,38.79440551],[99.19077833,38.81606853],[99.17670548,38.81784564],[99.17479012,38.83011144],[99.15994441,38.83100552],[99.13885997,38.85790866],[99.12077822,38.86354792],[99.1052676,38.87648551],[99.09148519,38.88008123],[99.09057258,38.88756995],[99.07819211,38.89281075],[99.06346409,38.90518357],[99.07371798,38.91662699],[99.07942636,38.93408631],[99.08956224,38.93525296],[99.10428559,38.94989586],[99.09674144,38.95619514],[99.08330368,38.95263909],[99.05599926,38.95457842],[99.05351934,38.96413683],[99.03781212,38.97612514],[99.0113772,38.98426211],[98.99460249,38.97540365],[98.98269202,38.98468514],[98.95634068,38.98454844],[98.94274465,38.9940078],[98.93465219,38.99412591],[98.90227846,39.01198143],[98.89956645,39.02160272],[98.88671843,39.03861568],[98.87395264,39.04711387],[98.82444134,39.06044504],[98.82249183,39.0722774],[98.8119133,39.08692677],[98.76019809,39.08860298],[98.74260069,39.08558822],[98.74029755,39.0740114],[98.7292806,39.05559823],[98.70423931,39.04235759],[98.6918215,39.02098278],[98.67038475,39.00726095],[98.66530646,38.99477214],[98.64476154,38.99086868],[98.61323597,38.97953847],[98.62486189,38.95703612],[98.61589749,38.9466258],[98.59772537,38.94685134],[98.58794981,38.93031055],[98.57172039,38.931779],[98.5593065,38.94391759],[98.54581644,38.95009086],[98.51267954,38.95699193],[98.48319298,38.94870532],[98.45494971,38.96161482],[98.44248545,38.96349475],[98.42856343,38.97799943],[98.43391606,38.98292179],[98.43520417,38.99805383],[98.40841181,38.99711047],[98.399376,39.02393545],[98.38127541,39.03236595],[98.3623153,39.0292957],[98.33021134,39.03803676],[98.30544043,39.03558163],[98.29545261,39.03877096],[98.2858552,39.03286273],[98.28528847,39.00833719],[98.27571819,38.97507427],[98.25916145,38.94934019],[98.23670015,38.92273364],[98.2378485,38.91474248],[98.25059031,38.91049347],[98.253078,38.89981419],[98.24707108,38.88136951],[98.21596244,38.8678168],[98.18771938,38.84757153],[98.17743885,38.84573693],[98.16017033,38.83261855],[98.15256662,38.82026424],[98.11994694,38.80850587],[98.11683075,38.79811803],[98.10290471,38.79471],[98.09348215,38.78486801],[98.08008786,38.79756345],[98.06798037,38.81695013],[98.05166676,38.81872055],[98.02767325,38.83633124],[98.02716378,38.84460659],[98.01166083,38.85883404],[97.98078419,38.86060815],[97.96727388,38.86449177],[97.95748921,38.87287899],[97.94267097,38.87425507],[97.93471843,38.88109702],[97.91760689,38.87889432],[97.89693117,38.88881588],[97.88983363,38.89852142],[97.86861413,38.90382567],[97.85311176,38.92221037],[97.84063959,38.92111447],[97.81165399,38.93934145],[97.77108862,38.9408708],[97.75415035,38.94815075],[97.74613788,38.95815754],[97.72173421,38.96777205],[97.68513127,38.96959571],[97.6808286,38.98480333],[97.68535412,38.9894913],[97.68532389,39.00525802],[97.64573575,39.0188653],[97.62841232,39.03183897],[97.59413457,39.04071614],[97.58025414,39.050451],[97.57965253,39.05066791],[97.55673107,39.05738302],[97.54935557,39.06833611],[97.49157633,39.07965614],[97.48555836,39.09623727],[97.47118828,39.11109054],[97.45834593,39.11698925],[97.44461859,39.11240534],[97.42064412,39.13536468],[97.40155597,39.14870006],[97.3831111,39.15292113],[97.36529749,39.14897885],[97.34541586,39.17469867],[97.31632143,39.16758357],[97.30930797,39.16104826],[97.26310806,39.17264119],[97.25637824,39.17861733],[97.21986253,39.18891582],[97.2112224,39.19678043],[97.19508943,39.19657558],[97.16945308,39.1895175],[97.15312617,39.19906243],[97.13656546,39.2025335],[97.13007923,39.19764439],[97.0896127,39.20414757],[97.06270179,39.19782827],[97.05495567,39.20676531],[97.04337747,39.20983758],[97.01044832,39.21185102],[96.99887722,39.20396339],[96.97896904,39.20535451],[96.96202894,39.19760194],[96.97010073,39.18223082],[96.98963782,39.17115],[96.99690594,39.15181928],[97.01243856,39.14154297],[96.99294976,39.12381056],[96.98208068,39.10984822],[96.97144987,39.10314145],[96.97304039,39.0852343],[96.96053477,39.07488857],[96.96516556,39.06092499],[96.95780749,39.05681964],[96.95510486,39.04455956],[96.96856651,39.03466723],[96.97067835,39.0242567],[96.96599669,39.01272415],[96.94655343,38.9943152],[96.94444586,38.98189487],[96.93417521,38.97089801],[96.93609424,38.95426868],[96.94566566,38.94421547],[96.94751583,38.9346532],[96.94017157,38.90657863],[96.95030073,38.90395214],[96.95529832,38.88800282],[96.9890805,38.88579168],[96.99038133,38.87723466],[96.98364052,38.8685653],[96.98962343,38.86113975],[96.98863001,38.85052168],[96.99318983,38.83480275],[96.98746692,38.81974216],[96.98732093,38.79184456],[96.9925424,38.77419092],[97.00007405,38.76078331],[97.02178769,38.7551888],[97.02096135,38.73044876],[97.01140624,38.71939971],[97.00861615,38.70269318],[97.01621624,38.68602732],[97.03636109,38.67871483],[97.05178378,38.68022048],[97.04674417,38.6529667],[97.05160507,38.64488792],[97.05025061,38.6282669],[97.0553646,38.59305458],[96.99429034,38.56339693],[96.95931473,38.55406095],[96.93942705,38.55899582],[96.9276739,38.55480604],[96.90841138,38.5630834],[96.90102308,38.57260764],[96.87303777,38.57413662],[96.83124199,38.59665718],[96.82151633,38.5967202],[96.80923782,38.60803765],[96.79441832,38.6077699],[96.79861418,38.58960408],[96.80782095,38.58269621],[96.81198792,38.56814309],[96.79918878,38.57137741],[96.78234121,38.56379669],[96.77281226,38.56639673],[96.7616099,38.5553286],[96.76008931,38.5468584],[96.79100837,38.52609218],[96.78909012,38.5142072],[96.77608739,38.50360362],[96.75166784,38.49946273],[96.70531131,38.50599127],[96.69174296,38.4959287],[96.67036886,38.49795638],[96.65760608,38.4886043],[96.65930371,38.48108341],[96.69848441,38.45758946],[96.69160724,38.45037673],[96.68725892,38.41437631],[96.67936269,38.411503],[96.6631333,38.3883845],[96.64626381,38.37668966],[96.6261045,38.35548191],[96.62427232,38.33959315],[96.63384468,38.31661787],[96.65519226,38.29602652],[96.64809033,38.29211819],[96.65774902,38.2783341],[96.66326385,38.25936893],[96.66532537,38.22214947],[96.54064487,38.25371637],[96.53112828,38.25897779],[96.48903464,38.26683906],[96.43294364,38.28019908],[96.39609649,38.28071015],[96.37754918,38.27685672],[96.35206475,38.25823199],[96.33895722,38.2550091],[96.31107479,38.20045975],[96.31291627,38.19077983],[96.30155267,38.18215159],[96.30937653,38.1744283],[96.31256618,38.16190487],[96.30481841,38.15570147],[96.2938275,38.15638274],[96.2632936,38.14504609],[96.25411618,38.15719104],[96.2519026,38.16713176],[96.23537044,38.16997638],[96.21201678,38.1671302],[96.21850356,38.15549583],[96.20566586,38.14848183],[96.1914803,38.14898576],[96.18796985,38.1551173],[96.16667764,38.16036108],[96.16298127,38.16716696],[96.14626071,38.16676251],[96.14659469,38.17554405],[96.11482384,38.17980958],[96.10062352,38.18774034],[96.08831307,38.18340699],[96.07307794,38.18768646],[96.06385192,38.17212678],[96.04311029,38.18008181],[96.02712354,38.19156102],[96.02451016,38.19831011],[96.00757029,38.20039136],[96,38.206408],[95.98467147,38.20963747],[95.96963563,38.22600518],[95.95416344,38.22783853],[95.94040977,38.23610044],[95.92899914,38.25112061],[95.93254142,38.25818561],[95.91652061,38.26992067],[95.89883402,38.28803531],[95.88567768,38.28952016],[95.85619764,38.28384185],[95.84857138,38.30171374],[95.83579855,38.34398305],[95.81988472,38.35418649],[95.8092774,38.35046456],[95.79192049,38.35485526],[95.77637054,38.35496847],[95.7631373,38.36149146],[95.7632588,38.37122639],[95.74810017,38.36682927],[95.72198512,38.37854163],[95.70510638,38.3948574],[95.6879151,38.39709421],[95.67316319,38.39024053],[95.67285028,38.37869729],[95.66213943,38.36536645],[95.63855134,38.36571443],[95.63738557,38.35887803],[95.62463743,38.34672318],[95.60808882,38.33929185],[95.58797471,38.34396175],[95.5725617,38.33556215],[95.56882195,38.32570336],[95.55433068,38.32377162],[95.54896239,38.31553121],[95.53524617,38.3140667],[95.53152416,38.30633748],[95.50583246,38.29603124],[95.50031091,38.31296549],[95.48713804,38.31427673],[95.47550896,38.30198953],[95.45317539,38.29138431],[95.44381521,38.29879807],[95.43945713,38.31045017],[95.41985816,38.31061413],[95.4062364,38.29994632],[95.39626584,38.30494468],[95.3867743,38.30121744],[95.36066092,38.31360055],[95.33372893,38.30774478],[95.32796431,38.31653097],[95.31717446,38.32013792],[95.28090009,38.30530583],[95.26742442,38.29729194],[95.25829674,38.30297221],[95.25143499,38.3161453],[95.23376066,38.32238453],[95.22834406,38.33057857],[95.21058508,38.3256447],[95.19606265,38.34204526],[95.18828221,38.35960816],[95.19085347,38.37160946],[95.17418817,38.37763026],[95.16835366,38.3863822],[95.13904037,38.39166713],[95.12257421,38.41344396],[95.10672438,38.41665393],[95.08288647,38.40506005],[95.07123988,38.40201317],[95.04363174,38.41804982],[95.0314925,38.41127737],[95.0147809,38.42566024],[94.98245055,38.42370768],[94.97149592,38.43030837],[94.93518091,38.4263911],[94.92563211,38.42097698],[94.9007587,38.42017477],[94.89505261,38.4127489],[94.88056851,38.41282507],[94.87744352,38.40155349],[94.85387834,38.3912378],[94.82859093,38.39107256],[94.81128653,38.38578777],[94.78615416,38.38728703],[94.77761531,38.38426116],[94.75329351,38.38423702],[94.72689838,38.38891746],[94.69383272,38.38419748],[94.67636886,38.387124],[94.64972529,38.3837944],[94.60989664,38.37098685],[94.5952394,38.37384434],[94.58042147,38.36784269],[94.56142639,38.35426076],[94.55054509,38.35026887],[94.52901506,38.36056089],[94.52648906,38.37552591],[94.52765807,38.42252796],[94.51203306,38.44173497],[94.41418,38.6621742],[94.36965677,38.76164844],[94.32752935,38.75265699],[94.28472022,38.75627069],[94.27336991,38.75949862],[94.25117015,38.75650865],[94.01812887,38.73041892],[93.97170574,38.72470254],[93.95446367,38.7153588],[93.93917601,38.7137672],[93.90141001,38.72178343],[93.87422394,38.72044258],[93.86010078,38.72450377],[93.79883855,38.7505234],[93.78561108,38.76449716],[93.76840124,38.7768146],[93.76341446,38.79609337],[93.75483457,38.80731477],[93.76208726,38.81833536],[93.77154218,38.82064329],[93.88295301,38.82603529],[93.88346593,38.8674707],[93.83299768,38.86739119],[93.74660103,38.91194188],[93.73034059,38.92369835],[93.68317106,38.92205937],[93.46358498,38.91605291],[93.33081275,38.90368586],[93.3022938,38.89413966],[93.28070775,38.89371918],[93.25984227,38.90557533],[93.2372228,38.91534831],[93.20529151,38.9155542],[93.17916794,38.92277628],[93.18310417,38.92918678],[93.18948396,38.9755311],[93.19662162,39.04550098],[93.19139184,39.05629042],[93.17784615,39.06679446],[93.16372275,39.09033809],[93.14768983,39.10108789],[93.13140702,39.10643237],[93.1250031,39.12203757],[93.13215954,39.12816533],[93.13062682,39.13816825],[93.14084527,39.15941552],[93.12673842,39.1741395],[93.11403386,39.17914148],[93.09802922,39.17605932],[93.06605303,39.15077124],[93.04548241,39.14637957],[93.00921444,39.15150496],[92.98982845,39.15128404],[92.97749433,39.1435212],[92.96389277,39.15353057],[92.95945571,39.16541031],[92.93731965,39.16846025],[92.88714178,39.15881223],[92.865048,39.13823009],[92.84329283,39.13922609],[92.83033377,39.14313641],[92.82231416,39.13465424],[92.81141048,39.13209975],[92.80439119,39.13886823],[92.77901296,39.13907635],[92.76414863,39.13640497],[92.72756,39.12121359],[92.7103193,39.12721678],[92.68948634,39.1140123],[92.6748139,39.11744089],[92.65577532,39.11021951],[92.64751513,39.11759693],[92.61036876,39.10877374],[92.59222951,39.11229515],[92.58069009,39.10733164],[92.54580116,39.11080255],[92.53753265,39.09992942],[92.527408,39.10309219],[92.49378164,39.10183092],[92.48450236,39.09529094],[92.48086108,39.08481116],[92.45783799,39.06377268],[92.45947548,39.04291529],[92.4379495,39.04342381],[92.4236878,39.0468645],[92.40689322,39.03731409],[92.40493506,39.03317646],[92.4173736,39.01430799],[92.40106651,39.01160109],[92.37800754,38.99811167],[92.34543762,38.99735258],[92.32458413,39.00235533],[92.25600813,39.00089714],[92.21927842,38.98919358],[92.2082877,38.9820716],[92.19493204,38.98251071],[92.18443254,38.97730342],[92.17304945,38.9614914],[92.15299582,38.9633815],[92.13104313,38.96062449],[92.10659904,38.96316816],[92.09044492,38.95495343],[92.06578971,38.9551376],[92.05000179,38.94906112],[92.03782483,38.95064756],[92.02224895,38.94174613],[92.01276556,38.94333354],[91.99734973,38.93635219],[91.96317966,38.93056737],[91.91933616,38.90836133],[91.87782116,38.89743941],[91.87699411,38.88247184],[91.83619427,38.8738672],[91.82032693,38.87707191],[91.77838769,38.86293287],[91.74624819,38.86902729],[91.72506604,38.86497467],[91.71118985,38.86894868],[91.69555424,38.86639853],[91.68076078,38.8595428],[91.6786844,38.85259521],[91.66247252,38.85685316],[91.65540953,38.85342259],[91.63748192,38.85664033],[91.63110356,38.84589011],[91.606575,38.83753846],[91.58356742,38.83633161],[91.57572834,38.83073774],[91.56023231,38.83004516],[91.54728944,38.82475492],[91.53491996,38.82725207],[91.50136309,38.81534971],[91.46954149,38.81559126],[91.4472864,38.8132131],[91.41453468,38.79921313],[91.41098129,38.79270082],[91.39165565,38.7933899],[91.36431703,38.78017102],[91.35040313,38.76743545],[91.34291137,38.76987957],[91.3158389,38.76176453],[91.30476207,38.7490052],[91.28641563,38.74524487],[91.24503061,38.75145753],[91.22894173,38.74374834],[91.20939372,38.74291905],[91.18372893,38.73038934],[91.12905729,38.71787391],[91.11129941,38.70696672],[91.0839636,38.70940584],[91.03918001,38.70367151],[91.02387079,38.69725229],[90.99316239,38.69353313],[90.96739574,38.69713521],[90.93525535,38.68828235],[90.92117632,38.68747256],[90.89392475,38.67870695],[90.83101759,38.6682665],[90.80668013,38.65634762],[90.80195729,38.66621903],[90.76681176,38.65960402],[90.74827743,38.66087301],[90.72141552,38.65719906],[90.68839506,38.66817342],[90.67561432,38.66648601],[90.64909749,38.67250097],[90.62121189,38.66625231],[90.62490872,38.65801753],[90.64478377,38.63388113],[90.62215935,38.62535582],[90.60521256,38.60767834],[90.60974952,38.59623899],[90.57436964,38.59114883],[90.55926556,38.59452943],[90.54139435,38.57963182],[90.52749972,38.56132556],[90.50056605,38.55539727],[90.47657833,38.55677491],[90.45586459,38.5499089],[90.4611596,38.53782024],[90.45717916,38.53070296],[90.46163457,38.51909434],[90.43287177,38.50739543],[90.42139838,38.49090676],[90.39826602,38.49007434],[90.38187787,38.48415287],[90.35372987,38.48162338],[90.32877721,38.49246245],[90.31026107,38.49090317],[90.29981792,38.50082207],[90.26877325,38.49874377],[90.259913,38.49262013],[90.2366826,38.49546773],[90.20501423,38.4912651],[90.18596492,38.49365213],[90.14608108,38.48997304],[90.13292249,38.49464058],[90.11103666,38.48200957],[90.10786317,38.42745087],[90.11331966,38.41246184],[90.12620019,38.39993248],[90.1364891,38.40369697],[90.17034209,38.40002178],[90.17719553,38.39680542],[90.16870281,38.37541848],[90.15787381,38.3599309],[90.14364329,38.36206896],[90.13563159,38.34029901],[90.14214212,38.33366176],[90.21149432,38.28360111],[90.27895799,38.23792209],[90.35095405,38.23321141],[90.35971788,38.299872],[90.39987901,38.31089124],[90.47292371,38.31669187],[90.5293896,38.31963021],[90.51483264,38.20715207],[90.51604414,38.00031915],[90.51769165,37.82580758],[90.51808409,37.73099114],[90.53857034,37.72669792],[90.55077257,37.72860019],[90.5783207,37.72186699],[90.58258265,37.70448141],[90.60216213,37.70402514],[90.61742455,37.69660987],[90.64918139,37.70266611],[90.67600658,37.69188747],[90.6737331,37.68404398],[90.71577543,37.67479493],[90.74195668,37.66312952],[90.74165524,37.6554402],[90.76163379,37.65342396],[90.78626474,37.64281902],[90.79032833,37.63124727],[90.81094143,37.62652307],[90.8225752,37.61021214],[90.85200762,37.60220096],[90.86007937,37.5919397],[90.87734948,37.58179955],[90.88212569,37.57335893],[90.8689497,37.56234422],[90.86167664,37.53343453],[90.87822889,37.5301173],[90.90043802,37.51852134],[90.90890028,37.51973245],[90.92417036,37.50339899],[90.9406953,37.49727852],[90.93557442,37.4819055],[90.95238497,37.47783223],[90.97398932,37.48568338],[90.98855878,37.48579022],[90.99954677,37.4951671],[91.02127514,37.49260088],[91.05087488,37.48411044],[91.07367352,37.47550974],[91.07921182,37.46280364],[91.09961652,37.4449137],[91.10783352,37.42555395],[91.10781114,37.4053228],[91.11177542,37.38246676],[91.1260151,37.37398481],[91.1205467,37.36463818],[91.13416482,37.35604065],[91.13172795,37.32543689],[91.14586488,37.31518073],[91.15653907,37.31294782],[91.17009031,37.29897927],[91.16537905,37.28802388],[91.17134898,37.28221327],[91.19149287,37.27314239],[91.18623038,37.24689774],[91.19211536,37.23478371],[91.18803894,37.2225791],[91.19611463,37.21138408],[91.18844681,37.20533612],[91.2046651,37.19949516],[91.21573137,37.20029923],[91.2364626,37.17838395],[91.25018826,37.17931697],[91.26499037,37.16633164],[91.27560077,37.16375894],[91.27462572,37.15073893],[91.28461841,37.10522197],[91.30170849,37.08350314],[91.30063884,37.05992811],[91.29030276,37.0512158],[91.2878261,37.04239111],[91.30774071,37.0323039],[91.31256023,37.01974337],[91.30421302,37.01243407],[91.27881593,37.01145335],[91.25023067,37.01432514],[91.23203782,37.00984283],[91.21304777,37.0098692],[91.18567347,37.02541409],[91.15458326,37.01616381],[91.12961135,37.00514967],[91.12924043,36.987625],[91.12416968,36.97680822],[91.11460358,36.97025587],[91.0502417,36.96673824],[91.0454872,36.96349411],[91.03680161,36.92899351],[91.02339559,36.92626586],[90.99145779,36.91496441],[90.97878844,36.91351853],[90.96298528,36.91930314],[90.90070286,36.92030224],[90.89085126,36.91802332],[90.86993756,36.92060767],[90.85235837,36.915074],[90.8128422,36.88129628],[90.79401331,36.86162262],[90.79185158,36.84776879],[90.77804166,36.83610797],[90.76343219,36.8339498],[90.7578023,36.82571529],[90.73082546,36.8251467],[90.72776855,36.80327199],[90.72092244,36.79605407],[90.72305179,36.77356763],[90.73039982,36.76764979],[90.7256973,36.75477576],[90.73439795,36.74749765],[90.73742309,36.73698233],[90.75065126,36.73300646],[90.75560969,36.72153045],[90.74086263,36.71118137],[90.72079428,36.70725431],[90.71918348,36.69031469],[90.70923387,36.68343222],[90.71866479,36.66168268],[90.7302412,36.65569865],[90.72867815,36.64679738],[90.73451772,36.63007818],[90.731282,36.62110191],[90.72141401,36.61766534],[90.72586006,36.6042769],[90.73955202,36.58564161],[90.74911208,36.58353947],[90.76657937,36.58664936],[90.77583324,36.58256354],[90.80385776,36.58220705],[90.81083831,36.58522482],[90.82551428,36.57832971],[90.81707121,36.5604204],[90.84522408,36.56161262],[90.86813002,36.55689337],[90.87786691,36.55936765],[90.90575295,36.56003762],[90.91779666,36.55009137],[90.92852505,36.55442036],[90.97063516,36.54835706],[91.00979896,36.53924407],[91.01582405,36.5326819],[91.03290112,36.53169168],[91.02596704,36.5111531],[91.03499951,36.49658163],[91.03065579,36.48726595],[91.03811049,36.47482735],[91.03102227,36.46681299],[91.02577966,36.4433377],[91.03598678,36.43522073],[91.05133278,36.43008281],[91.04031514,36.41502456],[91.03265869,36.39212826],[91.0377146,36.37685399],[91.02746382,36.35742925],[91.03426235,36.34033853],[91.02575413,36.3334978],[91.02541307,36.32328992],[91.05071023,36.30961872],[91.05461551,36.29883102],[91.06778314,36.30106956],[91.0740799,36.28714947],[91.05453734,36.27248498],[91.0457103,36.25425528],[91.04828918,36.23975964],[91.09683088,36.21723073],[91.09237517,36.2056051],[91.09074536,36.18478115],[91.09881537,36.17166435],[91.09209205,36.16511821],[91.10622131,36.15359282],[91.11596522,36.13963407],[91.11685086,36.12381086],[91.12324521,36.11068315],[91.10447941,36.09307904],[91.08004438,36.08830516],[91.05530143,36.09534136],[91.03872293,36.09334314],[91.02975097,36.1015725],[90.99742763,36.10718382],[90.9738255,36.10536951],[90.95860165,36.0897282],[90.95004522,36.06253529],[90.94008981,36.04677594],[90.92589978,36.03181655],[90.89221141,36.02881623],[90.88649275,36.02490651],[90.86788807,36.02581311],[90.85201433,36.01839097],[90.84008365,36.01835787],[90.82488582,36.03068957],[90.81880399,36.0414531],[90.80308366,36.04503974],[90.7938981,36.05352329],[90.77347164,36.08790734],[90.74575553,36.0952924],[90.72483493,36.10470902],[90.70199333,36.12105674],[90.65652491,36.13578734],[90.62640554,36.13243845],[90.61440716,36.12754272],[90.58632402,36.13460764],[90.56892359,36.1323779],[90.55293854,36.1452053],[90.52753265,36.1489904],[90.49841883,36.14433418],[90.4806876,36.13248884],[90.44418359,36.13366247],[90.41866632,36.13670578],[90.38126353,36.14405304],[90.3699823,36.1485057],[90.35872559,36.1440174],[90.34171256,36.14547921],[90.32391931,36.15965702],[90.2881497,36.15878587],[90.27087863,36.16220344],[90.25073271,36.15825455],[90.23570405,36.16138011],[90.20946966,36.17813981],[90.19494634,36.1898742],[90.175272,36.18975263],[90.15521173,36.19428959],[90.12697987,36.20888323],[90.12849782,36.22338119],[90.1432451,36.23983142],[90.12686549,36.245807],[90.1051334,36.24963009],[90.08572455,36.2501696],[90.07913777,36.25693304],[90.06141245,36.25402182],[90.05093425,36.26006761],[90.03848541,36.27588275],[90.01548917,36.27540537],[90.00618718,36.26706882],[90.02393765,36.26197727],[90.02636987,36.25325548],[90.01671282,36.21257512],[90.00624194,36.19685489],[90.008617,36.18766092],[89.99686429,36.17014844],[89.98142759,36.15704952],[89.94246456,36.1409307],[89.93556194,36.13131333],[89.94752863,36.09998664],[89.94181398,36.08329363],[89.94083658,36.06794891],[89.92605285,36.07709614],[89.91185378,36.0798136],[89.87876971,36.07819469],[89.85783691,36.0820061],[89.847202,36.07615042],[89.83159645,36.07924498],[89.80836489,36.07629737],[89.79109151,36.07145327],[89.76675962,36.07922215],[89.7285419,36.08409954],[89.7093238,36.09319327],[89.6925641,36.0918555],[89.66007312,36.07417741],[89.64573433,36.06829866],[89.64164134,36.05778797],[89.63008808,36.04841198],[89.61743656,36.04887816],[89.61362953,36.04257248],[89.59536735,36.0378224],[89.56430818,36.03735955],[89.54795588,36.0293721],[89.52455539,36.02998874],[89.51030263,36.02609469],[89.50401938,36.02958531],[89.47298086,36.02258515],[89.46349439,36.03013443],[89.44836046,36.02851968],[89.43224199,36.03695569],[89.43065044,36.04329013],[89.41490929,36.04503331],[89.4010164,36.0193392],[89.41979082,36.00610692],[89.43151275,35.99437116],[89.42619772,35.9903935],[89.42448945,35.96634037],[89.43077112,35.95970172],[89.43153734,35.94758884],[89.41974571,35.93539792],[89.42086033,35.91988473],[89.46746307,35.90117612],[89.48938947,35.90284444],[89.53916859,35.8823812],[89.5359082,35.87536388],[89.54707529,35.85751819],[89.55754339,35.86208744],[89.57590826,35.86217709],[89.59683208,35.85562201],[89.60279522,35.86202029],[89.62293648,35.85986957],[89.65188854,35.84897198],[89.67195546,35.85330034],[89.68615981,35.84899485],[89.70718598,35.84957539],[89.72181709,35.85318452],[89.72963417,35.85941574],[89.74457419,35.85488051],[89.77607121,35.86238006],[89.79015851,35.85802568],[89.79964725,35.84934501],[89.79542052,35.84150861],[89.78132166,35.83212391],[89.78218943,35.82265687],[89.77722301,35.80642438],[89.76540953,35.80101554],[89.78000895,35.77542704],[89.77785099,35.7632827],[89.76134589,35.76474992],[89.74536027,35.75782681],[89.75037036,35.74036533],[89.7494645,35.72826622],[89.73930266,35.71635476],[89.74951512,35.70698261],[89.74212973,35.70079952],[89.74782371,35.69267871],[89.74498623,35.68443161],[89.7438421,35.65938809],[89.7311666,35.65796215],[89.72303753,35.6487229],[89.73606464,35.63609655],[89.74197764,35.6200413],[89.76184521,35.60262844],[89.75831421,35.58547528],[89.74155533,35.57963392],[89.72013119,35.58397605],[89.70930629,35.58332931],[89.70130153,35.55063229],[89.69607515,35.53910296],[89.70368344,35.53589449],[89.70319522,35.50981628],[89.71970371,35.50397818],[89.73891658,35.5078656],[89.76278001,35.4828518],[89.74197085,35.48091316],[89.73883048,35.47053914],[89.72920518,35.465335],[89.72352232,35.45496266],[89.70976944,35.44789358],[89.70949036,35.43978717],[89.69611306,35.43584413],[89.68288206,35.41709],[89.65532772,35.42687637],[89.61996839,35.4149931],[89.60332667,35.40204638],[89.59846468,35.39350904],[89.58341573,35.383958],[89.56503311,35.3828346],[89.53391877,35.36973105],[89.50670571,35.37343925],[89.49556024,35.36268032],[89.49888278,35.35254669],[89.50806413,35.35056478],[89.51381189,35.33292252],[89.5031218,35.32253175],[89.4931132,35.29593414],[89.49815873,35.28716266],[89.50814864,35.28492563],[89.52283915,35.28789695],[89.52651384,35.27581583],[89.50274344,35.26305774],[89.4868656,35.25846098],[89.47034296,35.2458876],[89.45425012,35.2374762],[89.44715581,35.22674974],[89.46825119,35.21439484],[89.48310084,35.18604135],[89.50132975,35.16670454],[89.51054331,35.1474631],[89.51042064,35.13991483],[89.53284948,35.1308599],[89.53621121,35.12346686],[89.55392585,35.12032486],[89.56452548,35.12334269],[89.5786988,35.11947109],[89.5898788,35.10911073],[89.58395432,35.0976804],[89.59157379,35.08876556],[89.58327824,35.02843044],[89.5774498,35.01911757],[89.5652188,35.01414908],[89.57471745,35.00107893],[89.57493739,34.98910593],[89.56534125,34.96681893],[89.56836488,34.95655409],[89.55884124,34.9399121],[89.56716511,34.91808428],[89.58243985,34.91144314],[89.58065096,34.89990874],[89.58952674,34.89658765],[89.6203747,34.89450341],[89.62034106,34.88312851],[89.66543396,34.88969283],[89.6699639,34.89664493],[89.69653419,34.9070992],[89.70289904,34.91982615],[89.71199127,34.92102242],[89.72993436,34.90827174],[89.74454116,34.90427165],[89.76342038,34.91745718],[89.78295654,34.92372844],[89.80329643,34.91652178],[89.81534271,34.90076906],[89.813939,34.89308596],[89.82120081,34.8839917],[89.80909148,34.87479955],[89.83663053,34.8665153],[89.84440935,34.85824052],[89.84901539,34.82334454],[89.86678347,34.81752797],[89.86327772,34.81093209],[89.83956106,34.80677699],[89.82366113,34.79801998],[89.8273703,34.78912865],[89.82218656,34.77990734],[89.80553177,34.77048075],[89.80579161,34.75246462],[89.79431788,34.74453284],[89.76866062,34.75056589],[89.76239269,34.74133948],[89.74680125,34.74033415],[89.73074465,34.73404319],[89.72151681,34.70263211],[89.73009629,34.69716339],[89.73433962,34.68229263],[89.72424309,34.66586726],[89.73643387,34.65793261],[89.74054273,34.6453644],[89.77276829,34.63889478],[89.79631871,34.62867256],[89.79089992,34.61567633],[89.79261286,34.60627953],[89.7751776,34.59652309],[89.77930284,34.58453825],[89.77555752,34.57704919],[89.81319336,34.55040934],[89.80832705,34.5442704],[89.81584613,34.53643353],[89.80994842,34.5276627],[89.81752149,34.52282056],[89.80994853,34.50638827],[89.81579125,34.48342324],[89.80700105,34.4761021],[89.82150849,34.45557162],[89.81770332,34.45093614],[89.82044325,34.42869851],[89.80799502,34.41559783],[89.79769722,34.39754023],[89.81085717,34.38837441],[89.82274904,34.38655314],[89.81932793,34.36937067],[89.83831283,34.35874217],[89.8584787,34.3610919],[89.85978675,34.34660962],[89.87063854,34.34052462],[89.86537463,34.32635119],[89.84569715,34.3086996],[89.82595247,34.29952258],[89.8249476,34.28172912],[89.83604477,34.26339062],[89.82848113,34.2395997],[89.81933641,34.22507505],[89.82165766,34.20616332],[89.8029616,34.18827051],[89.81576546,34.17950971],[89.81398164,34.17092148],[89.79047077,34.15380682],[89.77907184,34.1519039],[89.7578144,34.15446524],[89.75131061,34.14163998],[89.75471769,34.12633835],[89.72271353,34.12969935],[89.70741802,34.13351958],[89.69242052,34.13119028],[89.68064414,34.10917244],[89.66189217,34.09837678],[89.65423099,34.0983445],[89.64884183,34.08325604],[89.65344319,34.05919336],[89.63317177,34.05260675],[89.63397093,34.04408782],[89.64632234,34.0417726],[89.65030113,34.0269685],[89.66374854,34.02115469],[89.67469704,34.00030633],[89.68105961,33.99529366],[89.67959385,33.98422645],[89.69397376,33.96190547],[89.71572477,33.94886192],[89.72459535,33.92965933],[89.7395237,33.91762505],[89.76077586,33.9137954],[89.7611647,33.89843927],[89.78167689,33.88443796],[89.78015195,33.87831065],[89.79261513,33.86646875],[89.81183831,33.86453043],[89.835848,33.87061579],[89.85658125,33.85836605],[89.85999871,33.8434883],[89.869333,33.83310707],[89.88295256,33.82517158],[89.89338341,33.82449441],[89.89977745,33.80952171],[89.92223395,33.81214299],[89.93819483,33.80532746],[89.92244029,33.78504916],[89.91296393,33.7686966],[89.90178172,33.76277598],[89.904661,33.74127177],[89.92768199,33.7439992],[89.98153602,33.72642941],[89.97923273,33.71833541],[89.9839352,33.70425541],[90.00612029,33.69156108],[89.99163363,33.66943889],[89.99943991,33.6597145],[89.99577114,33.64834114],[89.98750901,33.64146682],[89.98160718,33.6158462],[89.98772299,33.6013886],[89.9858192,33.58763701],[89.99561777,33.57936127],[90.00634829,33.55830404],[90.02670385,33.54822981],[90.04323598,33.54578228],[90.04589005,33.54118597],[90.07871762,33.53383018],[90.08925049,33.49077403],[90.08893481,33.47179206],[90.1062181,33.46312414],[90.12906668,33.45938819],[90.14666288,33.45277103],[90.18433046,33.4443265],[90.19293274,33.43823574],[90.22312266,33.43851206],[90.24201458,33.42837325],[90.29413796,33.36071034],[90.32024874,33.32542399],[90.36194489,33.28454887],[90.36860738,33.28588138],[90.38859485,33.27807675],[90.40496554,33.26379997],[90.48375554,33.26875035],[90.49804575,33.2557423],[90.51772791,33.24460668],[90.54473372,33.23958946],[90.56217061,33.23073969],[90.56232777,33.2258603],[90.58078078,33.21353681],[90.60340448,33.20394112],[90.62913195,33.17917666],[90.64949572,33.17067235],[90.65272607,33.16500922],[90.69382125,33.14613157],[90.70131938,33.1382401],[90.72601805,33.14002064],[90.7403797,33.14494034],[90.76002188,33.13938957],[90.77080918,33.13018785],[90.80264798,33.11643163],[90.81696018,33.11964151],[90.83441342,33.11774815],[90.84300083,33.11286324],[90.85383074,33.11923341],[90.88066707,33.12267289],[90.88861281,33.10173492],[90.90038855,33.08817749],[90.9093906,33.10395902],[90.90925819,33.11296975],[90.92751488,33.12357032],[90.94734155,33.1176006],[90.95463507,33.12072163],[90.98115113,33.12236489],[91.00104938,33.12007908],[91.0131872,33.12282094],[91.02865379,33.11331282],[91.03619554,33.10084111],[91.05283962,33.11116746],[91.06989718,33.11511141],[91.10029641,33.09404886],[91.11665565,33.08706268],[91.13275066,33.07579809],[91.14540363,33.07424518],[91.14706262,33.09248441],[91.1588838,33.10014835],[91.16046285,33.11173538],[91.17178886,33.11598677],[91.18620186,33.10837634],[91.19514446,33.11819179],[91.19441559,33.12785643],[91.21421892,33.12952521],[91.22503609,33.14368764],[91.25881216,33.14345225],[91.27304273,33.13065425],[91.28827746,33.12851679],[91.29611654,33.1181339],[91.31439124,33.10915879],[91.32507739,33.11033927],[91.35032178,33.10421325],[91.37960346,33.09959652],[91.39035702,33.08936765],[91.40124636,33.08478559],[91.42452093,33.08152302],[91.42943677,33.07108461],[91.45704887,33.07575208],[91.46062739,33.0940069],[91.47400304,33.09838441],[91.48098363,33.10616943],[91.4950463,33.11117804],[91.50439271,33.10344846],[91.53487741,33.10165521],[91.55804244,33.07784072],[91.5516058,33.06328957],[91.56118265,33.06117292],[91.56323091,33.0521089],[91.57579237,33.04931503],[91.58144533,33.04056693],[91.61011078,33.03373698],[91.63862031,33.0236138],[91.64388824,33.01689247],[91.66351018,33.01295717],[91.66614976,33.00144993],[91.68443019,32.99146496],[91.70644165,32.98823096],[91.72301221,32.982219],[91.73046709,32.97256941],[91.74946709,32.97062305],[91.78115854,32.94740036],[91.79510268,32.94305469],[91.7992443,32.95081694],[91.81161015,32.95597996],[91.82661311,32.94936036],[91.83726569,32.94955915],[91.84376386,32.94024845],[91.84807763,32.92400377],[91.85770239,32.91906929],[91.85941636,32.90476074],[91.87727572,32.90855516],[91.89352559,32.90869208],[91.90003879,32.89670537],[91.8932357,32.89028325],[91.90345975,32.87592932],[91.91452312,32.87614177],[91.92335678,32.86949051],[91.92563377,32.85833108],[91.93320168,32.85528181],[91.93970811,32.8380915],[91.9564201,32.8215803],[91.97443039,32.82239119],[91.99048263,32.82652735],[91.99819233,32.83788556],[92.01131316,32.83215628],[92.02720942,32.83248667],[92.0236,32.84839761],[92.03709489,32.86303526],[92.04617282,32.85907885],[92.06424903,32.86319927],[92.08673479,32.86024173],[92.10167105,32.86183517],[92.11083154,32.86813454],[92.11685109,32.87906758],[92.1351806,32.88621561],[92.14684465,32.88655592],[92.15246678,32.87368175],[92.19728962,32.86971661],[92.20315324,32.86055721],[92.22886258,32.8437543],[92.22732635,32.82478409],[92.21428807,32.82128522],[92.19307664,32.80503993],[92.21025579,32.78979562],[92.20346999,32.76410941],[92.19784421,32.75744525],[92.20874848,32.75069496],[92.2160849,32.73752548],[92.23418437,32.73789702],[92.25433807,32.72451017],[92.26713815,32.72353996],[92.27281963,32.72978717],[92.28966963,32.73578308],[92.2897729,32.74211114],[92.30100585,32.75338368],[92.31855784,32.7534992],[92.32941292,32.74986463],[92.33762709,32.74090787],[92.35399013,32.74440339],[92.35499261,32.7649354],[92.37730252,32.75944068],[92.38495238,32.75455544],[92.4107972,32.74839316],[92.43172214,32.76313231],[92.45737637,32.76598125],[92.46310437,32.75801809],[92.48477678,32.74546203],[92.50606215,32.74811495],[92.52327662,32.73607079],[92.5444013,32.73933382],[92.55301466,32.73244189],[92.57098174,32.73461769],[92.57688108,32.74413987],[92.61420811,32.72945187],[92.62681914,32.73424568],[92.63697938,32.72229311],[92.65017573,32.72340007],[92.66601306,32.73247671],[92.67544888,32.74506969],[92.67948592,32.76246736],[92.69447626,32.76566009],[92.72156297,32.7496323],[92.73606768,32.75145821],[92.74347817,32.74369634],[92.75358504,32.74582187],[92.77386989,32.72557927],[92.78979954,32.72200472],[92.79341964,32.72858711],[92.81157408,32.7318042],[92.82497508,32.72975946],[92.83481647,32.72029995],[92.85003929,32.7139346],[92.8726812,32.69889117],[92.87769716,32.7128076],[92.88871713,32.7102469],[92.90074919,32.71393865],[92.91336569,32.70666183],[92.92634386,32.71147677],[92.93293423,32.72177192],[92.94967657,32.71580662],[92.96221616,32.71550409],[92.984049,32.72529479],[92.99514123,32.74188821],[93.01822469,32.7389496],[93.02420484,32.71169113],[93.02299147,32.70290494],[93.04531813,32.69389795],[93.03840708,32.67915797],[93.0460388,32.67234721],[93.04668925,32.65767606],[93.05275313,32.64497288],[93.06568119,32.62812807],[93.08122451,32.63182176],[93.08862553,32.63891453],[93.10904746,32.64004791],[93.11610863,32.64936537],[93.12623804,32.64358977],[93.15729687,32.64724035],[93.16343287,32.66693126],[93.17668174,32.67235906],[93.19262272,32.66790436],[93.20604129,32.65892335],[93.22424956,32.65728185],[93.24097661,32.66522249],[93.25163018,32.65806089],[93.24894477,32.64816264],[93.25631745,32.6328232],[93.26827447,32.62506799],[93.28527473,32.62531667],[93.30294898,32.61774219],[93.29812953,32.61004343],[93.3133724,32.60296954],[93.30753693,32.57861226],[93.3372,32.57276505],[93.37287007,32.54227148],[93.38130718,32.5263711],[93.39144726,32.54280887],[93.40987021,32.54714188],[93.40947009,32.55829275],[93.43512314,32.55939775],[93.44393745,32.56411305],[93.4617074,32.55768365],[93.46162015,32.54493457],[93.47349071,32.53084679],[93.47527354,32.50452697],[93.50192624,32.50036255],[93.51452486,32.47803907],[93.5299338,32.47871661],[93.53194319,32.48620403],[93.54314376,32.49182561],[93.55497157,32.48854441],[93.56228466,32.50123041],[93.57361081,32.50923868],[93.58072033,32.50840854],[93.61633692,32.52635228],[93.62827621,32.54533902],[93.62289295,32.55384111],[93.64034904,32.55544305],[93.6457276,32.57101437],[93.66515394,32.57734721],[93.67531773,32.57021003],[93.69718241,32.57782241],[93.71718958,32.58027806],[93.73915541,32.57614973],[93.74743548,32.56588187],[93.761887,32.57005289],[93.78318344,32.5583822],[93.804496,32.55723817],[93.82299909,32.54900143],[93.827803,32.53376667],[93.82598693,32.52170896],[93.84991072,32.51302569],[93.84853375,32.49672861],[93.85823653,32.49036246],[93.85436036,32.47994379],[93.86667537,32.47526412],[93.89336774,32.47571983],[93.90671955,32.46576205],[93.93321737,32.48052578],[93.96023685,32.4864352],[93.96568677,32.48196557],[93.97476299,32.46255178],[93.99163731,32.465983],[94.01114627,32.44794206],[94.02835228,32.44804345],[94.02944298,32.45795411],[94.04391176,32.46304897],[94.04985324,32.47230193],[94.06709989,32.4704187],[94.09178748,32.46413756],[94.1004507,32.44931595],[94.1172501,32.44540984],[94.13837628,32.43404524],[94.14960712,32.44392479],[94.15297964,32.45625168],[94.17946169,32.45711735],[94.18394299,32.46889788],[94.17744908,32.48176718],[94.18205434,32.50218428],[94.19406805,32.51007734],[94.1953734,32.51639651],[94.23029419,32.51137317],[94.24178159,32.51855402],[94.28934206,32.50499403],[94.29261772,32.52051369],[94.31751353,32.53289389],[94.3347473,32.53118159],[94.35236474,32.53510382],[94.35426154,32.52308158],[94.36733422,32.52314044],[94.37078836,32.53530048],[94.37935823,32.54095377],[94.38316051,32.55359175],[94.37677589,32.56764084],[94.39393858,32.596116],[94.403692,32.60082902],[94.40661661,32.58549687],[94.4290368,32.57187698],[94.43342716,32.56370064],[94.44885731,32.57278613],[94.46093571,32.57314699],[94.4620775,32.59368497],[94.45678432,32.60050689],[94.47228686,32.61188436],[94.48395775,32.601537],[94.49435615,32.60016179],[94.50108334,32.60594958],[94.51368018,32.60044993],[94.53091337,32.59976971],[94.55164096,32.61130968],[94.56498991,32.63035867],[94.59352803,32.63102845],[94.5902248,32.64330954],[94.60143132,32.65312302],[94.59978326,32.66671955],[94.61007089,32.67658619],[94.63319838,32.65796071],[94.64034845,32.64516591],[94.67462754,32.62175282],[94.68981065,32.61712023],[94.68515648,32.60776089],[94.70151125,32.60016593],[94.72084363,32.60640034],[94.72233377,32.59824737],[94.73492607,32.59144361],[94.73332547,32.58319618],[94.74430942,32.57138415],[94.74700462,32.56097863],[94.75816473,32.55750126],[94.75523285,32.53502805],[94.76868819,32.52658555],[94.78615695,32.52479667],[94.79262689,32.51530427],[94.79315987,32.50196277],[94.80421008,32.4924254],[94.82431416,32.48362839],[94.84022747,32.48001923],[94.84962111,32.46665716],[94.87092282,32.47221682],[94.89086822,32.47425958],[94.90380037,32.45461607],[94.9016437,32.44804],[94.90777886,32.43710829],[94.91142259,32.41998286],[94.92295858,32.41164603],[94.93866156,32.41082134],[94.9498917,32.41397417],[94.96712317,32.40961339],[94.97945476,32.41178925],[94.98704364,32.42511653],[95.01840664,32.41069499],[95.05568528,32.39704464],[95.05611496,32.39225745],[95.07380937,32.37826927],[95.07844123,32.38577964],[95.09727573,32.39026661],[95.10654641,32.38597906],[95.12930715,32.38874422],[95.12946419,32.40048299],[95.14940503,32.39452171],[95.15178441,32.38846217],[95.16585918,32.38675975],[95.17146431,32.39523874],[95.18144375,32.39649289],[95.19100319,32.38854432],[95.22240215,32.39134979],[95.23019888,32.36730929],[95.24792915,32.36228907],[95.25813539,32.35143462],[95.25115166,32.34779208],[95.22410003,32.34528765],[95.19215634,32.33417372],[95.15193042,32.33477831],[95.11748992,32.32543053],[95.09602986,32.32475174],[95.09437105,32.31601998],[95.07863938,32.29831629],[95.07804771,32.28217984],[95.1053491,32.26139752],[95.11808063,32.2675884],[95.12835647,32.26783151],[95.13771976,32.27648896],[95.17948518,32.28622286],[95.19022732,32.29550199],[95.20473044,32.29859087],[95.20647116,32.31115658],[95.21457317,32.32478371],[95.22786884,32.32066162],[95.24021811,32.3226085],[95.23984201,32.3061489],[95.24526279,32.29668263],[95.23833054,32.28936951],[95.24661268,32.27975568],[95.25508432,32.25734764],[95.25501987,32.23669038],[95.26179958,32.21410461],[95.27655112,32.21013615],[95.27941184,32.20352654],[95.26886846,32.19719474],[95.28519477,32.17454147],[95.30658982,32.16614821],[95.31168021,32.15122422],[95.33100924,32.15167206],[95.3403074,32.15737141],[95.35546534,32.14806144],[95.36527142,32.15312066],[95.35809217,32.16747514],[95.36798309,32.18252194],[95.4047719,32.18496793],[95.41648119,32.17488787],[95.42159808,32.16145235],[95.4394094,32.15978142],[95.43497592,32.15097846],[95.43966078,32.13907708],[95.43295606,32.12252335],[95.44017905,32.12208328],[95.45030742,32.10339644],[95.44809097,32.08111044],[95.45269707,32.06727962],[95.4348078,32.06166797],[95.4182252,32.04683859],[95.42209674,32.03256673],[95.45324065,32.00979618],[95.44862349,32.00524198],[95.4300525,32.00157754],[95.42130134,32.01041006],[95.41328033,32.00279311],[95.39490199,32.00388308],[95.37313917,31.97928303],[95.36843463,31.96789402],[95.36977822,31.95018315],[95.35994505,31.93947169],[95.36852326,31.9296289],[95.38235865,31.92804027],[95.39283812,31.92165575],[95.40869072,31.91759297],[95.40525484,31.90042011],[95.41876103,31.88762947],[95.41840958,31.87342463],[95.44006579,31.83251481],[95.44834265,31.82941236],[95.46240915,31.81427146],[95.45292202,31.80459394],[95.48663278,31.79038449],[95.48818308,31.78173762],[95.50849305,31.76376808],[95.51359482,31.75042481],[95.53637825,31.74256598],[95.56563017,31.7420426],[95.57840214,31.74985163],[95.58068905,31.77039007],[95.6068948,31.77107637],[95.61692853,31.78622068],[95.72370396,31.76530454],[95.74059618,31.76392354],[95.77093895,31.75472202],[95.78955481,31.73812277],[95.7935028,31.72224989],[95.80377977,31.69951493],[95.82383239,31.68321569],[95.83380127,31.68874005],[95.84992451,31.70740317],[95.85280538,31.71535488],[95.85153539,31.74095987],[95.86761011,31.77486984],[95.87803321,31.78640786],[95.89835334,31.81904676],[95.91879285,31.82302291],[95.97142417,31.82030365],[95.99200502,31.81208897],[95.98870015,31.7904894],[95.99312195,31.77528677],[96,31.77503445],[96.04391593,31.73403636],[96.05351775,31.73309768],[96.07014262,31.72309223],[96.09771945,31.71466519],[96.10736074,31.70311692],[96.12073066,31.69883666],[96.13435614,31.69941983],[96.14681418,31.68960032],[96.14665481,31.67717042],[96.15219019,31.65536935],[96.14986618,31.61848267],[96.15390452,31.60574114],[96.1621365,31.60206092],[96.18933685,31.60808922],[96.20584391,31.60066822],[96.21630039,31.61133514],[96.21432084,31.618401],[96.22572792,31.62755523],[96.22232951,31.65175022],[96.22985366,31.65947476],[96.24615353,31.66069462],[96.25052302,31.66693712],[96.24608211,31.680466],[96.25173263,31.6993206],[96.22382074,31.7317887],[96.22317721,31.74439167],[96.23142679,31.75076834],[96.20960182,31.76541108],[96.1760281,31.77771643],[96.1818925,31.79700544],[96.17528209,31.82217945],[96.18270991,31.83792124],[96.20012717,31.84087742],[96.2062375,31.85180488],[96.21375105,31.87575922],[96.19769632,31.88675212],[96.18736385,31.90581486],[96.20181737,31.90950468],[96.21840212,31.90778922],[96.23644704,31.91829495],[96.23984111,31.92813478],[96.25200021,31.93233829],[96.26889089,31.92357235],[96.27923518,31.92220025],[96.3540284,31.91844479],[96.36674997,31.92710569],[96.38584647,31.92559502],[96.40160219,31.8922625],[96.39846652,31.88180125],[96.40407275,31.86858319],[96.40740965,31.84794066],[96.41222009,31.83567632],[96.42627841,31.83142697],[96.43200589,31.81957078],[96.43255029,31.80399473],[96.4374406,31.79692306],[96.46110581,31.78187321],[96.47397739,31.77091953],[96.48653131,31.76755855],[96.50583535,31.75475019],[96.52452312,31.74543789],[96.52884401,31.73772527],[96.54379063,31.73084508],[96.56748717,31.7144479],[96.57378603,31.71573987],[96.61505781,31.73941596],[96.62544379,31.72542052],[96.64625758,31.71112483],[96.65933946,31.70780578],[96.67075817,31.71374043],[96.66766529,31.72831957],[96.67554338,31.73051111],[96.69261126,31.72369879],[96.71163741,31.70376507],[96.71988441,31.69055353],[96.73010562,31.68249184],[96.74628257,31.67582712],[96.77334042,31.67574343],[96.78268319,31.68622622],[96.78794573,31.7003557],[96.79703848,31.70473357],[96.81962756,31.7030769],[96.83996256,31.72226768],[96.84058718,31.72984004],[96.83075834,31.74357616],[96.81957907,31.74543943],[96.80986277,31.7661865],[96.7992668,31.77334928],[96.79720314,31.79862073],[96.76827489,31.81733974],[96.76447137,31.82299783],[96.75923708,31.85671293],[96.76167577,31.8689267],[96.79540702,31.8716701],[96.80043827,31.88509256],[96.81084286,31.89987147],[96.79893212,31.90920157],[96.78463545,31.91465399],[96.77071532,31.94306527],[96.75658034,31.94620916],[96.74689548,31.97095319],[96.73889365,31.98127483],[96.74262615,32.00414975],[96.72328249,32.0156059],[96.72367228,32.0263256],[96.73217801,32.02971586],[96.74429283,32.01632939],[96.76172033,32.01794933],[96.76608202,32.01350663],[96.7834931,32.01600541],[96.78970162,32.02178189],[96.80400188,32.0150938],[96.82226478,32.0116646],[96.82738294,32.0029586],[96.839146,32.00260315],[96.8468183,31.99149084],[96.84781704,31.97972948],[96.86618047,31.96764822],[96.86982531,31.97405554],[96.86316015,31.99143516],[96.88920584,32.00458955],[96.8944879,32.01763295],[96.91116297,32.00483365],[96.94340436,31.99132583],[96.95583711,31.99662393],[96.96669865,32.01165624],[96.96141516,32.02179739],[96.94385291,32.02822097],[96.9353037,32.04232977],[96.93472589,32.05050191],[96.94709978,32.06131803],[96.97506063,32.06922174],[96.98881135,32.06671713],[97.01040127,32.06911272],[97.01787181,32.05691881],[97.02770197,32.05185137],[97.06821885,32.04764468],[97.07403143,32.05140762],[97.09836483,32.0400166],[97.11078222,32.04470182],[97.12996247,32.04631794],[97.1527851,32.03954887],[97.16601494,32.02677994],[97.16946951,32.03780996],[97.17825473,32.04381308],[97.18606125,32.05744619],[97.20247821,32.05375365],[97.21260928,32.0448039],[97.23472139,32.04861392],[97.2346863,32.06467566],[97.22648431,32.07377386],[97.21086054,32.08305926],[97.20068582,32.0930202],[97.21266487,32.10010967],[97.2179268,32.10924832],[97.22925274,32.10878464],[97.23180224,32.09771765],[97.25680731,32.07480502],[97.27315379,32.07361967],[97.3073453,32.0807655],[97.29235981,32.10005115],[97.30468027,32.12516868],[97.29232445,32.13342358],[97.2710246,32.14251157],[97.27553308,32.15733837],[97.27013023,32.16109012],[97.26375998,32.18640453],[97.27680525,32.21486336],[97.281112,32.2473025],[97.28643899,32.26122002],[97.29321298,32.29311415],[97.31930881,32.30581729],[97.34425717,32.29881103],[97.34018015,32.28501011],[97.35087133,32.28574757],[97.3686776,32.27534244],[97.38877251,32.2852686],[97.39617992,32.29403048],[97.41501,32.2977124],[97.41733562,32.30849378],[97.4128668,32.3294378],[97.40744657,32.33583538],[97.41339355,32.34399832],[97.41592066,32.35845565],[97.40906416,32.38110525],[97.40192558,32.39257554],[97.40003444,32.40413309],[97.38884243,32.41482996],[97.39137173,32.42310588],[97.383441,32.43108443],[97.3726117,32.43209361],[97.36564198,32.43880654],[97.3468037,32.43469271],[97.33993727,32.44581354],[97.34713731,32.46579418],[97.37489678,32.48531455],[97.38179284,32.49992252],[97.36885141,32.51257856],[97.34649372,32.51705163],[97.3349094,32.51645698],[97.33053426,32.54031278],[97.34047849,32.55891545],[97.35608195,32.56611641],[97.36503712,32.55274004],[97.37364689,32.54892863],[97.38619613,32.55131976],[97.3958358,32.56055504],[97.40800529,32.56581986],[97.41190659,32.57769533],[97.44719557,32.5891648],[97.46128253,32.57307297],[97.46253114,32.55729591],[97.47166156,32.54732893],[97.48495263,32.54363833],[97.50111888,32.53333343],[97.53087158,32.528101],[97.54114173,32.53973669],[97.57351895,32.52712953],[97.58577703,32.5261028],[97.59104384,32.53338009],[97.60321336,32.52629029],[97.62372296,32.52241334],[97.63601991,32.52718034],[97.67089823,32.52019673],[97.68372116,32.53273783],[97.70110394,32.52545838],[97.72500463,32.52673984],[97.7304463,32.52984106],[97.70206326,32.53669342],[97.69132156,32.54765262],[97.67481308,32.55028447],[97.66125872,32.56314392],[97.64631639,32.56996109],[97.63631301,32.57976375],[97.6300529,32.57807029],[97.61621014,32.58996017],[97.60966834,32.60042304],[97.60814105,32.61514334],[97.59838795,32.61881083],[97.58520729,32.61362841],[97.58104374,32.6192404],[97.56000438,32.62408008],[97.54376608,32.62413065],[97.5341222,32.64099518],[97.52186812,32.63684268],[97.51380195,32.65077076],[97.50231321,32.64897207],[97.48230457,32.65630755],[97.47687471,32.66748448],[97.46889441,32.667047],[97.44737973,32.69021968],[97.4227143,32.70767228],[97.42788016,32.71175247],[97.42529124,32.72815368],[97.41354293,32.73756098],[97.38500802,32.78246169],[97.38113933,32.79508434],[97.37808848,32.82591835],[97.39229125,32.83069713],[97.39139226,32.84526638],[97.38178928,32.85760346],[97.38791744,32.86443139],[97.37514589,32.87178247],[97.37404586,32.88852318],[97.35762283,32.88838054],[97.34749306,32.89740545],[97.34943595,32.906194],[97.35907998,32.9122166],[97.35936931,32.92272961],[97.36821266,32.92981425],[97.36037843,32.94328305],[97.37300855,32.95829927],[97.38380263,32.956752],[97.39524225,32.96191273],[97.40959723,32.96293931],[97.41282837,32.97013166],[97.44132979,32.9793399],[97.46364931,32.97422798],[97.47724844,32.98376208],[97.50303378,32.98119362],[97.52180204,32.99006047],[97.50072436,33.01097545],[97.49994951,33.02273109],[97.51712993,33.02378404],[97.52591228,33.03176432],[97.54325782,33.03816732],[97.53752814,33.04744995],[97.53685751,33.06098764],[97.51558142,33.0959927],[97.49138832,33.10399866],[97.48471836,33.11212556],[97.49853819,33.1393278],[97.48550415,33.14703809],[97.48665969,33.17023436],[97.5084083,33.17612432],[97.52443742,33.19423756],[97.52776207,33.20375038],[97.53629686,33.20871671],[97.54918207,33.20668994],[97.55571825,33.21469198],[97.57539839,33.22302063],[97.57543843,33.23434739],[97.60638423,33.26356032],[97.60531746,33.28389063],[97.6163028,33.30898617],[97.62281659,33.34164697],[97.63718303,33.34784737],[97.64903888,33.34306463],[97.66399176,33.34221186],[97.6796947,33.34813752],[97.67427715,33.35520645],[97.6873272,33.36395571],[97.70171701,33.36134928],[97.70767239,33.37467065],[97.72028988,33.38871186],[97.73637398,33.38998918],[97.75383609,33.41160183],[97.73729278,33.4147875],[97.70496673,33.4310672],[97.69081136,33.43100278],[97.67073736,33.43895759],[97.66305606,33.44954955],[97.64515449,33.45086244],[97.62753424,33.46326439],[97.61435261,33.46173431],[97.60402908,33.45376043],[97.58692498,33.46380254],[97.58068754,33.47253102],[97.56907384,33.46636238],[97.55583431,33.46540505],[97.54248212,33.49620895],[97.52282109,33.50716164],[97.5104841,33.52269689],[97.51589807,33.53126294],[97.51555436,33.54669823],[97.52599802,33.57579038],[97.51453352,33.58303823],[97.48512281,33.58887019],[97.47171146,33.58950706],[97.45278597,33.58111047],[97.44393483,33.5944731],[97.43325684,33.60255392],[97.41530691,33.60709898],[97.40450971,33.62842475],[97.41460113,33.63818029],[97.42494273,33.6641812],[97.43490561,33.68266053],[97.42100556,33.70923735],[97.42817121,33.72338639],[97.417304,33.72903754],[97.41487349,33.75004518],[97.42137051,33.75817669],[97.41187595,33.76792127],[97.40585629,33.79580254],[97.3973111,33.80872643],[97.37430907,33.81931709],[97.36782659,33.82693496],[97.37201174,33.84491489],[97.39978365,33.85208887],[97.39094158,33.86329753],[97.39578104,33.87280876],[97.38758426,33.88601852],[97.39610119,33.89064479],[97.41191169,33.88614681],[97.4421006,33.89002078],[97.46004694,33.88945701],[97.4609044,33.89876275],[97.47064056,33.90443515],[97.47895517,33.89992873],[97.49728968,33.90462091],[97.50412112,33.91442239],[97.52012225,33.90277257],[97.53230658,33.90481394],[97.5509393,33.91694489],[97.55948131,33.91691664],[97.58320229,33.92409068],[97.59729997,33.93153424],[97.61118339,33.9300764],[97.63143265,33.92072134],[97.64192547,33.92584745],[97.64390369,33.94607316],[97.65507104,33.95032957],[97.66030918,33.95985898],[97.66039324,33.97754514],[97.65253812,33.9995986],[97.65454787,34.00920174],[97.66305859,34.01565312],[97.67309284,34.0127304],[97.6873088,34.01783672],[97.70026444,34.03635375],[97.70231806,34.06132297],[97.69476352,34.07891375],[97.68187431,34.08173813],[97.67935572,34.08980256],[97.66164915,34.11659744],[97.6657646,34.12906337],[97.67696745,34.13335677],[97.69830511,34.13544781],[97.70272577,34.14028552],[97.7363034,34.15189062],[97.74339558,34.15714286],[97.7667901,34.1602124],[97.78535158,34.17079141],[97.78466022,34.17677012],[97.79514467,34.19659695],[97.81041178,34.20925789],[97.83486014,34.21003794],[97.86574789,34.20652767],[97.88880843,34.20635395],[97.90250359,34.2110233],[97.93126658,34.19913784],[97.94831957,34.19618602],[97.96085337,34.18447746],[97.9949183,34.15788341],[98.0136547,34.14622434],[98.02653963,34.12542361],[98.04386127,34.11741983],[98.06130236,34.12232386],[98.07122833,34.11999837],[98.08176211,34.12536681],[98.09844976,34.12473335],[98.13141847,34.10856363],[98.1420513,34.10586091],[98.15675408,34.10897232],[98.17224636,34.09929179],[98.19755341,34.09367472],[98.2109828,34.08066913],[98.22836852,34.08792817],[98.2382916,34.08413864],[98.25567405,34.08487611],[98.27051376,34.09028634],[98.28141038,34.08741769],[98.30912699,34.08940126],[98.32906043,34.09855523],[98.40201753,34.0879211],[98.39107471,34.05821119],[98.40456723,34.0503434],[98.41382181,34.03888762],[98.42163428,34.03625163],[98.43935881,34.01281895],[98.43229005,33.99862788],[98.44026773,33.98759341],[98.42962457,33.9623292],[98.41176496,33.95713763],[98.40580923,33.92858468],[98.42677529,33.91137012],[98.42802019,33.8987558],[98.41187231,33.883553],[98.4073269,33.86980595],[98.41208193,33.86325756],[98.42599267,33.85855767],[98.43567453,33.84456583],[98.44309432,33.84224101],[98.4611364,33.85063981],[98.48050686,33.82444332],[98.49232139,33.79469195],[98.48622279,33.78377309],[98.49292856,33.77101087],[98.51714633,33.77573032],[98.52882278,33.76616961],[98.53850721,33.74887239],[98.58269111,33.73378303],[98.59553112,33.72107545],[98.59415888,33.70429074],[98.60248895,33.69299895],[98.63487828,33.67198131],[98.64307059,33.65881101],[98.64226529,33.64565321],[98.6132181,33.63881243],[98.62261831,33.61218192],[98.63595954,33.60910085],[98.66475519,33.58901194],[98.66103602,33.58055833],[98.64571459,33.56233628],[98.65333088,33.54341678],[98.67115242,33.54519733],[98.67745321,33.52659401],[98.6897617,33.52231576],[98.71035076,33.50887702],[98.72472813,33.50587797],[98.72313183,33.48593559],[98.73102091,33.48644176],[98.74293773,33.47900708],[98.74350235,33.45735566],[98.73579769,33.42901886],[98.73599833,33.40928422],[98.74701562,33.40655549],[98.75395527,33.38817859],[98.77742433,33.37555042],[98.78021072,33.3462255],[98.76952522,33.33968652],[98.77352404,33.32955793],[98.76282185,33.32473232],[98.7726141,33.30512872],[98.77157844,33.29862994],[98.76001632,33.29264102],[98.75738755,33.2825281],[98.77278163,33.27655355],[98.77991989,33.28021335],[98.78971397,33.27402958],[98.80308187,33.27232582],[98.81298836,33.25325689],[98.80450359,33.22494273],[98.80928159,33.21257806],[98.83049378,33.19870514],[98.8281286,33.18229839],[98.84475606,33.16777368],[98.85461169,33.15515786],[98.86859181,33.1522573],[98.87452706,33.14423371],[98.88857259,33.14150361],[98.90622445,33.12499941],[98.93737074,33.11684217],[98.95584316,33.12078268],[98.96551688,33.11826163],[98.96608048,33.10669459],[98.98162211,33.09504198],[98.99738453,33.09104482],[99.00129173,33.08331243],[99.01303027,33.08275625],[99.02865467,33.0957151],[99.0379203,33.08631332],[99.060747,33.08375223],[99.06891803,33.07718468],[99.0888102,33.08053848],[99.09536552,33.06723647],[99.11222387,33.06630884],[99.12331876,33.04789251],[99.13451873,33.05251744],[99.17806333,33.04673572],[99.1954808,33.03558315],[99.20741017,33.02080867],[99.21632149,32.99167224],[99.22363162,32.99419922],[99.23383767,32.98746395],[99.22874671,32.97268281],[99.23181002,32.95741883],[99.24976341,32.95369521],[99.24474404,32.94515157],[99.24482867,32.92755494],[99.25769814,32.91175584],[99.26540976,32.8909394],[99.26396109,32.88289189],[99.28306109,32.88842361],[99.29799878,32.88809751],[99.30699739,32.88082661],[99.32570368,32.88434925],[99.33029595,32.89564729],[99.34289179,32.89687095],[99.34694356,32.89065532],[99.36247994,32.8931001],[99.3779882,32.90337141],[99.40083555,32.89022076],[99.43240701,32.87931588],[99.44858494,32.86529119],[99.47681305,32.85968758],[99.52029483,32.84881999],[99.5290505,32.85054475],[99.54835386,32.84739605],[99.56182615,32.83875815],[99.56432351,32.83140547],[99.58677401,32.80614145],[99.58533007,32.79601923],[99.60228416,32.78361694],[99.62431063,32.78498707],[99.63447686,32.79392859],[99.6443603,32.78952923],[99.65001798,32.77384952],[99.6646377,32.78216589],[99.67779853,32.76816176],[99.69484622,32.77142221],[99.70944154,32.76005056],[99.71682447,32.73556243],[99.72616423,32.72797352],[99.73831095,32.73274128],[99.73673392,32.74499566],[99.76011391,32.77364373],[99.76482995,32.78272269],[99.76139496,32.79590202],[99.76890273,32.804333],[99.76450046,32.82723793],[99.77332121,32.83874107],[99.77374297,32.85165042],[99.78790636,32.86997513],[99.79110874,32.8861142],[99.78483864,32.89395609],[99.78608643,32.9076896],[99.77874153,32.91313653],[99.77590553,32.92612647],[99.76619594,32.93417943],[99.76533378,32.94259155],[99.77864802,32.9577654],[99.78891304,32.95776899],[99.80344727,32.94242292],[99.81535124,32.94478028],[99.82514845,32.9528164],[99.83463505,32.95310683],[99.84282944,32.94479629],[99.85510646,32.94944754],[99.85605555,32.9656349],[99.86581458,32.97866291],[99.8646392,32.98383844],[99.875603,32.99511572],[99.88180571,33.02680517],[99.8778789,33.04584463],[99.88602596,33.04964208],[99.90591596,33.0450963],[99.90599525,33.02787526],[99.91689055,33.01893107],[99.92307574,33.00618539],[99.94739076,32.99036613],[99.94837246,32.97081318],[99.95298822,32.95391794],[99.96743553,32.94301716],[99.97824736,32.94136773],[100.00114845,32.9437701],[100.01974573,32.93321255],[100.03903946,32.93191915],[100.02610646,32.90174625],[100.04149552,32.90082169],[100.05741179,32.89576458],[100.06853377,32.89710248],[100.07880819,32.88761146],[100.08082692,32.87464287],[100.08754169,32.86735822],[100.09732658,32.86936415],[100.10981662,32.86265157],[100.1075085,32.84927087],[100.12026931,32.8360763],[100.11565843,32.82166962],[100.11384099,32.80352258],[100.11870662,32.79659614],[100.11628787,32.78674322],[100.13218192,32.75232363],[100.13581148,32.73290176],[100.1349777,32.71818053],[100.12234681,32.71690238],[100.11400236,32.70129233],[100.10337029,32.69651131],[100.09845871,32.68465079],[100.09087382,32.68445383],[100.08616655,32.67169078],[100.10291926,32.66120204],[100.11118268,32.64449861],[100.12288347,32.64256634],[100.13126474,32.63375993],[100.14721644,32.63792926],[100.16046581,32.63740861],[100.16991657,32.62876007],[100.18753216,32.63345122],[100.19537737,32.6148887],[100.21120058,32.60843652],[100.21266385,32.61826102],[100.2226636,32.6245163],[100.2209496,32.63263209],[100.23071353,32.65608614],[100.22977334,32.69762762],[100.23959475,32.72509596],[100.25122161,32.72466967],[100.26092673,32.73032505],[100.25669292,32.74241978],[100.26338159,32.74490763],[100.27935551,32.73725101],[100.29485147,32.73454919],[100.33238445,32.72077593],[100.38339142,32.74838295],[100.39508982,32.7560422],[100.40442489,32.74454463],[100.39725102,32.7399196],[100.37820895,32.69972701],[100.39246805,32.69984462],[100.39737256,32.71248965],[100.41497851,32.73119523],[100.42677575,32.72846192],[100.43411137,32.72154131],[100.44300976,32.6976143],[100.45706062,32.70334107],[100.46960705,32.69609632],[100.47580154,32.67370678],[100.49647951,32.65882388],[100.51513139,32.63208615],[100.51604594,32.62075266],[100.53043889,32.60545767],[100.52357489,32.59785009],[100.53752138,32.58411381],[100.54220743,32.57501743],[100.56122003,32.57195994],[100.57470409,32.55481598],[100.58744041,32.55450511],[100.61463129,32.54738754],[100.64540424,32.52803079],[100.66873708,32.52547028],[100.65577031,32.54800413],[100.6599271,32.58545494],[100.65674369,32.59926167],[100.66383503,32.6251372],[100.67460578,32.63036874],[100.70576398,32.61218471],[100.7190556,32.62425704],[100.71203136,32.63378886],[100.70655595,32.65289622],[100.68359535,32.67688254],[100.70845458,32.67572661],[100.72853145,32.66116663],[100.74536279,32.65836517],[100.75115238,32.65321921],[100.76716529,32.66454624],[100.76795112,32.64897349],[100.78264747,32.64191554],[100.79640804,32.65812373],[100.80639442,32.64899102],[100.82410623,32.64703993],[100.83253905,32.6514439],[100.84500439,32.64840785],[100.84885827,32.64221526],[100.87216849,32.63403898],[100.88801587,32.63528194],[100.89877328,32.61637044],[100.90748783,32.62211523],[100.92029278,32.61511916],[100.9259912,32.60185925],[100.95637178,32.62245707],[100.98171679,32.62909626],[100.99780121,32.63072918],[101.0186081,32.64653452],[101.02993406,32.66167518],[101.06121124,32.68042608],[101.07475451,32.68403311],[101.08169623,32.67442536],[101.11258564,32.6680001],[101.10762263,32.65636374],[101.10990334,32.6395917],[101.1239845,32.66023575],[101.14076897,32.66290294],[101.15730367,32.6617221],[101.17665406,32.683188],[101.19308552,32.68910159],[101.20369598,32.70874574],[101.22060097,32.72383165],[101.22694161,32.75832374],[101.2220307,32.77246648],[101.23349894,32.78743974],[101.22670034,32.79886587],[101.2368753,32.82910921],[101.2190008,32.84370414],[101.22227747,32.85345598],[101.2192776,32.86404164],[101.20531826,32.86822801],[101.19317544,32.88235709],[101.18488508,32.88475816],[101.17659975,32.89496401],[101.16036897,32.90346483],[101.13121043,32.90434074],[101.11961337,32.913126],[101.13089883,32.928033],[101.12569938,32.93927367],[101.13229209,32.95350798],[101.12715893,32.99104438],[101.17026932,32.98527843],[101.18409071,32.98798352],[101.17578924,32.9985691],[101.16954164,33.01689433],[101.18094491,33.0292438],[101.17955977,33.04851724],[101.17025632,33.04806224],[101.16024092,33.05850873],[101.14489489,33.05829643],[101.14494982,33.0736489],[101.14075262,33.08350982],[101.14601531,33.09410408],[101.16734295,33.09953407],[101.16269212,33.12127416],[101.14872996,33.13107771],[101.15803646,33.1486414],[101.14226795,33.15292154],[101.14216115,33.1639264],[101.13322328,33.16549619],[101.12848853,33.17769767],[101.13519965,33.18506765],[101.12147919,33.18961882],[101.11462608,33.19757375],[101.12073444,33.2044496],[101.12276175,33.22250107],[101.1531856,33.23617167],[101.15301277,33.24909821],[101.16945375,33.25007055],[101.17080865,33.26418996],[101.18249891,33.27225978],[101.20184621,33.27167051],[101.20456998,33.25759776],[101.21571428,33.26106482],[101.22057322,33.27164034],[101.2426846,33.26523081],[101.27566616,33.26703856],[101.2948211,33.26423147],[101.30904418,33.24679038],[101.32160925,33.24445126],[101.32760408,33.23745752],[101.32646748,33.22693189],[101.33720023,33.21920027],[101.34289276,33.2051874],[101.35556391,33.19621839],[101.35575569,33.18377792],[101.37172148,33.17367972],[101.38108259,33.15480411],[101.39158619,33.16172376],[101.39032153,33.18261935],[101.39481236,33.18882466],[101.3903877,33.20026166],[101.39110427,33.21392023],[101.39818544,33.22613642],[101.42229802,33.22892347],[101.42890941,33.23237219],[101.45268597,33.22653961],[101.4829785,33.22873608],[101.49332864,33.2236416],[101.50163408,33.20834767],[101.51166926,33.20599527],[101.51379137,33.19421233],[101.52722595,33.18879492],[101.5360352,33.18050646],[101.55765984,33.16862592],[101.55978541,33.162028],[101.58105477,33.14574554],[101.60748222,33.12171361],[101.61026123,33.11616331],[101.63180974,33.10380375],[101.64584056,33.12228231],[101.65095503,33.13425994],[101.65819617,33.13781078],[101.65890793,33.15193344],[101.65369504,33.16543047],[101.66317966,33.16756719],[101.68060895,33.17877724],[101.68675504,33.18799008],[101.67653294,33.20322796],[101.7069425,33.21499111],[101.71567846,33.22289206],[101.72686557,33.25036826],[101.72377675,33.25508556],[101.73901986,33.26957117],[101.72925188,33.28580923],[101.71305023,33.29099486],[101.70807227,33.3001287],[101.67484922,33.30060218],[101.65783971,33.3123447],[101.6476617,33.32501909],[101.6516091,33.3511509],[101.6584316,33.37032966],[101.65992268,33.38548752],[101.67212669,33.39361356],[101.67222203,33.39966797],[101.69928148,33.43931749],[101.71882422,33.44531656],[101.76520089,33.44864855],[101.76796387,33.47649316],[101.77275924,33.4922664],[101.77170873,33.51109058],[101.77649483,33.52240632],[101.77606587,33.53647148],[101.76657317,33.540768],[101.75754011,33.53850726],[101.75725121,33.52430513],[101.74608068,33.50690574],[101.73120436,33.49946532],[101.71588251,33.49712296],[101.69927653,33.50471118],[101.69051024,33.50082947],[101.66884175,33.50120166],[101.64764141,33.504749],[101.64047373,33.49554438],[101.63038347,33.49416032],[101.62380186,33.50048566],[101.61552583,33.52009348],[101.61853939,33.53495662],[101.61491466,33.54972642],[101.6183628,33.55977568],[101.61049632,33.56756776],[101.61267017,33.58358497],[101.60993962,33.59353111],[101.61615129,33.60718953],[101.6015138,33.63506075],[101.5856151,33.64226793],[101.58777387,33.67029185],[101.58096215,33.67679784],[101.55834225,33.67071761],[101.55415511,33.6852512],[101.53884798,33.69733934],[101.52563223,33.69350313],[101.51052924,33.69610755],[101.49866092,33.70472531],[101.4805315,33.69738256],[101.46783923,33.68790103],[101.42638575,33.68019321],[101.42738788,33.66331514],[101.41576785,33.65289528],[101.3849946,33.64664883],[101.35087543,33.65891439],[101.33513737,33.66089908],[101.3229707,33.65838121],[101.30983055,33.66603566],[101.30288266,33.6601296],[101.28030232,33.66404547],[101.25871911,33.67176193],[101.24344139,33.68310961],[101.23196725,33.68688602],[101.21424203,33.67237332],[101.19668067,33.67215249],[101.18407725,33.66617863],[101.17777993,33.6558715],[101.16463871,33.66225097],[101.17399689,33.68611717],[101.16510737,33.69313634],[101.16095246,33.72077267],[101.17846278,33.74387423],[101.18797713,33.74750677],[101.18280226,33.76969498],[101.18909323,33.79217636],[101.16069003,33.81407393],[101.14810878,33.82874866],[101.15268853,33.84500838],[101.13938814,33.84612562],[101.12354894,33.85297848],[101.10954324,33.85392919],[101.10416278,33.86300802],[101.08535391,33.85815281],[101.0518998,33.86538735],[101.04669582,33.88080163],[101.03039312,33.88462955],[101.01813306,33.89941816],[100.99562261,33.89209405],[100.98685955,33.90852802],[100.97622229,33.91834327],[100.9641694,33.94923932],[100.95016049,33.95371193],[100.94342549,33.96432289],[100.92529775,33.97959181],[100.92977524,33.99301237],[100.91662939,34.00856305],[100.90051001,34.02109364],[100.89670273,34.0290493],[100.89689238,34.03736655],[100.8820513,34.03456023],[100.87561516,34.06100818],[100.86591789,34.07306218],[100.87036013,34.08478641],[100.84788008,34.09115524],[100.83690231,34.10969597],[100.83806613,34.11574688],[100.82560312,34.13248629],[100.81356877,34.14146733],[100.80629788,34.15618306],[100.78644657,34.16139053],[100.78227428,34.16906239],[100.76532215,34.17607916],[100.76727994,34.19140733],[100.77883403,34.19618927],[100.77866207,34.20385534],[100.78759765,34.21082271],[100.79525071,34.22728858],[100.79384002,34.2345275],[100.80773007,34.24745032],[100.79679226,34.25805699],[100.80685091,34.27209804],[100.8043183,34.2893439],[100.81581655,34.29556014],[100.81486141,34.30740647],[100.82406154,34.32138189],[100.846333,34.3275233],[100.87075733,34.33695108],[100.88021398,34.35304616],[100.89078899,34.35867888],[100.89206314,34.37535283],[100.89990388,34.37834712],[100.91464718,34.37555545],[100.94247122,34.38157648],[100.97387078,34.37008649],[100.98512679,34.3755095],[101.00106066,34.36767505],[101.02170643,34.34444838],[101.0353176,34.33783219],[101.04914897,34.34010906],[101.05169499,34.32695176],[101.07199354,34.32966677],[101.0806849,34.32382941],[101.09512016,34.32981693],[101.11305109,34.32828772],[101.11447378,34.32902523],[101.13348582,34.32741413],[101.15292631,34.33172926],[101.16608516,34.32064122],[101.17696361,34.32215719],[101.19142408,34.33774661],[101.205031,34.33215971],[101.22639959,34.33125936],[101.23368053,34.32582614],[101.22717342,34.30045406],[101.23994907,34.29507763],[101.24612667,34.30017171],[101.26384089,34.29445134],[101.26064758,34.28802247],[101.27894783,34.2753461],[101.29455706,34.26958847],[101.32612078,34.26675997],[101.32976105,34.25320752],[101.36829938,34.24918004],[101.38080208,34.24118198],[101.39952017,34.2382816],[101.41251098,34.22961407],[101.42637132,34.23043678],[101.43932769,34.22266415],[101.45676604,34.22355544],[101.48313475,34.21980674],[101.48965913,34.21256706],[101.48467627,34.20540197],[101.48930806,34.19770234],[101.51271345,34.19964901],[101.51944204,34.20696739],[101.53677225,34.2136149],[101.55411849,34.20416417],[101.55934606,34.19269799],[101.58034327,34.19690968],[101.58539119,34.18810049],[101.60419776,34.17596398],[101.6197836,34.17081953],[101.62836209,34.16384345],[101.64903434,34.15699751],[101.65342579,34.15049389],[101.64131223,34.14143166],[101.6487437,34.12575169],[101.66729538,34.11387776],[101.685818,34.10912004],[101.69284271,34.12169208],[101.70241291,34.12052523],[101.71274151,34.10985478],[101.71011835,34.08730433],[101.72889299,34.08716238],[101.73586473,34.08123664],[101.75565578,34.10159204],[101.76177208,34.12422157],[101.77601294,34.12607647],[101.78600283,34.13310336],[101.79632556,34.12893567],[101.82900634,34.13100447],[101.83863769,34.12665521],[101.84800561,34.13348945],[101.8475989,34.15477015],[101.86615389,34.15018995],[101.87220842,34.13205875],[101.89399099,34.13589434],[101.90980564,34.13026711],[101.91648538,34.12289902],[101.95586893,34.10980548],[101.95854577,34.12969197],[101.96654181,34.15706633],[101.96385785,34.16941811],[101.98249305,34.16825672],[102.00118573,34.16268418],[102.00789627,34.16743063],[102.01692195,34.1917683],[102.028021,34.19168553],[102.02665397,34.2067695],[102.01161111,34.2213298],[102.03162924,34.23159243],[102.06176997,34.2317311],[102.06269742,34.24271206],[102.05658644,34.25196048],[102.06239995,34.26546328],[102.05866236,34.28043284],[102.0655199,34.29378096],[102.08312253,34.29223686],[102.10585598,34.28567402],[102.13758443,34.2727647],[102.14507308,34.27301404],[102.1503728,34.28749799],[102.16801644,34.30982861],[102.16756253,34.32887738],[102.17688661,34.33741189],[102.18648021,34.35609531],[102.19617133,34.34901718],[102.2097774,34.34714521],[102.21971952,34.34083533],[102.24237843,34.34623397],[102.25753688,34.35710262],[102.23535745,34.38001306],[102.22180762,34.38869279],[102.20788105,34.40442756],[102.20460723,34.41859823],[102.19600027,34.43313923],[102.16859493,34.45747952],[102.17063762,34.47578176],[102.15537291,34.49774103],[102.15387164,34.50911304],[102.13591923,34.50550606],[102.11745416,34.52480162],[102.10638773,34.52116117],[102.09002059,34.53808211],[102.07358779,34.53602176],[102.05538361,34.5400284],[102.03767063,34.53607646],[102,34.53999196],[101.9728199,34.54951957],[101.97439132,34.55800091],[101.96322653,34.56304771],[101.95611589,34.57418939],[101.95493407,34.58509919],[101.93261422,34.58943853],[101.92220233,34.60947534],[101.91885294,34.62605004],[101.91666569,34.66854871],[101.92839396,34.68339153],[101.91576117,34.70782443],[101.91464952,34.73811368],[101.92127723,34.76312968],[101.91587799,34.78109464],[101.91919387,34.80282645],[101.92546565,34.80840926],[101.92563447,34.83028753],[101.9217798,34.83754101],[101.93215397,34.84458222],[101.91984921,34.85541951],[101.91609497,34.8753254],[101.92613916,34.8785391],[101.93386977,34.89012795],[101.95584269,34.88967094],[101.97225893,34.89638593],[102.02157609,34.90204863],[102.0329405,34.89254487],[102.04751031,34.88773989],[102.05784479,34.88921258],[102.06339759,34.89722633],[102.05060663,34.90391043],[102.04716426,34.92184304],[102.05057374,34.93368015],[102.06068649,34.9434238],[102.07325937,34.94873061],[102.06628013,34.95848864],[102.08423573,34.96785958],[102.09278775,34.98813167],[102.14586728,35.01475725],[102.1563487,35.01097983],[102.17192078,35.03336636],[102.21106933,35.03599561],[102.21151411,35.04931688],[102.21685367,35.06065654],[102.25031197,35.04905121],[102.26015759,35.05509142],[102.27846859,35.05838139],[102.2930041,35.07143957],[102.30062772,35.1067221],[102.30980493,35.1172883],[102.30932002,35.12945187],[102.31993189,35.13116693],[102.3378483,35.14079668],[102.34032564,35.16013753],[102.34941038,35.16602387],[102.37191072,35.16183167],[102.38129747,35.16481995],[102.40473656,35.1804056],[102.39530811,35.19763064],[102.37836711,35.2142058],[102.3771656,35.22827418],[102.36170131,35.24007716],[102.36789358,35.24849702],[102.36834944,35.2613792],[102.33910462,35.2827473],[102.30929941,35.28355004],[102.28871637,35.29484787],[102.27607749,35.30571552],[102.29144276,35.31762247],[102.30899536,35.31284164],[102.31670329,35.34315788],[102.30599069,35.34949529],[102.30430569,35.36176126],[102.28538237,35.36616173],[102.28037827,35.38798907],[102.29230532,35.40965925],[102.29202565,35.42532977],[102.31320776,35.43541165],[102.32606993,35.42849401],[102.34336942,35.4299513],[102.3624532,35.42116653],[102.37243198,35.42179444],[102.40068466,35.40961605],[102.40540127,35.41556978],[102.42348162,35.42302803],[102.44700091,35.43826934],[102.44830427,35.44984655],[102.43601089,35.45700871],[102.44824212,35.47907675],[102.46056683,35.48084544],[102.46413343,35.49813569],[102.45978147,35.50714307],[102.48336667,35.5165957],[102.49093917,35.54261641],[102.49578484,35.55082424],[102.49597653,35.57246854],[102.50862685,35.56859088],[102.51834842,35.57890016],[102.52927628,35.58145355],[102.54185297,35.57257678],[102.54844669,35.56042024],[102.58427869,35.54245323],[102.61173446,35.53843036],[102.6319211,35.54150612],[102.63184749,35.53538398],[102.66286483,35.53014133],[102.69052847,35.53138577],[102.70695042,35.52062525],[102.74150767,35.49413174],[102.75641487,35.51089199],[102.7733243,35.52054101],[102.7811343,35.52873993],[102.77230807,35.53563925],[102.74569964,35.52871741],[102.73946446,35.52174702],[102.72690521,35.52388749],[102.7254728,35.53274541],[102.74399182,35.54678824],[102.77452478,35.55208914],[102.79136813,35.56083491],[102.80519191,35.55965128],[102.80202516,35.57183343],[102.77322761,35.59098404],[102.76790254,35.60820999],[102.761035,35.61302497],[102.76042387,35.62415351],[102.76653415,35.64376504],[102.76093957,35.65397293],[102.7402137,35.65984772],[102.73144004,35.67282317],[102.72594635,35.69243339],[102.70668082,35.70628139],[102.6973692,35.71837025],[102.69413188,35.74947268],[102.68348274,35.76925839],[102.69281581,35.7815834],[102.69528164,35.79780495],[102.70968613,35.80481599],[102.71425459,35.81667546],[102.737101,35.82104963],[102.74165538,35.82781834],[102.78208263,35.86222643],[102.81907619,35.8510115],[102.82495258,35.85632433],[102.84783168,35.85480727],[102.86270742,35.84545314],[102.88562227,35.85008015],[102.91377601,35.84476529],[102.9220503,35.83358948],[102.93919537,35.83091971],[102.94839527,35.83695212],[102.94644316,35.85269198],[102.95301331,35.85914369],[102.94539095,35.88480028],[102.94855297,35.89627219],[102.94803552,35.92317971],[102.94075108,35.92768603],[102.94312569,35.94508544],[102.94957718,35.9542053],[102.94923514,35.96589967],[102.97155869,35.99507065],[102.9520147,36.01674908],[102.95008309,36.02396256],[102.95735332,36.03259807],[102.97346013,36.03713559],[102.96615469,36.04473427],[102.9307097,36.04864215],[102.92548387,36.05719397],[102.90783121,36.07118407],[102.89458131,36.06657235],[102.89175641,36.07745118],[102.87998865,36.08339374],[102.88477668,36.09272468],[102.90448163,36.08834439],[102.93983705,36.10621274],[102.94428069,36.13171458],[102.95283057,36.14002993],[102.94960547,36.15227387],[102.96547938,36.15325286],[102.9699786,36.16929813],[102.981461,36.18104956],[102.98511762,36.19408613],[102.99489571,36.19433302],[103.01585756,36.20460744],[103.04342017,36.19861832],[103.06036055,36.20115313],[103.06889724,36.20707825],[103.06270963,36.21920434],[103.04983245,36.21973928],[103.04569266,36.22663187],[103.02776056,36.23412701],[103.02208732,36.25716212],[103.00740089,36.26253562],[102.99073167,36.26404646],[102.96894602,36.28406256],[102.94100994,36.28950932],[102.9209926,36.29891513],[102.91417707,36.31536696],[102.90144673,36.32307575],[102.89505742,36.33246367],[102.87357229,36.33606943],[102.857598,36.33088209],[102.83861338,36.33888497],[102.82830466,36.35734483],[102.82514707,36.37475093],[102.81630284,36.39206279],[102.82407418,36.40505505],[102.80770017,36.40828192],[102.8045451,36.42304736],[102.79118273,36.42727032],[102.78602071,36.44732865],[102.76481837,36.46544697],[102.77589858,36.47830407],[102.78725321,36.48253374],[102.79164651,36.49858649],[102.77018704,36.52134197],[102.75149841,36.52549777],[102.74253514,36.53931074],[102.73725023,36.57066834],[102.76017697,36.56893123],[102.76255784,36.57551212],[102.75283709,36.58319889],[102.74099035,36.58292657],[102.71320915,36.59932657],[102.72183857,36.61472501],[102.68293199,36.61876324],[102.6707958,36.62990402],[102.62827516,36.65217562],[102.61940176,36.66903473],[102.60686333,36.6779082],[102.60304362,36.69146579],[102.60699383,36.7016066],[102.60017406,36.70922318],[102.61106908,36.73742018],[102.61540966,36.74030197],[102.63424972,36.73344273],[102.64262688,36.73399524],[102.65465054,36.74698161],[102.67824566,36.76228249],[102.69087602,36.77538911],[102.70906169,36.76908372],[102.6972159,36.79510852],[102.68453472,36.80914684],[102.67590533,36.80721984],[102.6665813,36.81861735],[102.64960491,36.83148781],[102.639637,36.84964721],[102.61193595,36.86478354],[102.5854914,36.86957874],[102.56940525,36.88656402],[102.5587952,36.90590036],[102.55951127,36.91924798],[102.55036331,36.92358676],[102.5257393,36.92750572],[102.52236749,36.93875177],[102.49801532,36.94306046],[102.49769996,36.95331174],[102.46082187,36.95653773],[102.44881326,36.96861622],[102.46525727,36.9761393],[102.4645861,36.98856326],[102.469836,36.99527212],[102.50270947,37.01743889],[102.50444264,37.02161083],[102.49311781,37.04440788],[102.49638247,37.05484968],[102.48967102,37.06333536],[102.48522704,37.07853957],[102.50627283,37.09210636],[102.5296265,37.08672718],[102.5362065,37.09022857],[102.5622503,37.09417864],[102.60024842,37.10474136],[102.6404771,37.09990646],[102.63944729,37.11405655],[102.62639503,37.13406676],[102.60732178,37.15085228],[102.60206419,37.17121523],[102.59590803,37.1751931],[102.57817217,37.17156045],[102.5664587,37.17974067],[102.55725607,37.19261925],[102.54658537,37.19849403],[102.54321867,37.20799178],[102.51407569,37.2195747],[102.50377475,37.21705758],[102.48783651,37.22297244],[102.47798208,37.24106665],[102.45568956,37.24976637],[102.451424,37.27096388],[102.42689031,37.28387299],[102.41744939,37.29663645],[102.42630725,37.30739767],[102.39075603,37.3244055],[102.3818261,37.32237251],[102.35952923,37.33077791],[102.33995308,37.34219115],[102.33898269,37.34785796],[102.30936047,37.35957674],[102.29790487,37.36979672],[102.29850723,37.39048999],[102.26894246,37.39242857],[102.25238566,37.40331747],[102.24719597,37.41054034],[102.21793285,37.41736228],[102.19553576,37.41903713],[102.18491042,37.42751401],[102.18748089,37.43426048],[102.17644886,37.45611115],[102.15254235,37.47100476],[102.126292,37.48113423],[102.10121882,37.48159873],[102.10066022,37.49158008],[102.12035604,37.51583795],[102.11552839,37.53115466],[102.12726965,37.54267967],[102.0997227,37.5735961],[102.07582755,37.58090633],[102.06414536,37.5895507],[102.06570915,37.60096573],[102.05388293,37.61376011],[102.037495,37.62072213],[102.03327362,37.62689913],[102.0462924,37.65035441],[102.01915539,37.68041349],[102.01315236,37.69826138],[102.01390359,37.70758438],[101.99990716,37.71521078],[101.9967666,37.72575044],[101.98002631,37.72763283],[101.96487111,37.72444693],[101.95367208,37.72828289],[101.92906365,37.72158179],[101.9064656,37.70343451],[101.89581187,37.70229928],[101.87491879,37.68593126],[101.86767757,37.67240481],[101.85253034,37.66425817],[101.82864516,37.65548154],[101.81400757,37.65350588],[101.80931862,37.66560694],[101.81260492,37.68156604],[101.79573185,37.68695226],[101.7879755,37.69591652],[101.722548,37.7118],[101.676601,37.727026],[101.657434,37.731912],[101.656463,37.740988],[101.668413,37.756588],[101.653342,37.770649],[101.640627,37.7751],[101.629406,37.788353],[101.617386,37.809926],[101.601888,37.817374],[101.597023,37.827699],[101.573713,37.83556],[101.552926,37.835592],[101.499532,37.857877],[101.479503,37.853347],[101.459883,37.858499],[101.456623,37.866586],[101.43610571,37.8668241],[101.43504902,37.86061924],[101.41807767,37.84681995],[101.40861684,37.84465909],[101.40102105,37.83087079],[101.37782975,37.82128116],[101.37397223,37.79940668],[101.35390087,37.78970539],[101.34611114,37.79932261],[101.32820194,37.80441933],[101.28988881,37.82417257],[101.27419919,37.83635813],[101.25572391,37.83250792],[101.24002354,37.84161127],[101.22426214,37.84152346],[101.20143259,37.8466878],[101.18158727,37.85962119],[101.17098929,37.86001325],[101.15780525,37.86731289],[101.15040783,37.88118837],[101.14954866,37.89417779],[101.13956124,37.89952798],[101.13100546,37.91104309],[101.11198775,37.91996806],[101.10933641,37.93662485],[101.10098432,37.94645279],[101.0908858,37.93982356],[101.07495507,37.94146016],[101.05780005,37.95894121],[101.0399182,37.96590009],[101.03543754,37.97483486],[101.01868518,37.97566272],[100.99409481,37.99021071],[100.97623052,38.00735193],[100.95870984,38.01140594],[100.94429664,38.00464123],[100.92512596,38.00623028],[100.91523937,37.99987002],[100.90374544,38.00631238],[100.9012128,38.00808615]]]}}]}
