{"type":"FeatureCollection","features":[{"type":"Feature","id":"cn-qinghai-d-632600","properties":{"region":"cn-qinghai","country":"Qinghai · China","sourceValidOn":"2023","source":"cn-atlas / Amll (ISC), derived from CTAmap / Rui Cheng (MIT) · 2023 · simplified source geometry","id":"cn-qinghai-d-632600","name":"Guoluozangzu","nativeName":"果洛藏族自治州","level":"district","parent":"cn-qinghai-p-630000","province":"Qinghai · China","sourceCode":"632600","sourceParentCode":"630000","sourceLevel":"Prefecture-level","center":[99.41984139113471,34.11569196605061],"bbox":[96.93563022,32.526008,101.77649483,35.62023953]},"geometry":{"type":"Point","coordinates":[99.41984139113471,34.11569196605061]}},{"type":"Feature","id":"cn-qinghai-d-632200","properties":{"region":"cn-qinghai","country":"Qinghai · China","sourceValidOn":"2023","source":"cn-atlas / Amll (ISC), derived from CTAmap / Rui Cheng (MIT) · 2023 · simplified source geometry","id":"cn-qinghai-d-632200","name":"Haibeizangzu","nativeName":"海北藏族自治州","level":"district","parent":"cn-qinghai-p-630000","province":"Qinghai · China","sourceCode":"632200","sourceParentCode":"630000","sourceLevel":"Prefecture-level","center":[100.30261944161388,37.75909719332031],"bbox":[98.09320261,36.74786255,102.6404771,39.08860298]},"geometry":{"type":"Point","coordinates":[100.30261944161388,37.75909719332031]}},{"type":"Feature","id":"cn-qinghai-d-630200","properties":{"region":"cn-qinghai","country":"Qinghai · China","sourceValidOn":"2023","source":"cn-atlas / Amll (ISC), derived from CTAmap / Rui Cheng (MIT) · 2023 · simplified source geometry","id":"cn-qinghai-d-630200","name":"Haidong","nativeName":"海东市","level":"district","parent":"cn-qinghai-p-630000","province":"Qinghai · China","sourceCode":"630200","sourceParentCode":"630000","sourceLevel":"Prefecture-level","center":[102.34365350471302,36.33180380872038],"bbox":[101.66378218,35.45570107,103.06889724,37.14801694]},"geometry":{"type":"Point","coordinates":[102.34365350471302,36.33180380872038]}},{"type":"Feature","id":"cn-qinghai-d-632500","properties":{"region":"cn-qinghai","country":"Qinghai · China","sourceValidOn":"2023","source":"cn-atlas / Amll (ISC), derived from CTAmap / Rui Cheng (MIT) · 2023 · simplified source geometry","id":"cn-qinghai-d-632500","name":"Hainanzangzu","nativeName":"海南藏族自治州","level":"district","parent":"cn-qinghai-p-630000","province":"Qinghai · China","sourceCode":"632500","sourceParentCode":"630000","sourceLevel":"Prefecture-level","center":[100.25328346535164,35.902279827523905],"bbox":[98.92084129,34.64410347,101.7721019,37.17375585]},"geometry":{"type":"Point","coordinates":[100.25328346535164,35.902279827523905]}},{"type":"Feature","id":"cn-qinghai-d-632800","properties":{"region":"cn-qinghai","country":"Qinghai · China","sourceValidOn":"2023","source":"cn-atlas / Amll (ISC), derived from CTAmap / Rui Cheng (MIT) · 2023 · simplified source geometry","id":"cn-qinghai-d-632800","name":"Haiximengguzuzangzu","nativeName":"海西蒙古族藏族自治州","level":"district","parent":"cn-qinghai-p-630000","province":"Qinghai · China","sourceCode":"632800","sourceParentCode":"630000","sourceLevel":"Prefecture-level","center":[95.12074724256276,37.22260406345803],"bbox":[89.63317177,32.72353996,99.69690155,39.21185102]},"geometry":{"type":"Point","coordinates":[95.12074724256276,37.22260406345803]}},{"type":"Feature","id":"cn-qinghai-d-632300","properties":{"region":"cn-qinghai","country":"Qinghai · China","sourceValidOn":"2023","source":"cn-atlas / Amll (ISC), derived from CTAmap / Rui Cheng (MIT) · 2023 · simplified source geometry","id":"cn-qinghai-d-632300","name":"Huangnanzangzu","nativeName":"黄南藏族自治州","level":"district","parent":"cn-qinghai-p-630000","province":"Qinghai · China","sourceCode":"632300","sourceParentCode":"630000","sourceLevel":"Prefecture-level","center":[101.62760662586399,35.02397261812977],"bbox":[100.68959299,34.08123664,102.44830427,36.16349338]},"geometry":{"type":"Point","coordinates":[101.62760662586399,35.02397261812977]}},{"type":"Feature","id":"cn-qinghai-d-630100","properties":{"region":"cn-qinghai","country":"Qinghai · China","sourceValidOn":"2023","source":"cn-atlas / Amll (ISC), derived from CTAmap / Rui Cheng (MIT) · 2023 · simplified source geometry","id":"cn-qinghai-d-630100","name":"Xining","nativeName":"西宁市","level":"district","parent":"cn-qinghai-p-630000","province":"Qinghai · China","sourceCode":"630100","sourceParentCode":"630000","sourceLevel":"Prefecture-level","center":[101.43739549315916,36.8282838673536],"bbox":[100.86766028,36.22877267,101.91481279,37.46984186]},"geometry":{"type":"Point","coordinates":[101.43739549315916,36.8282838673536]}},{"type":"Feature","id":"cn-qinghai-d-632700","properties":{"region":"cn-qinghai","country":"Qinghai · China","sourceValidOn":"2023","source":"cn-atlas / Amll (ISC), derived from CTAmap / Rui Cheng (MIT) · 2023 · simplified source geometry","id":"cn-qinghai-d-632700","name":"Yushuzangzu","nativeName":"玉树藏族自治州","level":"district","parent":"cn-qinghai-p-630000","province":"Qinghai · China","sourceCode":"632700","sourceParentCode":"630000","sourceLevel":"Prefecture-level","center":[94.32145911763206,34.2107674953693],"bbox":[89.4010164,31.60066822,97.75383609,36.27588275]},"geometry":{"type":"Point","coordinates":[94.32145911763206,34.2107674953693]}}]}
