{"type":"FeatureCollection","features":[{"type":"Feature","id":"cn-qinghai","properties":{"region":"cn-qinghai","country":"Qinghai · China","sourceValidOn":"2023","source":"cn-atlas / Amll (ISC), derived from CTAmap / Rui Cheng (MIT) · 2023 · simplified source geometry","id":"cn-qinghai","name":"Qinghai · China","level":"region","parent":"","sourceCode":"630000","sourceLevel":"ADM1 context outline","center":[96.03939742457604,35.67068517829404],"bbox":[89.4010164,31.60066822,103.06889724,39.21185102]},"geometry":{"type":"Point","coordinates":[96.03939742457604,35.67068517829404]}}]}
