{"type":"FeatureCollection","features":[{"type":"Feature","id":"cn-qinghai-t-17275852B98939713320160","properties":{"id":"cn-qinghai-t-17275852B98939713320160","name":"Delinghashi","region":"cn-qinghai","country":"Qinghai · China","province":"Qinghai · China","level":"tehsil","parent":"cn-qinghai-d-632800","district":"Haiximengguzuzangzu","sourceCode":"17275852B98939713320160","sourceParentCode":"632800","sourceLevel":"County-level (geoBoundaries ADM2)","sourceValidOn":"2017","parentMethod":"Derived interior-label spatial association; not an authoritative administrative code join","center":[93.27992567920079,38.03157086911077],"bbox":[90.17844113200005,36.06290168900006,96.40617058900006,39.33973455600005],"source":"National Administration of Surveying, Mapping and Geoinformation / Revolutionary GIS via geoBoundaries · 2017 · PDDL 1.0"},"geometry":{"type":"Point","coordinates":[93.27992567920079,38.03157086911077]}},{"type":"Feature","id":"cn-qinghai-t-17275852B14401300973090","properties":{"id":"cn-qinghai-t-17275852B14401300973090","name":"Wulanxian","region":"cn-qinghai","country":"Qinghai · China","province":"Qinghai · China","level":"tehsil","parent":"cn-qinghai-d-632800","district":"Haiximengguzuzangzu","sourceCode":"17275852B14401300973090","sourceParentCode":"632800","sourceLevel":"County-level (geoBoundaries ADM2)","sourceValidOn":"2017","parentMethod":"Derived interior-label spatial association; not an authoritative administrative code join","center":[97.47926795963993,37.54448355599463],"bbox":[96.12873147900007,36.378609580000045,99.33188152500009,39.23105732200003],"source":"National Administration of Surveying, Mapping and Geoinformation / Revolutionary GIS via geoBoundaries · 2017 · PDDL 1.0"},"geometry":{"type":"Point","coordinates":[97.47926795963993,37.54448355599463]}},{"type":"Feature","id":"cn-qinghai-t-17275852B96460038154485","properties":{"id":"cn-qinghai-t-17275852B96460038154485","name":"Tianjunxian","region":"cn-qinghai","country":"Qinghai · China","province":"Qinghai · China","level":"tehsil","parent":"cn-qinghai-d-632800","district":"Haiximengguzuzangzu","sourceCode":"17275852B96460038154485","sourceParentCode":"632800","sourceLevel":"County-level (geoBoundaries ADM2)","sourceValidOn":"2017","parentMethod":"Derived interior-label spatial association; not an authoritative administrative code join","center":[98.43116358437003,38.02084653443832],"bbox":[97.13758527600004,36.992491044000076,99.68450655900006,39.22146674700008],"source":"National Administration of Surveying, Mapping and Geoinformation / Revolutionary GIS via geoBoundaries · 2017 · PDDL 1.0"},"geometry":{"type":"Point","coordinates":[98.43116358437003,38.02084653443832]}},{"type":"Feature","id":"cn-qinghai-t-17275852B88619993156988","properties":{"id":"cn-qinghai-t-17275852B88619993156988","name":"Qilianxian","region":"cn-qinghai","country":"Qinghai · China","province":"Qinghai · China","level":"tehsil","parent":"cn-qinghai-d-632200","district":"Haibeizangzu","sourceCode":"17275852B88619993156988","sourceParentCode":"632200","sourceLevel":"County-level (geoBoundaries ADM2)","sourceValidOn":"2017","parentMethod":"Derived interior-label spatial association; not an authoritative administrative code join","center":[99.67380126047722,38.32566810897557],"bbox":[98.11370231700005,37.46998217000004,101.20463577700008,39.08546499900007],"source":"National Administration of Surveying, Mapping and Geoinformation / Revolutionary GIS via geoBoundaries · 2017 · PDDL 1.0"},"geometry":{"type":"Point","coordinates":[99.67380126047722,38.32566810897557]}},{"type":"Feature","id":"cn-qinghai-t-17275852B26523048151757","properties":{"id":"cn-qinghai-t-17275852B26523048151757","name":"Geermushi","region":"cn-qinghai","country":"Qinghai · China","province":"Qinghai · China","level":"tehsil","parent":"cn-qinghai-d-632800","district":"Haiximengguzuzangzu","sourceCode":"17275852B26523048151757","sourceParentCode":"632800","sourceLevel":"County-level (geoBoundaries ADM2)","sourceValidOn":"2017","parentMethod":"Derived interior-label spatial association; not an authoritative administrative code join","center":[93.9471097941223,36.46932614134386],"bbox":[91.49031458000007,35.194013178000034,95.74450018500005,37.71360194600004],"source":"National Administration of Surveying, Mapping and Geoinformation / Revolutionary GIS via geoBoundaries · 2017 · PDDL 1.0"},"geometry":{"type":"Point","coordinates":[93.9471097941223,36.46932614134386]}},{"type":"Feature","id":"cn-qinghai-t-17275852B65042092306901","properties":{"id":"cn-qinghai-t-17275852B65042092306901","name":"Gangchaxian","region":"cn-qinghai","country":"Qinghai · China","province":"Qinghai · China","level":"tehsil","parent":"cn-qinghai-d-632200","district":"Haibeizangzu","sourceCode":"17275852B65042092306901","sourceParentCode":"632200","sourceLevel":"County-level (geoBoundaries ADM2)","sourceValidOn":"2017","parentMethod":"Derived interior-label spatial association; not an authoritative administrative code join","center":[99.88463098854052,37.63288156636411],"bbox":[98.89357190800007,36.94453274600005,100.65042025900004,38.31480861700004],"source":"National Administration of Surveying, Mapping and Geoinformation / Revolutionary GIS via geoBoundaries · 2017 · PDDL 1.0"},"geometry":{"type":"Point","coordinates":[99.88463098854052,37.63288156636411]}},{"type":"Feature","id":"cn-qinghai-t-17275852B50621998812160","properties":{"id":"cn-qinghai-t-17275852B50621998812160","name":"Menyuanhuizuzizhixian","region":"cn-qinghai","country":"Qinghai · China","province":"Qinghai · China","level":"tehsil","parent":"cn-qinghai-d-632200","district":"Haibeizangzu","sourceCode":"17275852B50621998812160","sourceParentCode":"632200","sourceLevel":"County-level (geoBoundaries ADM2)","sourceValidOn":"2017","parentMethod":"Derived interior-label spatial association; not an authoritative administrative code join","center":[101.70871645561684,37.42932392236012],"bbox":[100.84267264700009,37.045492882000076,102.59492224600007,37.88487564600007],"source":"National Administration of Surveying, Mapping and Geoinformation / Revolutionary GIS via geoBoundaries · 2017 · PDDL 1.0"},"geometry":{"type":"Point","coordinates":[101.70871645561684,37.42932392236012]}},{"type":"Feature","id":"cn-qinghai-t-17275852B26921956360688","properties":{"id":"cn-qinghai-t-17275852B26921956360688","name":"Dulanxian","region":"cn-qinghai","country":"Qinghai · China","province":"Qinghai · China","level":"tehsil","parent":"cn-qinghai-d-632800","district":"Haiximengguzuzangzu","sourceCode":"17275852B26921956360688","sourceParentCode":"632800","sourceLevel":"County-level (geoBoundaries ADM2)","sourceValidOn":"2017","parentMethod":"Derived interior-label spatial association; not an authoritative administrative code join","center":[97.11578177194144,36.15685110007272],"bbox":[95.29379358500006,35.07556645400007,99.27672013000006,37.437152765000064],"source":"National Administration of Surveying, Mapping and Geoinformation / Revolutionary GIS via geoBoundaries · 2017 · PDDL 1.0"},"geometry":{"type":"Point","coordinates":[97.11578177194144,36.15685110007272]}},{"type":"Feature","id":"cn-qinghai-t-17275852B58564753780047","properties":{"id":"cn-qinghai-t-17275852B58564753780047","name":"Haiyanxian","region":"cn-qinghai","country":"Qinghai · China","province":"Qinghai · China","level":"tehsil","parent":"cn-qinghai-d-632200","district":"Haibeizangzu","sourceCode":"17275852B58564753780047","sourceParentCode":"632200","sourceLevel":"County-level (geoBoundaries ADM2)","sourceValidOn":"2017","parentMethod":"Derived interior-label spatial association; not an authoritative administrative code join","center":[100.84685056509804,37.100976194111944],"bbox":[100.40340217200009,36.70019301900004,101.32890809600008,37.63363943500008],"source":"National Administration of Surveying, Mapping and Geoinformation / Revolutionary GIS via geoBoundaries · 2017 · PDDL 1.0"},"geometry":{"type":"Point","coordinates":[100.84685056509804,37.100976194111944]}},{"type":"Feature","id":"cn-qinghai-t-17275852B13951895453383","properties":{"id":"cn-qinghai-t-17275852B13951895453383","name":"Zhiduoxian","region":"cn-qinghai","country":"Qinghai · China","province":"Qinghai · China","level":"tehsil","parent":"cn-qinghai-d-632700","district":"Yushuzangzu","sourceCode":"17275852B13951895453383","sourceParentCode":"632700","sourceLevel":"County-level (geoBoundaries ADM2)","sourceValidOn":"2017","parentMethod":"Derived interior-label spatial association; not an authoritative administrative code join","center":[92.6146143528604,34.87183516085744],"bbox":[89.41901608400008,33.168898021000075,96.28813890600009,36.252446607000024],"source":"National Administration of Surveying, Mapping and Geoinformation / Revolutionary GIS via geoBoundaries · 2017 · PDDL 1.0"},"geometry":{"type":"Point","coordinates":[92.6146143528604,34.87183516085744]}},{"type":"Feature","id":"cn-qinghai-t-17275852B12680287585482","properties":{"id":"cn-qinghai-t-17275852B12680287585482","name":"Datonghuizutuzuzizhixian","region":"cn-qinghai","country":"Qinghai · China","province":"Qinghai · China","level":"tehsil","parent":"cn-qinghai-d-630100","district":"Xining","sourceCode":"17275852B12680287585482","sourceParentCode":"630100","sourceLevel":"County-level (geoBoundaries ADM2)","sourceValidOn":"2017","parentMethod":"Derived interior-label spatial association; not an authoritative administrative code join","center":[101.46682264886914,37.12533161564033],"bbox":[100.88361294900005,36.745457557000066,101.90739374900005,37.42041609100005],"source":"National Administration of Surveying, Mapping and Geoinformation / Revolutionary GIS via geoBoundaries · 2017 · PDDL 1.0"},"geometry":{"type":"Point","coordinates":[101.46682264886914,37.12533161564033]}},{"type":"Feature","id":"cn-qinghai-t-17275852B41190012362593","properties":{"id":"cn-qinghai-t-17275852B41190012362593","name":"Huzhutuzuzizhixian","region":"cn-qinghai","country":"Qinghai · China","province":"Qinghai · China","level":"tehsil","parent":"cn-qinghai-d-630200","district":"Haidong","sourceCode":"17275852B41190012362593","sourceParentCode":"630200","sourceLevel":"County-level (geoBoundaries ADM2)","sourceValidOn":"2017","parentMethod":"Derived interior-label spatial association; not an authoritative administrative code join","center":[102.17248707553975,36.83979345326468],"bbox":[101.81266105700007,36.49563795200004,102.69861265400004,37.15560294800008],"source":"National Administration of Surveying, Mapping and Geoinformation / Revolutionary GIS via geoBoundaries · 2017 · PDDL 1.0"},"geometry":{"type":"Point","coordinates":[102.17248707553975,36.83979345326468]}},{"type":"Feature","id":"cn-qinghai-t-17275852B4088951121354","properties":{"id":"cn-qinghai-t-17275852B4088951121354","name":"Huangzhongxian","region":"cn-qinghai","country":"Qinghai · China","province":"Qinghai · China","level":"tehsil","parent":"cn-qinghai-d-630100","district":"Xining","sourceCode":"17275852B4088951121354","sourceParentCode":"630100","sourceLevel":"County-level (geoBoundaries ADM2)","sourceValidOn":"2017","parentMethod":"Derived interior-label spatial association; not an authoritative administrative code join","center":[101.56686196240635,36.57740777121138],"bbox":[101.28979870200004,36.276072283000076,101.91505793600004,37.00428205500003],"source":"National Administration of Surveying, Mapping and Geoinformation / Revolutionary GIS via geoBoundaries · 2017 · PDDL 1.0"},"geometry":{"type":"Point","coordinates":[101.56686196240635,36.57740777121138]}},{"type":"Feature","id":"cn-qinghai-t-17275852B75021358121292","properties":{"id":"cn-qinghai-t-17275852B75021358121292","name":"Huangyuanxian","region":"cn-qinghai","country":"Qinghai · China","province":"Qinghai · China","level":"tehsil","parent":"cn-qinghai-d-630100","district":"Xining","sourceCode":"17275852B75021358121292","sourceParentCode":"630100","sourceLevel":"County-level (geoBoundaries ADM2)","sourceValidOn":"2017","parentMethod":"Derived interior-label spatial association; not an authoritative administrative code join","center":[101.18301256978948,36.64334766990596],"bbox":[100.90464912200008,36.33614921100008,101.44416305000004,36.86456263700006],"source":"National Administration of Surveying, Mapping and Geoinformation / Revolutionary GIS via geoBoundaries · 2017 · PDDL 1.0"},"geometry":{"type":"Point","coordinates":[101.18301256978948,36.64334766990596]}},{"type":"Feature","id":"cn-qinghai-t-17275852B39024209153888","properties":{"id":"cn-qinghai-t-17275852B39024209153888","name":"Leduxian","region":"cn-qinghai","country":"Qinghai · China","province":"Qinghai · China","level":"tehsil","parent":"cn-qinghai-d-630200","district":"Haidong","sourceCode":"17275852B39024209153888","sourceParentCode":"630200","sourceLevel":"County-level (geoBoundaries ADM2)","sourceValidOn":"2017","parentMethod":"Derived interior-label spatial association; not an authoritative administrative code join","center":[102.43013773496351,36.48900697783051],"bbox":[102.11269150800007,36.19206746200007,102.75686545800005,36.83813022500004],"source":"National Administration of Surveying, Mapping and Geoinformation / Revolutionary GIS via geoBoundaries · 2017 · PDDL 1.0"},"geometry":{"type":"Point","coordinates":[102.43013773496351,36.48900697783051]}},{"type":"Feature","id":"cn-qinghai-t-17275852B10439048942215","properties":{"id":"cn-qinghai-t-17275852B10439048942215","name":"Xiningshi","region":"cn-qinghai","country":"Qinghai · China","province":"Qinghai · China","level":"tehsil","parent":"cn-qinghai-d-630100","district":"Xining","sourceCode":"17275852B10439048942215","sourceParentCode":"630100","sourceLevel":"County-level (geoBoundaries ADM2)","sourceValidOn":"2017","parentMethod":"Derived interior-label spatial association; not an authoritative administrative code join","center":[101.74441687629863,36.635494013288984],"bbox":[101.55274306500007,36.53145755600008,101.93909181300006,36.75470641000004],"source":"National Administration of Surveying, Mapping and Geoinformation / Revolutionary GIS via geoBoundaries · 2017 · PDDL 1.0"},"geometry":{"type":"Point","coordinates":[101.74441687629863,36.635494013288984]}},{"type":"Feature","id":"cn-qinghai-t-17275852B19378290916588","properties":{"id":"cn-qinghai-t-17275852B19378290916588","name":"Pinganxian","region":"cn-qinghai","country":"Qinghai · China","province":"Qinghai · China","level":"tehsil","parent":"cn-qinghai-d-630200","district":"Haidong","sourceCode":"17275852B19378290916588","sourceParentCode":"630200","sourceLevel":"County-level (geoBoundaries ADM2)","sourceValidOn":"2017","parentMethod":"Derived interior-label spatial association; not an authoritative administrative code join","center":[102.0036627854984,36.39246682339366],"bbox":[101.81804771400004,36.25391448000005,102.18225628300007,36.55710110700005],"source":"National Administration of Surveying, Mapping and Geoinformation / Revolutionary GIS via geoBoundaries · 2017 · PDDL 1.0"},"geometry":{"type":"Point","coordinates":[102.0036627854984,36.39246682339366]}},{"type":"Feature","id":"cn-qinghai-t-17275852B8640595389907","properties":{"id":"cn-qinghai-t-17275852B8640595389907","name":"Guidexian","region":"cn-qinghai","country":"Qinghai · China","province":"Qinghai · China","level":"tehsil","parent":"cn-qinghai-d-632500","district":"Hainanzangzu","sourceCode":"17275852B8640595389907","sourceParentCode":"632500","sourceLevel":"County-level (geoBoundaries ADM2)","sourceValidOn":"2017","parentMethod":"Derived interior-label spatial association; not an authoritative administrative code join","center":[101.45754819832185,35.98845928276189],"bbox":[101.15668120200007,35.50049549100004,101.79504717600008,36.40903339300007],"source":"National Administration of Surveying, Mapping and Geoinformation / Revolutionary GIS via geoBoundaries · 2017 · PDDL 1.0"},"geometry":{"type":"Point","coordinates":[101.45754819832185,35.98845928276189]}},{"type":"Feature","id":"cn-qinghai-t-17275852B19636254999944","properties":{"id":"cn-qinghai-t-17275852B19636254999944","name":"Qumalaixian","region":"cn-qinghai","country":"Qinghai · China","province":"Qinghai · China","level":"tehsil","parent":"cn-qinghai-d-632700","district":"Yushuzangzu","sourceCode":"17275852B19636254999944","sourceParentCode":"632700","sourceLevel":"County-level (geoBoundaries ADM2)","sourceValidOn":"2017","parentMethod":"Derived interior-label spatial association; not an authoritative administrative code join","center":[95.14461318244992,34.85554527225104],"bbox":[92.93751630400004,33.670185735000075,97.31164520600004,35.65297380700008],"source":"National Administration of Surveying, Mapping and Geoinformation / Revolutionary GIS via geoBoundaries · 2017 · PDDL 1.0"},"geometry":{"type":"Point","coordinates":[95.14461318244992,34.85554527225104]}},{"type":"Feature","id":"cn-qinghai-t-17275852B36383935837338","properties":{"id":"cn-qinghai-t-17275852B36383935837338","name":"Minhehuizutuzuzizhixian","region":"cn-qinghai","country":"Qinghai · China","province":"Qinghai · China","level":"tehsil","parent":"cn-qinghai-d-630200","district":"Haidong","sourceCode":"17275852B36383935837338","sourceParentCode":"630200","sourceLevel":"County-level (geoBoundaries ADM2)","sourceValidOn":"2017","parentMethod":"Derived interior-label spatial association; not an authoritative administrative code join","center":[102.77134773263109,36.13722985926018],"bbox":[102.47899999300006,35.81248938900006,103.03004753600004,36.44508367700007],"source":"National Administration of Surveying, Mapping and Geoinformation / Revolutionary GIS via geoBoundaries · 2017 · PDDL 1.0"},"geometry":{"type":"Point","coordinates":[102.77134773263109,36.13722985926018]}},{"type":"Feature","id":"cn-qinghai-t-17275852B81098989654744","properties":{"id":"cn-qinghai-t-17275852B81098989654744","name":"Xinghaixian","region":"cn-qinghai","country":"Qinghai · China","province":"Qinghai · China","level":"tehsil","parent":"cn-qinghai-d-632500","district":"Hainanzangzu","sourceCode":"17275852B81098989654744","sourceParentCode":"632500","sourceLevel":"County-level (geoBoundaries ADM2)","sourceValidOn":"2017","parentMethod":"Derived interior-label spatial association; not an authoritative administrative code join","center":[99.74773263316213,35.50084233146163],"bbox":[99.00937169000008,34.81453254100006,100.35107830300007,36.12459694200004],"source":"National Administration of Surveying, Mapping and Geoinformation / Revolutionary GIS via geoBoundaries · 2017 · PDDL 1.0"},"geometry":{"type":"Point","coordinates":[99.74773263316213,35.50084233146163]}},{"type":"Feature","id":"cn-qinghai-t-17275852B64856383532767","properties":{"id":"cn-qinghai-t-17275852B64856383532767","name":"Hualonghuizuzizhixian","region":"cn-qinghai","country":"Qinghai · China","province":"Qinghai · China","level":"tehsil","parent":"cn-qinghai-d-630200","district":"Haidong","sourceCode":"17275852B64856383532767","sourceParentCode":"630200","sourceLevel":"County-level (geoBoundaries ADM2)","sourceValidOn":"2017","parentMethod":"Derived interior-label spatial association; not an authoritative administrative code join","center":[102.22971338579032,36.065520405828465],"bbox":[101.61477771500006,35.81968664800007,102.72940182300005,36.308454237000035],"source":"National Administration of Surveying, Mapping and Geoinformation / Revolutionary GIS via geoBoundaries · 2017 · PDDL 1.0"},"geometry":{"type":"Point","coordinates":[102.22971338579032,36.065520405828465]}},{"type":"Feature","id":"cn-qinghai-t-17275852B37048929444654","properties":{"id":"cn-qinghai-t-17275852B37048929444654","name":"Geermushi","region":"cn-qinghai","country":"Qinghai · China","province":"Qinghai · China","level":"tehsil","parent":"cn-qinghai-d-632800","district":"Haiximengguzuzangzu","sourceCode":"17275852B37048929444654","sourceParentCode":"632800","sourceLevel":"County-level (geoBoundaries ADM2)","sourceValidOn":"2017","parentMethod":"Derived interior-label spatial association; not an authoritative administrative code join","center":[91.30552096006265,33.91673131820095],"bbox":[89.65829612500005,32.70615874900005,92.93802308800008,34.93541705700005],"source":"National Administration of Surveying, Mapping and Geoinformation / Revolutionary GIS via geoBoundaries · 2017 · PDDL 1.0"},"geometry":{"type":"Point","coordinates":[91.30552096006265,33.91673131820095]}},{"type":"Feature","id":"cn-qinghai-t-17275852B71786988816730","properties":{"id":"cn-qinghai-t-17275852B71786988816730","name":"Jianzhaxian","region":"cn-qinghai","country":"Qinghai · China","province":"Qinghai · China","level":"tehsil","parent":"cn-qinghai-d-632300","district":"Huangnanzangzu","sourceCode":"17275852B71786988816730","sourceParentCode":"632300","sourceLevel":"County-level (geoBoundaries ADM2)","sourceValidOn":"2017","parentMethod":"Derived interior-label spatial association; not an authoritative administrative code join","center":[101.8502094964125,35.904707389224804],"bbox":[101.61711884900006,35.661004766000076,102.10003899400004,36.16227788900005],"source":"National Administration of Surveying, Mapping and Geoinformation / Revolutionary GIS via geoBoundaries · 2017 · PDDL 1.0"},"geometry":{"type":"Point","coordinates":[101.8502094964125,35.904707389224804]}},{"type":"Feature","id":"cn-qinghai-t-17275852B54009314236158","properties":{"id":"cn-qinghai-t-17275852B54009314236158","name":"Guinanxian","region":"cn-qinghai","country":"Qinghai · China","province":"Qinghai · China","level":"tehsil","parent":"cn-qinghai-d-632500","district":"Hainanzangzu","sourceCode":"17275852B54009314236158","sourceParentCode":"632500","sourceLevel":"County-level (geoBoundaries ADM2)","sourceValidOn":"2017","parentMethod":"Derived interior-label spatial association; not an authoritative administrative code join","center":[100.91634937093974,35.681224291654935],"bbox":[100.23764890800004,35.31413959500003,101.56927651000007,36.11167323700005],"source":"National Administration of Surveying, Mapping and Geoinformation / Revolutionary GIS via geoBoundaries · 2017 · PDDL 1.0"},"geometry":{"type":"Point","coordinates":[100.91634937093974,35.681224291654935]}},{"type":"Feature","id":"cn-qinghai-t-17275852B66695118162266","properties":{"id":"cn-qinghai-t-17275852B66695118162266","name":"Maduoxian","region":"cn-qinghai","country":"Qinghai · China","province":"Qinghai · China","level":"tehsil","parent":"cn-qinghai-d-632600","district":"Guoluozangzu","sourceCode":"17275852B66695118162266","sourceParentCode":"632600","sourceLevel":"County-level (geoBoundaries ADM2)","sourceValidOn":"2017","parentMethod":"Derived interior-label spatial association; not an authoritative administrative code join","center":[98.20722191350843,34.768156964697525],"bbox":[96.92270311300007,33.842454685000064,99.32831904900007,35.655315941000026],"source":"National Administration of Surveying, Mapping and Geoinformation / Revolutionary GIS via geoBoundaries · 2017 · PDDL 1.0"},"geometry":{"type":"Point","coordinates":[98.20722191350843,34.768156964697525]}},{"type":"Feature","id":"cn-qinghai-t-17275852B74412727274506","properties":{"id":"cn-qinghai-t-17275852B74412727274506","name":"Xunhuasalazuzizhixian","region":"cn-qinghai","country":"Qinghai · China","province":"Qinghai · China","level":"tehsil","parent":"cn-qinghai-d-630200","district":"Haidong","sourceCode":"17275852B74412727274506","sourceParentCode":"630200","sourceLevel":"County-level (geoBoundaries ADM2)","sourceValidOn":"2017","parentMethod":"Derived interior-label spatial association; not an authoritative administrative code join","center":[102.4562210190421,35.69830898714951],"bbox":[102.05477803900004,35.41908709100005,102.75116655100004,35.874929303000044],"source":"National Administration of Surveying, Mapping and Geoinformation / Revolutionary GIS via geoBoundaries · 2017 · PDDL 1.0"},"geometry":{"type":"Point","coordinates":[102.4562210190421,35.69830898714951]}},{"type":"Feature","id":"cn-qinghai-t-17275852B73285144447377","properties":{"id":"cn-qinghai-t-17275852B73285144447377","name":"Tongdexian","region":"cn-qinghai","country":"Qinghai · China","province":"Qinghai · China","level":"tehsil","parent":"cn-qinghai-d-632500","district":"Hainanzangzu","sourceCode":"17275852B73285144447377","sourceParentCode":"632500","sourceLevel":"County-level (geoBoundaries ADM2)","sourceValidOn":"2017","parentMethod":"Derived interior-label spatial association; not an authoritative administrative code join","center":[100.60847687441323,35.06928042305415],"bbox":[100.16290524000004,34.65224358900008,101.09771618600007,35.631581037000046],"source":"National Administration of Surveying, Mapping and Geoinformation / Revolutionary GIS via geoBoundaries · 2017 · PDDL 1.0"},"geometry":{"type":"Point","coordinates":[100.60847687441323,35.06928042305415]}},{"type":"Feature","id":"cn-qinghai-t-17275852B20463865371353","properties":{"id":"cn-qinghai-t-17275852B20463865371353","name":"Tongrenxian","region":"cn-qinghai","country":"Qinghai · China","province":"Qinghai · China","level":"tehsil","parent":"cn-qinghai-d-632300","district":"Huangnanzangzu","sourceCode":"17275852B20463865371353","sourceParentCode":"632300","sourceLevel":"County-level (geoBoundaries ADM2)","sourceValidOn":"2017","parentMethod":"Derived interior-label spatial association; not an authoritative administrative code join","center":[102.07190804679578,35.417237984595914],"bbox":[101.56927651000007,34.98503210800004,102.43920253700009,35.73624506300007],"source":"National Administration of Surveying, Mapping and Geoinformation / Revolutionary GIS via geoBoundaries · 2017 · PDDL 1.0"},"geometry":{"type":"Point","coordinates":[102.07190804679578,35.417237984595914]}},{"type":"Feature","id":"cn-qinghai-t-17275852B98267999500175","properties":{"id":"cn-qinghai-t-17275852B98267999500175","name":"Zekuxian","region":"cn-qinghai","country":"Qinghai · China","province":"Qinghai · China","level":"tehsil","parent":"cn-qinghai-d-632300","district":"Huangnanzangzu","sourceCode":"17275852B98267999500175","sourceParentCode":"632300","sourceLevel":"County-level (geoBoundaries ADM2)","sourceValidOn":"2017","parentMethod":"Derived interior-label spatial association; not an authoritative administrative code join","center":[101.45128107669787,35.1255269854013],"bbox":[100.68531467200006,34.73096387000004,102.12006231900006,35.50049549100004],"source":"National Administration of Surveying, Mapping and Geoinformation / Revolutionary GIS via geoBoundaries · 2017 · PDDL 1.0"},"geometry":{"type":"Point","coordinates":[101.45128107669787,35.1255269854013]}},{"type":"Feature","id":"cn-qinghai-t-17275852B82919928587081","properties":{"id":"cn-qinghai-t-17275852B82919928587081","name":"Maqinxian","region":"cn-qinghai","country":"Qinghai · China","province":"Qinghai · China","level":"tehsil","parent":"cn-qinghai-d-632600","district":"Guoluozangzu","sourceCode":"17275852B82919928587081","sourceParentCode":"632600","sourceLevel":"County-level (geoBoundaries ADM2)","sourceValidOn":"2017","parentMethod":"Derived interior-label spatial association; not an authoritative administrative code join","center":[99.77470175284661,34.51000432725564],"bbox":[98.81817802300009,33.728870785000026,101.01696598100006,35.161441094000054],"source":"National Administration of Surveying, Mapping and Geoinformation / Revolutionary GIS via geoBoundaries · 2017 · PDDL 1.0"},"geometry":{"type":"Point","coordinates":[99.77470175284661,34.51000432725564]}},{"type":"Feature","id":"cn-qinghai-t-17275852B27939254726366","properties":{"id":"cn-qinghai-t-17275852B27939254726366","name":"Chengduoxian","region":"cn-qinghai","country":"Qinghai · China","province":"Qinghai · China","level":"tehsil","parent":"cn-qinghai-d-632700","district":"Yushuzangzu","sourceCode":"17275852B27939254726366","sourceParentCode":"632700","sourceLevel":"County-level (geoBoundaries ADM2)","sourceValidOn":"2017","parentMethod":"Derived interior-label spatial association; not an authoritative administrative code join","center":[97.07108049438811,33.872744738785975],"bbox":[96.29617419400006,32.91971265500007,97.77987030100007,34.64233285000006],"source":"National Administration of Surveying, Mapping and Geoinformation / Revolutionary GIS via geoBoundaries · 2017 · PDDL 1.0"},"geometry":{"type":"Point","coordinates":[97.07108049438811,33.872744738785975]}},{"type":"Feature","id":"cn-qinghai-t-17275852B99290886399570","properties":{"id":"cn-qinghai-t-17275852B99290886399570","name":"Banmaxian","region":"cn-qinghai","country":"Qinghai · China","province":"Qinghai · China","level":"tehsil","parent":"cn-qinghai-d-632300","district":"Huangnanzangzu","sourceCode":"17275852B99290886399570","sourceParentCode":"632300","sourceLevel":"County-level (geoBoundaries ADM2)","sourceValidOn":"2017","parentMethod":"Derived interior-label spatial association; not an authoritative administrative code join","center":[101.55647386842996,34.49010915819337],"bbox":[100.90357303500008,34.03893624800003,102.24469113800006,34.90050812700008],"source":"National Administration of Surveying, Mapping and Geoinformation / Revolutionary GIS via geoBoundaries · 2017 · PDDL 1.0"},"geometry":{"type":"Point","coordinates":[101.55647386842996,34.49010915819337]}},{"type":"Feature","id":"cn-qinghai-t-17275852B1787117911325","properties":{"id":"cn-qinghai-t-17275852B1787117911325","name":"Gandexian","region":"cn-qinghai","country":"Qinghai · China","province":"Qinghai · China","level":"tehsil","parent":"cn-qinghai-d-632600","district":"Guoluozangzu","sourceCode":"17275852B1787117911325","sourceParentCode":"632600","sourceLevel":"County-level (geoBoundaries ADM2)","sourceValidOn":"2017","parentMethod":"Derived interior-label spatial association; not an authoritative administrative code join","center":[100.16459126582832,34.032092578256595],"bbox":[99.48608252600008,33.577816720000044,100.91745907500007,34.43457277300007],"source":"National Administration of Surveying, Mapping and Geoinformation / Revolutionary GIS via geoBoundaries · 2017 · PDDL 1.0"},"geometry":{"type":"Point","coordinates":[100.16459126582832,34.032092578256595]}},{"type":"Feature","id":"cn-qinghai-t-17275852B94078824919955","properties":{"id":"cn-qinghai-t-17275852B94078824919955","name":"Zaduoxian","region":"cn-qinghai","country":"Qinghai · China","province":"Qinghai · China","level":"tehsil","parent":"cn-qinghai-d-632700","district":"Yushuzangzu","sourceCode":"17275852B94078824919955","sourceParentCode":"632700","sourceLevel":"County-level (geoBoundaries ADM2)","sourceValidOn":"2017","parentMethod":"Derived interior-label spatial association; not an authoritative administrative code join","center":[94.29560289491191,33.070665496576574],"bbox":[92.60541204300006,32.22850611600006,95.99137721600005,33.81037820700004],"source":"National Administration of Surveying, Mapping and Geoinformation / Revolutionary GIS via geoBoundaries · 2017 · PDDL 1.0"},"geometry":{"type":"Point","coordinates":[94.29560289491191,33.070665496576574]}},{"type":"Feature","id":"cn-qinghai-t-17275852B28481452848090","properties":{"id":"cn-qinghai-t-17275852B28481452848090","name":"Darixian","region":"cn-qinghai","country":"Qinghai · China","province":"Qinghai · China","level":"tehsil","parent":"cn-qinghai-d-632600","district":"Guoluozangzu","sourceCode":"17275852B28481452848090","sourceParentCode":"632600","sourceLevel":"County-level (geoBoundaries ADM2)","sourceValidOn":"2017","parentMethod":"Derived interior-label spatial association; not an authoritative administrative code join","center":[99.35610317031843,33.53119795364243],"bbox":[98.41994330600005,32.868397935000075,100.54244591400004,34.211626454000054],"source":"National Administration of Surveying, Mapping and Geoinformation / Revolutionary GIS via geoBoundaries · 2017 · PDDL 1.0"},"geometry":{"type":"Point","coordinates":[99.35610317031843,33.53119795364243]}},{"type":"Feature","id":"cn-qinghai-t-17275852B66736115774382","properties":{"id":"cn-qinghai-t-17275852B66736115774382","name":"Yushuxian","region":"cn-qinghai","country":"Qinghai · China","province":"Qinghai · China","level":"tehsil","parent":"cn-qinghai-d-632700","district":"Yushuzangzu","sourceCode":"17275852B66736115774382","sourceParentCode":"632700","sourceLevel":"County-level (geoBoundaries ADM2)","sourceValidOn":"2017","parentMethod":"Derived interior-label spatial association; not an authoritative administrative code join","center":[96.7508634679383,32.92898734201249],"bbox":[95.88109397400007,32.03594359900006,97.77208994000006,33.77977281300008],"source":"National Administration of Surveying, Mapping and Geoinformation / Revolutionary GIS via geoBoundaries · 2017 · PDDL 1.0"},"geometry":{"type":"Point","coordinates":[96.7508634679383,32.92898734201249]}},{"type":"Feature","id":"cn-qinghai-t-17275852B2182407224263","properties":{"id":"cn-qinghai-t-17275852B2182407224263","name":"Jiuzhixian","region":"cn-qinghai","country":"Qinghai · China","province":"Qinghai · China","level":"tehsil","parent":"cn-qinghai-d-632600","district":"Guoluozangzu","sourceCode":"17275852B2182407224263","sourceParentCode":"632600","sourceLevel":"County-level (geoBoundaries ADM2)","sourceValidOn":"2017","parentMethod":"Derived interior-label spatial association; not an authoritative administrative code join","center":[101.0252189372977,33.50507851117667],"bbox":[100.35413510100005,33.121105543000056,101.79761741900006,34.020768829000076],"source":"National Administration of Surveying, Mapping and Geoinformation / Revolutionary GIS via geoBoundaries · 2017 · PDDL 1.0"},"geometry":{"type":"Point","coordinates":[101.0252189372977,33.50507851117667]}},{"type":"Feature","id":"cn-qinghai-t-17275852B24277287807877","properties":{"id":"cn-qinghai-t-17275852B24277287807877","name":"Nangqianxian","region":"cn-qinghai","country":"Qinghai · China","province":"Qinghai · China","level":"tehsil","parent":"cn-qinghai-d-632700","district":"Yushuzangzu","sourceCode":"17275852B24277287807877","sourceParentCode":"632700","sourceLevel":"County-level (geoBoundaries ADM2)","sourceValidOn":"2017","parentMethod":"Derived interior-label spatial association; not an authoritative administrative code join","center":[96.12931302912665,32.240002830011555],"bbox":[95.33501593600005,31.55428592900006,97.18921425200006,32.97447469700006],"source":"National Administration of Surveying, Mapping and Geoinformation / Revolutionary GIS via geoBoundaries · 2017 · PDDL 1.0"},"geometry":{"type":"Point","coordinates":[96.12931302912665,32.240002830011555]}},{"type":"Feature","id":"cn-qinghai-t-17275852B52151949988531","properties":{"id":"cn-qinghai-t-17275852B52151949988531","name":"Banmaxian","region":"cn-qinghai","country":"Qinghai · China","province":"Qinghai · China","level":"tehsil","parent":"cn-qinghai-d-632600","district":"Guoluozangzu","sourceCode":"17275852B52151949988531","sourceParentCode":"632600","sourceLevel":"County-level (geoBoundaries ADM2)","sourceValidOn":"2017","parentMethod":"Derived interior-label spatial association; not an authoritative administrative code join","center":[100.40129190564798,32.94255567324582],"bbox":[99.37628226300006,32.415813815000035,101.26648326600008,33.37454134200004],"source":"National Administration of Surveying, Mapping and Geoinformation / Revolutionary GIS via geoBoundaries · 2017 · PDDL 1.0"},"geometry":{"type":"Point","coordinates":[100.40129190564798,32.94255567324582]}},{"type":"Feature","id":"cn-qinghai-t-17275852B58957248362912","properties":{"id":"cn-qinghai-t-17275852B58957248362912","name":"Gonghexian","region":"cn-qinghai","country":"Qinghai · China","province":"Qinghai · China","level":"tehsil","parent":"cn-qinghai-d-632500","district":"Hainanzangzu","sourceCode":"17275852B58957248362912","sourceParentCode":"632500","sourceLevel":"County-level (geoBoundaries ADM2)","sourceValidOn":"2017","parentMethod":"Derived interior-label spatial association; not an authoritative administrative code join","center":[100.10244897753151,36.50206209237026],"bbox":[99.00693379000006,35.76788118300004,101.22199431600006,37.22487693800008],"source":"National Administration of Surveying, Mapping and Geoinformation / Revolutionary GIS via geoBoundaries · 2017 · PDDL 1.0"},"geometry":{"type":"Point","coordinates":[100.10244897753151,36.50206209237026]}}]}
