{"type":"FeatureCollection","features":[{"type":"Feature","id":"cn-sichuan","properties":{"region":"cn-sichuan","country":"Sichuan · China","sourceValidOn":"2023","source":"cn-atlas / Amll (ISC), derived from CTAmap / Rui Cheng (MIT) · 2023 · simplified source geometry","id":"cn-sichuan","name":"Sichuan · China","level":"region","parent":"","sourceCode":"510000","sourceLevel":"ADM1 context outline","center":[102.69283405455964,30.62928933728026],"bbox":[97.34749306,26.05608065,108.53209477,34.31523871]},"geometry":{"type":"Point","coordinates":[102.69283405455964,30.62928933728026]}}]}
