{"type":"FeatureCollection","features":[{"type":"Feature","id":"cn-sichuan-p-510000","properties":{"region":"cn-sichuan","country":"Sichuan · China","sourceValidOn":"2023","source":"cn-atlas / Amll (ISC), derived from CTAmap / Rui Cheng (MIT) · 2023 · simplified source geometry","id":"cn-sichuan-p-510000","name":"Sichuan · China","level":"province","parent":"cn-sichuan","sourceCode":"510000","sourceLevel":"ADM1","center":[102.69283405455964,30.62928933728026],"bbox":[97.34749306,26.05608065,108.53209477,34.31523871],"sourceParentCode":"510000"},"geometry":{"type":"Polygon","coordinates":[[[105.49680319,32.91280772],[105.48345764,32.92315866],[105.46135706,32.93273575],[105.43040044,32.93496201],[105.41962236,32.93174129],[105.40805151,32.921722],[105.41034475,32.90626464],[105.40517225,32.88835778],[105.38489379,32.88080006],[105.39528382,32.85429872],[105.38880521,32.8376325],[105.40089704,32.82658635],[105.41498723,32.80386111],[105.42537436,32.77505895],[105.44931927,32.77009529],[105.45507638,32.75520701],[105.44633852,32.73467524],[105.42277436,32.7356299],[105.4092883,32.7245221],[105.37494173,32.71047583],[105.36458054,32.71448077],[105.35106097,32.70032508],[105.34541754,32.68797143],[105.33783432,32.68216565],[105.32465597,32.68029434],[105.31710326,32.67351389],[105.30511636,32.67370583],[105.29588006,32.66046233],[105.28753477,32.65682385],[105.27313855,32.65933313],[105.25994233,32.65405301],[105.23704686,32.67122544],[105.21429839,32.66496063],[105.21232304,32.64109748],[105.19987777,32.63008655],[105.18408113,32.62848355],[105.18058901,32.61787005],[105.14461567,32.60756919],[105.13573416,32.60257138],[105.10897806,32.59632846],[105.09413504,32.60855433],[105.07679376,32.63933718],[105.05783717,32.64743769],[105.04354518,32.64764591],[105.02764727,32.65258319],[105.00579311,32.64015891],[104.99281147,32.64156153],[104.98020108,32.6346772],[104.96860018,32.63595738],[104.95099123,32.6238065],[104.93900697,32.62335865],[104.90442517,32.60529776],[104.88258582,32.60503129],[104.86978073,32.61383638],[104.87002822,32.62694191],[104.85276941,32.63996204],[104.84261474,32.65650302],[104.82647683,32.66513459],[104.81441943,32.66302627],[104.81102532,32.65334766],[104.7895295,32.64496579],[104.76932307,32.64398763],[104.75707632,32.64792338],[104.73614827,32.63816166],[104.71653204,32.65155175],[104.70714974,32.66279474],[104.70290903,32.67630142],[104.69515066,32.67754861],[104.67722328,32.67209144],[104.66943957,32.66522717],[104.65594374,32.66737784],[104.63829182,32.66534236],[104.60884941,32.69116954],[104.59148362,32.69601329],[104.58190048,32.71025164],[104.58111986,32.72426875],[104.56888985,32.73140913],[104.55145212,32.73631998],[104.53123774,32.72703163],[104.52416481,32.73065322],[104.50760378,32.75737765],[104.488736,32.75917173],[104.48162155,32.75356158],[104.45435141,32.75095437],[104.44525518,32.76368442],[104.42432537,32.77090194],[104.42292104,32.77994219],[104.4057499,32.78546169],[104.36925946,32.80985871],[104.36450505,32.82300746],[104.35477578,32.82616997],[104.33091333,32.82606622],[104.297937,32.83290686],[104.29102097,32.83875483],[104.28895662,32.87106409],[104.28047876,32.88553327],[104.27452901,32.88800045],[104.27434201,32.90264882],[104.27957191,32.90782472],[104.2793896,32.9198967],[104.28497483,32.9293862],[104.28306119,32.94032218],[104.30299148,32.95426828],[104.31746906,32.94696116],[104.33073705,32.949563],[104.34171692,32.94278304],[104.36796218,32.94740854],[104.37707705,32.96628727],[104.37546645,32.97409747],[104.38161183,32.99616091],[104.39644469,33.00612291],[104.41521451,33.01042709],[104.42399661,33.01691254],[104.42247691,33.02930327],[104.41424256,33.03477904],[104.39458935,33.03694899],[104.39003566,33.04094142],[104.36569586,33.03076543],[104.33065255,33.04544728],[104.34852083,33.05896643],[104.35999524,33.08317432],[104.35513829,33.091595],[104.35725878,33.10127498],[104.37994773,33.10855226],[104.36975645,33.12002596],[104.3681593,33.12855355],[104.35561473,33.14615152],[104.34530927,33.18945509],[104.33695478,33.1996848],[104.33250192,33.21331533],[104.32559849,33.21463392],[104.32163944,33.22765101],[104.32698196,33.24251639],[104.31631621,33.28183005],[104.30002479,33.30475507],[104.32854118,33.31721846],[104.34682399,33.30261517],[104.38332493,33.30106223],[104.3953389,33.30630716],[104.39091959,33.3133291],[104.40983651,33.32107748],[104.41176698,33.32873466],[104.40367679,33.33870154],[104.37242106,33.34984426],[104.35543538,33.34729375],[104.34025811,33.33536701],[104.32782695,33.32994965],[104.31408236,33.33972608],[104.2935313,33.3324727],[104.28290214,33.35956873],[104.28309503,33.36826977],[104.27077098,33.38024327],[104.26913406,33.38971618],[104.24968396,33.40950264],[104.23004218,33.40328415],[104.21983477,33.40548414],[104.21575005,33.4212157],[104.21706945,33.43340816],[104.21015485,33.45212412],[104.19324379,33.45702541],[104.17903475,33.46944807],[104.17950198,33.48725003],[104.17067221,33.50064578],[104.17397203,33.5115905],[104.15792443,33.52660096],[104.15320677,33.5438859],[104.1643069,33.55912273],[104.16697187,33.57556968],[104.17789195,33.57876265],[104.17179045,33.59015116],[104.17541908,33.59616738],[104.16587636,33.61472243],[104.14932393,33.6230212],[104.1329063,33.63674691],[104.10873431,33.66423497],[104.04598925,33.68712335],[104.03612291,33.68885427],[104.01032641,33.68259659],[103.99776429,33.68284751],[103.96484552,33.67549819],[103.94459495,33.67814235],[103.9308871,33.68432844],[103.89578717,33.68220261],[103.86635774,33.68882308],[103.85401166,33.68735212],[103.84681214,33.67937727],[103.81843741,33.68123479],[103.80742396,33.67673201],[103.79704435,33.66505311],[103.78264362,33.66652915],[103.76391529,33.65746168],[103.75028563,33.67217379],[103.72899383,33.67947115],[103.71362283,33.68189695],[103.70601897,33.68837681],[103.688342,33.69527356],[103.66527053,33.68784434],[103.6629552,33.70135795],[103.6667494,33.71395603],[103.64591703,33.72044418],[103.64328123,33.71022632],[103.62737854,33.71265243],[103.63104892,33.72570194],[103.61666034,33.72537024],[103.61000305,33.71502872],[103.59686095,33.71955394],[103.57799696,33.70609861],[103.55953824,33.70029921],[103.5499309,33.67504293],[103.53887215,33.67495679],[103.52499083,33.68999424],[103.52628451,33.69939029],[103.54328907,33.72180143],[103.54725785,33.7422458],[103.52898061,33.75119993],[103.5378518,33.76822211],[103.52871912,33.78509872],[103.52968788,33.80217426],[103.51824211,33.8117813],[103.50268885,33.81371085],[103.49047217,33.80736935],[103.47753512,33.81251401],[103.45499372,33.78503485],[103.44665299,33.78491396],[103.43889591,33.76984276],[103.43887666,33.7524814],[103.43087763,33.74540452],[103.41637029,33.7498104],[103.39275373,33.75097484],[103.38770523,33.75400917],[103.36741911,33.74802062],[103.33067328,33.74379551],[103.31128681,33.75215016],[103.29665977,33.76523935],[103.27645091,33.77578879],[103.28454577,33.78978057],[103.28234306,33.80329016],[103.26911663,33.81152272],[103.24844485,33.8158306],[103.22634309,33.80124335],[103.22517908,33.79557832],[103.20195329,33.79463943],[103.19013118,33.80219332],[103.15833687,33.80703192],[103.15033175,33.82268182],[103.16351351,33.85273455],[103.16200122,33.86540053],[103.1837375,33.90406534],[103.16628651,33.93218113],[103.12588961,33.93029668],[103.11690365,33.95208109],[103.12105773,33.96944343],[103.13458216,33.97413315],[103.13912729,33.98759475],[103.15232331,33.9960258],[103.157119,34.00583862],[103.14764544,34.01695846],[103.1457877,34.03583153],[103.1367441,34.03918467],[103.11651893,34.03637425],[103.1241189,34.05306948],[103.12697006,34.06735516],[103.14274646,34.06243954],[103.15665583,34.06866349],[103.17626303,34.08174296],[103.14588746,34.1049763],[103.131617,34.10257241],[103.120785,34.11240167],[103.11969376,34.1221225],[103.12811175,34.13308361],[103.1209185,34.1526773],[103.12208672,34.1647229],[103.11361569,34.17676132],[103.09919518,34.17749079],[103.07977094,34.18629226],[103.06685655,34.18864627],[103.05250731,34.19594691],[103.03436006,34.18615642],[103.02159186,34.18987728],[103.00676502,34.18543605],[102.97062709,34.19838086],[102.97351219,34.23496493],[102.96822217,34.25272567],[102.95962889,34.26364539],[102.9583828,34.28017819],[102.94887877,34.28576902],[102.9568769,34.296444],[102.90848967,34.31523871],[102.87887871,34.31462558],[102.85877651,34.30578984],[102.86344649,34.29736763],[102.86254838,34.28545988],[102.85415244,34.27239636],[102.79589054,34.27475646],[102.7766942,34.23943779],[102.74532381,34.23884368],[102.72538692,34.23609044],[102.71053577,34.21480551],[102.6959591,34.21285799],[102.69484845,34.19982093],[102.68318049,34.19881452],[102.67099222,34.19231664],[102.65820566,34.1931642],[102.65599497,34.18464637],[102.63351367,34.17315348],[102.6291583,34.16500559],[102.61254541,34.16381076],[102.61069904,34.15439218],[102.59630227,34.15303652],[102.60658503,34.14149412],[102.63315732,34.12846513],[102.63448551,34.11532609],[102.65375673,34.11908114],[102.6645628,34.10008415],[102.65498543,34.09218248],[102.64980387,34.07867901],[102.64050758,34.08842156],[102.62383957,34.09156269],[102.61521244,34.09924226],[102.60212405,34.10271333],[102.58019018,34.10315838],[102.5662221,34.09952714],[102.564693,34.09010918],[102.54563335,34.08682811],[102.53178765,34.08861005],[102.51309768,34.08596756],[102.4931393,34.07629963],[102.46424779,34.07412483],[102.46057271,34.08027679],[102.43794957,34.08822198],[102.42557553,34.07500139],[102.42170897,34.05590067],[102.41466402,34.0421683],[102.40384686,34.03398358],[102.39698059,34.01648941],[102.39537339,34.00169882],[102.38706688,33.97453768],[102.37205593,33.97613541],[102.35829832,33.97271328],[102.3511665,33.98029767],[102.34026265,33.97132692],[102.32752808,33.98535147],[102.31196652,33.968387],[102.30804982,33.97372566],[102.31448596,33.99541438],[102.30508818,33.99622579],[102.30087157,33.9876534],[102.28559913,33.97925998],[102.27553052,33.99219295],[102.24824128,33.98783912],[102.23951682,33.98377441],[102.24239376,33.97377077],[102.23635459,33.96499941],[102.20637464,33.9636789],[102.1933456,33.97643261],[102.16454317,33.98472404],[102.14546677,33.97863431],[102.13180072,33.96534793],[102.15164683,33.95989022],[102.16383886,33.94470461],[102.18644255,33.93147531],[102.20652053,33.90071211],[102.23011334,33.87135864],[102.24987317,33.86116026],[102.26253447,33.84640553],[102.26600179,33.83459587],[102.2511847,33.81136454],[102.23654521,33.80288738],[102.23667745,33.79209824],[102.24458818,33.78883261],[102.26916588,33.78978272],[102.28347139,33.78760986],[102.30198171,33.77835435],[102.31998274,33.75726011],[102.31219959,33.74712621],[102.28706856,33.73468642],[102.28454637,33.71806986],[102.30435993,33.71212311],[102.3178077,33.73121317],[102.33116339,33.73677297],[102.34010808,33.73078235],[102.33996727,33.72308475],[102.32681941,33.70368728],[102.31451255,33.67653186],[102.3140041,33.66904567],[102.33461416,33.63670306],[102.33808644,33.6129256],[102.34653461,33.6066898],[102.39235462,33.59435497],[102.40432599,33.58331036],[102.4189599,33.57795206],[102.44337762,33.57434978],[102.45271342,33.55682836],[102.47176465,33.54926239],[102.47643621,33.54393869],[102.47345958,33.53202487],[102.4551123,33.53572566],[102.44415779,33.53065403],[102.45858211,33.51137047],[102.45944362,33.50330054],[102.45085638,33.49315064],[102.45961467,33.48000565],[102.44899629,33.46978559],[102.44676891,33.45686995],[102.43748261,33.45168494],[102.43311822,33.4412224],[102.40576451,33.42980628],[102.39576418,33.41774344],[102.39356449,33.40707852],[102.38394498,33.40654226],[102.37765625,33.41369539],[102.36488341,33.41254363],[102.36806906,33.39524949],[102.35536875,33.39539988],[102.35006774,33.41016458],[102.34096026,33.41261338],[102.3310923,33.40319231],[102.30738297,33.40049735],[102.29945878,33.41325892],[102.28856126,33.41469418],[102.28017451,33.40839294],[102.25593286,33.41200418],[102.26038215,33.40020757],[102.23240016,33.38817826],[102.22742794,33.37881892],[102.2326893,33.37114619],[102.21672329,33.36034324],[102.19973683,33.34344838],[102.19040233,33.33875888],[102.18629017,33.32929679],[102.20343485,33.32178572],[102.20045181,33.30310031],[102.20930086,33.29098977],[102.20734011,33.28292821],[102.21568301,33.2502354],[102.21436291,33.23489957],[102.2068405,33.22675371],[102.1906206,33.23300885],[102.17336481,33.23545221],[102.16038593,33.24286154],[102.15050083,33.25550015],[102.14165212,33.27627246],[102.12730071,33.27827329],[102.11486251,33.28501617],[102.1129646,33.29800975],[102.09766856,33.27792095],[102.1080994,33.26062146],[102.09562166,33.2505683],[102.09926959,33.23527876],[102.08621939,33.22801892],[102.09513135,33.21840517],[102.08337917,33.19941206],[102.06358401,33.20093759],[102.0587458,33.19613553],[102.0407844,33.19985252],[102.02670921,33.19664193],[102.00571172,33.19945833],[101.99620254,33.20477873],[101.97878204,33.20343869],[101.97000159,33.1931598],[101.95704446,33.18886434],[101.93678632,33.18951939],[101.9246676,33.1613669],[101.91778332,33.15336672],[101.88376128,33.13606999],[101.87785586,33.11998265],[101.86667322,33.10658498],[101.84210983,33.11346083],[101.82313542,33.12287649],[101.82137571,33.13642967],[101.83346083,33.1400636],[101.83823081,33.15006995],[101.8370246,33.16112416],[101.84076366,33.18573508],[101.82950051,33.21450482],[101.81097926,33.22150295],[101.79627436,33.23489586],[101.78960497,33.23188286],[101.77293322,33.244838],[101.76943411,33.27073893],[101.78351789,33.27437681],[101.78931936,33.28157819],[101.81343696,33.28446946],[101.82198611,33.27308849],[101.8291376,33.29270445],[101.84762244,33.30003533],[101.85979983,33.31526843],[101.87572503,33.31674887],[101.8708598,33.32887137],[101.87396713,33.35252342],[101.88082339,33.36156642],[101.88034438,33.37572243],[101.88660174,33.38760623],[101.90391382,33.40451575],[101.91186166,33.40727525],[101.91739592,33.42277976],[101.9135916,33.42773834],[101.92471872,33.43724418],[101.94396756,33.44249604],[101.92288748,33.451732],[101.92730019,33.47283322],[101.90652163,33.48149997],[101.89899338,33.50138326],[101.90327092,33.51075587],[101.89704701,33.52333243],[101.90566252,33.54283968],[101.9017243,33.55572371],[101.8805103,33.56878793],[101.88297814,33.57890758],[101.85622071,33.58861833],[101.84611327,33.60301459],[101.83299972,33.59413114],[101.82952156,33.58141839],[101.8328214,33.56670623],[101.8299558,33.55678197],[101.80487729,33.54982302],[101.79859863,33.55837625],[101.7850417,33.55671138],[101.76847736,33.5481545],[101.76657317,33.540768],[101.77606587,33.53647148],[101.77649483,33.52240632],[101.77170873,33.51109058],[101.77275924,33.4922664],[101.76796387,33.47649316],[101.76520089,33.44864855],[101.71882422,33.44531656],[101.69928148,33.43931749],[101.67222203,33.39966797],[101.67212669,33.39361356],[101.65992268,33.38548752],[101.6584316,33.37032966],[101.6516091,33.3511509],[101.6476617,33.32501909],[101.65783971,33.3123447],[101.67484922,33.30060218],[101.70807227,33.3001287],[101.71305023,33.29099486],[101.72925188,33.28580923],[101.73901986,33.26957117],[101.72377675,33.25508556],[101.72686557,33.25036826],[101.71567846,33.22289206],[101.7069425,33.21499111],[101.67653294,33.20322796],[101.68675504,33.18799008],[101.68060895,33.17877724],[101.66317966,33.16756719],[101.65369504,33.16543047],[101.65890793,33.15193344],[101.65819617,33.13781078],[101.65095503,33.13425994],[101.64584056,33.12228231],[101.63180974,33.10380375],[101.61026123,33.11616331],[101.60748222,33.12171361],[101.58105477,33.14574554],[101.55978541,33.162028],[101.55765984,33.16862592],[101.5360352,33.18050646],[101.52722595,33.18879492],[101.51379137,33.19421233],[101.51166926,33.20599527],[101.50163408,33.20834767],[101.49332864,33.2236416],[101.4829785,33.22873608],[101.45268597,33.22653961],[101.42890941,33.23237219],[101.42229802,33.22892347],[101.39818544,33.22613642],[101.39110427,33.21392023],[101.3903877,33.20026166],[101.39481236,33.18882466],[101.39032153,33.18261935],[101.39158619,33.16172376],[101.38108259,33.15480411],[101.37172148,33.17367972],[101.35575569,33.18377792],[101.35556391,33.19621839],[101.34289276,33.2051874],[101.33720023,33.21920027],[101.32646748,33.22693189],[101.32760408,33.23745752],[101.32160925,33.24445126],[101.30904418,33.24679038],[101.2948211,33.26423147],[101.27566616,33.26703856],[101.2426846,33.26523081],[101.22057322,33.27164034],[101.21571428,33.26106482],[101.20456998,33.25759776],[101.20184621,33.27167051],[101.18249891,33.27225978],[101.17080865,33.26418996],[101.16945375,33.25007055],[101.15301277,33.24909821],[101.1531856,33.23617167],[101.12276175,33.22250107],[101.12073444,33.2044496],[101.11462608,33.19757375],[101.12147919,33.18961882],[101.13519965,33.18506765],[101.12848853,33.17769767],[101.13322328,33.16549619],[101.14216115,33.1639264],[101.14226795,33.15292154],[101.15803646,33.1486414],[101.14872996,33.13107771],[101.16269212,33.12127416],[101.16734295,33.09953407],[101.14601531,33.09410408],[101.14075262,33.08350982],[101.14494982,33.0736489],[101.14489489,33.05829643],[101.16024092,33.05850873],[101.17025632,33.04806224],[101.17955977,33.04851724],[101.18094491,33.0292438],[101.16954164,33.01689433],[101.17578924,32.9985691],[101.18409071,32.98798352],[101.17026932,32.98527843],[101.12715893,32.99104438],[101.13229209,32.95350798],[101.12569938,32.93927367],[101.13089883,32.928033],[101.11961337,32.913126],[101.13121043,32.90434074],[101.16036897,32.90346483],[101.17659975,32.89496401],[101.18488508,32.88475816],[101.19317544,32.88235709],[101.20531826,32.86822801],[101.2192776,32.86404164],[101.22227747,32.85345598],[101.2190008,32.84370414],[101.2368753,32.82910921],[101.22670034,32.79886587],[101.23349894,32.78743974],[101.2220307,32.77246648],[101.22694161,32.75832374],[101.22060097,32.72383165],[101.20369598,32.70874574],[101.19308552,32.68910159],[101.17665406,32.683188],[101.15730367,32.6617221],[101.14076897,32.66290294],[101.1239845,32.66023575],[101.10990334,32.6395917],[101.10762263,32.65636374],[101.11258564,32.6680001],[101.08169623,32.67442536],[101.07475451,32.68403311],[101.06121124,32.68042608],[101.02993406,32.66167518],[101.0186081,32.64653452],[100.99780121,32.63072918],[100.98171679,32.62909626],[100.95637178,32.62245707],[100.9259912,32.60185925],[100.92029278,32.61511916],[100.90748783,32.62211523],[100.89877328,32.61637044],[100.88801587,32.63528194],[100.87216849,32.63403898],[100.84885827,32.64221526],[100.84500439,32.64840785],[100.83253905,32.6514439],[100.82410623,32.64703993],[100.80639442,32.64899102],[100.79640804,32.65812373],[100.78264747,32.64191554],[100.76795112,32.64897349],[100.76716529,32.66454624],[100.75115238,32.65321921],[100.74536279,32.65836517],[100.72853145,32.66116663],[100.70845458,32.67572661],[100.68359535,32.67688254],[100.70655595,32.65289622],[100.71203136,32.63378886],[100.7190556,32.62425704],[100.70576398,32.61218471],[100.67460578,32.63036874],[100.66383503,32.6251372],[100.65674369,32.59926167],[100.6599271,32.58545494],[100.65577031,32.54800413],[100.66873708,32.52547028],[100.64540424,32.52803079],[100.61463129,32.54738754],[100.58744041,32.55450511],[100.57470409,32.55481598],[100.56122003,32.57195994],[100.54220743,32.57501743],[100.53752138,32.58411381],[100.52357489,32.59785009],[100.53043889,32.60545767],[100.51604594,32.62075266],[100.51513139,32.63208615],[100.49647951,32.65882388],[100.47580154,32.67370678],[100.46960705,32.69609632],[100.45706062,32.70334107],[100.44300976,32.6976143],[100.43411137,32.72154131],[100.42677575,32.72846192],[100.41497851,32.73119523],[100.39737256,32.71248965],[100.39246805,32.69984462],[100.37820895,32.69972701],[100.39725102,32.7399196],[100.40442489,32.74454463],[100.39508982,32.7560422],[100.38339142,32.74838295],[100.33238445,32.72077593],[100.29485147,32.73454919],[100.27935551,32.73725101],[100.26338159,32.74490763],[100.25669292,32.74241978],[100.26092673,32.73032505],[100.25122161,32.72466967],[100.23959475,32.72509596],[100.22977334,32.69762762],[100.23071353,32.65608614],[100.2209496,32.63263209],[100.2226636,32.6245163],[100.21266385,32.61826102],[100.21120058,32.60843652],[100.19537737,32.6148887],[100.18753216,32.63345122],[100.16991657,32.62876007],[100.16046581,32.63740861],[100.14721644,32.63792926],[100.13126474,32.63375993],[100.12288347,32.64256634],[100.11118268,32.64449861],[100.10291926,32.66120204],[100.08616655,32.67169078],[100.09087382,32.68445383],[100.09845871,32.68465079],[100.10337029,32.69651131],[100.11400236,32.70129233],[100.12234681,32.71690238],[100.1349777,32.71818053],[100.13581148,32.73290176],[100.13218192,32.75232363],[100.11628787,32.78674322],[100.11870662,32.79659614],[100.11384099,32.80352258],[100.11565843,32.82166962],[100.12026931,32.8360763],[100.1075085,32.84927087],[100.10981662,32.86265157],[100.09732658,32.86936415],[100.08754169,32.86735822],[100.08082692,32.87464287],[100.07880819,32.88761146],[100.06853377,32.89710248],[100.05741179,32.89576458],[100.04149552,32.90082169],[100.02610646,32.90174625],[100.03903946,32.93191915],[100.01974573,32.93321255],[100.00114845,32.9437701],[99.97824736,32.94136773],[99.96743553,32.94301716],[99.95298822,32.95391794],[99.94837246,32.97081318],[99.94739076,32.99036613],[99.92307574,33.00618539],[99.91689055,33.01893107],[99.90599525,33.02787526],[99.90591596,33.0450963],[99.88602596,33.04964208],[99.8778789,33.04584463],[99.88180571,33.02680517],[99.875603,32.99511572],[99.8646392,32.98383844],[99.86581458,32.97866291],[99.85605555,32.9656349],[99.85510646,32.94944754],[99.84282944,32.94479629],[99.83463505,32.95310683],[99.82514845,32.9528164],[99.81535124,32.94478028],[99.80344727,32.94242292],[99.78891304,32.95776899],[99.77864802,32.9577654],[99.76533378,32.94259155],[99.76619594,32.93417943],[99.77590553,32.92612647],[99.77874153,32.91313653],[99.78608643,32.9076896],[99.78483864,32.89395609],[99.79110874,32.8861142],[99.78790636,32.86997513],[99.77374297,32.85165042],[99.77332121,32.83874107],[99.76450046,32.82723793],[99.76890273,32.804333],[99.76139496,32.79590202],[99.76482995,32.78272269],[99.76011391,32.77364373],[99.73673392,32.74499566],[99.73831095,32.73274128],[99.72616423,32.72797352],[99.71682447,32.73556243],[99.70944154,32.76005056],[99.69484622,32.77142221],[99.67779853,32.76816176],[99.6646377,32.78216589],[99.65001798,32.77384952],[99.6443603,32.78952923],[99.63447686,32.79392859],[99.62431063,32.78498707],[99.60228416,32.78361694],[99.58533007,32.79601923],[99.58677401,32.80614145],[99.56432351,32.83140547],[99.56182615,32.83875815],[99.54835386,32.84739605],[99.5290505,32.85054475],[99.52029483,32.84881999],[99.47681305,32.85968758],[99.44858494,32.86529119],[99.43240701,32.87931588],[99.40083555,32.89022076],[99.3779882,32.90337141],[99.36247994,32.8931001],[99.34694356,32.89065532],[99.34289179,32.89687095],[99.33029595,32.89564729],[99.32570368,32.88434925],[99.30699739,32.88082661],[99.29799878,32.88809751],[99.28306109,32.88842361],[99.26396109,32.88289189],[99.26540976,32.8909394],[99.25769814,32.91175584],[99.24482867,32.92755494],[99.24474404,32.94515157],[99.24976341,32.95369521],[99.23181002,32.95741883],[99.22874671,32.97268281],[99.23383767,32.98746395],[99.22363162,32.99419922],[99.21632149,32.99167224],[99.20741017,33.02080867],[99.1954808,33.03558315],[99.17806333,33.04673572],[99.13451873,33.05251744],[99.12331876,33.04789251],[99.11222387,33.06630884],[99.09536552,33.06723647],[99.0888102,33.08053848],[99.06891803,33.07718468],[99.060747,33.08375223],[99.0379203,33.08631332],[99.02865467,33.0957151],[99.01303027,33.08275625],[99.00129173,33.08331243],[98.99738453,33.09104482],[98.98162211,33.09504198],[98.96608048,33.10669459],[98.96551688,33.11826163],[98.95584316,33.12078268],[98.93737074,33.11684217],[98.90622445,33.12499941],[98.88857259,33.14150361],[98.87452706,33.14423371],[98.86859181,33.1522573],[98.85461169,33.15515786],[98.84475606,33.16777368],[98.8281286,33.18229839],[98.83049378,33.19870514],[98.80928159,33.21257806],[98.80450359,33.22494273],[98.81298836,33.25325689],[98.80308187,33.27232582],[98.78971397,33.27402958],[98.77991989,33.28021335],[98.77278163,33.27655355],[98.75738755,33.2825281],[98.76001632,33.29264102],[98.77157844,33.29862994],[98.7726141,33.30512872],[98.76282185,33.32473232],[98.77352404,33.32955793],[98.76952522,33.33968652],[98.78021072,33.3462255],[98.77742433,33.37555042],[98.75395527,33.38817859],[98.74701562,33.40655549],[98.73599833,33.40928422],[98.73579769,33.42901886],[98.74350235,33.45735566],[98.74293773,33.47900708],[98.73102091,33.48644176],[98.72313183,33.48593559],[98.72472813,33.50587797],[98.71035076,33.50887702],[98.6897617,33.52231576],[98.67745321,33.52659401],[98.67115242,33.54519733],[98.65333088,33.54341678],[98.64571459,33.56233628],[98.66103602,33.58055833],[98.66475519,33.58901194],[98.63595954,33.60910085],[98.62261831,33.61218192],[98.6132181,33.63881243],[98.64226529,33.64565321],[98.64307059,33.65881101],[98.63487828,33.67198131],[98.60248895,33.69299895],[98.59415888,33.70429074],[98.59553112,33.72107545],[98.58269111,33.73378303],[98.53850721,33.74887239],[98.52882278,33.76616961],[98.51714633,33.77573032],[98.49292856,33.77101087],[98.48622279,33.78377309],[98.49232139,33.79469195],[98.48050686,33.82444332],[98.4611364,33.85063981],[98.44309432,33.84224101],[98.43567453,33.84456583],[98.42599267,33.85855767],[98.41208193,33.86325756],[98.4073269,33.86980595],[98.41187231,33.883553],[98.42802019,33.8987558],[98.42677529,33.91137012],[98.40580923,33.92858468],[98.41176496,33.95713763],[98.42962457,33.9623292],[98.44026773,33.98759341],[98.43229005,33.99862788],[98.43935881,34.01281895],[98.42163428,34.03625163],[98.41382181,34.03888762],[98.40456723,34.0503434],[98.39107471,34.05821119],[98.40201753,34.0879211],[98.32906043,34.09855523],[98.30912699,34.08940126],[98.28141038,34.08741769],[98.27051376,34.09028634],[98.25567405,34.08487611],[98.2382916,34.08413864],[98.22836852,34.08792817],[98.2109828,34.08066913],[98.19755341,34.09367472],[98.17224636,34.09929179],[98.15675408,34.10897232],[98.1420513,34.10586091],[98.13141847,34.10856363],[98.09844976,34.12473335],[98.08176211,34.12536681],[98.07122833,34.11999837],[98.06130236,34.12232386],[98.04386127,34.11741983],[98.02653963,34.12542361],[98.0136547,34.14622434],[97.9949183,34.15788341],[97.96085337,34.18447746],[97.94831957,34.19618602],[97.93126658,34.19913784],[97.90250359,34.2110233],[97.88880843,34.20635395],[97.86574789,34.20652767],[97.83486014,34.21003794],[97.81041178,34.20925789],[97.79514467,34.19659695],[97.78466022,34.17677012],[97.78535158,34.17079141],[97.7667901,34.1602124],[97.74339558,34.15714286],[97.7363034,34.15189062],[97.70272577,34.14028552],[97.69830511,34.13544781],[97.67696745,34.13335677],[97.6657646,34.12906337],[97.66164915,34.11659744],[97.67935572,34.08980256],[97.68187431,34.08173813],[97.69476352,34.07891375],[97.70231806,34.06132297],[97.70026444,34.03635375],[97.6873088,34.01783672],[97.67309284,34.0127304],[97.66305859,34.01565312],[97.65454787,34.00920174],[97.65253812,33.9995986],[97.66039324,33.97754514],[97.66030918,33.95985898],[97.65507104,33.95032957],[97.64390369,33.94607316],[97.64192547,33.92584745],[97.63143265,33.92072134],[97.61118339,33.9300764],[97.59729997,33.93153424],[97.58320229,33.92409068],[97.55948131,33.91691664],[97.5509393,33.91694489],[97.53230658,33.90481394],[97.52012225,33.90277257],[97.50412112,33.91442239],[97.49728968,33.90462091],[97.47895517,33.89992873],[97.47064056,33.90443515],[97.4609044,33.89876275],[97.46004694,33.88945701],[97.4421006,33.89002078],[97.41191169,33.88614681],[97.39610119,33.89064479],[97.38758426,33.88601852],[97.39578104,33.87280876],[97.39094158,33.86329753],[97.39978365,33.85208887],[97.37201174,33.84491489],[97.36782659,33.82693496],[97.37430907,33.81931709],[97.3973111,33.80872643],[97.40585629,33.79580254],[97.41187595,33.76792127],[97.42137051,33.75817669],[97.41487349,33.75004518],[97.417304,33.72903754],[97.42817121,33.72338639],[97.42100556,33.70923735],[97.43490561,33.68266053],[97.42494273,33.6641812],[97.41460113,33.63818029],[97.40450971,33.62842475],[97.41530691,33.60709898],[97.43325684,33.60255392],[97.44393483,33.5944731],[97.45278597,33.58111047],[97.47171146,33.58950706],[97.48512281,33.58887019],[97.51453352,33.58303823],[97.52599802,33.57579038],[97.51555436,33.54669823],[97.51589807,33.53126294],[97.5104841,33.52269689],[97.52282109,33.50716164],[97.54248212,33.49620895],[97.55583431,33.46540505],[97.56907384,33.46636238],[97.58068754,33.47253102],[97.58692498,33.46380254],[97.60402908,33.45376043],[97.61435261,33.46173431],[97.62753424,33.46326439],[97.64515449,33.45086244],[97.66305606,33.44954955],[97.67073736,33.43895759],[97.69081136,33.43100278],[97.70496673,33.4310672],[97.73729278,33.4147875],[97.75383609,33.41160183],[97.73637398,33.38998918],[97.72028988,33.38871186],[97.70767239,33.37467065],[97.70171701,33.36134928],[97.6873272,33.36395571],[97.67427715,33.35520645],[97.6796947,33.34813752],[97.66399176,33.34221186],[97.64903888,33.34306463],[97.63718303,33.34784737],[97.62281659,33.34164697],[97.6163028,33.30898617],[97.60531746,33.28389063],[97.60638423,33.26356032],[97.57543843,33.23434739],[97.57539839,33.22302063],[97.55571825,33.21469198],[97.54918207,33.20668994],[97.53629686,33.20871671],[97.52776207,33.20375038],[97.52443742,33.19423756],[97.5084083,33.17612432],[97.48665969,33.17023436],[97.48550415,33.14703809],[97.49853819,33.1393278],[97.48471836,33.11212556],[97.49138832,33.10399866],[97.51558142,33.0959927],[97.53685751,33.06098764],[97.53752814,33.04744995],[97.54325782,33.03816732],[97.52591228,33.03176432],[97.51712993,33.02378404],[97.49994951,33.02273109],[97.50072436,33.01097545],[97.52180204,32.99006047],[97.50303378,32.98119362],[97.47724844,32.98376208],[97.46364931,32.97422798],[97.44132979,32.9793399],[97.41282837,32.97013166],[97.40959723,32.96293931],[97.39524225,32.96191273],[97.38380263,32.956752],[97.37300855,32.95829927],[97.36037843,32.94328305],[97.36821266,32.92981425],[97.35936931,32.92272961],[97.35907998,32.9122166],[97.34943595,32.906194],[97.34749306,32.89740545],[97.35762283,32.88838054],[97.37404586,32.88852318],[97.37514589,32.87178247],[97.38791744,32.86443139],[97.38178928,32.85760346],[97.39139226,32.84526638],[97.39229125,32.83069713],[97.37808848,32.82591835],[97.38113933,32.79508434],[97.38500802,32.78246169],[97.41354293,32.73756098],[97.42529124,32.72815368],[97.42788016,32.71175247],[97.4227143,32.70767228],[97.44737973,32.69021968],[97.46889441,32.667047],[97.47687471,32.66748448],[97.48230457,32.65630755],[97.50231321,32.64897207],[97.51380195,32.65077076],[97.52186812,32.63684268],[97.5341222,32.64099518],[97.54376608,32.62413065],[97.56000438,32.62408008],[97.58104374,32.6192404],[97.58520729,32.61362841],[97.59838795,32.61881083],[97.60814105,32.61514334],[97.60966834,32.60042304],[97.61621014,32.58996017],[97.6300529,32.57807029],[97.63631301,32.57976375],[97.64631639,32.56996109],[97.66125872,32.56314392],[97.67481308,32.55028447],[97.69132156,32.54765262],[97.70206326,32.53669342],[97.7304463,32.52984106],[97.75812333,32.53318628],[97.77411595,32.51928409],[97.79762999,32.52268789],[97.80656928,32.50211849],[97.82739674,32.5019996],[97.83502006,32.50716445],[97.86023852,32.49413627],[97.88118594,32.48797004],[97.92399737,32.48905174],[97.94127745,32.481581],[97.94347098,32.47677043],[97.96049022,32.46986611],[97.96770458,32.47418348],[98.00962107,32.45312425],[98.02312696,32.454896],[98.02438432,32.44553587],[98.03580197,32.43111153],[98.05127198,32.43046359],[98.05929282,32.42012121],[98.07320551,32.41323775],[98.08631487,32.40066941],[98.09837616,32.40434035],[98.10622983,32.3938364],[98.12506837,32.39383396],[98.15036734,32.37626747],[98.162678,32.37762402],[98.18138743,32.36865274],[98.18519256,32.36140806],[98.19578243,32.36258799],[98.20381516,32.34915553],[98.2164477,32.34161844],[98.20819923,32.32169638],[98.21861827,32.2870747],[98.22944513,32.26960556],[98.22122082,32.26099522],[98.22289768,32.2504432],[98.21898841,32.23636357],[98.2407941,32.22895752],[98.25987787,32.21079701],[98.27125567,32.18648137],[98.29512365,32.15247423],[98.30121007,32.12572057],[98.31027653,32.1274779],[98.312711,32.112881],[98.32790169,32.11107445],[98.34326227,32.09907934],[98.3452706,32.08938788],[98.35473232,32.09023022],[98.40544205,32.04553899],[98.4018901,32.0291195],[98.42926013,32.01452905],[98.43526803,32.00280668],[98.42716656,31.99851332],[98.43186321,31.98831804],[98.42733879,31.98315834],[98.43341277,31.96169621],[98.4237432,31.95446634],[98.42078565,31.94536088],[98.43448959,31.93869373],[98.43291638,31.92585532],[98.40344673,31.91346869],[98.39844581,31.89841139],[98.41036527,31.88684703],[98.41161627,31.87278402],[98.42443808,31.85598129],[98.41411302,31.84471708],[98.41391079,31.83512288],[98.44026552,31.83113768],[98.43796545,31.81966236],[98.44773607,31.80680224],[98.46231391,31.80079477],[98.45596056,31.79003013],[98.4597335,31.78390953],[98.47665261,31.78463193],[98.49340669,31.77388054],[98.51293829,31.74198479],[98.52244423,31.71814186],[98.54783096,31.71656017],[98.54713993,31.69845965],[98.55670352,31.69251444],[98.54849176,31.68352932],[98.55756525,31.67913527],[98.55456636,31.65771338],[98.56559719,31.64768028],[98.58475059,31.63756026],[98.59327289,31.62371909],[98.61865155,31.59404004],[98.63912334,31.58980822],[98.65593922,31.57040021],[98.66150199,31.56929245],[98.69558775,31.54293939],[98.69517617,31.53404312],[98.71112233,31.51765772],[98.7442285,31.4935281],[98.78754195,31.47592745],[98.79747904,31.45977802],[98.81194753,31.44824739],[98.83719994,31.43894581],[98.84621666,31.42518602],[98.84289525,31.41700656],[98.85770598,31.40885199],[98.88627307,31.37847228],[98.88343647,31.37178663],[98.86265223,31.35353487],[98.86071327,31.34617771],[98.84319592,31.34002115],[98.83235327,31.32672516],[98.81911283,31.32021265],[98.80915455,31.30657375],[98.80517927,31.28127669],[98.77199076,31.25183025],[98.74114915,31.27038003],[98.73311477,31.29218528],[98.71346184,31.3075804],[98.70307174,31.32443726],[98.69309294,31.33440951],[98.66409335,31.34019769],[98.64642487,31.34157384],[98.63118238,31.33354041],[98.61817461,31.30949733],[98.61462483,31.29293975],[98.60307603,31.2588988],[98.60602549,31.23212431],[98.62277785,31.22433108],[98.62084432,31.20657889],[98.61494011,31.19854701],[98.60088601,31.19386899],[98.60443016,31.18675336],[98.61858359,31.1815132],[98.63658331,31.18200397],[98.64308318,31.17251618],[98.66987203,31.1585935],[98.68898896,31.135174],[98.70990689,31.1204131],[98.71184993,31.08527469],[98.73527018,31.06635013],[98.73594243,31.05193275],[98.75798032,31.03578062],[98.77372679,31.03399548],[98.7829457,31.02130781],[98.79677156,31.01371956],[98.80591534,30.99792361],[98.80581327,30.98231061],[98.7990612,30.96955279],[98.79577709,30.94869203],[98.77978518,30.92740703],[98.77410016,30.91162518],[98.77970896,30.89611367],[98.79596276,30.882193],[98.811224,30.87611483],[98.83278951,30.86090896],[98.84992057,30.85152033],[98.85691823,30.83243537],[98.87202431,30.8304463],[98.87938368,30.82168763],[98.88274156,30.80262999],[98.88965179,30.80098973],[98.90277928,30.7865394],[98.95300141,30.77186496],[98.95742673,30.76732506],[98.95923727,30.74706229],[98.96331355,30.73580986],[98.9596722,30.7265478],[98.94229985,30.72290222],[98.93505905,30.70927926],[98.90695775,30.70096457],[98.90556967,30.68582446],[98.9151628,30.65272826],[98.92320096,30.64233176],[98.92473312,30.62707264],[98.92138984,30.61201356],[98.9382967,30.60225114],[98.94200972,30.59423205],[98.93547742,30.5817828],[98.92623736,30.57402061],[98.92900018,30.5584833],[98.93742222,30.55169958],[98.93084424,30.52952077],[98.93672615,30.51326994],[98.9450443,30.50294165],[98.9427023,30.49226371],[98.94662776,30.48012729],[98.96457753,30.45393321],[98.96231671,30.42647305],[98.96569931,30.41045936],[98.97313541,30.4018417],[98.97286479,30.38284338],[98.96652005,30.37876144],[98.96649604,30.36757086],[98.97228244,30.35722843],[98.96677415,30.33813004],[98.9810715,30.32307287],[98.97897422,30.29473111],[98.98577604,30.28250089],[98.96887445,30.2594147],[98.97277681,30.23608832],[98.99026008,30.21990753],[98.99284536,30.2096747],[98.98091935,30.18698637],[98.99011383,30.16974858],[98.98934799,30.15396136],[99.00553801,30.15049866],[99.01389076,30.13851253],[99.00964344,30.12305413],[99.02586572,30.10714355],[99.03135436,30.09502899],[99.04410686,30.08182961],[99.03580657,30.05401807],[99.04049523,30.04218808],[99.04125944,30.00445188],[99.05399992,29.96080605],[99.05033663,29.94745136],[99.05577435,29.93730726],[99.06603933,29.9349465],[99.06403765,29.92507926],[99.05601068,29.92315175],[99.05188449,29.89578883],[99.04120853,29.88626226],[99.03357612,29.85889965],[99.02302531,29.8511541],[99.02281496,29.83831553],[99.01253049,29.81479157],[99.01820767,29.79377832],[99.01097891,29.78028143],[99.00563809,29.74626724],[98.99974739,29.73793192],[98.99712914,29.69191738],[98.99231902,29.67769251],[98.99191609,29.65998689],[98.99935377,29.65738366],[98.99779546,29.64664162],[99.00548246,29.64002273],[99.01286645,29.62466738],[99.01438472,29.60991434],[99.03088067,29.59565483],[99.04189073,29.57573898],[99.05014129,29.56831315],[99.05083319,29.54820622],[99.04539983,29.52750686],[99.05120695,29.50809969],[99.0521795,29.48857753],[99.06150453,29.47892375],[99.05577999,29.45869021],[99.0624838,29.44997355],[99.05862351,29.43970662],[99.06718138,29.42659108],[99.06047446,29.41524816],[99.06558636,29.38594288],[99.06262457,29.37866636],[99.06759161,29.33495675],[99.07486827,29.31787584],[99.06569662,29.30351027],[99.08544888,29.2927965],[99.09500603,29.27958822],[99.0936635,29.26906586],[99.11398186,29.24543984],[99.1130874,29.22426528],[99.11108806,29.21386978],[99.11737227,29.20723187],[99.11192231,29.19210225],[99.11404354,29.15026285],[99.1073025,29.14273265],[99.11379023,29.13443857],[99.11197345,29.11323196],[99.11707214,29.10426747],[99.11277616,29.07612317],[99.11763354,29.05757113],[99.11749471,29.03589227],[99.12647369,29.02170961],[99.12180677,28.99983175],[99.13018842,28.94818395],[99.12828757,28.91065436],[99.1231482,28.8919972],[99.10795726,28.85894844],[99.10747218,28.80306939],[99.11580508,28.77876628],[99.11759899,28.75833716],[99.13320581,28.73169084],[99.13522698,28.72291583],[99.12780953,28.70223727],[99.12918374,28.69307609],[99.14259252,28.66889783],[99.14402276,28.65247721],[99.16216422,28.63119161],[99.16947612,28.61427117],[99.16648706,28.60169474],[99.17962131,28.58800434],[99.17005573,28.561317],[99.18008523,28.52642772],[99.19092256,28.49894378],[99.18457418,28.47914197],[99.18281874,28.45415345],[99.18631355,28.44348683],[99.1646301,28.43001006],[99.17310707,28.42056541],[99.1735737,28.40653617],[99.20043183,28.38505554],[99.20747158,28.36647276],[99.21861238,28.35545596],[99.22989451,28.35358579],[99.22929862,28.34115927],[99.23841343,28.32045174],[99.25922144,28.30715651],[99.28196158,28.30091314],[99.28884433,28.28986866],[99.28763002,28.27657434],[99.28102591,28.26409082],[99.29896561,28.26055506],[99.30527278,28.24851117],[99.30532053,28.23331492],[99.32438505,28.21662342],[99.34043458,28.21098196],[99.3577411,28.19093262],[99.37539827,28.18410128],[99.39116675,28.16898598],[99.38531247,28.20629502],[99.3934274,28.23899715],[99.4046043,28.26368241],[99.41671074,28.27270914],[99.41496972,28.29126423],[99.40049343,28.30620188],[99.39189068,28.32246752],[99.40667354,28.33144033],[99.40912694,28.36111397],[99.42195804,28.37228018],[99.42535767,28.390553],[99.43544832,28.39861618],[99.43659704,28.41131473],[99.43012705,28.42024441],[99.41200575,28.42203708],[99.4024934,28.43749353],[99.40240994,28.44679726],[99.42076513,28.46002635],[99.40591751,28.48851327],[99.39464751,28.49560502],[99.39899767,28.53092509],[99.40515976,28.53630478],[99.40293281,28.55067674],[99.42553797,28.55936822],[99.4406014,28.55820831],[99.46163763,28.5523079],[99.46493284,28.56730742],[99.46320995,28.57991254],[99.48112537,28.59619538],[99.49614256,28.60415668],[99.49454565,28.61725184],[99.50697194,28.62314182],[99.51526229,28.61778333],[99.53058085,28.62017991],[99.54101784,28.62944108],[99.5404496,28.65343907],[99.54329643,28.66852896],[99.53073649,28.68403164],[99.54970647,28.6995729],[99.55113214,28.71033637],[99.56010216,28.72089102],[99.56948588,28.71744334],[99.5986448,28.72854603],[99.60073489,28.73847871],[99.61675759,28.74565353],[99.60757138,28.75678114],[99.60540996,28.78095693],[99.60916637,28.79037364],[99.62210208,28.79959814],[99.62478423,28.81648197],[99.65149491,28.81728475],[99.68258048,28.81383213],[99.69394555,28.82312742],[99.69887351,28.8363508],[99.71226753,28.84037736],[99.71967833,28.83202444],[99.7237682,28.81210382],[99.72142658,28.75878615],[99.73525448,28.73858709],[99.73210093,28.72294257],[99.75257459,28.71093672],[99.75455757,28.70368438],[99.79285285,28.70171069],[99.80297744,28.69548254],[99.84196143,28.65911652],[99.83318169,28.64686794],[99.84130925,28.64240007],[99.84298819,28.63091634],[99.85463339,28.63809242],[99.86973721,28.63765382],[99.86975129,28.62601247],[99.87618361,28.62213791],[99.87788761,28.611095],[99.91950019,28.60246901],[99.92322629,28.59471013],[99.94947079,28.57946965],[99.950634,28.56696199],[99.95966225,28.56358741],[99.96387631,28.54091137],[99.97778209,28.53938758],[99.98554348,28.53103054],[99.9831859,28.50782838],[99.98736278,28.48099502],[99.99504862,28.47161823],[100.00749922,28.46745066],[100.04173728,28.45016509],[100.05903407,28.45234014],[100.06511029,28.43578404],[100.07354798,28.42896688],[100.06055639,28.40998112],[100.06506928,28.40332918],[100.05487691,28.38396658],[100.05628974,28.37262958],[100.09330983,28.36760999],[100.10011746,28.36191843],[100.13381804,28.35525528],[100.15597319,28.33514422],[100.17188167,28.32623689],[100.16723229,28.29980843],[100.14705255,28.29375561],[100.1571171,28.27653617],[100.16356646,28.27711335],[100.18650028,28.25610873],[100.16252636,28.23652606],[100.16695768,28.22918352],[100.16205897,28.21978511],[100.15088932,28.20987577],[100.12985183,28.20896473],[100.11734522,28.20460866],[100.10457047,28.20662571],[100.08666445,28.18314579],[100.07820325,28.1851513],[100.06889192,28.19429616],[100.05903666,28.19642367],[100.05056735,28.18825915],[100.02879293,28.18608545],[100.0266768,28.17047489],[100.01949168,28.14923307],[100.03080542,28.1365545],[100.03803321,28.13422006],[100.04775389,28.11171906],[100.05442566,28.10223467],[100.06302287,28.08173069],[100.06853834,28.06160128],[100.08511622,28.03394792],[100.12144148,28.02057985],[100.13614763,28],[100.14348435,27.99509806],[100.1774326,27.96038004],[100.18637781,27.95646232],[100.19416356,27.94174921],[100.17193635,27.91430358],[100.16875672,27.90032582],[100.18082919,27.9017331],[100.21057046,27.88070378],[100.22195172,27.88216717],[100.23267968,27.87272698],[100.26129368,27.87030121],[100.26712949,27.8734728],[100.28727845,27.87053922],[100.29460712,27.87234881],[100.30790388,27.86169819],[100.30591612,27.83336901],[100.28894405,27.82193931],[100.28537631,27.81235341],[100.29194156,27.79868725],[100.30249712,27.79651894],[100.3029689,27.77218417],[100.30630225,27.75675895],[100.30241521,27.74001345],[100.31044271,27.72803713],[100.32960973,27.72479463],[100.34311172,27.73791355],[100.34862373,27.7583089],[100.35949955,27.7627645],[100.37493636,27.75759947],[100.38113876,27.78284344],[100.39139938,27.7907242],[100.404832,27.80782237],[100.41181331,27.8236662],[100.41041504,27.83754549],[100.41470924,27.84493918],[100.42866894,27.8526062],[100.43142218,27.86820246],[100.4489731,27.86808384],[100.47682286,27.86125306],[100.49345798,27.84864905],[100.50553837,27.85343042],[100.50898307,27.8306241],[100.51703222,27.82436516],[100.53593706,27.82638132],[100.54099213,27.81482843],[100.5526613,27.81755634],[100.55514028,27.82573146],[100.59201966,27.85165915],[100.60673334,27.85990151],[100.60780628,27.8803082],[100.63253294,27.91832996],[100.64750715,27.91730537],[100.67854314,27.92640293],[100.68953415,27.91262642],[100.70321866,27.88457955],[100.70018185,27.87140264],[100.7193595,27.86157756],[100.70585247,27.83854344],[100.70136062,27.81964365],[100.70759658,27.80159679],[100.72563001,27.79096882],[100.73364564,27.78216101],[100.7548518,27.77261447],[100.7743821,27.7422356],[100.77885546,27.69977094],[100.78927259,27.68654285],[100.81471468,27.68785738],[100.83080246,27.68628967],[100.84722304,27.67516737],[100.83111113,27.66191497],[100.83095801,27.65374223],[100.84646533,27.65024532],[100.82581204,27.61773951],[100.84300488,27.61958955],[100.85430847,27.62723797],[100.85313631,27.59997148],[100.86109325,27.59918625],[100.88277203,27.57333007],[100.88731074,27.5594506],[100.9127164,27.51844317],[100.90275483,27.48308802],[100.89982612,27.45775186],[100.91025143,27.46264337],[100.91711667,27.47384732],[100.93556508,27.47282494],[100.9457513,27.4623373],[100.95582206,27.44446908],[100.94970146,27.43337882],[100.96201485,27.40583658],[100.99242634,27.3745329],[100.99738727,27.35604704],[101.01891455,27.34675096],[101.01974687,27.33506427],[101.00691899,27.31485036],[101.01731867,27.31084735],[101.02941286,27.29903976],[101.03044087,27.28434795],[101.02428144,27.27561496],[101.0409267,27.2516658],[101.04359227,27.24185528],[101.03702403,27.23780038],[101.04013608,27.22430827],[101.05354432,27.21739782],[101.05790998,27.20193504],[101.07621382,27.19598854],[101.0841259,27.20179946],[101.10473531,27.20931991],[101.12181973,27.20969543],[101.14026802,27.2062075],[101.14628091,27.20183389],[101.16253359,27.20189667],[101.16858892,27.19425601],[101.16879891,27.1757711],[101.15423979,27.13325221],[101.15436892,27.12795535],[101.14306448,27.10964975],[101.15504471,27.09988346],[101.15331471,27.08326534],[101.14092019,27.070884],[101.1447175,27.06289167],[101.14185535,27.04714902],[101.13527621,27.03951339],[101.13388155,27.02641041],[101.15566057,27.01376357],[101.18205792,27.00808073],[101.20020367,26.99631249],[101.20965239,26.9968644],[101.22648758,26.98610317],[101.22420043,26.96416706],[101.23180062,26.95713194],[101.26428066,26.9571205],[101.25323662,26.92763802],[101.26855858,26.90550475],[101.28647585,26.89887112],[101.31023602,26.90612104],[101.32143909,26.89064793],[101.3630959,26.88794773],[101.37237402,26.8683868],[101.38534019,26.86005844],[101.39726115,26.8469444],[101.39409339,26.83594788],[101.38002266,26.81174159],[101.36935482,26.80493481],[101.37917688,26.79830386],[101.37433067,26.78570325],[101.35507673,26.77417568],[101.3666362,26.76998226],[101.3750806,26.75955902],[101.38738157,26.75612282],[101.39039611,26.73401793],[101.38689285,26.72649821],[101.4130876,26.72467675],[101.42009864,26.72811681],[101.42366285,26.74085957],[101.43122595,26.744081],[101.45317676,26.73396055],[101.45807309,26.75171144],[101.45176951,26.7663056],[101.4444783,26.77330912],[101.44937878,26.78610645],[101.46467435,26.78928554],[101.48275463,26.78246769],[101.49754175,26.77282752],[101.51148925,26.77433934],[101.50927627,26.75744944],[101.4964888,26.76023696],[101.49093464,26.74538686],[101.4984632,26.73704974],[101.47287082,26.72625163],[101.46797339,26.71440724],[101.45697266,26.7105232],[101.45146806,26.69939889],[101.45667018,26.69064596],[101.46907261,26.68515461],[101.47891034,26.67624737],[101.47062244,26.65753078],[101.45896637,26.64413956],[101.46427977,26.62863519],[101.46189368,26.61296206],[101.44879512,26.6037814],[101.43291801,26.60813728],[101.42027392,26.60429463],[101.40183803,26.60875962],[101.39437243,26.59592939],[101.39736468,26.58245296],[101.39432089,26.5671744],[101.41195791,26.55462757],[101.4214377,26.53415196],[101.43778146,26.54199676],[101.44337044,26.53272452],[101.43856395,26.51560479],[101.45716585,26.4992869],[101.48737247,26.50213913],[101.5088887,26.50009974],[101.52631133,26.47054148],[101.5437688,26.46896268],[101.54908076,26.46059502],[101.56669248,26.45357354],[101.58346002,26.43305124],[101.61266476,26.41683501],[101.63089914,26.40043728],[101.63494797,26.38867678],[101.62783894,26.37162],[101.62761098,26.36159427],[101.65148733,26.35762292],[101.66105078,26.35260505],[101.65212868,26.3338605],[101.63933943,26.33033561],[101.63884933,26.32146623],[101.65909447,26.31427272],[101.64610972,26.30769416],[101.6257238,26.3199162],[101.59526823,26.30795062],[101.59452257,26.29256669],[101.58534303,26.28691419],[101.59730332,26.27939341],[101.59630008,26.26748366],[101.61511421,26.25436992],[101.61381984,26.24684376],[101.6284382,26.22793505],[101.65253657,26.23762182],[101.66686208,26.23360177],[101.68926663,26.2449374],[101.70249021,26.2270726],[101.71465481,26.2284282],[101.7343032,26.22349966],[101.75435991,26.20576707],[101.76969589,26.18217766],[101.8074219,26.1653871],[101.81003649,26.15721033],[101.7966207,26.14431078],[101.79690598,26.11521388],[101.81570787,26.09380266],[101.8273534,26.08635566],[101.83841567,26.08651129],[101.83962711,26.06960075],[101.83224562,26.05904307],[101.84446103,26.05608065],[101.86289455,26.05642229],[101.89538271,26.10463665],[101.91669291,26.11278128],[101.93362748,26.10656761],[101.95486713,26.08933364],[102.00098319,26.09371717],[102.02543854,26.09934162],[102.03045215,26.08881764],[102.03974404,26.0823413],[102.06850109,26.06818356],[102.08756976,26.0695419],[102.09373664,26.06580815],[102.10591881,26.07074732],[102.11445048,26.08914743],[102.12667171,26.08906291],[102.13735173,26.11293423],[102.15047806,26.11276207],[102.15415547,26.12148205],[102.17289673,26.1502208],[102.18618751,26.16062697],[102.19746588,26.16183286],[102.22486696,26.17914569],[102.24025769,26.19199857],[102.24396374,26.21594653],[102.25504402,26.22364353],[102.28627182,26.2243309],[102.34816466,26.24805677],[102.37595657,26.2788657],[102.38208012,26.29201204],[102.39292597,26.30080556],[102.43940616,26.30456243],[102.49201977,26.32779885],[102.50392291,26.32810625],[102.52706386,26.33536205],[102.54108398,26.34309687],[102.54358903,26.36000375],[102.54999864,26.366031],[102.57141614,26.36560797],[102.5932509,26.35272323],[102.61965453,26.34713238],[102.63026342,26.33535842],[102.63732794,26.31227704],[102.61236739,26.28881645],[102.60069078,26.25666048],[102.60744402,26.24913885],[102.61989947,26.24898695],[102.63551838,26.23548978],[102.65406271,26.22802475],[102.66169759,26.21349645],[102.67422396,26.20891774],[102.69626362,26.21836438],[102.71165408,26.21589456],[102.72153036,26.23169646],[102.72074931,26.24555788],[102.73993459,26.27448266],[102.7632211,26.28132305],[102.77113007,26.29358064],[102.78506597,26.30267073],[102.81139992,26.30940571],[102.83339086,26.31073045],[102.83816276,26.31828105],[102.84981613,26.32466627],[102.85274193,26.33203025],[102.86659041,26.34418074],[102.87831657,26.36947047],[102.8892636,26.36093687],[102.88658129,26.34801393],[102.89302387,26.34212736],[102.91514412,26.34556529],[102.92467448,26.33831694],[102.94480773,26.34467445],[102.97465695,26.34473509],[102.98801438,26.35474114],[102.98991071,26.36735537],[102.99680578,26.37727633],[102.98652317,26.41200786],[102.98955876,26.43596806],[102.99669883,26.45388027],[102.99609153,26.46322971],[102.98801582,26.48380058],[103.00025719,26.48898956],[103.01731162,26.48598226],[103.03023166,26.4898315],[103.04037926,26.50488551],[103.04208234,26.51513307],[103.05037699,26.51908462],[103.05469146,26.5364602],[103.054629,26.55027581],[103.04969742,26.55926581],[103.03385544,26.55929364],[103.02882408,26.57598785],[103.01619635,26.59543144],[103.02652154,26.60272875],[103.02713321,26.62877308],[103.02227347,26.64316645],[103.02618391,26.66609416],[103.00363755,26.68265583],[103.00630912,26.71450461],[102.99536481,26.729326],[102.99281566,26.7428098],[102.98253725,26.76947403],[102.98946613,26.77978513],[102.97833718,26.79473978],[102.97922288,26.80952454],[102.96607311,26.82633244],[102.96357337,26.84217213],[102.94627143,26.84732974],[102.93721779,26.86314614],[102.92229628,26.87940162],[102.90486271,26.90725699],[102.89620721,26.91330288],[102.89364719,26.9387617],[102.88832442,26.94670295],[102.88760069,26.95962134],[102.89338772,26.97528202],[102.8935543,27.00471701],[102.86970777,27.03018291],[102.87819892,27.04327533],[102.88336884,27.06309757],[102.89744923,27.07982787],[102.89764804,27.09485182],[102.90512295,27.10962806],[102.91196891,27.14378769],[102.90386569,27.17106888],[102.90668319,27.1836969],[102.90095306,27.19728325],[102.9033335,27.22424161],[102.89868695,27.24070612],[102.88588898,27.25026991],[102.88178407,27.26121737],[102.88311875,27.28432049],[102.88122278,27.30055775],[102.89779274,27.31990329],[102.91109839,27.35461446],[102.9291088,27.38489462],[102.9396994,27.40857065],[102.95344309,27.41539456],[102.95848863,27.39961602],[102.96970234,27.38082799],[102.98505411,27.37097285],[103.01906744,27.38328434],[103.03137909,27.39144345],[103.05309109,27.41256667],[103.07024929,27.41028074],[103.07675819,27.40088241],[103.09764168,27.4007865],[103.10858724,27.40350648],[103.14261853,27.42922493],[103.14216456,27.45299411],[103.14854057,27.46681214],[103.16619499,27.49365584],[103.17697888,27.49977051],[103.17720149,27.5066154],[103.18771085,27.52648952],[103.20402419,27.53347299],[103.21301091,27.54802283],[103.2174582,27.5672612],[103.2369282,27.57383414],[103.2608067,27.57170735],[103.27873157,27.56522816],[103.29336991,27.57288739],[103.29187477,27.58608007],[103.2972304,27.60082354],[103.28950065,27.6134383],[103.27973921,27.62021408],[103.27603883,27.62933264],[103.28259344,27.63868935],[103.29095444,27.63669092],[103.31205889,27.65798547],[103.33453064,27.67662668],[103.35226716,27.68653615],[103.35526774,27.69636746],[103.36710589,27.71173899],[103.37941099,27.71518831],[103.39112463,27.71256144],[103.40060023,27.72774105],[103.4212205,27.74824609],[103.43472279,27.75129599],[103.44623385,27.75863339],[103.45528118,27.76949586],[103.46030252,27.78427404],[103.47869167,27.79301253],[103.48723861,27.80038973],[103.49632696,27.81517867],[103.50725626,27.84402378],[103.49831065,27.87445345],[103.50024685,27.91399718],[103.52334873,27.94280719],[103.54145926,27.95740446],[103.55231598,27.95818458],[103.56111998,27.96456568],[103.56185833,27.98066459],[103.55381946,27.98257006],[103.53791418,27.96909246],[103.51441874,27.96891395],[103.50320947,27.97726372],[103.49683748,27.9871471],[103.49127252,28.0099019],[103.49493613,28.02149258],[103.48393962,28.03677905],[103.4690626,28.03484719],[103.45661001,28.02417702],[103.44565369,28.0292868],[103.42814218,28.04929936],[103.4282759,28.06491112],[103.4333597,28.07816487],[103.45120394,28.0901681],[103.4565568,28.10636533],[103.44628235,28.11267264],[103.45220161,28.12701495],[103.46848155,28.12591258],[103.4869416,28.14232695],[103.50002832,28.14650951],[103.50734632,28.15646428],[103.52852963,28.16991043],[103.54816188,28.19180317],[103.56231507,28.2151923],[103.56303088,28.22630169],[103.57332191,28.23536319],[103.60444378,28.24175878],[103.61736482,28.24903605],[103.62857451,28.26215754],[103.63850105,28.26532594],[103.67279776,28.24286936],[103.68985776,28.23565577],[103.69150019,28.2145962],[103.6985422,28.20399631],[103.70991222,28.2006213],[103.71861536,28.20484858],[103.72546394,28.21838775],[103.72804214,28.23171584],[103.7365308,28.23872845],[103.76826406,28.23643892],[103.78042506,28.24932302],[103.78312063,28.25719715],[103.81189507,28.2691434],[103.82629283,28.2873499],[103.84069194,28.2890235],[103.867866,28.30405783],[103.87519757,28.31577954],[103.87387787,28.32600873],[103.85848709,28.34568666],[103.85166945,28.35966067],[103.85820406,28.38755349],[103.84924202,28.4105836],[103.83845581,28.42166765],[103.82861714,28.43875758],[103.82854432,28.46102955],[103.81037343,28.49617946],[103.79292777,28.50993156],[103.7813458,28.5292121],[103.80116497,28.53827035],[103.79923794,28.56549383],[103.8127392,28.57095129],[103.83101473,28.58395468],[103.83662625,28.59355943],[103.83132476,28.60761218],[103.8322984,28.6235303],[103.84153024,28.63700663],[103.83807743,28.64817493],[103.84627579,28.66909964],[103.86200425,28.67036957],[103.87205095,28.65509693],[103.8690834,28.63756346],[103.87160773,28.63124184],[103.88402218,28.62447604],[103.89443146,28.6239239],[103.91122252,28.63619281],[103.93185337,28.62826126],[103.93698641,28.62315411],[103.94217341,28.60479852],[103.95839071,28.60593871],[103.96498148,28.61091893],[103.98880571,28.61493948],[104.01048215,28.62275865],[104.05934915,28.63088251],[104.07548499,28.62152048],[104.08003805,28.61164616],[104.08938455,28.60644332],[104.0984737,28.60812191],[104.10871841,28.61666749],[104.11139888,28.63148315],[104.12937278,28.64160082],[104.14226451,28.64090991],[104.17110328,28.64614511],[104.19157642,28.63760059],[104.21504629,28.6414343],[104.22956729,28.63929314],[104.2395254,28.64768058],[104.24026105,28.66410924],[104.24747713,28.66712954],[104.26804929,28.63782815],[104.27632621,28.63443589],[104.2922333,28.63843879],[104.30110993,28.63202242],[104.29938814,28.62325461],[104.31216013,28.61866305],[104.32313441,28.62535513],[104.33146952,28.6376596],[104.3515722,28.64792898],[104.37245353,28.65268122],[104.39229406,28.64340128],[104.4059396,28.64245168],[104.42146801,28.63035599],[104.41425505,28.60085522],[104.38846921,28.60269808],[104.37237015,28.5975574],[104.36694856,28.59119772],[104.35298903,28.55885076],[104.33172983,28.56403272],[104.32646611,28.5605625],[104.32243611,28.54633592],[104.3127769,28.54156037],[104.29581631,28.54378894],[104.2825538,28.5364567],[104.25983115,28.54030942],[104.24932657,28.53487904],[104.24439162,28.52675341],[104.24923708,28.51107595],[104.26480148,28.50525844],[104.25787568,28.49249629],[104.26807458,28.47032475],[104.25654704,28.45732081],[104.26553419,28.42487871],[104.25210344,28.41129589],[104.25919573,28.39494498],[104.27160934,28.39528355],[104.2666468,28.37759772],[104.27522364,28.35891372],[104.28449617,28.34510506],[104.28397138,28.33940711],[104.29824189,28.32998743],[104.28906824,28.31878829],[104.30350509,28.30972366],[104.31518247,28.31099414],[104.3332723,28.33210725],[104.345447,28.33983193],[104.3688762,28.33946546],[104.38021785,28.33366045],[104.38798879,28.31970968],[104.38936175,28.29997635],[104.40229981,28.28255492],[104.40372752,28.27422898],[104.4162849,28.27371214],[104.43120749,28.27762371],[104.44572478,28.2736144],[104.44043689,28.25972021],[104.4628826,28.24952316],[104.44982523,28.23305322],[104.44847792,28.22378529],[104.44074385,28.21492077],[104.41514144,28.21127153],[104.39747812,28.2016417],[104.4077588,28.17905534],[104.43174437,28.17132255],[104.44826035,28.17851097],[104.4517145,28.16944778],[104.44315536,28.15398399],[104.44181598,28.14284043],[104.44833827,28.13721628],[104.44886393,28.12069218],[104.43059322,28.11936469],[104.42739793,28.10377035],[104.39717369,28.09603723],[104.39702559,28.07439268],[104.37441717,28.05587162],[104.33827412,28.06105333],[104.31658247,28.05986779],[104.301711,28.05557402],[104.29732376,28.04678066],[104.33092946,28.02838476],[104.35274271,28.02359991],[104.37694362,27.99700525],[104.37145247,27.99064795],[104.38589004,27.97889723],[104.3816869,27.97088505],[104.39081518,27.96625107],[104.39651505,27.95555847],[104.40922369,27.95608681],[104.42324821,27.94123529],[104.42845014,27.94145253],[104.45153477,27.92575823],[104.46736803,27.90847431],[104.49667971,27.89777607],[104.50012394,27.8881465],[104.51328458,27.8818225],[104.52193716,27.89114512],[104.53607075,27.89100503],[104.54524627,27.87865648],[104.5574539,27.8707155],[104.5550416,27.8574573],[104.56598357,27.85432893],[104.56772895,27.84526828],[104.59982234,27.85830352],[104.6218337,27.86252488],[104.6312228,27.85426941],[104.661877,27.87574698],[104.68358547,27.88817938],[104.68725797,27.88682038],[104.73941353,27.90480201],[104.75000889,27.90462997],[104.74739607,27.89011552],[104.7642949,27.88687526],[104.76898296,27.89185549],[104.79932421,27.90389869],[104.83935223,27.90400087],[104.87380593,27.91026115],[104.88528689,27.91673355],[104.88522378,27.93364214],[104.89225215,27.93872541],[104.91751889,27.9435471],[104.91252874,27.95351743],[104.90056027,27.9527593],[104.9012036,27.96740279],[104.91897183,27.97441018],[104.9270546,27.99042974],[104.93577247,27.98468241],[104.94486567,27.99861886],[104.95632047,28.00705086],[104.95748994,28.0157054],[104.9691661,28.01960872],[104.96795866,28.0358976],[104.97397674,28.0583733],[104.97309967,28.06540093],[104.99355217,28.07005561],[105.00096762,28.06761955],[105.02666773,28.08017522],[105.04280365,28.10176322],[105.05773783,28.10156218],[105.05925666,28.09451116],[105.07533072,28.0865809],[105.08976289,28.0883644],[105.10945044,28.08108021],[105.11974544,28.07316074],[105.14287664,28.06962451],[105.16354119,28.07393127],[105.18329315,28.05820821],[105.1815155,28.04498868],[105.16630478,28.03067392],[105.16662332,28.01896925],[105.17909215,28.00012102],[105.19686303,27.99596494],[105.21919769,27.9943667],[105.23046408,28.00657211],[105.26493673,28.00176281],[105.26655237,27.98460159],[105.27704049,27.9727673],[105.28161603,27.94750852],[105.27722003,27.93105204],[105.2607717,27.91480988],[105.24494107,27.91500576],[105.22899916,27.89714003],[105.24027546,27.87923332],[105.23803446,27.87082754],[105.24533688,27.86203586],[105.24192873,27.85628536],[105.24741075,27.84409495],[105.23574515,27.83294904],[105.23979527,27.82541266],[105.25660243,27.83160844],[105.26075562,27.82392904],[105.28281866,27.81985776],[105.29711701,27.82320442],[105.31211129,27.8221239],[105.31154921,27.81484988],[105.2846051,27.81050065],[105.28320117,27.80017706],[105.26969184,27.79887584],[105.272138,27.78754193],[105.28813191,27.7749918],[105.28517272,27.76683996],[105.29062448,27.75123494],[105.2840165,27.74468404],[105.28854356,27.73186402],[105.28678014,27.71511899],[105.30497571,27.70880474],[105.31533383,27.71751669],[105.32306165,27.73018356],[105.3378702,27.73309449],[105.34683018,27.74895118],[105.37963802,27.7607943],[105.39068548,27.75438665],[105.39381465,27.76639381],[105.41464271,27.76963053],[105.4271592,27.76747291],[105.43722546,27.77881362],[105.45532018,27.77114866],[105.47365383,27.77830961],[105.50485556,27.77241899],[105.51779407,27.7635475],[105.53348811,27.75767511],[105.54709345,27.72990017],[105.55555641,27.72416393],[105.57481554,27.72569278],[105.59797617,27.72128029],[105.59934916,27.70938749],[105.60652712,27.69577731],[105.61684951,27.6906343],[105.62081822,27.66932395],[105.63411643,27.66254927],[105.64269432,27.66646534],[105.65230887,27.68152168],[105.66252316,27.68790924],[105.69731301,27.68030014],[105.71147463,27.68424557],[105.71972902,27.70987841],[105.76128108,27.7215184],[105.77998344,27.72240276],[105.81029101,27.7143849],[105.82690375,27.71374749],[105.83933036,27.70898701],[105.85698666,27.72020148],[105.86481488,27.73603267],[105.87732647,27.74230973],[105.88823103,27.73959432],[105.90157952,27.74866097],[105.92092896,27.74863618],[105.92691979,27.73190772],[105.96549032,27.7441859],[105.98317789,27.75362497],[106.0002261,27.75012041],[106.02005557,27.75062506],[106.05879306,27.76654161],[106.06042629,27.78085276],[106.07556456,27.77920393],[106.10172784,27.78335565],[106.12094171,27.78246162],[106.14355832,27.77570885],[106.16271731,27.76610279],[106.17218971,27.76636701],[106.18980709,27.75770175],[106.20918324,27.76745178],[106.23857237,27.7705777],[106.26218145,27.78367539],[106.29186833,27.80620123],[106.30681277,27.81350826],[106.31958672,27.81304901],[106.33842492,27.82339597],[106.31352783,27.83593885],[106.32219775,27.85112162],[106.33410556,27.86076187],[106.3375572,27.86927964],[106.32384468,27.89825294],[106.29828509,27.90408111],[106.30577636,27.91638344],[106.30553033,27.94059575],[106.32470421,27.95705678],[106.31651956,27.96489557],[106.31091824,27.98279719],[106.2939959,27.99746111],[106.29092544,28.00630461],[106.27675172,28.01050116],[106.26251017,28.00706426],[106.24138281,28.01512962],[106.23800767,28.03177527],[106.26026038,28.05672985],[106.2628659,28.07056718],[106.2462175,28.09578209],[106.22535196,28.1044362],[106.22312947,28.11882022],[106.20819513,28.12227814],[106.20309834,28.13798],[106.18678341,28.14096015],[106.17486491,28.15009119],[106.14227759,28.16596475],[106.12195611,28.17023949],[106.08440251,28.16453532],[106.05855834,28.14667187],[106.03373861,28.14116044],[106.02366843,28.13434884],[106.03297779,28.11354064],[106.01937838,28.11124388],[106.00792701,28.12338042],[105.9966422,28.11966086],[105.97205838,28.11746878],[105.9654428,28.13767427],[105.95090682,28.14520696],[105.9385314,28.14778224],[105.93042814,28.13542398],[105.9190453,28.14117503],[105.90248984,28.13391032],[105.88989026,28.1231062],[105.87599761,28.12562825],[105.87530637,28.14108325],[105.85995205,28.15610228],[105.85650381,28.17179024],[105.86610407,28.19523541],[105.86609229,28.20387686],[105.87969174,28.21747858],[105.88753976,28.24102085],[105.87226514,28.24871596],[105.86737225,28.25806681],[105.85714049,28.25213052],[105.84238301,28.26170667],[105.83098237,28.28382032],[105.82072852,28.30873575],[105.80308957,28.31048993],[105.79341212,28.31586582],[105.78459437,28.33943691],[105.77159979,28.33878684],[105.76788274,28.322196],[105.7756763,28.31284981],[105.75713765,28.31249999],[105.73632525,28.30886343],[105.73151824,28.29454827],[105.73560843,28.27991318],[105.72761066,28.27472738],[105.68539497,28.2875099],[105.66391087,28.31617565],[105.65582611,28.3141875],[105.64727431,28.32163406],[105.63438243,28.32611184],[105.64762674,28.3462178],[105.65140268,28.37443615],[105.64773822,28.39337939],[105.63660198,28.4042954],[105.64565292,28.41687954],[105.64149685,28.43334836],[105.62818216,28.43567586],[105.6063758,28.44541819],[105.60898165,28.45965428],[105.61587631,28.46809563],[105.60617376,28.47695701],[105.61792058,28.48979759],[105.62481099,28.51370687],[105.63126763,28.52189584],[105.65971735,28.52698997],[105.6694496,28.53941497],[105.68027167,28.54045073],[105.67947755,28.55987931],[105.68935243,28.57032594],[105.68733838,28.57781764],[105.69099584,28.59399891],[105.70974199,28.58996813],[105.71524543,28.59214671],[105.7347567,28.61734371],[105.74498683,28.61928666],[105.75297057,28.60705293],[105.75338368,28.59385197],[105.77447226,28.60051629],[105.78156746,28.61440715],[105.79219569,28.607213],[105.80828619,28.60320229],[105.81408355,28.60589491],[105.83268388,28.60369699],[105.84692219,28.60987492],[105.85643377,28.60296507],[105.86973341,28.60648586],[105.87940929,28.59769573],[105.90268686,28.61383921],[105.88849879,28.62626652],[105.89016443,28.64697032],[105.88493134,28.65484955],[105.8878645,28.67158803],[105.89951838,28.67241933],[105.93215704,28.68453363],[105.93448851,28.69217194],[105.92944007,28.70664682],[105.9433778,28.71658778],[105.96079224,28.73959316],[105.96165506,28.76388523],[105.97090984,28.75861155],[105.97452195,28.74966842],[105.98691512,28.74428836],[105.99881443,28.74726814],[106.01649085,28.73024282],[106.03143458,28.7098204],[106.02812635,28.69721198],[106.04080085,28.69710483],[106.05983468,28.68781943],[106.0652276,28.69329471],[106.08159035,28.68425554],[106.08589013,28.67216748],[106.08181027,28.66393867],[106.09175919,28.65418177],[106.09349211,28.64347097],[106.10398079,28.63381989],[106.1174257,28.63559092],[106.117769,28.64411726],[106.13751344,28.64671099],[106.16110747,28.63938466],[106.16452084,28.6228232],[106.18087195,28.60176547],[106.18141473,28.5889112],[106.19109936,28.57787394],[106.20360469,28.57387382],[106.2109784,28.57675663],[106.23881574,28.55646684],[106.24478989,28.54856862],[106.26574529,28.54205855],[106.28696177,28.54133205],[106.30197586,28.50581213],[106.32756218,28.48357085],[106.34015777,28.48158381],[106.37522256,28.48291982],[106.37098962,28.50229575],[106.37223086,28.52139511],[106.36840927,28.52911468],[106.36222946,28.52742803],[106.35348946,28.53989494],[106.34549151,28.54313168],[106.33592256,28.53597561],[106.33096092,28.55402992],[106.3411088,28.5689761],[106.3446132,28.58700572],[106.33768605,28.60080899],[106.32673794,28.60725087],[106.31714721,28.62389897],[106.32498473,28.63979146],[106.30746375,28.64264238],[106.30171146,28.65254576],[106.30598112,28.66345377],[106.31693322,28.66671506],[106.3027317,28.67744544],[106.30111384,28.71188287],[106.2876325,28.72528505],[106.28079774,28.7373706],[106.26882365,28.74313342],[106.26817246,28.76371157],[106.27528275,28.77489029],[106.26146035,28.78733093],[106.24656763,28.79017676],[106.24373954,28.8088283],[106.25262511,28.82013839],[106.25045181,28.84180526],[106.26017794,28.84823263],[106.25058584,28.86796869],[106.23023373,28.87816822],[106.22466794,28.89272075],[106.21212599,28.89472151],[106.19606304,28.91028633],[106.18823022,28.91143656],[106.16945402,28.92426389],[106.16593231,28.91513193],[106.14559198,28.90691016],[106.12996819,28.90820359],[106.09922839,28.90081973],[106.08991454,28.90245214],[106.0727279,28.91668911],[106.06885602,28.9235274],[106.0561671,28.91986085],[106.04431744,28.90928223],[106.0334451,28.9138507],[106.04041877,28.9353106],[106.03614334,28.94369291],[106.043861,28.95351175],[106.03629304,28.95867058],[106.0241312,28.95472582],[106.01129568,28.95809454],[106.00109273,28.97471846],[105.98084159,28.98417255],[105.96513757,28.97130406],[105.94366868,28.94476243],[105.91859147,28.93544843],[105.90345273,28.92265646],[105.91251235,28.91142863],[105.90670178,28.90231553],[105.89413728,28.91223244],[105.88263275,28.91582731],[105.88359169,28.93313298],[105.8723371,28.938749],[105.85115972,28.93068774],[105.82611671,28.94860542],[105.80586366,28.94493555],[105.79920263,28.93796453],[105.7879014,28.94660747],[105.79597899,28.95988691],[105.79298753,28.96915753],[105.78177011,28.98319931],[105.75685419,28.99342907],[105.75762009,29.00705125],[105.76256724,29.01769623],[105.75163436,29.0270297],[105.74649618,29.03777151],[105.73807824,29.04293451],[105.75259938,29.06727241],[105.75208635,29.07531341],[105.73745997,29.08227778],[105.73958171,29.09009514],[105.72459448,29.10100486],[105.72756803,29.12366021],[105.72511035,29.13641],[105.72721141,29.14956089],[105.72464307,29.16220865],[105.71465355,29.17639008],[105.70512836,29.18079378],[105.72011016,29.19232166],[105.71325066,29.20699906],[105.70433311,29.21065903],[105.7084999,29.22226185],[105.70205727,29.22650409],[105.70514162,29.24199342],[105.69544501,29.25577046],[105.69340141,29.27034042],[105.68728027,29.27261741],[105.68982895,29.29000203],[105.71246674,29.29298987],[105.71166987,29.2988828],[105.69785081,29.30179419],[105.68011764,29.28935933],[105.67345879,29.2771926],[105.66251763,29.27899841],[105.65803122,29.27262352],[105.67129332,29.26623103],[105.66394852,29.2561284],[105.65269964,29.25479989],[105.63511714,29.26570268],[105.64114882,29.27732342],[105.63202066,29.28331214],[105.61166283,29.27341956],[105.60799829,29.2769842],[105.57394163,29.27370733],[105.55461096,29.28143905],[105.53496527,29.276393],[105.5144752,29.26637645],[105.50666167,29.27245047],[105.5060207,29.2894838],[105.48188601,29.2799156],[105.45543661,29.2929855],[105.46424578,29.32268813],[105.45562618,29.33078224],[105.44265857,29.32250304],[105.42773713,29.32108986],[105.42035506,29.33213518],[105.41220223,29.35244136],[105.41829502,29.35980529],[105.43707614,29.36968792],[105.42795745,29.38277617],[105.43929462,29.39074564],[105.43994402,29.40298831],[105.42789124,29.41215436],[105.42421883,29.42135481],[105.37123227,29.42899333],[105.39366584,29.4400277],[105.3856338,29.45566352],[105.36262615,29.46176314],[105.35076185,29.44951034],[105.34023922,29.45075063],[105.33491859,29.44227578],[105.32084977,29.45071097],[105.33237047,29.4567072],[105.33468101,29.46660713],[105.32763956,29.4744102],[105.31716645,29.47694881],[105.32005629,29.49790815],[105.31571589,29.51658035],[105.29770385,29.53604129],[105.28994594,29.54836328],[105.29696867,29.57730617],[105.31338449,29.57989979],[105.30777299,29.59697138],[105.31736492,29.61231389],[105.33244365,29.59929097],[105.33806807,29.60537329],[105.34454213,29.62442237],[105.35703415,29.63167526],[105.37011909,29.6235322],[105.37726569,29.63099975],[105.37083226,29.64379948],[105.38986343,29.65376107],[105.37964992,29.67123077],[105.38548189,29.67825312],[105.39776715,29.67462631],[105.4158819,29.69051919],[105.43094927,29.67895131],[105.47348283,29.67801753],[105.47900894,29.68191914],[105.46970654,29.69996942],[105.47504063,29.71868117],[105.48849007,29.72365244],[105.49398481,29.71307688],[105.5300703,29.70210193],[105.52651758,29.71045073],[105.54277502,29.72269197],[105.53922887,29.73705127],[105.56037507,29.74011796],[105.57242784,29.74834803],[105.57217317,29.76143295],[105.56673186,29.7692482],[105.5821668,29.78663537],[105.57632749,29.79397614],[105.58533123,29.82621085],[105.60144349,29.82033975],[105.60467094,29.83299317],[105.61345876,29.84881101],[105.62302742,29.83986037],[105.63788352,29.84046771],[105.66526692,29.84685897],[105.67426,29.85724105],[105.68647995,29.85498533],[105.68844319,29.84867902],[105.70547787,29.84334399],[105.71887984,29.86146278],[105.72920784,29.86992665],[105.73119197,29.88528144],[105.72556201,29.89527878],[105.70761451,29.90240267],[105.71018598,29.91881696],[105.69755031,29.9309101],[105.71076902,29.93256811],[105.71716824,29.95086417],[105.72764688,29.9602208],[105.7199201,29.97802182],[105.72023944,29.98665062],[105.7289458,30.00160453],[105.74372263,30.00504655],[105.75279702,30.01653776],[105.74507473,30.03646942],[105.72647932,30.02793066],[105.71446943,30.04389477],[105.70347963,30.03814948],[105.68526043,30.0410225],[105.67236157,30.06043658],[105.66834515,30.07621228],[105.65570304,30.07015047],[105.63619149,30.0759452],[105.63223392,30.10617547],[105.60838337,30.11152983],[105.59244933,30.11174605],[105.58480931,30.12282819],[105.57499032,30.12832097],[105.57076603,30.13962748],[105.58009277,30.14644961],[105.5901367,30.14681455],[105.59338118,30.16135094],[105.57966038,30.16602464],[105.56749329,30.16435121],[105.5507466,30.14667839],[105.53298768,30.15519173],[105.53413416,30.17069403],[105.5564388,30.18710887],[105.56596681,30.18590572],[105.57272126,30.17555116],[105.58253586,30.17702585],[105.58692404,30.18693011],[105.60160193,30.18027869],[105.61578403,30.19004036],[105.62787828,30.18622392],[105.64050281,30.18902942],[105.63904625,30.20176775],[105.64246292,30.21152815],[105.65576749,30.21054202],[105.65292573,30.2252017],[105.63192615,30.22209032],[105.61553436,30.23791119],[105.61391595,30.26090405],[105.62234613,30.27897948],[105.64261684,30.27641801],[105.65029762,30.26935522],[105.66527946,30.26587653],[105.66537593,30.25676044],[105.68248322,30.25584676],[105.68885351,30.25953411],[105.70782972,30.25898351],[105.73142016,30.27394225],[105.71881324,30.27811574],[105.70762829,30.29068303],[105.70627386,30.30694354],[105.71300814,30.32757504],[105.73603409,30.32628954],[105.73081952,30.33962443],[105.7479511,30.34313063],[105.7521801,30.34999826],[105.74886544,30.3628393],[105.76518216,30.37809063],[105.75538785,30.38841803],[105.76176284,30.39229585],[105.76992509,30.41159416],[105.78382161,30.41127607],[105.79734469,30.430013],[105.81266107,30.43972212],[105.82711037,30.43484113],[105.83102933,30.42121917],[105.8391509,30.4154621],[105.83536795,30.40056527],[105.84694789,30.3960798],[105.85770747,30.41271585],[105.86841631,30.40866563],[105.86538143,30.39830203],[105.87032455,30.39036584],[105.88238854,30.39353193],[105.88769129,30.41349323],[105.8984868,30.40495138],[105.89410815,30.3934076],[105.89926725,30.38960693],[105.91108869,30.39804326],[105.91813348,30.39572163],[105.9408093,30.37534701],[105.96534591,30.3798764],[105.9747487,30.37384122],[105.99171647,30.36954076],[106.00010516,30.3795852],[106.02849596,30.37076583],[106.04955431,30.34751743],[106.07335288,30.33925829],[106.08553159,30.34767912],[106.08584759,30.32878007],[106.11895248,30.31658157],[106.11834637,30.30854658],[106.1285862,30.3058853],[106.13522434,30.31704187],[106.15300128,30.31649343],[106.16678185,30.30687735],[106.1766148,30.26740858],[106.16727151,30.25168233],[106.17599767,30.23433364],[106.196897,30.23691118],[106.19681137,30.22991235],[106.18799984,30.21885177],[106.20059658,30.20655019],[106.209816,30.20504215],[106.22869731,30.21432197],[106.23567837,30.2051594],[106.22882178,30.19357039],[106.23817342,30.18151279],[106.24571254,30.19106685],[106.24300281,30.20082609],[106.26068444,30.19724239],[106.27525252,30.21125531],[106.28037483,30.19943924],[106.2901168,30.21063663],[106.28775449,30.22226466],[106.30285879,30.22846087],[106.30551094,30.23983485],[106.3168107,30.23262343],[106.33187059,30.22884678],[106.33608179,30.24076344],[106.36147456,30.24523418],[106.36845816,30.25128096],[106.38156583,30.24604553],[106.38630163,30.25778283],[106.39841762,30.24464064],[106.40931758,30.24589045],[106.42465055,30.26527382],[106.4057262,30.2754843],[106.41496557,30.28169902],[106.43024687,30.27947966],[106.42510532,30.29442294],[106.43097146,30.29782504],[106.43697063,30.31244686],[106.4471611,30.31066777],[106.46221044,30.30168373],[106.47540914,30.30485011],[106.5072648,30.2924747],[106.50892449,30.3002478],[106.52186696,30.30482797],[106.5412039,30.29930633],[106.54410479,30.31394074],[106.55288653,30.31867608],[106.56666485,30.30957633],[106.58245064,30.30596091],[106.58961287,30.29518877],[106.60826006,30.29593937],[106.6180548,30.2861785],[106.6209143,30.26929353],[106.63015342,30.26984427],[106.63976677,30.25192776],[106.61931217,30.2446715],[106.60628581,30.2370758],[106.60653596,30.2309688],[106.62382241,30.22515661],[106.62840183,30.21610752],[106.62157756,30.20669098],[106.62856054,30.19198636],[106.6380944,30.18233065],[106.65956958,30.17052932],[106.67105339,30.14931209],[106.66709396,30.12637587],[106.68941181,30.12847937],[106.68646285,30.12001321],[106.69768598,30.11789133],[106.6939802,30.08453244],[106.70002424,30.07060062],[106.70955319,30.07162185],[106.72293664,30.05971936],[106.71908267,30.04678499],[106.72619984,30.03041088],[106.74865831,30.02208111],[106.76784828,30.01822526],[106.78268232,30.02002046],[106.8038004,30.03193217],[106.82170954,30.03404881],[106.8379715,30.05194069],[106.85605699,30.03375523],[106.88296431,30.03749645],[106.8988509,30.03573483],[106.90990008,30.02783843],[106.91971091,30.0377405],[106.93277478,30.04242179],[106.94032136,30.03989633],[106.95254952,30.05629973],[106.95302801,30.07172815],[106.9647947,30.08428485],[106.98135198,30.08691741],[106.99842039,30.05596108],[107.01074335,30.05444431],[107.01448279,30.04184571],[107.02731705,30.03549916],[107.03969876,30.03739144],[107.03298248,30.04721479],[107.03691918,30.0570626],[107.0476343,30.05516209],[107.05090271,30.04469242],[107.07175156,30.05466408],[107.08060791,30.06676776],[107.06970568,30.07724752],[107.06830669,30.08505973],[107.07761527,30.10152426],[107.09158699,30.09413338],[107.10458746,30.10427131],[107.10343487,30.11952134],[107.11630087,30.11890602],[107.12741788,30.12380553],[107.13712561,30.13612299],[107.14154016,30.14782336],[107.19505797,30.19383498],[107.21588501,30.21629698],[107.23622075,30.24222833],[107.2560394,30.27713147],[107.25459767,30.28515433],[107.27387737,30.31562073],[107.28301073,30.33782702],[107.29767156,30.35543198],[107.30835087,30.36093215],[107.32944068,30.37727152],[107.34242984,30.41723206],[107.3396755,30.42620977],[107.35511862,30.46254786],[107.36696062,30.47886073],[107.40134785,30.51676119],[107.42479022,30.52173661],[107.43765011,30.53577158],[107.42841818,30.54292734],[107.42474141,30.55275601],[107.45394647,30.57428947],[107.46139919,30.58887603],[107.48040362,30.60046085],[107.48992922,30.62137647],[107.50968153,30.64363281],[107.50947698,30.64923355],[107.49131332,30.66821115],[107.46970838,30.66977993],[107.45588426,30.6889676],[107.45692116,30.69761923],[107.44250141,30.71498067],[107.43162547,30.72186718],[107.42000513,30.74264135],[107.42073044,30.74818476],[107.43746693,30.74925874],[107.4338064,30.7613674],[107.44220074,30.78079761],[107.45807544,30.77261122],[107.45534109,30.78684053],[107.46868948,30.7882089],[107.47191917,30.80066266],[107.48829929,30.80977054],[107.48486274,30.82496494],[107.48766517,30.8357317],[107.47986451,30.84024911],[107.50380339,30.85054658],[107.51241483,30.85823488],[107.51853167,30.84725937],[107.53225899,30.85076224],[107.56886305,30.84968471],[107.59315589,30.83740681],[107.60664251,30.84484093],[107.61457234,30.82754262],[107.63132917,30.81532145],[107.64644702,30.82813788],[107.66426725,30.84790117],[107.6817109,30.8711501],[107.68835655,30.87573106],[107.69977077,30.87334066],[107.71171411,30.89218147],[107.73786126,30.88510548],[107.75040525,30.86519749],[107.74782956,30.84818345],[107.75103162,30.83249979],[107.75890308,30.81966299],[107.77146091,30.81725007],[107.78320404,30.82131486],[107.8119749,30.80459946],[107.8452041,30.79488558],[107.87731831,30.81802416],[107.88712358,30.83346108],[107.92771065,30.86293303],[107.94840384,30.87302261],[107.95224372,30.88538839],[107.97880885,30.90123709],[107.99044367,30.91147335],[107.958767,30.91850897],[107.94499921,30.91936162],[107.93101566,30.93334994],[107.93536082,30.95090352],[107.9331524,30.97057556],[107.93694308,30.98911019],[107.97682155,30.98424657],[107.99292942,31.00947487],[108,31.02691002],[108.0099956,31.02688397],[108.02032172,31.03498748],[108.04917151,31.04296968],[108.05396197,31.05614079],[108.04229583,31.06375354],[108.02281284,31.06478098],[108.01810787,31.09519703],[108.01070399,31.09810324],[108.00503887,31.11093675],[108.01706668,31.1163186],[108.0301841,31.13981928],[108.03740599,31.14649142],[108.0520133,31.14816265],[108.05007847,31.15903483],[108.06727453,31.17385843],[108.07296188,31.18848477],[108.08786244,31.19286304],[108.08454408,31.20849603],[108.07501049,31.21937771],[108.06468449,31.22456198],[108.07208907,31.23399309],[108.03189908,31.22055459],[108.0235097,31.2264263],[108.02710007,31.23493651],[108.01613762,31.24688152],[108.04320173,31.25704749],[108.0567017,31.2579967],[108.06390621,31.26435745],[108.07693144,31.26357143],[108.09063285,31.27032762],[108.08910008,31.27629379],[108.09922168,31.28388864],[108.15676027,31.31543047],[108.16112108,31.32315292],[108.17609671,31.32661401],[108.18212253,31.34186488],[108.17327016,31.35665992],[108.15404621,31.36357768],[108.14958828,31.37553538],[108.16630305,31.3810314],[108.17749806,31.39516885],[108.1953387,31.39621508],[108.20318797,31.40039653],[108.21184905,31.41401659],[108.21275125,31.4302232],[108.20590374,31.44132887],[108.21881771,31.4493005],[108.21906198,31.46928287],[108.20840618,31.47096701],[108.19671541,31.46652065],[108.18483095,31.48495708],[108.18655444,31.49268379],[108.2099795,31.49725641],[108.23241285,31.5097046],[108.25124021,31.50105337],[108.26093087,31.50585202],[108.27285039,31.50329129],[108.27863956,31.51063405],[108.29110165,31.50512939],[108.3064457,31.50875352],[108.31606474,31.50413263],[108.33418125,31.51139152],[108.34452156,31.52025565],[108.33675815,31.53028497],[108.33665155,31.54263154],[108.34400278,31.54850532],[108.37125017,31.54509331],[108.38529031,31.54964932],[108.38630251,31.56608848],[108.37455965,31.57138894],[108.38962247,31.57975625],[108.38473116,31.59253272],[108.39971992,31.60713848],[108.4074288,31.60795838],[108.43272911,31.63407789],[108.44245004,31.63640366],[108.4538936,31.63093188],[108.47185885,31.64264268],[108.48431657,31.64229986],[108.49115703,31.65214268],[108.5126823,31.66124081],[108.51677567,31.6686442],[108.53209477,31.67147187],[108.5295961,31.68008981],[108.51121811,31.69606986],[108.52157538,31.70811521],[108.51636285,31.72783945],[108.50210177,31.73713482],[108.53114314,31.75878108],[108.486975,31.77565804],[108.48346649,31.78308517],[108.472006,31.78062156],[108.45536232,31.78371762],[108.44929811,31.7906867],[108.46133972,31.80821024],[108.45915374,31.81368339],[108.43871822,31.81110794],[108.42062132,31.81298073],[108.3955472,31.82499993],[108.38409959,31.83296163],[108.38196942,31.85382917],[108.35527117,31.8558371],[108.34320545,31.86164902],[108.33039304,31.87693519],[108.29613898,31.91316377],[108.28304596,31.91155769],[108.27819189,31.92331741],[108.28270962,31.93752318],[108.27302972,31.96011853],[108.25668376,31.96857419],[108.26333134,31.98257146],[108.27704591,31.98240743],[108.28074629,31.99090623],[108.30387045,31.99966639],[108.32223596,31.98689052],[108.33408441,31.98400196],[108.34811494,31.974958],[108.36588849,31.99047744],[108.36228523,31.99543511],[108.33547015,32.00944327],[108.3228938,32.02000457],[108.33530132,32.03188362],[108.34982399,32.03194053],[108.3612698,32.03839191],[108.34905404,32.05876994],[108.34154513,32.06113594],[108.3447386,32.07332928],[108.37316521,32.07780987],[108.39082951,32.07052137],[108.40409323,32.06937826],[108.42410651,32.06327966],[108.44308961,32.07224625],[108.44822782,32.07830642],[108.4488624,32.09257245],[108.43694721,32.09596985],[108.42647002,32.10534386],[108.41002855,32.13484975],[108.40271883,32.14388638],[108.38250359,32.15395657],[108.3830953,32.16019652],[108.36484771,32.1776263],[108.37814185,32.18268229],[108.40185883,32.1980378],[108.41856456,32.19023845],[108.43066561,32.19316205],[108.45246816,32.18268969],[108.47445733,32.18322579],[108.48582639,32.19477569],[108.50455721,32.20417073],[108.50282936,32.21498549],[108.50962017,32.22039917],[108.50734746,32.23211377],[108.49782172,32.24993313],[108.48102492,32.25200766],[108.48059065,32.26256008],[108.46559473,32.27257925],[108.46029169,32.26575919],[108.44351911,32.26263793],[108.42969647,32.26535208],[108.41260985,32.25730387],[108.38733543,32.26555557],[108.3781865,32.25890217],[108.36388691,32.25522281],[108.3450003,32.25581281],[108.32408335,32.23456421],[108.30582081,32.23450648],[108.2796745,32.25271263],[108.26126122,32.25809171],[108.24729719,32.2736141],[108.23734818,32.27625684],[108.20995151,32.2494273],[108.19145816,32.23757698],[108.19114484,32.22750175],[108.1760037,32.22247702],[108.17109045,32.22964278],[108.14875836,32.24069599],[108.13840732,32.22030098],[108.11857625,32.21958502],[108.09853032,32.2266319],[108.08790101,32.23441747],[108.06060889,32.22987256],[108.05898795,32.2229284],[108.03678345,32.21663879],[108.02757388,32.22280018],[108.01936086,32.21451645],[108.0194692,32.2007854],[108.0127661,32.1940836],[108.02049751,32.17674015],[108.00278229,32.16747684],[107.99808527,32.15628163],[107.98947183,32.14935776],[107.97206741,32.14796649],[107.93311827,32.18355755],[107.91701282,32.20068335],[107.90810945,32.20190522],[107.89984078,32.21076703],[107.8860135,32.21680248],[107.87255211,32.203637],[107.86136288,32.20406636],[107.84101902,32.22094699],[107.82973342,32.22443042],[107.80605287,32.25067942],[107.7999939,32.2684697],[107.78483283,32.28028928],[107.77043445,32.30935129],[107.76212343,32.31619687],[107.74608891,32.33916238],[107.71090425,32.32981609],[107.70161807,32.33429216],[107.68818253,32.36510114],[107.69047233,32.36927168],[107.68035753,32.3946603],[107.66759493,32.39874296],[107.64205348,32.41530918],[107.6308122,32.40631885],[107.62300931,32.4103379],[107.60944886,32.40723883],[107.60036298,32.41650416],[107.5603701,32.39857799],[107.53876245,32.3958028],[107.52710622,32.38609124],[107.49354998,32.40012709],[107.48219402,32.42647554],[107.46926293,32.42127949],[107.45202854,32.41976401],[107.4448471,32.4284129],[107.45315538,32.43899072],[107.45638008,32.45253001],[107.45342912,32.46053111],[107.43417383,32.46779706],[107.42830472,32.48021993],[107.42890001,32.49296059],[107.42408381,32.50377401],[107.43214145,32.51816807],[107.42981972,32.54090838],[107.42298589,32.53780724],[107.38915433,32.54260912],[107.37194675,32.5486308],[107.36247833,32.52945889],[107.33978877,32.5111937],[107.30806506,32.50056957],[107.29429153,32.49035855],[107.29022618,32.47519698],[107.27583769,32.4652581],[107.28052264,32.45781534],[107.27929757,32.43472429],[107.2747421,32.42470972],[107.26017104,32.4228297],[107.26936008,32.41019539],[107.2606334,32.40545912],[107.24558709,32.41540402],[107.23814612,32.4122708],[107.23167677,32.42662686],[107.20406482,32.43754052],[107.19326819,32.45341906],[107.1971455,32.46210716],[107.17976756,32.47201068],[107.16948606,32.48291689],[107.15778195,32.47715676],[107.14535545,32.48092434],[107.12245475,32.48051541],[107.11010388,32.49674484],[107.10811969,32.51651122],[107.09351338,32.51943],[107.06758696,32.53915616],[107.07917926,32.54537548],[107.08569031,32.5563334],[107.08773086,32.57104035],[107.10023457,32.59708785],[107.09516977,32.6040223],[107.09316283,32.6186948],[107.08545198,32.625505],[107.08484995,32.63858221],[107.09363565,32.6557085],[107.08835178,32.66902176],[107.06178398,32.67359237],[107.05444353,32.68498067],[107.06350159,32.70049749],[107.06173406,32.71070632],[107.04455054,32.7173384],[107.02736743,32.71180498],[107.025729,32.72043979],[106.99697148,32.72213073],[106.98080049,32.71241275],[106.9605253,32.71805462],[106.94634347,32.71876432],[106.93252343,32.71043217],[106.91186074,32.70530319],[106.89196308,32.72598988],[106.88141742,32.72024697],[106.86721439,32.72732786],[106.84493484,32.72430553],[106.83643854,32.71423995],[106.8173527,32.70665904],[106.81005286,32.71309454],[106.79056978,32.71319849],[106.78465043,32.7000432],[106.77590222,32.71141688],[106.77743088,32.73902207],[106.74322829,32.73730762],[106.72764667,32.7408787],[106.69037396,32.71392367],[106.67237472,32.70485637],[106.65884192,32.69128168],[106.63610851,32.68964302],[106.62506822,32.6834686],[106.58697355,32.69063901],[106.55206855,32.67062531],[106.54542814,32.6793236],[106.53747887,32.67420274],[106.51234083,32.66853438],[106.49791166,32.66249278],[106.49409564,32.65153217],[106.46467776,32.65338942],[106.45302973,32.65812497],[106.44656722,32.64047835],[106.41791609,32.61911444],[106.38793448,32.62552167],[106.37517236,32.65005183],[106.36259811,32.66308874],[106.33379981,32.67653013],[106.30936525,32.67327997],[106.29376148,32.68082754],[106.28588767,32.67352279],[106.26430362,32.67555006],[106.25475056,32.69657363],[106.23770778,32.69411878],[106.20379779,32.69668051],[106.17786303,32.69553827],[106.17337171,32.70381546],[106.16202715,32.71072105],[106.15089639,32.7068994],[106.14138632,32.72029706],[106.12495256,32.724379],[106.10873052,32.722615],[106.1029684,32.73699214],[106.06933419,32.75524225],[106.06731768,32.77120525],[106.06116226,32.78414249],[106.09657111,32.79492071],[106.08737394,32.81693956],[106.08900635,32.82574608],[106.06735343,32.82585638],[106.04748157,32.84925863],[106.02258962,32.85889794],[106.00960143,32.84064036],[106.00827528,32.83259907],[105.99124243,32.83027345],[105.98018912,32.8425484],[105.96093847,32.85151895],[105.95287438,32.84013811],[105.92881224,32.82937327],[105.88741591,32.83804531],[105.85508969,32.82871581],[105.84718991,32.81991618],[105.8278525,32.82771766],[105.818375,32.81415001],[105.82395868,32.80347121],[105.81465473,32.79152545],[105.81852839,32.78234743],[105.80660526,32.77382825],[105.79535623,32.75771555],[105.77752984,32.7513297],[105.76792019,32.76829615],[105.75583477,32.76506093],[105.74444172,32.76941718],[105.73245126,32.75509919],[105.71494418,32.76106066],[105.70492054,32.75552116],[105.6977149,32.74514076],[105.68688364,32.74407104],[105.67261996,32.72924262],[105.64699971,32.72131861],[105.6384772,32.71126119],[105.60782187,32.70249513],[105.59304862,32.70231251],[105.58781446,32.70718233],[105.58503029,32.72912266],[105.5810551,32.73239244],[105.56182259,32.72753649],[105.5546388,32.73469067],[105.55280276,32.75142831],[105.56588727,32.76462159],[105.55081424,32.780672],[105.55173399,32.79749654],[105.5330236,32.79297454],[105.52568503,32.80881059],[105.53042813,32.82087452],[105.52352733,32.83223633],[105.52073753,32.84967911],[105.51072682,32.86171723],[105.5009809,32.86499536],[105.48831291,32.88490844],[105.49065329,32.90608129],[105.49680319,32.91280772]]]}}]}
