{"type":"FeatureCollection","features":[{"type":"Feature","id":"cn-sichuan-p-510000","properties":{"region":"cn-sichuan","country":"Sichuan · China","sourceValidOn":"2023","source":"cn-atlas / Amll (ISC), derived from CTAmap / Rui Cheng (MIT) · 2023 · simplified source geometry","id":"cn-sichuan-p-510000","name":"Sichuan · China","level":"province","parent":"cn-sichuan","sourceCode":"510000","sourceLevel":"ADM1","center":[102.69283405455964,30.62928933728026],"bbox":[97.34749306,26.05608065,108.53209477,34.31523871],"sourceParentCode":"510000"},"geometry":{"type":"Point","coordinates":[102.69283405455964,30.62928933728026]}}]}
