{"type":"FeatureCollection","features":[{"type":"Feature","id":"cn-sichuan-d-511900","properties":{"region":"cn-sichuan","country":"Sichuan · China","sourceValidOn":"2023","source":"cn-atlas / Amll (ISC), derived from CTAmap / Rui Cheng (MIT) · 2023 · simplified source geometry","id":"cn-sichuan-d-511900","name":"Bazhong","nativeName":"巴中市","level":"district","parent":"cn-sichuan-p-510000","province":"Sichuan · China","sourceCode":"511900","sourceParentCode":"510000","sourceLevel":"Prefecture-level","center":[107.03791627330146,32.01689485409045],"bbox":[106.35837483,31.24831465,107.75974392,32.7408787]},"geometry":{"type":"Point","coordinates":[107.03791627330146,32.01689485409045]}},{"type":"Feature","id":"cn-sichuan-d-510100","properties":{"region":"cn-sichuan","country":"Sichuan · China","sourceValidOn":"2023","source":"cn-atlas / Amll (ISC), derived from CTAmap / Rui Cheng (MIT) · 2023 · simplified source geometry","id":"cn-sichuan-d-510100","name":"Chengdu","nativeName":"成都市","level":"district","parent":"cn-sichuan-p-510000","province":"Sichuan · China","sourceCode":"510100","sourceParentCode":"510000","sourceLevel":"Prefecture-level","center":[103.92982144164299,30.653541991148415],"bbox":[102.99167756,30.09138114,104.89623914,31.43608552]},"geometry":{"type":"Point","coordinates":[103.92982144164299,30.653541991148415]}},{"type":"Feature","id":"cn-sichuan-d-511700","properties":{"region":"cn-sichuan","country":"Sichuan · China","sourceValidOn":"2023","source":"cn-atlas / Amll (ISC), derived from CTAmap / Rui Cheng (MIT) · 2023 · simplified source geometry","id":"cn-sichuan-d-511700","name":"Dazhou","nativeName":"达州市","level":"district","parent":"cn-sichuan-p-510000","province":"Sichuan · China","sourceCode":"511700","sourceParentCode":"510000","sourceLevel":"Prefecture-level","center":[107.6445965622301,31.36575459981695],"bbox":[106.66239266,30.32435165,108.53209477,32.33916238]},"geometry":{"type":"Point","coordinates":[107.6445965622301,31.36575459981695]}},{"type":"Feature","id":"cn-sichuan-d-510600","properties":{"region":"cn-sichuan","country":"Sichuan · China","sourceValidOn":"2023","source":"cn-atlas / Amll (ISC), derived from CTAmap / Rui Cheng (MIT) · 2023 · simplified source geometry","id":"cn-sichuan-d-510600","name":"Deyang","nativeName":"德阳市","level":"district","parent":"cn-sichuan-p-510000","province":"Sichuan · China","sourceCode":"510600","sourceParentCode":"510000","sourceLevel":"Prefecture-level","center":[104.43536144687081,31.130188279288195],"bbox":[103.79344982,30.52741134,105.17151807,31.70063483]},"geometry":{"type":"Point","coordinates":[104.43536144687081,31.130188279288195]}},{"type":"Feature","id":"cn-sichuan-d-513300","properties":{"region":"cn-sichuan","country":"Sichuan · China","sourceValidOn":"2023","source":"cn-atlas / Amll (ISC), derived from CTAmap / Rui Cheng (MIT) · 2023 · simplified source geometry","id":"cn-sichuan-d-513300","name":"Ganzizangzu","nativeName":"甘孜藏族自治州","level":"district","parent":"cn-sichuan-p-510000","province":"Sichuan · China","sourceCode":"513300","sourceParentCode":"510000","sourceLevel":"Prefecture-level","center":[99.99722850350511,30.94914045696429],"bbox":[97.34749306,27.96651667,102.48958624,34.2110233]},"geometry":{"type":"Point","coordinates":[99.99722850350511,30.94914045696429]}},{"type":"Feature","id":"cn-sichuan-d-511600","properties":{"region":"cn-sichuan","country":"Sichuan · China","sourceValidOn":"2023","source":"cn-atlas / Amll (ISC), derived from CTAmap / Rui Cheng (MIT) · 2023 · simplified source geometry","id":"cn-sichuan-d-511600","name":"Guangan","nativeName":"广安市","level":"district","parent":"cn-sichuan-p-510000","province":"Sichuan · China","sourceCode":"511600","sourceParentCode":"510000","sourceLevel":"Prefecture-level","center":[106.66288420595657,30.42613814956416],"bbox":[105.94492121,30.01822526,107.302061,30.84163949]},"geometry":{"type":"Point","coordinates":[106.66288420595657,30.42613814956416]}},{"type":"Feature","id":"cn-sichuan-d-510800","properties":{"region":"cn-sichuan","country":"Sichuan · China","sourceValidOn":"2023","source":"cn-atlas / Amll (ISC), derived from CTAmap / Rui Cheng (MIT) · 2023 · simplified source geometry","id":"cn-sichuan-d-510800","name":"Guangyuan","nativeName":"广元市","level":"district","parent":"cn-sichuan-p-510000","province":"Sichuan · China","sourceCode":"510800","sourceParentCode":"510000","sourceLevel":"Prefecture-level","center":[105.78238069660391,32.262112582944816],"bbox":[104.61372335,31.52964179,106.77222256,32.93496201]},"geometry":{"type":"Point","coordinates":[105.78238069660391,32.262112582944816]}},{"type":"Feature","id":"cn-sichuan-d-511100","properties":{"region":"cn-sichuan","country":"Sichuan · China","sourceValidOn":"2023","source":"cn-atlas / Amll (ISC), derived from CTAmap / Rui Cheng (MIT) · 2023 · simplified source geometry","id":"cn-sichuan-d-511100","name":"Leshan","nativeName":"乐山市","level":"district","parent":"cn-sichuan-p-510000","province":"Sichuan · China","sourceCode":"511100","sourceParentCode":"510000","sourceLevel":"Prefecture-level","center":[103.57038507514471,29.21603665151566],"bbox":[102.90731659,28.42339448,104.24621281,29.93064782]},"geometry":{"type":"Point","coordinates":[103.57038507514471,29.21603665151566]}},{"type":"Feature","id":"cn-sichuan-d-513400","properties":{"region":"cn-sichuan","country":"Sichuan · China","sourceValidOn":"2023","source":"cn-atlas / Amll (ISC), derived from CTAmap / Rui Cheng (MIT) · 2023 · simplified source geometry","id":"cn-sichuan-d-513400","name":"Liangshanyizu","nativeName":"凉山彝族自治州","level":"district","parent":"cn-sichuan-p-510000","province":"Sichuan · China","sourceCode":"513400","sourceParentCode":"510000","sourceLevel":"Prefecture-level","center":[102.07959072336793,27.887017269066977],"bbox":[100.05994209,26.05608065,103.87519757,29.30462046]},"geometry":{"type":"Point","coordinates":[102.07959072336793,27.887017269066977]}},{"type":"Feature","id":"cn-sichuan-d-510500","properties":{"region":"cn-sichuan","country":"Sichuan · China","sourceValidOn":"2023","source":"cn-atlas / Amll (ISC), derived from CTAmap / Rui Cheng (MIT) · 2023 · simplified source geometry","id":"cn-sichuan-d-510500","name":"Luzhou","nativeName":"泸州市","level":"district","parent":"cn-sichuan-p-510000","province":"Sichuan · China","sourceCode":"510500","sourceParentCode":"510000","sourceLevel":"Prefecture-level","center":[105.79218663286281,27.829372567],"bbox":[105.14291849,27.66254927,106.37522256,29.33078224]},"geometry":{"type":"Point","coordinates":[105.79218663286281,27.829372567]}},{"type":"Feature","id":"cn-sichuan-d-511400","properties":{"region":"cn-sichuan","country":"Sichuan · China","sourceValidOn":"2023","source":"cn-atlas / Amll (ISC), derived from CTAmap / Rui Cheng (MIT) · 2023 · simplified source geometry","id":"cn-sichuan-d-511400","name":"Meishan","nativeName":"眉山市","level":"district","parent":"cn-sichuan-p-510000","province":"Sichuan · China","sourceCode":"511400","sourceParentCode":"510000","sourceLevel":"Prefecture-level","center":[103.75803288216348,29.929940301025628],"bbox":[102.84665477,29.40293676,104.49890594,30.36443626]},"geometry":{"type":"Point","coordinates":[103.75803288216348,29.929940301025628]}},{"type":"Feature","id":"cn-sichuan-d-510700","properties":{"region":"cn-sichuan","country":"Sichuan · China","sourceValidOn":"2023","source":"cn-atlas / Amll (ISC), derived from CTAmap / Rui Cheng (MIT) · 2023 · simplified source geometry","id":"cn-sichuan-d-510700","name":"Mianyang","nativeName":"绵阳市","level":"district","parent":"cn-sichuan-p-510000","province":"Sichuan · China","sourceCode":"510700","sourceParentCode":"510000","sourceLevel":"Prefecture-level","center":[104.70346526591773,31.84892772291398],"bbox":[103.74641048,30.7084602,105.72301223,33.04475144]},"geometry":{"type":"Point","coordinates":[104.70346526591773,31.84892772291398]}},{"type":"Feature","id":"cn-sichuan-d-511300","properties":{"region":"cn-sichuan","country":"Sichuan · China","sourceValidOn":"2023","source":"cn-atlas / Amll (ISC), derived from CTAmap / Rui Cheng (MIT) · 2023 · simplified source geometry","id":"cn-sichuan-d-511300","name":"Nanchong","nativeName":"南充市","level":"district","parent":"cn-sichuan-p-510000","province":"Sichuan · China","sourceCode":"511300","sourceParentCode":"510000","sourceLevel":"Prefecture-level","center":[106.20389407039913,31.19571319580419],"bbox":[105.44188294,30.4619334,106.9606064,31.85490886]},"geometry":{"type":"Point","coordinates":[106.20389407039913,31.19571319580419]}},{"type":"Feature","id":"cn-sichuan-d-511000","properties":{"region":"cn-sichuan","country":"Sichuan · China","sourceValidOn":"2023","source":"cn-atlas / Amll (ISC), derived from CTAmap / Rui Cheng (MIT) · 2023 · simplified source geometry","id":"cn-sichuan-d-511000","name":"Neijiang","nativeName":"内江市","level":"district","parent":"cn-sichuan-p-510000","province":"Sichuan · China","sourceCode":"511000","sourceParentCode":"510000","sourceLevel":"Prefecture-level","center":[104.91124896770775,29.64080731567953],"bbox":[104.26678107,29.19208184,105.43994402,30.04207146]},"geometry":{"type":"Point","coordinates":[104.91124896770775,29.64080731567953]}},{"type":"Feature","id":"cn-sichuan-d-510400","properties":{"region":"cn-sichuan","country":"Sichuan · China","sourceValidOn":"2023","source":"cn-atlas / Amll (ISC), derived from CTAmap / Rui Cheng (MIT) · 2023 · simplified source geometry","id":"cn-sichuan-d-510400","name":"Panzhihua","nativeName":"攀枝花市","level":"district","parent":"cn-sichuan-p-510000","province":"Sichuan · China","sourceCode":"510400","sourceParentCode":"510000","sourceLevel":"Prefecture-level","center":[101.73016693806004,26.80663190220231],"bbox":[101.13388155,26.08635566,102.24620524,27.34503376]},"geometry":{"type":"Point","coordinates":[101.73016693806004,26.80663190220231]}},{"type":"Feature","id":"cn-sichuan-d-510900","properties":{"region":"cn-sichuan","country":"Sichuan · China","sourceValidOn":"2023","source":"cn-atlas / Amll (ISC), derived from CTAmap / Rui Cheng (MIT) · 2023 · simplified source geometry","id":"cn-sichuan-d-510900","name":"Suining","nativeName":"遂宁市","level":"district","parent":"cn-sichuan-p-510000","province":"Sichuan · China","sourceCode":"510900","sourceParentCode":"510000","sourceLevel":"Prefecture-level","center":[105.47169185568906,30.631455161853467],"bbox":[105.05860271,30.17555116,105.99721293,31.16402415]},"geometry":{"type":"Point","coordinates":[105.47169185568906,30.631455161853467]}},{"type":"Feature","id":"cn-sichuan-d-511800","properties":{"region":"cn-sichuan","country":"Sichuan · China","sourceValidOn":"2023","source":"cn-atlas / Amll (ISC), derived from CTAmap / Rui Cheng (MIT) · 2023 · simplified source geometry","id":"cn-sichuan-d-511800","name":"Yaan","nativeName":"雅安市","level":"district","parent":"cn-sichuan-p-510000","province":"Sichuan · China","sourceCode":"511800","sourceParentCode":"510000","sourceLevel":"Prefecture-level","center":[102.66385793671198,29.912324799641567],"bbox":[101.93630297,28.85252132,103.39248776,30.94096391]},"geometry":{"type":"Point","coordinates":[102.66385793671198,29.912324799641567]}},{"type":"Feature","id":"cn-sichuan-d-511500","properties":{"region":"cn-sichuan","country":"Sichuan · China","sourceValidOn":"2023","source":"cn-atlas / Amll (ISC), derived from CTAmap / Rui Cheng (MIT) · 2023 · simplified source geometry","id":"cn-sichuan-d-511500","name":"Yibin","nativeName":"宜宾市","level":"district","parent":"cn-sichuan-p-510000","province":"Sichuan · China","sourceCode":"511500","sourceParentCode":"510000","sourceLevel":"Prefecture-level","center":[104.63578058790301,28.573160443113483],"bbox":[103.61087272,27.84526828,105.35589211,29.26824015]},"geometry":{"type":"Point","coordinates":[104.63578058790301,28.573160443113483]}},{"type":"Feature","id":"cn-sichuan-d-512000","properties":{"region":"cn-sichuan","country":"Sichuan · China","sourceValidOn":"2023","source":"cn-atlas / Amll (ISC), derived from CTAmap / Rui Cheng (MIT) · 2023 · simplified source geometry","id":"cn-sichuan-d-512000","name":"Ziyang","nativeName":"资阳市","level":"district","parent":"cn-sichuan-p-510000","province":"Sichuan · China","sourceCode":"512000","sourceParentCode":"510000","sourceLevel":"Prefecture-level","center":[105.11526937649563,30.10070467761382],"bbox":[104.43308545,29.67801753,105.75279702,30.63010467]},"geometry":{"type":"Point","coordinates":[105.11526937649563,30.10070467761382]}},{"type":"Feature","id":"cn-sichuan-d-510300","properties":{"region":"cn-sichuan","country":"Sichuan · China","sourceValidOn":"2023","source":"cn-atlas / Amll (ISC), derived from CTAmap / Rui Cheng (MIT) · 2023 · simplified source geometry","id":"cn-sichuan-d-510300","name":"Zigong","nativeName":"自贡市","level":"district","parent":"cn-sichuan-p-510000","province":"Sichuan · China","sourceCode":"510300","sourceParentCode":"510000","sourceLevel":"Prefecture-level","center":[104.68285837541899,29.2865467958698],"bbox":[104.05050168,28.92701437,105.2676408,29.63996603]},"geometry":{"type":"Point","coordinates":[104.68285837541899,29.2865467958698]}},{"type":"Feature","id":"cn-sichuan-d-513200","properties":{"region":"cn-sichuan","country":"Sichuan · China","sourceValidOn":"2023","source":"cn-atlas / Amll (ISC), derived from CTAmap / Rui Cheng (MIT) · 2023 · simplified source geometry","id":"cn-sichuan-d-513200","name":"Abazangzuqiangzu","nativeName":"阿坝藏族羌族自治州","level":"district","parent":"cn-sichuan-p-510000","province":"Sichuan · China","sourceCode":"513200","sourceParentCode":"510000","sourceLevel":"Prefecture-level","center":[102.60944512209504,32.4003790110153],"bbox":[100.52520382,30.59866232,104.43381966,34.31523871]},"geometry":{"type":"Point","coordinates":[102.60944512209504,32.4003790110153]}}]}
