{"type":"FeatureCollection","features":[{"type":"Feature","id":"cn-tibet-d-542500","properties":{"region":"cn-tibet","country":"Tibet Autonomous Region · China","sourceValidOn":"2023","source":"cn-atlas / Amll (ISC), derived from CTAmap / Rui Cheng (MIT) · 2023 · simplified source geometry","id":"cn-tibet-d-542500","name":"Ali","nativeName":"阿里地区","level":"district","parent":"cn-tibet-p-540000","province":"Tibet Autonomous Region · China","sourceCode":"542500","sourceParentCode":"540000","sourceLevel":"Prefecture-level","center":[82.55812856101281,33.03028850175213],"bbox":[78.39567944,29.67903853,86.32625677,35.859526]},"geometry":{"type":"Point","coordinates":[82.55812856101281,33.03028850175213]}},{"type":"Feature","id":"cn-tibet-d-540300","properties":{"region":"cn-tibet","country":"Tibet Autonomous Region · China","sourceValidOn":"2023","source":"cn-atlas / Amll (ISC), derived from CTAmap / Rui Cheng (MIT) · 2023 · simplified source geometry","id":"cn-tibet-d-540300","name":"Changdu","nativeName":"昌都市","level":"district","parent":"cn-tibet-p-540000","province":"Tibet Autonomous Region · China","sourceCode":"540300","sourceParentCode":"540000","sourceLevel":"Prefecture-level","center":[97.038408109271,30.774639074855095],"bbox":[93.59358337,28.43932508,99.11398186,32.5891648]},"geometry":{"type":"Point","coordinates":[97.038408109271,30.774639074855095]}},{"type":"Feature","id":"cn-tibet-d-540100","properties":{"region":"cn-tibet","country":"Tibet Autonomous Region · China","sourceValidOn":"2023","source":"cn-atlas / Amll (ISC), derived from CTAmap / Rui Cheng (MIT) · 2023 · simplified source geometry","id":"cn-tibet-d-540100","name":"Lasa","nativeName":"拉萨市","level":"district","parent":"cn-tibet-p-540000","province":"Tibet Autonomous Region · China","sourceCode":"540100","sourceParentCode":"540000","sourceLevel":"Prefecture-level","center":[91.08976801530586,30.036977749311966],"bbox":[89.75112919,29.24078607,92.61672684,31.05773798]},"geometry":{"type":"Point","coordinates":[91.08976801530586,30.036977749311966]}},{"type":"Feature","id":"cn-tibet-d-540400","properties":{"region":"cn-tibet","country":"Tibet Autonomous Region · China","sourceValidOn":"2023","source":"cn-atlas / Amll (ISC), derived from CTAmap / Rui Cheng (MIT) · 2023 · simplified source geometry","id":"cn-tibet-d-540400","name":"Linzhi","nativeName":"林芝市","level":"district","parent":"cn-tibet-p-540000","province":"Tibet Autonomous Region · China","sourceCode":"540400","sourceParentCode":"540000","sourceLevel":"Prefecture-level","center":[95.24126633267944,29.194392977335603],"bbox":[92.16175255,27.5617142,98.75179151,30.66844225]},"geometry":{"type":"Point","coordinates":[95.24126633267944,29.194392977335603]}},{"type":"Feature","id":"cn-tibet-d-540600","properties":{"region":"cn-tibet","country":"Tibet Autonomous Region · China","sourceValidOn":"2023","source":"cn-atlas / Amll (ISC), derived from CTAmap / Rui Cheng (MIT) · 2023 · simplified source geometry","id":"cn-tibet-d-540600","name":"Naqu","nativeName":"那曲市","level":"district","parent":"cn-tibet-p-540000","province":"Tibet Autonomous Region · China","sourceCode":"540600","sourceParentCode":"540000","sourceLevel":"Prefecture-level","center":[89.26390097659292,32.7397417801532],"bbox":[85.04931367,29.93891816,95.04705887,36.48438196]},"geometry":{"type":"Point","coordinates":[89.26390097659292,32.7397417801532]}},{"type":"Feature","id":"cn-tibet-d-540200","properties":{"region":"cn-tibet","country":"Tibet Autonomous Region · China","sourceValidOn":"2023","source":"cn-atlas / Amll (ISC), derived from CTAmap / Rui Cheng (MIT) · 2023 · simplified source geometry","id":"cn-tibet-d-540200","name":"Rikaze","nativeName":"日喀则市","level":"district","parent":"cn-tibet-p-540000","province":"Tibet Autonomous Region · China","sourceCode":"540200","sourceParentCode":"540000","sourceLevel":"Prefecture-level","center":[86.48772368924882,29.488741623102253],"bbox":[82.14662346,27.21384765,90.34723706,31.80934476]},"geometry":{"type":"Point","coordinates":[86.48772368924882,29.488741623102253]}},{"type":"Feature","id":"cn-tibet-d-540500","properties":{"region":"cn-tibet","country":"Tibet Autonomous Region · China","sourceValidOn":"2023","source":"cn-atlas / Amll (ISC), derived from CTAmap / Rui Cheng (MIT) · 2023 · simplified source geometry","id":"cn-tibet-d-540500","name":"Shannan","nativeName":"山南市","level":"district","parent":"cn-tibet-p-540000","province":"Tibet Autonomous Region · China","sourceCode":"540500","sourceParentCode":"540000","sourceLevel":"Prefecture-level","center":[92.2690212228938,28.299546081779052],"bbox":[90.06541719,26.85703682,94.35444257,29.82507924]},"geometry":{"type":"Point","coordinates":[92.2690212228938,28.299546081779052]}}]}
