{"type":"FeatureCollection","features":[{"type":"Feature","id":"cn-tibet-t-17275852B19431539171013","properties":{"id":"cn-tibet-t-17275852B19431539171013","name":"Rituxian","region":"cn-tibet","country":"Tibet Autonomous Region · China","province":"Tibet Autonomous Region · China","level":"tehsil","parent":"cn-tibet-d-542500","district":"Ali","sourceCode":"17275852B19431539171013","sourceParentCode":"542500","sourceLevel":"County-level (geoBoundaries ADM2)","sourceValidOn":"2017","parentMethod":"Derived interior-label spatial association; not an authoritative administrative code join","center":[80.68712689784158,34.031061152287606],"bbox":[78.68186636300004,32.64801373500006,82.46870696000008,35.45665555000005],"source":"National Administration of Surveying, Mapping and Geoinformation / Revolutionary GIS via geoBoundaries · 2017 · PDDL 1.0"},"geometry":{"type":"Point","coordinates":[80.68712689784158,34.031061152287606]}},{"type":"Feature","id":"cn-tibet-t-17275852B48907401127116","properties":{"id":"cn-tibet-t-17275852B48907401127116","name":"Gaizexian","region":"cn-tibet","country":"Tibet Autonomous Region · China","province":"Tibet Autonomous Region · China","level":"tehsil","parent":"cn-tibet-d-542500","district":"Ali","sourceCode":"17275852B48907401127116","sourceParentCode":"542500","sourceLevel":"County-level (geoBoundaries ADM2)","sourceValidOn":"2017","parentMethod":"Derived interior-label spatial association; not an authoritative administrative code join","center":[83.86817439823137,33.47516367671348],"bbox":[81.96243088200004,31.413621292000073,86.12007026800006,35.70843381800006],"source":"National Administration of Surveying, Mapping and Geoinformation / Revolutionary GIS via geoBoundaries · 2017 · PDDL 1.0"},"geometry":{"type":"Point","coordinates":[83.86817439823137,33.47516367671348]}},{"type":"Feature","id":"cn-tibet-t-17275852B77496833870125","properties":{"id":"cn-tibet-t-17275852B77496833870125","name":"Bangexian","region":"cn-tibet","country":"Tibet Autonomous Region · China","province":"Tibet Autonomous Region · China","level":"tehsil","parent":"cn-tibet-d-540600","district":"Naqu","sourceCode":"17275852B77496833870125","sourceParentCode":"540600","sourceLevel":"County-level (geoBoundaries ADM2)","sourceValidOn":"2017","parentMethod":"Derived interior-label spatial association; not an authoritative administrative code join","center":[89.31868435392566,33.47859979371602],"bbox":[87.39652736000005,29.921886590000042,91.31281422900008,36.49040225500005],"source":"National Administration of Surveying, Mapping and Geoinformation / Revolutionary GIS via geoBoundaries · 2017 · PDDL 1.0"},"geometry":{"type":"Point","coordinates":[89.31868435392566,33.47859979371602]}},{"type":"Feature","id":"cn-tibet-t-17275852B34809223012088","properties":{"id":"cn-tibet-t-17275852B34809223012088","name":"Nimaxian","region":"cn-tibet","country":"Tibet Autonomous Region · China","province":"Tibet Autonomous Region · China","level":"tehsil","parent":"cn-tibet-d-540600","district":"Naqu","sourceCode":"17275852B34809223012088","sourceParentCode":"540600","sourceLevel":"County-level (geoBoundaries ADM2)","sourceValidOn":"2017","parentMethod":"Derived interior-label spatial association; not an authoritative administrative code join","center":[86.74254437592786,33.485914675364675],"bbox":[83.88541769400007,30.334416290000036,89.49842109900004,36.418006019000075],"source":"National Administration of Surveying, Mapping and Geoinformation / Revolutionary GIS via geoBoundaries · 2017 · PDDL 1.0"},"geometry":{"type":"Point","coordinates":[86.74254437592786,33.485914675364675]}},{"type":"Feature","id":"cn-tibet-t-17275852B88683518272743","properties":{"id":"cn-tibet-t-17275852B88683518272743","name":"Geerxian","region":"cn-tibet","country":"Tibet Autonomous Region · China","province":"Tibet Autonomous Region · China","level":"tehsil","parent":"cn-tibet-d-542500","district":"Ali","sourceCode":"17275852B88683518272743","sourceParentCode":"542500","sourceLevel":"County-level (geoBoundaries ADM2)","sourceValidOn":"2017","parentMethod":"Derived interior-label spatial association; not an authoritative administrative code join","center":[80.26579598641065,32.09202776121077],"bbox":[79.06319117300006,31.00872072800007,81.22129099500006,33.29290396700003],"source":"National Administration of Surveying, Mapping and Geoinformation / Revolutionary GIS via geoBoundaries · 2017 · PDDL 1.0"},"geometry":{"type":"Point","coordinates":[80.26579598641065,32.09202776121077]}},{"type":"Feature","id":"cn-tibet-t-17275852B93479592508554","properties":{"id":"cn-tibet-t-17275852B93479592508554","name":"Gejixian","region":"cn-tibet","country":"Tibet Autonomous Region · China","province":"Tibet Autonomous Region · China","level":"tehsil","parent":"cn-tibet-d-542500","district":"Ali","sourceCode":"17275852B93479592508554","sourceParentCode":"542500","sourceLevel":"County-level (geoBoundaries ADM2)","sourceValidOn":"2017","parentMethod":"Derived interior-label spatial association; not an authoritative administrative code join","center":[82.04838258907246,32.11150275091224],"bbox":[80.35363810600006,30.538637696000023,83.27651204900008,33.76115052000006],"source":"National Administration of Surveying, Mapping and Geoinformation / Revolutionary GIS via geoBoundaries · 2017 · PDDL 1.0"},"geometry":{"type":"Point","coordinates":[82.04838258907246,32.11150275091224]}},{"type":"Feature","id":"cn-tibet-t-17275852B88790719723390","properties":{"id":"cn-tibet-t-17275852B88790719723390","name":"Zhadaxian","region":"cn-tibet","country":"Tibet Autonomous Region · China","province":"Tibet Autonomous Region · China","level":"tehsil","parent":"cn-tibet-d-542500","district":"Ali","sourceCode":"17275852B88790719723390","sourceParentCode":"542500","sourceLevel":"County-level (geoBoundaries ADM2)","sourceValidOn":"2017","parentMethod":"Derived interior-label spatial association; not an authoritative administrative code join","center":[79.57255140093567,31.57324408541533],"bbox":[78.43758223800006,30.459967025000026,80.97773206000005,32.69486670400005],"source":"National Administration of Surveying, Mapping and Geoinformation / Revolutionary GIS via geoBoundaries · 2017 · PDDL 1.0"},"geometry":{"type":"Point","coordinates":[79.57255140093567,31.57324408541533]}},{"type":"Feature","id":"cn-tibet-t-17275852B80028860672410","properties":{"id":"cn-tibet-t-17275852B80028860672410","name":"Anduoxian","region":"cn-tibet","country":"Tibet Autonomous Region · China","province":"Tibet Autonomous Region · China","level":"tehsil","parent":"cn-tibet-d-540600","district":"Naqu","sourceCode":"17275852B80028860672410","sourceParentCode":"540600","sourceLevel":"County-level (geoBoundaries ADM2)","sourceValidOn":"2017","parentMethod":"Derived interior-label spatial association; not an authoritative administrative code join","center":[91.23045072280289,32.45125973213385],"bbox":[90.17623583800008,31.40283619400003,92.28360634400008,33.320369966000044],"source":"National Administration of Surveying, Mapping and Geoinformation / Revolutionary GIS via geoBoundaries · 2017 · PDDL 1.0"},"geometry":{"type":"Point","coordinates":[91.23045072280289,32.45125973213385]}},{"type":"Feature","id":"cn-tibet-t-17275852B92038059893443","properties":{"id":"cn-tibet-t-17275852B92038059893443","name":"Pulanxian","region":"cn-tibet","country":"Tibet Autonomous Region · China","province":"Tibet Autonomous Region · China","level":"tehsil","parent":"cn-tibet-d-542500","district":"Ali","sourceCode":"17275852B92038059893443","sourceParentCode":"542500","sourceLevel":"County-level (geoBoundaries ADM2)","sourceValidOn":"2017","parentMethod":"Derived interior-label spatial association; not an authoritative administrative code join","center":[81.428109915496,30.659731473672004],"bbox":[80.57195636800003,30.01863542800004,82.51487220500007,31.212837251000053],"source":"National Administration of Surveying, Mapping and Geoinformation / Revolutionary GIS via geoBoundaries · 2017 · PDDL 1.0"},"geometry":{"type":"Point","coordinates":[81.428109915496,30.659731473672004]}},{"type":"Feature","id":"cn-tibet-t-17275852B21927061590758","properties":{"id":"cn-tibet-t-17275852B21927061590758","name":"Longgeerxian","region":"cn-tibet","country":"Tibet Autonomous Region · China","province":"Tibet Autonomous Region · China","level":"tehsil","parent":"cn-tibet-d-540200","district":"Rikaze","sourceCode":"17275852B21927061590758","sourceParentCode":"540200","sourceLevel":"County-level (geoBoundaries ADM2)","sourceValidOn":"2017","parentMethod":"Derived interior-label spatial association; not an authoritative administrative code join","center":[83.99022917735594,30.97072295957921],"bbox":[83.04161475500007,29.91504146300008,84.78335357600008,31.82950244600005],"source":"National Administration of Surveying, Mapping and Geoinformation / Revolutionary GIS via geoBoundaries · 2017 · PDDL 1.0"},"geometry":{"type":"Point","coordinates":[83.99022917735594,30.97072295957921]}},{"type":"Feature","id":"cn-tibet-t-17275852B83516810802653","properties":{"id":"cn-tibet-t-17275852B83516810802653","name":"Cuoqinxian","region":"cn-tibet","country":"Tibet Autonomous Region · China","province":"Tibet Autonomous Region · China","level":"tehsil","parent":"cn-tibet-d-542500","district":"Ali","sourceCode":"17275852B83516810802653","sourceParentCode":"542500","sourceLevel":"County-level (geoBoundaries ADM2)","sourceValidOn":"2017","parentMethod":"Derived interior-label spatial association; not an authoritative administrative code join","center":[85.26256502997053,30.751199725000845],"bbox":[84.34263509800007,29.683126085000026,86.18850229200007,31.714141624000035],"source":"National Administration of Surveying, Mapping and Geoinformation / Revolutionary GIS via geoBoundaries · 2017 · PDDL 1.0"},"geometry":{"type":"Point","coordinates":[85.26256502997053,30.751199725000845]}},{"type":"Feature","id":"cn-tibet-t-17275852B6174039490369","properties":{"id":"cn-tibet-t-17275852B6174039490369","name":"Zhongbaxian","region":"cn-tibet","country":"Tibet Autonomous Region · China","province":"Tibet Autonomous Region · China","level":"tehsil","parent":"cn-tibet-d-540200","district":"Rikaze","sourceCode":"17275852B6174039490369","sourceParentCode":"540200","sourceLevel":"County-level (geoBoundaries ADM2)","sourceValidOn":"2017","parentMethod":"Derived interior-label spatial association; not an authoritative administrative code join","center":[83.38501257485485,30.052750807220868],"bbox":[82.01928240100005,29.17167510200005,84.67027194500008,30.947294292000038],"source":"National Administration of Surveying, Mapping and Geoinformation / Revolutionary GIS via geoBoundaries · 2017 · PDDL 1.0"},"geometry":{"type":"Point","coordinates":[83.38501257485485,30.052750807220868]}},{"type":"Feature","id":"cn-tibet-t-17275852B5554348593036","properties":{"id":"cn-tibet-t-17275852B5554348593036","name":"Nierongxian","region":"cn-tibet","country":"Tibet Autonomous Region · China","province":"Tibet Autonomous Region · China","level":"tehsil","parent":"cn-tibet-d-540600","district":"Naqu","sourceCode":"17275852B5554348593036","sourceParentCode":"540600","sourceLevel":"County-level (geoBoundaries ADM2)","sourceValidOn":"2017","parentMethod":"Derived interior-label spatial association; not an authoritative administrative code join","center":[92.58805223455994,32.281216283697454],"bbox":[91.84698918300006,31.689430406000042,93.49985511300008,32.77910145200008],"source":"National Administration of Surveying, Mapping and Geoinformation / Revolutionary GIS via geoBoundaries · 2017 · PDDL 1.0"},"geometry":{"type":"Point","coordinates":[92.58805223455994,32.281216283697454]}},{"type":"Feature","id":"cn-tibet-t-17275852B79550049615002","properties":{"id":"cn-tibet-t-17275852B79550049615002","name":"Shenzhaxian","region":"cn-tibet","country":"Tibet Autonomous Region · China","province":"Tibet Autonomous Region · China","level":"tehsil","parent":"cn-tibet-d-540600","district":"Naqu","sourceCode":"17275852B79550049615002","sourceParentCode":"540600","sourceLevel":"County-level (geoBoundaries ADM2)","sourceValidOn":"2017","parentMethod":"Derived interior-label spatial association; not an authoritative administrative code join","center":[88.69229085648074,31.021627223108823],"bbox":[87.80654608600008,30.068505780000066,89.79537533900003,31.98469385900006],"source":"National Administration of Surveying, Mapping and Geoinformation / Revolutionary GIS via geoBoundaries · 2017 · PDDL 1.0"},"geometry":{"type":"Point","coordinates":[88.69229085648074,31.021627223108823]}},{"type":"Feature","id":"cn-tibet-t-17275852B23491969357778","properties":{"id":"cn-tibet-t-17275852B23491969357778","name":"Baqingxian","region":"cn-tibet","country":"Tibet Autonomous Region · China","province":"Tibet Autonomous Region · China","level":"tehsil","parent":"cn-tibet-d-540600","district":"Naqu","sourceCode":"17275852B23491969357778","sourceParentCode":"540600","sourceLevel":"County-level (geoBoundaries ADM2)","sourceValidOn":"2017","parentMethod":"Derived interior-label spatial association; not an authoritative administrative code join","center":[94.09002192186529,32.2090799404344],"bbox":[93.03162950800004,31.73589197800004,94.95326712300005,32.66526933700004],"source":"National Administration of Surveying, Mapping and Geoinformation / Revolutionary GIS via geoBoundaries · 2017 · PDDL 1.0"},"geometry":{"type":"Point","coordinates":[94.09002192186529,32.2090799404344]}},{"type":"Feature","id":"cn-tibet-t-17275852B65672804485103","properties":{"id":"cn-tibet-t-17275852B65672804485103","name":"Angrenxian","region":"cn-tibet","country":"Tibet Autonomous Region · China","province":"Tibet Autonomous Region · China","level":"tehsil","parent":"cn-tibet-d-540200","district":"Rikaze","sourceCode":"17275852B65672804485103","sourceParentCode":"540200","sourceLevel":"County-level (geoBoundaries ADM2)","sourceValidOn":"2017","parentMethod":"Derived interior-label spatial association; not an authoritative administrative code join","center":[86.66209066617968,29.911693258556596],"bbox":[85.52338525500005,28.96197691800006,87.84346741000007,31.027813322000043],"source":"National Administration of Surveying, Mapping and Geoinformation / Revolutionary GIS via geoBoundaries · 2017 · PDDL 1.0"},"geometry":{"type":"Point","coordinates":[86.66209066617968,29.911693258556596]}},{"type":"Feature","id":"cn-tibet-t-17275852B39613098673176","properties":{"id":"cn-tibet-t-17275852B39613098673176","name":"Biruxian","region":"cn-tibet","country":"Tibet Autonomous Region · China","province":"Tibet Autonomous Region · China","level":"tehsil","parent":"cn-tibet-d-540600","district":"Naqu","sourceCode":"17275852B39613098673176","sourceParentCode":"540600","sourceLevel":"County-level (geoBoundaries ADM2)","sourceValidOn":"2017","parentMethod":"Derived interior-label spatial association; not an authoritative administrative code join","center":[93.50166176601999,31.443733186524014],"bbox":[92.67328753600003,30.834319164000078,94.32975765000003,32.153982419000045],"source":"National Administration of Surveying, Mapping and Geoinformation / Revolutionary GIS via geoBoundaries · 2017 · PDDL 1.0"},"geometry":{"type":"Point","coordinates":[93.50166176601999,31.443733186524014]}},{"type":"Feature","id":"cn-tibet-t-17275852B83738568792934","properties":{"id":"cn-tibet-t-17275852B83738568792934","name":"Dingqingxian","region":"cn-tibet","country":"Tibet Autonomous Region · China","province":"Tibet Autonomous Region · China","level":"tehsil","parent":"cn-tibet-d-540300","district":"Changdu","sourceCode":"17275852B83738568792934","sourceParentCode":"540300","sourceLevel":"County-level (geoBoundaries ADM2)","sourceValidOn":"2017","parentMethod":"Derived interior-label spatial association; not an authoritative administrative code join","center":[95.33450569568984,31.624365168573885],"bbox":[94.65208963500004,31.000685098000076,96.27443313200007,32.36727447800007],"source":"National Administration of Surveying, Mapping and Geoinformation / Revolutionary GIS via geoBoundaries · 2017 · PDDL 1.0"},"geometry":{"type":"Point","coordinates":[95.33450569568984,31.624365168573885]}},{"type":"Feature","id":"cn-tibet-t-17275852B22927786689358","properties":{"id":"cn-tibet-t-17275852B22927786689358","name":"Shengdaxian","region":"cn-tibet","country":"Tibet Autonomous Region · China","province":"Tibet Autonomous Region · China","level":"tehsil","parent":"cn-tibet-d-540300","district":"Changdu","sourceCode":"17275852B22927786689358","sourceParentCode":"540300","sourceLevel":"County-level (geoBoundaries ADM2)","sourceValidOn":"2017","parentMethod":"Derived interior-label spatial association; not an authoritative administrative code join","center":[97.70825465629602,32.07329168029996],"bbox":[96.97805219800006,31.601758162000067,98.22862699500007,32.54516431300004],"source":"National Administration of Surveying, Mapping and Geoinformation / Revolutionary GIS via geoBoundaries · 2017 · PDDL 1.0"},"geometry":{"type":"Point","coordinates":[97.70825465629602,32.07329168029996]}},{"type":"Feature","id":"cn-tibet-t-17275852B22198079892765","properties":{"id":"cn-tibet-t-17275852B22198079892765","name":"Naquxian","region":"cn-tibet","country":"Tibet Autonomous Region · China","province":"Tibet Autonomous Region · China","level":"tehsil","parent":"cn-tibet-d-540600","district":"Naqu","sourceCode":"17275852B22198079892765","sourceParentCode":"540600","sourceLevel":"County-level (geoBoundaries ADM2)","sourceValidOn":"2017","parentMethod":"Derived interior-label spatial association; not an authoritative administrative code join","center":[92.04208923568447,31.246996926554154],"bbox":[91.09580449100008,30.521688964000077,93.02743973900004,31.90987652000007],"source":"National Administration of Surveying, Mapping and Geoinformation / Revolutionary GIS via geoBoundaries · 2017 · PDDL 1.0"},"geometry":{"type":"Point","coordinates":[92.04208923568447,31.246996926554154]}},{"type":"Feature","id":"cn-tibet-t-17275852B86280163600556","properties":{"id":"cn-tibet-t-17275852B86280163600556","name":"Suoxian","region":"cn-tibet","country":"Tibet Autonomous Region · China","province":"Tibet Autonomous Region · China","level":"tehsil","parent":"cn-tibet-d-540600","district":"Naqu","sourceCode":"17275852B86280163600556","sourceParentCode":"540600","sourceLevel":"County-level (geoBoundaries ADM2)","sourceValidOn":"2017","parentMethod":"Derived interior-label spatial association; not an authoritative administrative code join","center":[94.3036185860359,31.59044019743101],"bbox":[93.50114839000008,31.083224245000054,95.01278327500006,31.990417353000055],"source":"National Administration of Surveying, Mapping and Geoinformation / Revolutionary GIS via geoBoundaries · 2017 · PDDL 1.0"},"geometry":{"type":"Point","coordinates":[94.3036185860359,31.59044019743101]}},{"type":"Feature","id":"cn-tibet-t-17275852B52005472318098","properties":{"id":"cn-tibet-t-17275852B52005472318098","name":"Jiangdaxian","region":"cn-tibet","country":"Tibet Autonomous Region · China","province":"Tibet Autonomous Region · China","level":"tehsil","parent":"cn-tibet-d-540300","district":"Changdu","sourceCode":"17275852B52005472318098","sourceParentCode":"540300","sourceLevel":"County-level (geoBoundaries ADM2)","sourceValidOn":"2017","parentMethod":"Derived interior-label spatial association; not an authoritative administrative code join","center":[98.38759933878445,31.512766164603104],"bbox":[97.98962738700004,31.028234990000044,98.89895541200008,32.236436464000064],"source":"National Administration of Surveying, Mapping and Geoinformation / Revolutionary GIS via geoBoundaries · 2017 · PDDL 1.0"},"geometry":{"type":"Point","coordinates":[98.38759933878445,31.512766164603104]}},{"type":"Feature","id":"cn-tibet-t-17275852B88896253540800","properties":{"id":"cn-tibet-t-17275852B88896253540800","name":"Changduxian","region":"cn-tibet","country":"Tibet Autonomous Region · China","province":"Tibet Autonomous Region · China","level":"tehsil","parent":"cn-tibet-d-540300","district":"Changdu","sourceCode":"17275852B88896253540800","sourceParentCode":"540300","sourceLevel":"County-level (geoBoundaries ADM2)","sourceValidOn":"2017","parentMethod":"Derived interior-label spatial association; not an authoritative administrative code join","center":[97.06885010931637,31.36597527783619],"bbox":[96.73395153100006,30.71472950100008,97.50735766600008,32.07584282400006],"source":"National Administration of Surveying, Mapping and Geoinformation / Revolutionary GIS via geoBoundaries · 2017 · PDDL 1.0"},"geometry":{"type":"Point","coordinates":[97.06885010931637,31.36597527783619]}},{"type":"Feature","id":"cn-tibet-t-17275852B5689793003351","properties":{"id":"cn-tibet-t-17275852B5689793003351","name":"Leiwuqixian","region":"cn-tibet","country":"Tibet Autonomous Region · China","province":"Tibet Autonomous Region · China","level":"tehsil","parent":"cn-tibet-d-540300","district":"Changdu","sourceCode":"17275852B5689793003351","sourceParentCode":"540300","sourceLevel":"County-level (geoBoundaries ADM2)","sourceValidOn":"2017","parentMethod":"Derived interior-label spatial association; not an authoritative administrative code join","center":[96.40982380454412,31.422980052167883],"bbox":[95.80600954300007,30.97590735800003,96.98691838000008,31.93582094900006],"source":"National Administration of Surveying, Mapping and Geoinformation / Revolutionary GIS via geoBoundaries · 2017 · PDDL 1.0"},"geometry":{"type":"Point","coordinates":[96.40982380454412,31.422980052167883]}},{"type":"Feature","id":"cn-tibet-t-17275852B81187977004604","properties":{"id":"cn-tibet-t-17275852B81187977004604","name":"Shagaxian","region":"cn-tibet","country":"Tibet Autonomous Region · China","province":"Tibet Autonomous Region · China","level":"tehsil","parent":"cn-tibet-d-540200","district":"Rikaze","sourceCode":"17275852B81187977004604","sourceParentCode":"540200","sourceLevel":"County-level (geoBoundaries ADM2)","sourceValidOn":"2017","parentMethod":"Derived interior-label spatial association; not an authoritative administrative code join","center":[85.09822589422618,29.416921762153933],"bbox":[84.18800246800004,28.877669930000025,86.39542608100004,30.005908180000063],"source":"National Administration of Surveying, Mapping and Geoinformation / Revolutionary GIS via geoBoundaries · 2017 · PDDL 1.0"},"geometry":{"type":"Point","coordinates":[85.09822589422618,29.416921762153933]}},{"type":"Feature","id":"cn-tibet-t-17275852B77255763529444","properties":{"id":"cn-tibet-t-17275852B77255763529444","name":"Xietongmenxian","region":"cn-tibet","country":"Tibet Autonomous Region · China","province":"Tibet Autonomous Region · China","level":"tehsil","parent":"cn-tibet-d-540200","district":"Rikaze","sourceCode":"17275852B77255763529444","sourceParentCode":"540200","sourceLevel":"County-level (geoBoundaries ADM2)","sourceValidOn":"2017","parentMethod":"Derived interior-label spatial association; not an authoritative administrative code join","center":[88.08413995925868,29.911459096675205],"bbox":[87.10104839600007,29.325114469000027,89.04523774100005,30.432044116000043],"source":"National Administration of Surveying, Mapping and Geoinformation / Revolutionary GIS via geoBoundaries · 2017 · PDDL 1.0"},"geometry":{"type":"Point","coordinates":[88.08413995925868,29.911459096675205]}},{"type":"Feature","id":"cn-tibet-t-17275852B92745428106149","properties":{"id":"cn-tibet-t-17275852B92745428106149","name":"Dangxiongxian","region":"cn-tibet","country":"Tibet Autonomous Region · China","province":"Tibet Autonomous Region · China","level":"tehsil","parent":"cn-tibet-d-540100","district":"Lasa","sourceCode":"17275852B92745428106149","sourceParentCode":"540100","sourceLevel":"County-level (geoBoundaries ADM2)","sourceValidOn":"2017","parentMethod":"Derived interior-label spatial association; not an authoritative administrative code join","center":[90.88677762247076,30.418164716639097],"bbox":[90.08396672000003,29.597925273000044,91.86400709600008,31.044467308000037],"source":"National Administration of Surveying, Mapping and Geoinformation / Revolutionary GIS via geoBoundaries · 2017 · PDDL 1.0"},"geometry":{"type":"Point","coordinates":[90.88677762247076,30.418164716639097]}},{"type":"Feature","id":"cn-tibet-t-17275852B45394941151938","properties":{"id":"cn-tibet-t-17275852B45394941151938","name":"Jiahexian","region":"cn-tibet","country":"Tibet Autonomous Region · China","province":"Tibet Autonomous Region · China","level":"tehsil","parent":"cn-tibet-d-540600","district":"Naqu","sourceCode":"17275852B45394941151938","sourceParentCode":"540600","sourceLevel":"County-level (geoBoundaries ADM2)","sourceValidOn":"2017","parentMethod":"Derived interior-label spatial association; not an authoritative administrative code join","center":[92.96145588980687,30.662968470552457],"bbox":[91.82129372800006,30.122386048000067,94.14213848500003,31.29328332500006],"source":"National Administration of Surveying, Mapping and Geoinformation / Revolutionary GIS via geoBoundaries · 2017 · PDDL 1.0"},"geometry":{"type":"Point","coordinates":[92.96145588980687,30.662968470552457]}},{"type":"Feature","id":"cn-tibet-t-17275852B95606207132602","properties":{"id":"cn-tibet-t-17275852B95606207132602","name":"Tuobaxian","region":"cn-tibet","country":"Tibet Autonomous Region · China","province":"Tibet Autonomous Region · China","level":"tehsil","parent":"cn-tibet-d-540300","district":"Changdu","sourceCode":"17275852B95606207132602","sourceParentCode":"540300","sourceLevel":"County-level (geoBoundaries ADM2)","sourceValidOn":"2017","parentMethod":"Derived interior-label spatial association; not an authoritative administrative code join","center":[97.68413277929052,31.31280343352945],"bbox":[97.22071338300003,30.755823921000058,98.06165736200006,31.801614533000077],"source":"National Administration of Surveying, Mapping and Geoinformation / Revolutionary GIS via geoBoundaries · 2017 · PDDL 1.0"},"geometry":{"type":"Point","coordinates":[97.68413277929052,31.31280343352945]}},{"type":"Feature","id":"cn-tibet-t-17275852B50538270905009","properties":{"id":"cn-tibet-t-17275852B50538270905009","name":"Bianbaxian","region":"cn-tibet","country":"Tibet Autonomous Region · China","province":"Tibet Autonomous Region · China","level":"tehsil","parent":"cn-tibet-d-540300","district":"Changdu","sourceCode":"17275852B50538270905009","sourceParentCode":"540300","sourceLevel":"County-level (geoBoundaries ADM2)","sourceValidOn":"2017","parentMethod":"Derived interior-label spatial association; not an authoritative administrative code join","center":[94.60703872753002,30.895691018223605],"bbox":[93.62080399500007,30.49462330800003,95.38941385000004,31.43098714000007],"source":"National Administration of Surveying, Mapping and Geoinformation / Revolutionary GIS via geoBoundaries · 2017 · PDDL 1.0"},"geometry":{"type":"Point","coordinates":[94.60703872753002,30.895691018223605]}},{"type":"Feature","id":"cn-tibet-t-17275852B96725844554017","properties":{"id":"cn-tibet-t-17275852B96725844554017","name":"Nanmulinxian","region":"cn-tibet","country":"Tibet Autonomous Region · China","province":"Tibet Autonomous Region · China","level":"tehsil","parent":"cn-tibet-d-540200","district":"Rikaze","sourceCode":"17275852B96725844554017","sourceParentCode":"540200","sourceLevel":"County-level (geoBoundaries ADM2)","sourceValidOn":"2017","parentMethod":"Derived interior-label spatial association; not an authoritative administrative code join","center":[89.40717563405028,29.80785594208452],"bbox":[88.80091640500007,29.322336405000044,90.04657953700007,30.29891083600006],"source":"National Administration of Surveying, Mapping and Geoinformation / Revolutionary GIS via geoBoundaries · 2017 · PDDL 1.0"},"geometry":{"type":"Point","coordinates":[89.40717563405028,29.80785594208452]}},{"type":"Feature","id":"cn-tibet-t-17275852B52191699830664","properties":{"id":"cn-tibet-t-17275852B52191699830664","name":"Luolongxian","region":"cn-tibet","country":"Tibet Autonomous Region · China","province":"Tibet Autonomous Region · China","level":"tehsil","parent":"cn-tibet-d-540300","district":"Changdu","sourceCode":"17275852B52191699830664","sourceParentCode":"540300","sourceLevel":"County-level (geoBoundaries ADM2)","sourceValidOn":"2017","parentMethod":"Derived interior-label spatial association; not an authoritative administrative code join","center":[95.9320774140021,30.728712153640224],"bbox":[95.24903618300004,30.19558760700005,96.57467363200004,31.189212145000056],"source":"National Administration of Surveying, Mapping and Geoinformation / Revolutionary GIS via geoBoundaries · 2017 · PDDL 1.0"},"geometry":{"type":"Point","coordinates":[95.9320774140021,30.728712153640224]}},{"type":"Feature","id":"cn-tibet-t-17275852B21978106228737","properties":{"id":"cn-tibet-t-17275852B21978106228737","name":"Jilongxian","region":"cn-tibet","country":"Tibet Autonomous Region · China","province":"Tibet Autonomous Region · China","level":"tehsil","parent":"cn-tibet-d-540200","district":"Rikaze","sourceCode":"17275852B21978106228737","sourceParentCode":"540200","sourceLevel":"County-level (geoBoundaries ADM2)","sourceValidOn":"2017","parentMethod":"Derived interior-label spatial association; not an authoritative administrative code join","center":[85.30202089704811,28.88893481148084],"bbox":[84.41007411100009,28.262753519000057,86.19652262600005,29.34982117100003],"source":"National Administration of Surveying, Mapping and Geoinformation / Revolutionary GIS via geoBoundaries · 2017 · PDDL 1.0"},"geometry":{"type":"Point","coordinates":[85.30202089704811,28.88893481148084]}},{"type":"Feature","id":"cn-tibet-t-17275852B78826988472702","properties":{"id":"cn-tibet-t-17275852B78826988472702","name":"Linzhouxian","region":"cn-tibet","country":"Tibet Autonomous Region · China","province":"Tibet Autonomous Region · China","level":"tehsil","parent":"cn-tibet-d-540100","district":"Lasa","sourceCode":"17275852B78826988472702","sourceParentCode":"540100","sourceLevel":"County-level (geoBoundaries ADM2)","sourceValidOn":"2017","parentMethod":"Derived interior-label spatial association; not an authoritative administrative code join","center":[91.36675889516474,30.132706564635875],"bbox":[90.85579119400006,29.769752151000034,91.94497256300008,30.497895975000063],"source":"National Administration of Surveying, Mapping and Geoinformation / Revolutionary GIS via geoBoundaries · 2017 · PDDL 1.0"},"geometry":{"type":"Point","coordinates":[91.36675889516474,30.132706564635875]}},{"type":"Feature","id":"cn-tibet-t-17275852B44606538982234","properties":{"id":"cn-tibet-t-17275852B44606538982234","name":"Gongjuexian","region":"cn-tibet","country":"Tibet Autonomous Region · China","province":"Tibet Autonomous Region · China","level":"tehsil","parent":"cn-tibet-d-540300","district":"Changdu","sourceCode":"17275852B44606538982234","sourceParentCode":"540300","sourceLevel":"County-level (geoBoundaries ADM2)","sourceValidOn":"2017","parentMethod":"Derived interior-label spatial association; not an authoritative administrative code join","center":[98.5129752408423,30.742797082865316],"bbox":[97.86499667700008,30.216328410000074,99.02060771700008,31.254571419000058],"source":"National Administration of Surveying, Mapping and Geoinformation / Revolutionary GIS via geoBoundaries · 2017 · PDDL 1.0"},"geometry":{"type":"Point","coordinates":[98.5129752408423,30.742797082865316]}},{"type":"Feature","id":"cn-tibet-t-17275852B48716756088906","properties":{"id":"cn-tibet-t-17275852B48716756088906","name":"Gongbujiangdaxian","region":"cn-tibet","country":"Tibet Autonomous Region · China","province":"Tibet Autonomous Region · China","level":"tehsil","parent":"cn-tibet-d-540400","district":"Linzhi","sourceCode":"17275852B48716756088906","sourceParentCode":"540400","sourceLevel":"County-level (geoBoundaries ADM2)","sourceValidOn":"2017","parentMethod":"Derived interior-label spatial association; not an authoritative administrative code join","center":[93.22993553984138,30.011950400454353],"bbox":[92.17788871500005,29.441865757000073,94.33744033400006,30.603742950000026],"source":"National Administration of Surveying, Mapping and Geoinformation / Revolutionary GIS via geoBoundaries · 2017 · PDDL 1.0"},"geometry":{"type":"Point","coordinates":[93.22993553984138,30.011950400454353]}},{"type":"Feature","id":"cn-tibet-t-17275852B6630334434734","properties":{"id":"cn-tibet-t-17275852B6630334434734","name":"Bashuxian","region":"cn-tibet","country":"Tibet Autonomous Region · China","province":"Tibet Autonomous Region · China","level":"tehsil","parent":"cn-tibet-d-540300","district":"Changdu","sourceCode":"17275852B6630334434734","sourceParentCode":"540300","sourceLevel":"County-level (geoBoundaries ADM2)","sourceValidOn":"2017","parentMethod":"Derived interior-label spatial association; not an authoritative administrative code join","center":[96.86990149196441,30.141172578783355],"bbox":[96.30937004000003,29.12253553800008,97.44041987900005,31.015577465000035],"source":"National Administration of Surveying, Mapping and Geoinformation / Revolutionary GIS via geoBoundaries · 2017 · PDDL 1.0"},"geometry":{"type":"Point","coordinates":[96.86990149196441,30.141172578783355]}},{"type":"Feature","id":"cn-tibet-t-17275852B58723971712159","properties":{"id":"cn-tibet-t-17275852B58723971712159","name":"Duinongdeqingxian","region":"cn-tibet","country":"Tibet Autonomous Region · China","province":"Tibet Autonomous Region · China","level":"tehsil","parent":"cn-tibet-d-540100","district":"Lasa","sourceCode":"17275852B58723971712159","sourceParentCode":"540100","sourceLevel":"County-level (geoBoundaries ADM2)","sourceValidOn":"2017","parentMethod":"Derived interior-label spatial association; not an authoritative administrative code join","center":[90.77220824887782,29.828630708949245],"bbox":[90.48602860900007,29.562280403000045,91.09149777300007,30.153729788000078],"source":"National Administration of Surveying, Mapping and Geoinformation / Revolutionary GIS via geoBoundaries · 2017 · PDDL 1.0"},"geometry":{"type":"Point","coordinates":[90.77220824887782,29.828630708949245]}},{"type":"Feature","id":"cn-tibet-t-17275852B50193055851288","properties":{"id":"cn-tibet-t-17275852B50193055851288","name":"Lazhixian","region":"cn-tibet","country":"Tibet Autonomous Region · China","province":"Tibet Autonomous Region · China","level":"tehsil","parent":"cn-tibet-d-540200","district":"Rikaze","sourceCode":"17275852B50193055851288","sourceParentCode":"540200","sourceLevel":"County-level (geoBoundaries ADM2)","sourceValidOn":"2017","parentMethod":"Derived interior-label spatial association; not an authoritative administrative code join","center":[87.88221100184651,29.17251194570922],"bbox":[87.40450820900008,28.755464071000063,88.36116877600006,29.60793710200005],"source":"National Administration of Surveying, Mapping and Geoinformation / Revolutionary GIS via geoBoundaries · 2017 · PDDL 1.0"},"geometry":{"type":"Point","coordinates":[87.88221100184651,29.17251194570922]}},{"type":"Feature","id":"cn-tibet-t-17275852B96624399177304","properties":{"id":"cn-tibet-t-17275852B96624399177304","name":"Bomixian","region":"cn-tibet","country":"Tibet Autonomous Region · China","province":"Tibet Autonomous Region · China","level":"tehsil","parent":"cn-tibet-d-540400","district":"Linzhi","sourceCode":"17275852B96624399177304","sourceParentCode":"540400","sourceLevel":"County-level (geoBoundaries ADM2)","sourceValidOn":"2017","parentMethod":"Derived interior-label spatial association; not an authoritative administrative code join","center":[95.51477555108936,30.129468678290927],"bbox":[94.03086151000008,29.387655567000024,96.67556886700004,30.672337621000054],"source":"National Administration of Surveying, Mapping and Geoinformation / Revolutionary GIS via geoBoundaries · 2017 · PDDL 1.0"},"geometry":{"type":"Point","coordinates":[95.51477555108936,30.129468678290927]}},{"type":"Feature","id":"cn-tibet-t-17275852B8009329380569","properties":{"id":"cn-tibet-t-17275852B8009329380569","name":"Chayaxian","region":"cn-tibet","country":"Tibet Autonomous Region · China","province":"Tibet Autonomous Region · China","level":"tehsil","parent":"cn-tibet-d-540300","district":"Changdu","sourceCode":"17275852B8009329380569","sourceParentCode":"540300","sourceLevel":"County-level (geoBoundaries ADM2)","sourceValidOn":"2017","parentMethod":"Derived interior-label spatial association; not an authoritative administrative code join","center":[97.83810373870976,30.529281292998924],"bbox":[97.17606478600004,30.09270424700003,98.50472273700007,31.00148802700005],"source":"National Administration of Surveying, Mapping and Geoinformation / Revolutionary GIS via geoBoundaries · 2017 · PDDL 1.0"},"geometry":{"type":"Point","coordinates":[97.83810373870976,30.529281292998924]}},{"type":"Feature","id":"cn-tibet-t-17275852B84422067355730","properties":{"id":"cn-tibet-t-17275852B84422067355730","name":"Mozhugongkaxian","region":"cn-tibet","country":"Tibet Autonomous Region · China","province":"Tibet Autonomous Region · China","level":"tehsil","parent":"cn-tibet-d-540100","district":"Lasa","sourceCode":"17275852B84422067355730","sourceParentCode":"540100","sourceLevel":"County-level (geoBoundaries ADM2)","sourceValidOn":"2017","parentMethod":"Derived interior-label spatial association; not an authoritative administrative code join","center":[92.05303818759789,29.892205632586613],"bbox":[91.57381586900004,29.519452056000034,92.59325738100006,30.312104935000036],"source":"National Administration of Surveying, Mapping and Geoinformation / Revolutionary GIS via geoBoundaries · 2017 · PDDL 1.0"},"geometry":{"type":"Point","coordinates":[92.05303818759789,29.892205632586613]}},{"type":"Feature","id":"cn-tibet-t-17275852B37647072731744","properties":{"id":"cn-tibet-t-17275852B37647072731744","name":"Nimuxian","region":"cn-tibet","country":"Tibet Autonomous Region · China","province":"Tibet Autonomous Region · China","level":"tehsil","parent":"cn-tibet-d-540100","district":"Lasa","sourceCode":"17275852B37647072731744","sourceParentCode":"540100","sourceLevel":"County-level (geoBoundaries ADM2)","sourceValidOn":"2017","parentMethod":"Derived interior-label spatial association; not an authoritative administrative code join","center":[90.12989500398979,29.5938660499757],"bbox":[89.77667021800005,29.302963285000033,90.51951611700008,29.95635301300007],"source":"National Administration of Surveying, Mapping and Geoinformation / Revolutionary GIS via geoBoundaries · 2017 · PDDL 1.0"},"geometry":{"type":"Point","coordinates":[90.12989500398979,29.5938660499757]}},{"type":"Feature","id":"cn-tibet-t-17275852B49222882148153","properties":{"id":"cn-tibet-t-17275852B49222882148153","name":"Rikezeshi","region":"cn-tibet","country":"Tibet Autonomous Region · China","province":"Tibet Autonomous Region · China","level":"tehsil","parent":"cn-tibet-d-540200","district":"Rikaze","sourceCode":"17275852B49222882148153","sourceParentCode":"540200","sourceLevel":"County-level (geoBoundaries ADM2)","sourceValidOn":"2017","parentMethod":"Derived interior-label spatial association; not an authoritative administrative code join","center":[88.96588954144548,29.255866505132467],"bbox":[88.43543725500007,28.914412620000064,89.67263703700007,29.64830304700007],"source":"National Administration of Surveying, Mapping and Geoinformation / Revolutionary GIS via geoBoundaries · 2017 · PDDL 1.0"},"geometry":{"type":"Point","coordinates":[88.96588954144548,29.255866505132467]}},{"type":"Feature","id":"cn-tibet-t-17275852B90481436303184","properties":{"id":"cn-tibet-t-17275852B90481436303184","name":"Nielamuxian","region":"cn-tibet","country":"Tibet Autonomous Region · China","province":"Tibet Autonomous Region · China","level":"tehsil","parent":"cn-tibet-d-540200","district":"Rikaze","sourceCode":"17275852B90481436303184","sourceParentCode":"540200","sourceLevel":"County-level (geoBoundaries ADM2)","sourceValidOn":"2017","parentMethod":"Derived interior-label spatial association; not an authoritative administrative code join","center":[86.0707531121329,28.601700520425325],"bbox":[85.50985943400008,27.91563043800005,86.63269108200006,29.12065293200004],"source":"National Administration of Surveying, Mapping and Geoinformation / Revolutionary GIS via geoBoundaries · 2017 · PDDL 1.0"},"geometry":{"type":"Point","coordinates":[86.0707531121329,28.601700520425325]}},{"type":"Feature","id":"cn-tibet-t-17275852B21680261908241","properties":{"id":"cn-tibet-t-17275852B21680261908241","name":"Dazhixian","region":"cn-tibet","country":"Tibet Autonomous Region · China","province":"Tibet Autonomous Region · China","level":"tehsil","parent":"cn-tibet-d-540100","district":"Lasa","sourceCode":"17275852B21680261908241","sourceParentCode":"540100","sourceLevel":"County-level (geoBoundaries ADM2)","sourceValidOn":"2017","parentMethod":"Derived interior-label spatial association; not an authoritative administrative code join","center":[91.47637302876804,29.73585434706842],"bbox":[91.26312988500007,29.488163562000068,91.65263479900005,30.015146936000065],"source":"National Administration of Surveying, Mapping and Geoinformation / Revolutionary GIS via geoBoundaries · 2017 · PDDL 1.0"},"geometry":{"type":"Point","coordinates":[91.47637302876804,29.73585434706842]}},{"type":"Feature","id":"cn-tibet-t-17275852B85829605603518","properties":{"id":"cn-tibet-t-17275852B85829605603518","name":"Dingrixian","region":"cn-tibet","country":"Tibet Autonomous Region · China","province":"Tibet Autonomous Region · China","level":"tehsil","parent":"cn-tibet-d-540200","district":"Rikaze","sourceCode":"17275852B85829605603518","sourceParentCode":"540200","sourceLevel":"County-level (geoBoundaries ADM2)","sourceValidOn":"2017","parentMethod":"Derived interior-label spatial association; not an authoritative administrative code join","center":[87.0273629764886,28.46480240496521],"bbox":[86.22823921800006,27.828801287000033,87.77823591100008,29.120438646000025],"source":"National Administration of Surveying, Mapping and Geoinformation / Revolutionary GIS via geoBoundaries · 2017 · PDDL 1.0"},"geometry":{"type":"Point","coordinates":[87.0273629764886,28.46480240496521]}},{"type":"Feature","id":"cn-tibet-t-17275852B46177532075867","properties":{"id":"cn-tibet-t-17275852B46177532075867","name":"Lashashi","region":"cn-tibet","country":"Tibet Autonomous Region · China","province":"Tibet Autonomous Region · China","level":"tehsil","parent":"cn-tibet-d-540100","district":"Lasa","sourceCode":"17275852B46177532075867","sourceParentCode":"540100","sourceLevel":"County-level (geoBoundaries ADM2)","sourceValidOn":"2017","parentMethod":"Derived interior-label spatial association; not an authoritative administrative code join","center":[91.15619965210915,29.64419366772274],"bbox":[91.00047717300004,29.419824633000076,91.30796313100007,29.86914136400003],"source":"National Administration of Surveying, Mapping and Geoinformation / Revolutionary GIS via geoBoundaries · 2017 · PDDL 1.0"},"geometry":{"type":"Point","coordinates":[91.15619965210915,29.64419366772274]}},{"type":"Feature","id":"cn-tibet-t-17275852B1814371633063","properties":{"id":"cn-tibet-t-17275852B1814371633063","name":"Saxunxian","region":"cn-tibet","country":"Tibet Autonomous Region · China","province":"Tibet Autonomous Region · China","level":"tehsil","parent":"cn-tibet-d-540200","district":"Rikaze","sourceCode":"17275852B1814371633063","sourceParentCode":"540200","sourceLevel":"County-level (geoBoundaries ADM2)","sourceValidOn":"2017","parentMethod":"Derived interior-label spatial association; not an authoritative administrative code join","center":[88.39707837681011,28.834702539039373],"bbox":[87.68246352000006,28.377907227000037,89.09414803900006,29.33872000200006],"source":"National Administration of Surveying, Mapping and Geoinformation / Revolutionary GIS via geoBoundaries · 2017 · PDDL 1.0"},"geometry":{"type":"Point","coordinates":[88.39707837681011,28.834702539039373]}},{"type":"Feature","id":"cn-tibet-t-17275852B36240840008028","properties":{"id":"cn-tibet-t-17275852B36240840008028","name":"Linzhixian","region":"cn-tibet","country":"Tibet Autonomous Region · China","province":"Tibet Autonomous Region · China","level":"tehsil","parent":"cn-tibet-d-540400","district":"Linzhi","sourceCode":"17275852B36240840008028","sourceParentCode":"540400","sourceLevel":"County-level (geoBoundaries ADM2)","sourceValidOn":"2017","parentMethod":"Derived interior-label spatial association; not an authoritative administrative code join","center":[94.35584846924222,29.778515179254224],"bbox":[93.47073759800008,29.370610018000036,95.24416244600008,30.22238320200006],"source":"National Administration of Surveying, Mapping and Geoinformation / Revolutionary GIS via geoBoundaries · 2017 · PDDL 1.0"},"geometry":{"type":"Point","coordinates":[94.35584846924222,29.778515179254224]}},{"type":"Feature","id":"cn-tibet-t-17275852B60603323920420","properties":{"id":"cn-tibet-t-17275852B60603323920420","name":"Renbuxian","region":"cn-tibet","country":"Tibet Autonomous Region · China","province":"Tibet Autonomous Region · China","level":"tehsil","parent":"cn-tibet-d-540200","district":"Rikaze","sourceCode":"17275852B60603323920420","sourceParentCode":"540200","sourceLevel":"County-level (geoBoundaries ADM2)","sourceValidOn":"2017","parentMethod":"Derived interior-label spatial association; not an authoritative administrative code join","center":[89.98077657707559,29.216123090934587],"bbox":[89.65038294700008,28.99060920900007,90.38419660900007,29.477521202000048],"source":"National Administration of Surveying, Mapping and Geoinformation / Revolutionary GIS via geoBoundaries · 2017 · PDDL 1.0"},"geometry":{"type":"Point","coordinates":[89.98077657707559,29.216123090934587]}},{"type":"Feature","id":"cn-tibet-t-17275852B97774361973577","properties":{"id":"cn-tibet-t-17275852B97774361973577","name":"Qushuixian","region":"cn-tibet","country":"Tibet Autonomous Region · China","province":"Tibet Autonomous Region · China","level":"tehsil","parent":"cn-tibet-d-540100","district":"Lasa","sourceCode":"17275852B97774361973577","sourceParentCode":"540100","sourceLevel":"County-level (geoBoundaries ADM2)","sourceValidOn":"2017","parentMethod":"Derived interior-label spatial association; not an authoritative administrative code join","center":[90.72609207525652,29.42825536444775],"bbox":[90.38419660900007,29.24046922200006,91.10067348900003,29.585515532000045],"source":"National Administration of Surveying, Mapping and Geoinformation / Revolutionary GIS via geoBoundaries · 2017 · PDDL 1.0"},"geometry":{"type":"Point","coordinates":[90.72609207525652,29.42825536444775]}},{"type":"Feature","id":"cn-tibet-t-17275852B35969404681362","properties":{"id":"cn-tibet-t-17275852B35969404681362","name":"Zuogongxian","region":"cn-tibet","country":"Tibet Autonomous Region · China","province":"Tibet Autonomous Region · China","level":"tehsil","parent":"cn-tibet-d-540300","district":"Changdu","sourceCode":"17275852B35969404681362","sourceParentCode":"540300","sourceLevel":"County-level (geoBoundaries ADM2)","sourceValidOn":"2017","parentMethod":"Derived interior-label spatial association; not an authoritative administrative code join","center":[97.66355788067737,29.722681674886278],"bbox":[97.08741549900009,29.08883617400005,98.15294139600007,30.46761574900006],"source":"National Administration of Surveying, Mapping and Geoinformation / Revolutionary GIS via geoBoundaries · 2017 · PDDL 1.0"},"geometry":{"type":"Point","coordinates":[97.66355788067737,29.722681674886278]}},{"type":"Feature","id":"cn-tibet-t-17275852B6295386894588","properties":{"id":"cn-tibet-t-17275852B6295386894588","name":"Bailangxian","region":"cn-tibet","country":"Tibet Autonomous Region · China","province":"Tibet Autonomous Region · China","level":"tehsil","parent":"cn-tibet-d-540200","district":"Rikaze","sourceCode":"17275852B6295386894588","sourceParentCode":"540200","sourceLevel":"County-level (geoBoundaries ADM2)","sourceValidOn":"2017","parentMethod":"Derived interior-label spatial association; not an authoritative administrative code join","center":[89.13956213175841,28.786702534022737],"bbox":[88.89029544300007,28.26153209200004,89.42165551100004,29.285031510000067],"source":"National Administration of Surveying, Mapping and Geoinformation / Revolutionary GIS via geoBoundaries · 2017 · PDDL 1.0"},"geometry":{"type":"Point","coordinates":[89.13956213175841,28.786702534022737]}},{"type":"Feature","id":"cn-tibet-t-17275852B49228373536251","properties":{"id":"cn-tibet-t-17275852B49228373536251","name":"Zhaxiangxian","region":"cn-tibet","country":"Tibet Autonomous Region · China","province":"Tibet Autonomous Region · China","level":"tehsil","parent":"cn-tibet-d-540500","district":"Shannan","sourceCode":"17275852B49228373536251","sourceParentCode":"540500","sourceLevel":"County-level (geoBoundaries ADM2)","sourceValidOn":"2017","parentMethod":"Derived interior-label spatial association; not an authoritative administrative code join","center":[91.41561691891954,29.272679213109324],"bbox":[91.17478093100004,28.944397415000026,91.65599637900004,29.605338276000055],"source":"National Administration of Surveying, Mapping and Geoinformation / Revolutionary GIS via geoBoundaries · 2017 · PDDL 1.0"},"geometry":{"type":"Point","coordinates":[91.41561691891954,29.272679213109324]}},{"type":"Feature","id":"cn-tibet-t-17275852B15600731123597","properties":{"id":"cn-tibet-t-17275852B15600731123597","name":"Jiangzixian","region":"cn-tibet","country":"Tibet Autonomous Region · China","province":"Tibet Autonomous Region · China","level":"tehsil","parent":"cn-tibet-d-540200","district":"Rikaze","sourceCode":"17275852B15600731123597","sourceParentCode":"540200","sourceLevel":"County-level (geoBoundaries ADM2)","sourceValidOn":"2017","parentMethod":"Derived interior-label spatial association; not an authoritative administrative code join","center":[89.66695867521969,28.895683165151283],"bbox":[89.15542145000006,28.492613514000027,90.20858201200008,29.228654221000056],"source":"National Administration of Surveying, Mapping and Geoinformation / Revolutionary GIS via geoBoundaries · 2017 · PDDL 1.0"},"geometry":{"type":"Point","coordinates":[89.66695867521969,28.895683165151283]}},{"type":"Feature","id":"cn-tibet-t-17275852B65816436052393","properties":{"id":"cn-tibet-t-17275852B65816436052393","name":"Gonggaxian","region":"cn-tibet","country":"Tibet Autonomous Region · China","province":"Tibet Autonomous Region · China","level":"tehsil","parent":"cn-tibet-d-540500","district":"Shannan","sourceCode":"17275852B65816436052393","sourceParentCode":"540500","sourceLevel":"County-level (geoBoundaries ADM2)","sourceValidOn":"2017","parentMethod":"Derived interior-label spatial association; not an authoritative administrative code join","center":[90.95922964465825,29.206004568804566],"bbox":[90.48883813500004,28.94927924700005,91.25515821100004,29.520369225000024],"source":"National Administration of Surveying, Mapping and Geoinformation / Revolutionary GIS via geoBoundaries · 2017 · PDDL 1.0"},"geometry":{"type":"Point","coordinates":[90.95922964465825,29.206004568804566]}},{"type":"Feature","id":"cn-tibet-t-17275852B65626767638743","properties":{"id":"cn-tibet-t-17275852B65626767638743","name":"Naidongxian","region":"cn-tibet","country":"Tibet Autonomous Region · China","province":"Tibet Autonomous Region · China","level":"tehsil","parent":"cn-tibet-d-540500","district":"Shannan","sourceCode":"17275852B65626767638743","sourceParentCode":"540500","sourceLevel":"County-level (geoBoundaries ADM2)","sourceValidOn":"2017","parentMethod":"Derived interior-label spatial association; not an authoritative administrative code join","center":[91.83631299162558,29.20283149391138],"bbox":[91.58761806900009,28.738867472000038,92.05230917800009,29.583667556000023],"source":"National Administration of Surveying, Mapping and Geoinformation / Revolutionary GIS via geoBoundaries · 2017 · PDDL 1.0"},"geometry":{"type":"Point","coordinates":[91.83631299162558,29.20283149391138]}},{"type":"Feature","id":"cn-tibet-t-17275852B12900098883102","properties":{"id":"cn-tibet-t-17275852B12900098883102","name":"Jiazhaxian","region":"cn-tibet","country":"Tibet Autonomous Region · China","province":"Tibet Autonomous Region · China","level":"tehsil","parent":"cn-tibet-d-540500","district":"Shannan","sourceCode":"17275852B12900098883102","sourceParentCode":"540500","sourceLevel":"County-level (geoBoundaries ADM2)","sourceValidOn":"2017","parentMethod":"Derived interior-label spatial association; not an authoritative administrative code join","center":[92.7214020999707,29.274399141687464],"bbox":[92.32674759000008,28.800728760000027,93.13097190400003,29.705545131000065],"source":"National Administration of Surveying, Mapping and Geoinformation / Revolutionary GIS via geoBoundaries · 2017 · PDDL 1.0"},"geometry":{"type":"Point","coordinates":[92.7214020999707,29.274399141687464]}},{"type":"Feature","id":"cn-tibet-t-17275852B15476422276109","properties":{"id":"cn-tibet-t-17275852B15476422276109","name":"Shangrixian","region":"cn-tibet","country":"Tibet Autonomous Region · China","province":"Tibet Autonomous Region · China","level":"tehsil","parent":"cn-tibet-d-540500","district":"Shannan","sourceCode":"17275852B15476422276109","sourceParentCode":"540500","sourceLevel":"County-level (geoBoundaries ADM2)","sourceValidOn":"2017","parentMethod":"Derived interior-label spatial association; not an authoritative administrative code join","center":[92.17920079941179,29.358549384432536],"bbox":[91.86010165000005,28.99088972000004,92.57396209700005,29.576590589000034],"source":"National Administration of Surveying, Mapping and Geoinformation / Revolutionary GIS via geoBoundaries · 2017 · PDDL 1.0"},"geometry":{"type":"Point","coordinates":[92.17920079941179,29.358549384432536]}},{"type":"Feature","id":"cn-tibet-t-17275852B27542222545947","properties":{"id":"cn-tibet-t-17275852B27542222545947","name":"Langkazhixian","region":"cn-tibet","country":"Tibet Autonomous Region · China","province":"Tibet Autonomous Region · China","level":"tehsil","parent":"cn-tibet-d-540500","district":"Shannan","sourceCode":"17275852B27542222545947","sourceParentCode":"540500","sourceLevel":"County-level (geoBoundaries ADM2)","sourceValidOn":"2017","parentMethod":"Derived interior-label spatial association; not an authoritative administrative code join","center":[90.62561118128279,28.744375681545204],"bbox":[90.08901611200008,28.16089361400003,91.35265461400007,29.304254496000055],"source":"National Administration of Surveying, Mapping and Geoinformation / Revolutionary GIS via geoBoundaries · 2017 · PDDL 1.0"},"geometry":{"type":"Point","coordinates":[90.62561118128279,28.744375681545204]}},{"type":"Feature","id":"cn-tibet-t-17275852B61899141263472","properties":{"id":"cn-tibet-t-17275852B61899141263472","name":"Manggangxian","region":"cn-tibet","country":"Tibet Autonomous Region · China","province":"Tibet Autonomous Region · China","level":"tehsil","parent":"cn-tibet-d-540300","district":"Changdu","sourceCode":"17275852B61899141263472","sourceParentCode":"540300","sourceLevel":"County-level (geoBoundaries ADM2)","sourceValidOn":"2017","parentMethod":"Derived interior-label spatial association; not an authoritative administrative code join","center":[98.53615768048701,29.82215183464102],"bbox":[98.00139513200008,29.14684610100005,99.10128215300006,30.34818726000003],"source":"National Administration of Surveying, Mapping and Geoinformation / Revolutionary GIS via geoBoundaries · 2017 · PDDL 1.0"},"geometry":{"type":"Point","coordinates":[98.53615768048701,29.82215183464102]}},{"type":"Feature","id":"cn-tibet-t-17275852B93894123088488","properties":{"id":"cn-tibet-t-17275852B93894123088488","name":"Motuoxian","region":"cn-tibet","country":"Tibet Autonomous Region · China","province":"Tibet Autonomous Region · China","level":"tehsil","parent":"cn-tibet-d-540400","district":"Linzhi","sourceCode":"17275852B93894123088488","sourceParentCode":"540400","sourceLevel":"County-level (geoBoundaries ADM2)","sourceValidOn":"2017","parentMethod":"Derived interior-label spatial association; not an authoritative administrative code join","center":[95.02233416485672,28.722690560177426],"bbox":[93.80627669900008,27.57794817100006,96.10746484700007,29.923596777000057],"source":"National Administration of Surveying, Mapping and Geoinformation / Revolutionary GIS via geoBoundaries · 2017 · PDDL 1.0"},"geometry":{"type":"Point","coordinates":[95.02233416485672,28.722690560177426]}},{"type":"Feature","id":"cn-tibet-t-17275852B14909228153998","properties":{"id":"cn-tibet-t-17275852B14909228153998","name":"Dingjiexian","region":"cn-tibet","country":"Tibet Autonomous Region · China","province":"Tibet Autonomous Region · China","level":"tehsil","parent":"cn-tibet-d-540200","district":"Rikaze","sourceCode":"17275852B14909228153998","sourceParentCode":"540200","sourceLevel":"County-level (geoBoundaries ADM2)","sourceValidOn":"2017","parentMethod":"Derived interior-label spatial association; not an authoritative administrative code join","center":[87.95271741305454,28.22006621942897],"bbox":[87.30790019700004,27.79631511900004,88.39366532800005,28.73130838000003],"source":"National Administration of Surveying, Mapping and Geoinformation / Revolutionary GIS via geoBoundaries · 2017 · PDDL 1.0"},"geometry":{"type":"Point","coordinates":[87.95271741305454,28.22006621942897]}},{"type":"Feature","id":"cn-tibet-t-17275852B72528500575842","properties":{"id":"cn-tibet-t-17275852B72528500575842","name":"Milinxian","region":"cn-tibet","country":"Tibet Autonomous Region · China","province":"Tibet Autonomous Region · China","level":"tehsil","parent":"cn-tibet-d-540400","district":"Linzhi","sourceCode":"17275852B72528500575842","sourceParentCode":"540400","sourceLevel":"County-level (geoBoundaries ADM2)","sourceValidOn":"2017","parentMethod":"Derived interior-label spatial association; not an authoritative administrative code join","center":[94.09347396672518,29.253634825845584],"bbox":[93.14382591200007,28.653813048000075,95.23489316400008,29.808679520000055],"source":"National Administration of Surveying, Mapping and Geoinformation / Revolutionary GIS via geoBoundaries · 2017 · PDDL 1.0"},"geometry":{"type":"Point","coordinates":[94.09347396672518,29.253634825845584]}},{"type":"Feature","id":"cn-tibet-t-17275852B55481255682008","properties":{"id":"cn-tibet-t-17275852B55481255682008","name":"Gangbaxian","region":"cn-tibet","country":"Tibet Autonomous Region · China","province":"Tibet Autonomous Region · China","level":"tehsil","parent":"cn-tibet-d-540200","district":"Rikaze","sourceCode":"17275852B55481255682008","sourceParentCode":"540200","sourceLevel":"County-level (geoBoundaries ADM2)","sourceValidOn":"2017","parentMethod":"Derived interior-label spatial association; not an authoritative administrative code join","center":[88.58175715694793,28.309491453668674],"bbox":[88.19472035800004,27.900680111000042,88.96959158900006,28.744307311000057],"source":"National Administration of Surveying, Mapping and Geoinformation / Revolutionary GIS via geoBoundaries · 2017 · PDDL 1.0"},"geometry":{"type":"Point","coordinates":[88.58175715694793,28.309491453668674]}},{"type":"Feature","id":"cn-tibet-t-17275852B76051644450765","properties":{"id":"cn-tibet-t-17275852B76051644450765","name":"Langxian","region":"cn-tibet","country":"Tibet Autonomous Region · China","province":"Tibet Autonomous Region · China","level":"tehsil","parent":"cn-tibet-d-540400","district":"Linzhi","sourceCode":"17275852B76051644450765","sourceParentCode":"540400","sourceLevel":"County-level (geoBoundaries ADM2)","sourceValidOn":"2017","parentMethod":"Derived interior-label spatial association; not an authoritative administrative code join","center":[93.35148466840396,28.728816316807954],"bbox":[92.66541817700005,28.114019107000047,94.18070261000008,29.448429348000047],"source":"National Administration of Surveying, Mapping and Geoinformation / Revolutionary GIS via geoBoundaries · 2017 · PDDL 1.0"},"geometry":{"type":"Point","coordinates":[93.35148466840396,28.728816316807954]}},{"type":"Feature","id":"cn-tibet-t-17275852B25629298081957","properties":{"id":"cn-tibet-t-17275852B25629298081957","name":"Qushongxian","region":"cn-tibet","country":"Tibet Autonomous Region · China","province":"Tibet Autonomous Region · China","level":"tehsil","parent":"cn-tibet-d-540500","district":"Shannan","sourceCode":"17275852B25629298081957","sourceParentCode":"540500","sourceLevel":"County-level (geoBoundaries ADM2)","sourceValidOn":"2017","parentMethod":"Derived interior-label spatial association; not an authoritative administrative code join","center":[92.21756107766406,28.93652794006551],"bbox":[91.98006219900003,28.597147963000054,92.50948349500004,29.273729940000067],"source":"National Administration of Surveying, Mapping and Geoinformation / Revolutionary GIS via geoBoundaries · 2017 · PDDL 1.0"},"geometry":{"type":"Point","coordinates":[92.21756107766406,28.93652794006551]}},{"type":"Feature","id":"cn-tibet-t-17275852B16943094958714","properties":{"id":"cn-tibet-t-17275852B16943094958714","name":"Qiongjiexian","region":"cn-tibet","country":"Tibet Autonomous Region · China","province":"Tibet Autonomous Region · China","level":"tehsil","parent":"cn-tibet-d-540500","district":"Shannan","sourceCode":"17275852B16943094958714","sourceParentCode":"540500","sourceLevel":"County-level (geoBoundaries ADM2)","sourceValidOn":"2017","parentMethod":"Derived interior-label spatial association; not an authoritative administrative code join","center":[91.61723708582475,28.992748002144825],"bbox":[91.37561579100009,28.800883592000048,91.81381853600004,29.18875341900008],"source":"National Administration of Surveying, Mapping and Geoinformation / Revolutionary GIS via geoBoundaries · 2017 · PDDL 1.0"},"geometry":{"type":"Point","coordinates":[91.61723708582475,28.992748002144825]}},{"type":"Feature","id":"cn-tibet-t-17275852B34200925065544","properties":{"id":"cn-tibet-t-17275852B34200925065544","name":"Kangmaxian","region":"cn-tibet","country":"Tibet Autonomous Region · China","province":"Tibet Autonomous Region · China","level":"tehsil","parent":"cn-tibet-d-540200","district":"Rikaze","sourceCode":"17275852B34200925065544","sourceParentCode":"540200","sourceLevel":"County-level (geoBoundaries ADM2)","sourceValidOn":"2017","parentMethod":"Derived interior-label spatial association; not an authoritative administrative code join","center":[89.6495204858921,28.438643256643342],"bbox":[89.10635178500007,28.059013263000054,90.14938996600006,28.823444196000025],"source":"National Administration of Surveying, Mapping and Geoinformation / Revolutionary GIS via geoBoundaries · 2017 · PDDL 1.0"},"geometry":{"type":"Point","coordinates":[89.6495204858921,28.438643256643342]}},{"type":"Feature","id":"cn-tibet-t-17275852B3618807664758","properties":{"id":"cn-tibet-t-17275852B3618807664758","name":"Cuomeixian","region":"cn-tibet","country":"Tibet Autonomous Region · China","province":"Tibet Autonomous Region · China","level":"tehsil","parent":"cn-tibet-d-540500","district":"Shannan","sourceCode":"17275852B3618807664758","sourceParentCode":"540500","sourceLevel":"County-level (geoBoundaries ADM2)","sourceValidOn":"2017","parentMethod":"Derived interior-label spatial association; not an authoritative administrative code join","center":[91.51864144850994,28.5560867203953],"bbox":[90.96239158200007,28.176850912000077,91.99623551200006,28.952134010000066],"source":"National Administration of Surveying, Mapping and Geoinformation / Revolutionary GIS via geoBoundaries · 2017 · PDDL 1.0"},"geometry":{"type":"Point","coordinates":[91.51864144850994,28.5560867203953]}},{"type":"Feature","id":"cn-tibet-t-17275852B56802851821394","properties":{"id":"cn-tibet-t-17275852B56802851821394","name":"Chayuxian","region":"cn-tibet","country":"Tibet Autonomous Region · China","province":"Tibet Autonomous Region · China","level":"tehsil","parent":"cn-tibet-d-540400","district":"Linzhi","sourceCode":"17275852B56802851821394","sourceParentCode":"540400","sourceLevel":"County-level (geoBoundaries ADM2)","sourceValidOn":"2017","parentMethod":"Derived interior-label spatial association; not an authoritative administrative code join","center":[96.93969767860276,28.697538608432474],"bbox":[95.71680241600006,27.754789708000033,98.31057144700009,29.52776017000008],"source":"National Administration of Surveying, Mapping and Geoinformation / Revolutionary GIS via geoBoundaries · 2017 · PDDL 1.0"},"geometry":{"type":"Point","coordinates":[96.93969767860276,28.697538608432474]}},{"type":"Feature","id":"cn-tibet-t-17275852B90193244066864","properties":{"id":"cn-tibet-t-17275852B90193244066864","name":"Yadongxian","region":"cn-tibet","country":"Tibet Autonomous Region · China","province":"Tibet Autonomous Region · China","level":"tehsil","parent":"cn-tibet-d-540200","district":"Rikaze","sourceCode":"17275852B90193244066864","sourceParentCode":"540200","sourceLevel":"County-level (geoBoundaries ADM2)","sourceValidOn":"2017","parentMethod":"Derived interior-label spatial association; not an authoritative administrative code join","center":[89.09291445173349,27.812426176041697],"bbox":[88.80276862700003,27.267802637000045,89.49798909500004,28.298421133000033],"source":"National Administration of Surveying, Mapping and Geoinformation / Revolutionary GIS via geoBoundaries · 2017 · PDDL 1.0"},"geometry":{"type":"Point","coordinates":[89.09291445173349,27.812426176041697]}},{"type":"Feature","id":"cn-tibet-t-17275852B40415823663758","properties":{"id":"cn-tibet-t-17275852B40415823663758","name":"Yanjingxian","region":"cn-tibet","country":"Tibet Autonomous Region · China","province":"Tibet Autonomous Region · China","level":"tehsil","parent":"cn-tibet-d-540300","district":"Changdu","sourceCode":"17275852B40415823663758","sourceParentCode":"540300","sourceLevel":"County-level (geoBoundaries ADM2)","sourceValidOn":"2017","parentMethod":"Derived interior-label spatial association; not an authoritative administrative code join","center":[98.78801228912292,29.22941328001879],"bbox":[98.44499528500006,28.66230582700007,99.15270931600008,29.666582635000054],"source":"National Administration of Surveying, Mapping and Geoinformation / Revolutionary GIS via geoBoundaries · 2017 · PDDL 1.0"},"geometry":{"type":"Point","coordinates":[98.78801228912292,29.22941328001879]}},{"type":"Feature","id":"cn-tibet-t-17275852B22813364881676","properties":{"id":"cn-tibet-t-17275852B22813364881676","name":"Longzhixian","region":"cn-tibet","country":"Tibet Autonomous Region · China","province":"Tibet Autonomous Region · China","level":"tehsil","parent":"cn-tibet-d-540500","district":"Shannan","sourceCode":"17275852B22813364881676","sourceParentCode":"540500","sourceLevel":"County-level (geoBoundaries ADM2)","sourceValidOn":"2017","parentMethod":"Derived interior-label spatial association; not an authoritative administrative code join","center":[92.53314071415816,28.47072416111173],"bbox":[91.88430856400004,28.083698317000028,93.11542433600005,28.841583953000054],"source":"National Administration of Surveying, Mapping and Geoinformation / Revolutionary GIS via geoBoundaries · 2017 · PDDL 1.0"},"geometry":{"type":"Point","coordinates":[92.53314071415816,28.47072416111173]}},{"type":"Feature","id":"cn-tibet-t-17275852B96884118594341","properties":{"id":"cn-tibet-t-17275852B96884118594341","name":"Luozhaxian","region":"cn-tibet","country":"Tibet Autonomous Region · China","province":"Tibet Autonomous Region · China","level":"tehsil","parent":"cn-tibet-d-540500","district":"Shannan","sourceCode":"17275852B96884118594341","sourceParentCode":"540500","sourceLevel":"County-level (geoBoundaries ADM2)","sourceValidOn":"2017","parentMethod":"Derived interior-label spatial association; not an authoritative administrative code join","center":[90.89107738606413,28.21464387218013],"bbox":[90.33273716700006,27.901917732000072,91.48839220000008,28.548065730000076],"source":"National Administration of Surveying, Mapping and Geoinformation / Revolutionary GIS via geoBoundaries · 2017 · PDDL 1.0"},"geometry":{"type":"Point","coordinates":[90.89107738606413,28.21464387218013]}},{"type":"Feature","id":"cn-tibet-t-17275852B66641637059539","properties":{"id":"cn-tibet-t-17275852B66641637059539","name":"Bituxian","region":"cn-tibet","country":"Tibet Autonomous Region · China","province":"Tibet Autonomous Region · China","level":"tehsil","parent":"cn-tibet-d-540400","district":"Linzhi","sourceCode":"17275852B66641637059539","sourceParentCode":"540400","sourceLevel":"County-level (geoBoundaries ADM2)","sourceValidOn":"2017","parentMethod":"Derived interior-label spatial association; not an authoritative administrative code join","center":[98.35491016117449,28.742001628493913],"bbox":[97.93983153900007,28.120755974000076,98.76497411400004,29.36484567000008],"source":"National Administration of Surveying, Mapping and Geoinformation / Revolutionary GIS via geoBoundaries · 2017 · PDDL 1.0"},"geometry":{"type":"Point","coordinates":[98.35491016117449,28.742001628493913]}},{"type":"Feature","id":"cn-tibet-t-17275852B13594857559417","properties":{"id":"cn-tibet-t-17275852B13594857559417","name":"Cuonaxian","region":"cn-tibet","country":"Tibet Autonomous Region · China","province":"Tibet Autonomous Region · China","level":"tehsil","parent":"cn-tibet-d-540500","district":"Shannan","sourceCode":"17275852B13594857559417","sourceParentCode":"540500","sourceLevel":"County-level (geoBoundaries ADM2)","sourceValidOn":"2017","parentMethod":"Derived interior-label spatial association; not an authoritative administrative code join","center":[92.93409396537362,27.656596168717712],"bbox":[91.43209329900009,26.870659342000067,94.38233510000003,28.416457610000066],"source":"National Administration of Surveying, Mapping and Geoinformation / Revolutionary GIS via geoBoundaries · 2017 · PDDL 1.0"},"geometry":{"type":"Point","coordinates":[92.93409396537362,27.656596168717712]}}]}
