{"type":"FeatureCollection","features":[{"type":"Feature","id":"cn-tibet","properties":{"region":"cn-tibet","country":"Tibet Autonomous Region · China","sourceValidOn":"2023","source":"cn-atlas / Amll (ISC), derived from CTAmap / Rui Cheng (MIT) · 2023 · simplified source geometry","id":"cn-tibet","name":"Tibet Autonomous Region · China","level":"region","parent":"","sourceCode":"540000","sourceLevel":"ADM1 context outline","center":[88.4431428954526,31.490685903290718],"bbox":[78.39567944,26.85703682,99.11398186,36.48438196]},"geometry":{"type":"Point","coordinates":[88.4431428954526,31.490685903290718]}}]}
