{"type":"FeatureCollection","features":[{"type":"Feature","id":"cn-tibet-p-540000","properties":{"region":"cn-tibet","country":"Tibet Autonomous Region · China","sourceValidOn":"2023","source":"cn-atlas / Amll (ISC), derived from CTAmap / Rui Cheng (MIT) · 2023 · simplified source geometry","id":"cn-tibet-p-540000","name":"Tibet Autonomous Region · China","level":"province","parent":"cn-tibet","sourceCode":"540000","sourceLevel":"ADM1","center":[88.4431428954526,31.490685903290718],"bbox":[78.39567944,26.85703682,99.11398186,36.48438196],"sourceParentCode":"540000"},"geometry":{"type":"Polygon","coordinates":[[[89.7093238,36.09319327],[89.69527439,36.09861563],[89.67759212,36.0919327],[89.66608414,36.09732302],[89.64771262,36.09853063],[89.63420539,36.10950568],[89.61542231,36.10929523],[89.59881651,36.11874596],[89.59166322,36.12708591],[89.57248331,36.13311206],[89.55783854,36.14142388],[89.54003694,36.13513896],[89.51311401,36.14083905],[89.49740396,36.1559702],[89.48544706,36.15439099],[89.47136336,36.16833479],[89.4426782,36.17746401],[89.44066785,36.1832177],[89.42600745,36.18955369],[89.42706751,36.19743042],[89.41318902,36.20952169],[89.40051277,36.20967946],[89.3949634,36.21563943],[89.37635886,36.21410914],[89.36051474,36.23314372],[89.3509897,36.23079107],[89.33330514,36.23791561],[89.31997336,36.23694223],[89.30192222,36.22943241],[89.28581634,36.23588626],[89.27012633,36.25539498],[89.27440165,36.2619856],[89.25091443,36.26912036],[89.24369237,36.29133486],[89.22938375,36.2928435],[89.22055108,36.28015604],[89.20530252,36.27098715],[89.19855289,36.26057791],[89.18539502,36.25955498],[89.16083091,36.26348529],[89.15419036,36.25867359],[89.1272411,36.25127387],[89.10837358,36.26085405],[89.0966332,36.28311873],[89.06825835,36.28730585],[89.0519681,36.2922521],[89.04264606,36.30477344],[89.01139791,36.31577684],[88.99772494,36.31712405],[88.98651508,36.31226474],[88.96860998,36.31515675],[88.94954765,36.32666584],[88.93799564,36.33700866],[88.92687476,36.36090139],[88.89715571,36.36110142],[88.87546116,36.35079899],[88.85896537,36.35093045],[88.8431112,36.36015698],[88.81966837,36.34457455],[88.80039286,36.33904815],[88.7895641,36.32339395],[88.79110892,36.30894218],[88.78068878,36.2922713],[88.76324591,36.29300732],[88.7519038,36.29917371],[88.74553171,36.31021554],[88.72708695,36.31528697],[88.72695855,36.33087057],[88.71387759,36.33930303],[88.71451647,36.35556324],[88.66237828,36.36894065],[88.65715651,36.38153222],[88.64457808,36.38267247],[88.61406198,36.39204062],[88.61162726,36.41240643],[88.61436235,36.42082641],[88.60826495,36.43185582],[88.58945042,36.44681593],[88.58449023,36.4610389],[88.56817482,36.46284511],[88.55368179,36.45863606],[88.54619089,36.44798336],[88.51825324,36.4568903],[88.50377386,36.45131845],[88.47795494,36.45603365],[88.47907464,36.47776468],[88.47161169,36.48163159],[88.4455938,36.47705127],[88.43967971,36.47914777],[88.40051125,36.47330982],[88.37490765,36.48438196],[88.36885581,36.4784702],[88.35512976,36.47822143],[88.3646977,36.46355844],[88.3633248,36.45829521],[88.34249179,36.45881536],[88.31561077,36.46670184],[88.29637011,36.46415638],[88.27471673,36.46566473],[88.26140667,36.47178078],[88.23474237,36.46707432],[88.22087206,36.44875423],[88.20620139,36.44704388],[88.18064845,36.45487932],[88.17045726,36.44851753],[88.16495738,36.43791779],[88.136527,36.42943488],[88.10200678,36.42913857],[88.07204383,36.43441278],[88.05224515,36.43082546],[88.0161682,36.4312037],[88.0050048,36.42776912],[87.96731911,36.43219665],[87.9676701,36.40729956],[87.9493978,36.40094461],[87.929168,36.40420594],[87.91177467,36.39354619],[87.8709116,36.38970766],[87.86670736,36.39370333],[87.83447204,36.3848222],[87.81378879,36.385257],[87.80374271,36.39125318],[87.79830768,36.38027953],[87.78131993,36.37661496],[87.73034221,36.38509036],[87.70234098,36.38103698],[87.68234274,36.36943462],[87.64559901,36.37032148],[87.63399534,36.35957302],[87.59426029,36.35632603],[87.58363452,36.34672822],[87.57281927,36.34667719],[87.56239892,36.34001062],[87.53799737,36.34883042],[87.51426595,36.34941642],[87.50686282,36.35643528],[87.47548173,36.35297153],[87.46310067,36.35970933],[87.45326229,36.3884635],[87.45706413,36.41089377],[87.43416639,36.41486935],[87.42211197,36.42625891],[87.39934667,36.41631476],[87.38462259,36.41533441],[87.35997642,36.42101],[87.35711979,36.40773741],[87.34445359,36.40202915],[87.34612303,36.39357901],[87.32543817,36.38300296],[87.30641945,36.36266919],[87.29679788,36.35775174],[87.28261235,36.36563827],[87.27227986,36.35800443],[87.26166801,36.35670928],[87.24741528,36.36354821],[87.2280051,36.3617182],[87.21964519,36.35254996],[87.1965055,36.35316226],[87.15180573,36.31337782],[87.16053644,36.30856177],[87.1526573,36.29836593],[87.14207078,36.29344975],[87.10562535,36.2962616],[87.07849588,36.3084685],[87.07176292,36.30357696],[87.05436147,36.30056534],[87.05074669,36.29215887],[87.02978813,36.29806251],[87.0214095,36.2955718],[87.00242523,36.30212452],[86.98738622,36.29378288],[86.97409391,36.29590617],[86.9607951,36.2886988],[86.94771899,36.29012404],[86.93451962,36.27945361],[86.92904951,36.26568519],[86.90565179,36.26694874],[86.8902942,36.26222131],[86.87326628,36.27590469],[86.86368575,36.28818719],[86.86095379,36.30042521],[86.81968566,36.28975701],[86.80824915,36.29450032],[86.76428522,36.29811792],[86.75318089,36.28937028],[86.73962608,36.2896684],[86.73028154,36.26727408],[86.72266745,36.26239686],[86.70502273,36.2645803],[86.69801699,36.24515088],[86.67820957,36.24368302],[86.66094073,36.24650536],[86.65018113,36.23090469],[86.61898341,36.22502686],[86.61245207,36.21958487],[86.58117599,36.21827352],[86.55459588,36.2221166],[86.52512012,36.22910163],[86.51381177,36.209205],[86.52305285,36.20154328],[86.49827231,36.19896174],[86.4526471,36.22224082],[86.43787801,36.2269657],[86.43057305,36.20802623],[86.39659443,36.20686088],[86.38436418,36.19309848],[86.37306564,36.18882888],[86.36196599,36.1708862],[86.36314082,36.16379047],[86.34300197,36.1597881],[86.27664391,36.17238811],[86.27541501,36.15933155],[86.26117119,36.15168227],[86.24945216,36.15006538],[86.2358723,36.1406937],[86.18424745,36.13139235],[86.18414474,36.10120944],[86.18150871,36.08109191],[86.17704934,36.07668514],[86.18702205,36.05466765],[86.19774441,36.047923],[86.19667913,36.03250768],[86.17699497,36.02963776],[86.17005638,36.0178882],[86.17099163,36.00835951],[86.15803738,36.00749198],[86.1424783,35.99758104],[86.1299463,35.97868744],[86.12600041,35.94216555],[86.11709201,35.92809626],[86.10394594,35.92742936],[86.09193211,35.90921351],[86.0905668,35.88758146],[86.0783889,35.8622652],[86.05904232,35.85388067],[86.05655735,35.84617886],[86.03498404,35.84752353],[86.02750446,35.83911714],[86.00993386,35.83342834],[85.99967429,35.81968067],[85.98892427,35.8167162],[85.96608897,35.7894886],[85.95340088,35.78694752],[85.94684741,35.77911202],[85.91170373,35.78294301],[85.90470474,35.78638977],[85.88174123,35.78165828],[85.85395513,35.78058855],[85.83547774,35.77264954],[85.81898611,35.77457284],[85.80886421,35.77996279],[85.77678663,35.76976942],[85.76098565,35.77161572],[85.73861355,35.76596626],[85.72340401,35.75552172],[85.68767481,35.75114387],[85.66859183,35.73453216],[85.65125634,35.73119666],[85.63730577,35.70461271],[85.62733373,35.69873194],[85.62775812,35.68020347],[85.61835632,35.6732469],[85.61254113,35.65392405],[85.59742401,35.6462876],[85.56088609,35.6431032],[85.54705399,35.65463843],[85.52567086,35.66223659],[85.51644998,35.68091935],[85.50643058,35.68508462],[85.4843688,35.68279082],[85.43553613,35.68945021],[85.39043527,35.70061392],[85.37188652,35.70071579],[85.36753333,35.7059027],[85.36491869,35.72796194],[85.35321518,35.74284064],[85.34087417,35.75292167],[85.31508503,35.76525282],[85.27969287,35.77625774],[85.2812595,35.78796116],[85.26225053,35.78895854],[85.24971329,35.78191765],[85.23546626,35.77907474],[85.22035443,35.78067122],[85.22341142,35.77022975],[85.19322579,35.75853797],[85.1737028,35.75524099],[85.14639527,35.74378452],[85.11082268,35.74409524],[85.08167859,35.74631799],[85.05277079,35.752981],[84.99534229,35.74025984],[84.97190071,35.71026961],[84.91925009,35.6922995],[84.86120366,35.67670443],[84.85541531,35.66879023],[84.83908516,35.66618721],[84.8318789,35.65420468],[84.81006968,35.64685893],[84.79815711,35.64830871],[84.78331742,35.63817661],[84.76984384,35.63440747],[84.76028354,35.6242504],[84.74884929,35.62404847],[84.72400498,35.61343357],[84.69858735,35.61765073],[84.6664863,35.61002104],[84.63126709,35.59617619],[84.60236569,35.59050983],[84.56899121,35.58952569],[84.52575526,35.57055151],[84.51964033,35.56629406],[84.49698341,35.56674812],[84.47711825,35.55896649],[84.46031195,35.55669304],[84.44488974,35.55103733],[84.44425553,35.53687634],[84.45787191,35.52755652],[84.47099801,35.52781144],[84.47478205,35.51804563],[84.46368521,35.51239567],[84.46121455,35.49594597],[84.44867925,35.48197622],[84.45109933,35.47447797],[84.42459283,35.46830946],[84.40350844,35.45753997],[84.39101325,35.44732195],[84.35860087,35.4348207],[84.33460305,35.4165131],[84.2861944,35.40669728],[84.25354325,35.40473014],[84.24299687,35.39384541],[84.23208498,35.39721442],[84.2197791,35.38756478],[84.20221626,35.38387429],[84.18273274,35.36438174],[84.17282357,35.35859476],[84.15640551,35.3632083],[84.13846054,35.3793604],[84.12039338,35.37566083],[84.09776084,35.36259428],[84.09233906,35.36355258],[84.08655993,35.3818352],[84.07503763,35.39902026],[84.062317,35.41117365],[84.0468399,35.41751296],[84.02920234,35.41021823],[84.01110068,35.4151458],[84.00412895,35.42205206],[83.96567211,35.41313603],[83.92969131,35.40718002],[83.91889784,35.41150306],[83.90203148,35.40432832],[83.88793219,35.38833164],[83.8904718,35.38257287],[83.87954729,35.36728399],[83.85508137,35.35946281],[83.82966629,35.36192564],[83.79552324,35.35270024],[83.78248944,35.36686399],[83.74953882,35.36438995],[83.7302882,35.36843546],[83.67948527,35.36398258],[83.64247214,35.34478499],[83.61555679,35.33640416],[83.60738333,35.34852316],[83.571996,35.35283589],[83.53598223,35.34479791],[83.52860475,35.34978956],[83.53927946,35.35981171],[83.52409701,35.36845508],[83.50192473,35.36140631],[83.49034023,35.36068398],[83.47144935,35.37460197],[83.45595321,35.37310277],[83.44785321,35.38319577],[83.42441201,35.38093239],[83.41417296,35.38336931],[83.37477021,35.37683606],[83.35869231,35.37817245],[83.36057855,35.39633537],[83.34340369,35.39815543],[83.31428006,35.39527002],[83.28748965,35.39990819],[83.28149003,35.40570287],[83.25986664,35.40906925],[83.239126,35.42437879],[83.22397341,35.40938432],[83.20122283,35.39690795],[83.17771607,35.38952104],[83.14884562,35.39848654],[83.11543315,35.40085697],[83.09962374,35.41021633],[83.09339426,35.42407094],[83.07601412,35.43332666],[83.07555596,35.44984398],[83.05063862,35.47663825],[83.01537463,35.48180264],[83.00158746,35.48155593],[82.99615619,35.4999609],[82.98193499,35.50546061],[82.98427005,35.52146393],[82.96865385,35.5424306],[82.98366951,35.55473416],[82.97793046,35.57183584],[82.98389912,35.5864713],[82.97689279,35.59227821],[82.98072414,35.6092138],[82.97281667,35.61794279],[82.95814094,35.62506246],[82.95559489,35.65249905],[82.96710102,35.66308709],[82.965045,35.67218721],[82.9495408,35.6791217],[82.89861,35.6787217],[82.88372271,35.67553966],[82.86967355,35.6906338],[82.85882724,35.68979495],[82.83124447,35.67877118],[82.79420414,35.69079248],[82.78410847,35.68481829],[82.77821947,35.66582617],[82.76999459,35.65860289],[82.7535653,35.65405399],[82.73159606,35.63810864],[82.72021681,35.64110376],[82.69107051,35.66575635],[82.67727488,35.66973457],[82.65508845,35.66938057],[82.64988715,35.68332131],[82.62663447,35.68733309],[82.60749998,35.69832125],[82.58555159,35.69502228],[82.5445126,35.70866478],[82.52737282,35.69918657],[82.51087356,35.69796088],[82.47744096,35.7135283],[82.46164423,35.71536835],[82.41257824,35.70959862],[82.40235377,35.6951088],[82.40223267,35.66431155],[82.3933518,35.65489655],[82.36567131,35.65115711],[82.34875355,35.65650254],[82.33382839,35.65425645],[82.33415914,35.63963937],[82.34415898,35.63168113],[82.35061335,35.61342877],[82.32885516,35.5912767],[82.3284185,35.57800829],[82.3359451,35.57276367],[82.31048608,35.54293569],[82.28424109,35.54037164],[82.26822203,35.55217273],[82.25910999,35.54664032],[82.25361266,35.53109643],[82.24236551,35.52284725],[82.19302619,35.51851707],[82.18388223,35.51032399],[82.18253489,35.49336849],[82.16959972,35.48675581],[82.1644174,35.49682009],[82.150272,35.49709471],[82.13936447,35.4827041],[82.09720596,35.47133208],[82.08653407,35.4652995],[82.07922324,35.45324642],[82.07140276,35.45072781],[82.04775004,35.45123626],[82.03115631,35.45475326],[82.02598301,35.42676314],[82.03483323,35.40558052],[82.04593438,35.36925241],[82.04978562,35.34927024],[82.04115041,35.33195741],[82.01598583,35.32012796],[82.01056809,35.3113374],[81.98889792,35.30655679],[81.9671523,35.3138092],[81.95277231,35.30862622],[81.94113883,35.29808149],[81.93561384,35.28055193],[81.92903459,35.27325591],[81.89510965,35.27369145],[81.86919852,35.26701116],[81.85687469,35.26111841],[81.81956299,35.26692073],[81.79626878,35.27588875],[81.76579878,35.2660885],[81.75311854,35.26797018],[81.73529405,35.26047595],[81.7212644,35.26025258],[81.69298378,35.24035647],[81.68005481,35.23548746],[81.6505737,35.2328668],[81.62646808,35.23464833],[81.61539472,35.23877101],[81.57696578,35.23642945],[81.55878499,35.23721423],[81.53897577,35.24183192],[81.51101079,35.23610822],[81.49704293,35.25325865],[81.50225303,35.27784315],[81.49164985,35.29317938],[81.47812323,35.29490732],[81.4506585,35.31325889],[81.4405842,35.33351734],[81.40663456,35.33742537],[81.40030389,35.34124116],[81.38352842,35.34060575],[81.37043063,35.3445313],[81.36346117,35.35411737],[81.345141,35.34313757],[81.33465007,35.35040338],[81.32524715,35.33948707],[81.31089002,35.33873277],[81.29901536,35.34472241],[81.27418192,35.34791928],[81.26687438,35.34368173],[81.25378235,35.32588856],[81.24102722,35.33483537],[81.21361614,35.32463982],[81.19155844,35.36608058],[81.17878195,35.37167835],[81.1522949,35.36298972],[81.12753224,35.37101769],[81.12193695,35.38645597],[81.09624559,35.38414122],[81.09300094,35.39200719],[81.09827921,35.40649847],[81.08787669,35.40979837],[81.07274682,35.40061044],[81.04850621,35.40410303],[81.03038974,35.3843086],[81.02764202,35.3723775],[81.03703671,35.365343],[81.03072837,35.34214117],[81.01922001,35.33628984],[81.00422419,35.33648798],[81.00228279,35.33054346],[81.01682622,35.31625611],[81.00377663,35.31221393],[80.96601973,35.3111502],[80.94623836,35.31473436],[80.92665999,35.33196722],[80.90629369,35.32431761],[80.8838411,35.32281296],[80.88025719,35.33062075],[80.85663308,35.34246425],[80.82170605,35.34395969],[80.7871357,35.34157194],[80.74918924,35.33526123],[80.71848621,35.33512299],[80.68738386,35.33798674],[80.68349182,35.34651467],[80.68548865,35.36036512],[80.68037708,35.36611771],[80.65529435,35.3737941],[80.65969697,35.39301578],[80.65229028,35.39856993],[80.63230782,35.39194288],[80.62131896,35.39497919],[80.61244285,35.40430749],[80.59374455,35.40817678],[80.58684798,35.40239439],[80.56421017,35.39291026],[80.54021003,35.40487139],[80.51194026,35.39223306],[80.50162998,35.39622869],[80.49187934,35.40661184],[80.45425509,35.41649296],[80.44221054,35.41791107],[80.43666986,35.42621752],[80.43911806,35.44726762],[80.42956046,35.44996427],[80.41697648,35.44287998],[80.40798704,35.42451656],[80.38937064,35.40969793],[80.37914583,35.39390147],[80.36920296,35.38771421],[80.3133463,35.38654869],[80.30268117,35.38050668],[80.30239927,35.37336162],[80.28781444,35.35872247],[80.28075847,35.33394967],[80.27566863,35.32984655],[80.27048104,35.29307456],[80.2957999,35.26706432],[80.31289269,35.25882142],[80.32944517,35.24081875],[80.33002137,35.22448652],[80.35533193,35.21303436],[80.34453373,35.205449],[80.32136691,35.20192247],[80.28414197,35.21064061],[80.28094862,35.20238301],[80.2564421,35.20452717],[80.25174326,35.19168415],[80.24331121,35.18472757],[80.2197452,35.17724573],[80.22241953,35.16540369],[80.23456677,35.14986589],[80.21795586,35.13971535],[80.20799651,35.12465482],[80.18637336,35.11488616],[80.11808661,35.06949738],[80.09971133,35.06796509],[80.07293613,35.07790583],[80.02839015,35.03990455],[80.04090157,35.02542889],[80.03832028,35.0094137],[80.02675761,35.00163592],[80.03032598,34.99179271],[80.04055985,34.98216185],[80.02728293,34.97948754],[80.02285236,34.97305243],[80.02444444,34.95429926],[80.03824517,34.94614848],[80.04033332,34.93903984],[80.0313003,34.92548111],[80.03483671,34.90485314],[80.015503,34.90282595],[80.00222954,34.89675977],[79.99609492,34.87891837],[79.99699473,34.86533193],[79.98836925,34.85869232],[79.9560739,34.86455134],[79.93366898,34.86122168],[79.92376349,34.85246178],[79.94151832,34.81682043],[79.93460319,34.7993108],[79.92689435,34.78840322],[79.92543474,34.77518733],[79.90653867,34.75061468],[79.8963795,34.73393834],[79.9055073,34.6858268],[79.88129015,34.67958351],[79.86542778,34.67277351],[79.86635158,34.65798282],[79.89007501,34.65042669],[79.88641521,34.62420343],[79.86502731,34.62023763],[79.85986428,34.60036108],[79.85000287,34.59085905],[79.86347702,34.58634479],[79.84210862,34.57061522],[79.83817953,34.55089122],[79.8474338,34.53837791],[79.84336631,34.51789701],[79.82355822,34.51649094],[79.81898604,34.49324679],[79.80688712,34.4927892],[79.79204947,34.47964481],[79.74868475,34.47800652],[79.72886609,34.47184385],[79.71775521,34.4740984],[79.70233302,34.48468454],[79.68515481,34.47602977],[79.68044228,34.45947298],[79.65664245,34.45199101],[79.64589456,34.45535956],[79.62798834,34.44916244],[79.61238002,34.45451688],[79.60698238,34.46344054],[79.5925679,34.46650878],[79.58629255,34.46046369],[79.56227689,34.45685464],[79.54523206,34.47795492],[79.52347534,34.45922544],[79.48660293,34.4471099],[79.46037725,34.45375595],[79.44633468,34.4438283],[79.4172561,34.45040314],[79.40537936,34.44768113],[79.39155488,34.43596055],[79.36664463,34.43572197],[79.35117155,34.43217557],[79.34469963,34.44075336],[79.30273997,34.44302429],[79.26794453,34.43980724],[79.26630506,34.42662984],[79.24869265,34.41910902],[79.23210626,34.42036866],[79.19583552,34.4177273],[79.18492515,34.43084421],[79.16536101,34.43252902],[79.15740478,34.44902103],[79.14752344,34.446542],[79.14103899,34.43660218],[79.09152643,34.42470078],[79.07758681,34.41263016],[79.06816786,34.41646535],[79.06340776,34.42784365],[79.04988943,34.42887109],[79.03671077,34.42337979],[79.0087406,34.40161205],[79.02181399,34.38719192],[79.0237618,34.37634731],[79.03242696,34.36166495],[79.04626096,34.35120013],[79.04278141,34.33890503],[79.03537348,34.33431591],[79.03510062,34.32198542],[79.02034796,34.31770239],[78.98608372,34.31889212],[78.97371052,34.31603677],[78.97525718,34.29152832],[78.9645496,34.26862601],[78.95562662,34.23769302],[78.94313445,34.22460598],[78.92652035,34.18451924],[78.92439619,34.16482202],[78.92052957,34.15738621],[78.90655024,34.14697606],[78.88513509,34.15322215],[78.87234549,34.16720148],[78.86193535,34.16511945],[78.85479696,34.1490581],[78.83754587,34.14251457],[78.83189465,34.131807],[78.82267424,34.12972497],[78.80125909,34.14072998],[78.79055151,34.13745822],[78.77954056,34.12462103],[78.74832203,34.0991132],[78.72376599,34.09245072],[78.70187495,34.09530607],[78.6796032,34.08616894],[78.66856249,34.09511571],[78.65828322,34.08674001],[78.65599894,34.07722216],[78.6619,34.06675253],[78.64990752,34.05304684],[78.64990752,34.03724722],[78.6756057,34.02563545],[78.69825817,34.02335117],[78.70834708,34.0157369],[78.73195134,34.00412513],[78.73823311,33.99727227],[78.74032704,33.97785588],[78.73157063,33.933122],[78.73252241,33.92360416],[78.76088558,33.91294417],[78.7625988,33.8982867],[78.75403273,33.88439065],[78.75498452,33.87125602],[78.76412165,33.84955533],[78.76602522,33.83013893],[78.75441345,33.79397112],[78.75498452,33.78673756],[78.77344914,33.75095047],[78.77535271,33.73971942],[78.7639313,33.72867871],[78.69673531,33.68775199],[78.68360069,33.67728236],[78.68093569,33.66053096],[78.68778854,33.64758668],[78.70891816,33.62759921],[78.72129135,33.62417279],[78.75041596,33.62531493],[78.75365202,33.61998494],[78.73956562,33.59352533],[78.73556812,33.58020035],[78.73613919,33.5636393],[78.75517488,33.53603756],[78.77554306,33.51433687],[78.79270092,33.4993304],[78.81323892,33.48512923],[78.8148973,33.46809305],[78.82183239,33.4549767],[78.83042586,33.44774009],[78.83766247,33.43025163],[78.8488189,33.42407036],[78.89269083,33.41607993],[78.92012963,33.39572698],[78.94469144,33.38096263],[78.9513375,33.37024809],[78.9590264,33.34808598],[78.97229351,33.33165285],[78.98571138,33.3286376],[79.00711968,33.32969294],[79.02337322,33.32393702],[79.03380467,33.31039532],[79.03546306,33.27933821],[79.04209662,33.2684833],[79.07538246,33.25325222],[79.07752397,33.24801741],[79.06729229,33.2361201],[79.07109943,33.22945761],[79.10988464,33.20185586],[79.14057969,33.19685899],[79.15342878,33.18305812],[79.15677777,33.16645446],[79.14250101,33.15008377],[79.13558901,33.12135987],[79.13836459,33.10457081],[79.16116961,33.01390173],[79.16765534,33.01093279],[79.17582003,32.98855624],[79.19358651,32.9854539],[79.2094166,32.96721163],[79.23507026,32.96192409],[79.245064,32.95335804],[79.24899011,32.94229354],[79.22931196,32.90115266],[79.23264321,32.87878572],[79.23073964,32.85951209],[79.23073964,32.82929294],[79.22288742,32.798122],[79.22858033,32.78598675],[79.25477219,32.78860416],[79.27333199,32.78003809],[79.28047038,32.75648143],[79.29807839,32.73054531],[79.2976025,32.72245513],[79.28380162,32.71269934],[79.28427751,32.69651901],[79.2728561,32.68485965],[79.26952486,32.67557975],[79.27713913,32.65678202],[79.29546098,32.6365566],[79.29665071,32.62323162],[79.30569266,32.60086468],[79.29331947,32.59515397],[79.27166637,32.56588661],[79.27309405,32.5447094],[79.25857934,32.53138442],[79.25144095,32.52067685],[79.24073337,32.51330052],[79.22812223,32.51758355],[79.21741465,32.50830365],[79.20456557,32.5080657],[79.18790934,32.51258667],[79.18148479,32.49830991],[79.16748427,32.48903503],[79.15507278,32.48712644],[79.14079601,32.4745153],[79.12961254,32.47070816],[79.11985675,32.45191042],[79.11676345,32.43906133],[79.12176032,32.42311894],[79.1200947,32.41407699],[79.10296258,32.39765871],[79.10058312,32.37219848],[79.09011349,32.3676775],[79.06203585,32.37838508],[79.04918677,32.3800507],[79.03657562,32.37600561],[79.01182922,32.37433999],[78.98874845,32.36482215],[78.9770891,32.34959359],[78.97042661,32.33079585],[78.96281233,32.33198558],[78.93830388,32.34983155],[78.90522937,32.36862929],[78.89809099,32.3862373],[78.87524817,32.39623103],[78.86144729,32.40646272],[78.83979419,32.40955602],[78.8150478,32.42692608],[78.80196076,32.44596177],[78.79220498,32.46856665],[78.78006972,32.47856039],[78.77769027,32.50735186],[78.7572269,32.55993795],[78.76055815,32.57302499],[78.77031394,32.58206694],[78.77769027,32.59539192],[78.77507286,32.61395171],[78.74057067,32.65178514],[78.74271218,32.68961857],[78.73319434,32.70556097],[78.71249303,32.69770874],[78.70844795,32.68866679],[78.68465334,32.67772127],[78.67275604,32.66130299],[78.64515428,32.64940569],[78.63182931,32.63536687],[78.61588691,32.62775259],[78.5859057,32.63251151],[78.57733965,32.63179768],[78.56924948,32.61466556],[78.55616244,32.6149035],[78.51499777,32.60467181],[78.49715181,32.58087721],[78.47573666,32.57397677],[78.45908043,32.5756424],[78.41791576,32.56398303],[78.39578677,32.53709513],[78.39567944,32.52833532],[78.4119671,32.511159],[78.45075232,32.4657113],[78.45075232,32.45524167],[78.46812238,32.43739571],[78.4707398,32.42978144],[78.46526703,32.39171005],[78.4583666,32.37790919],[78.48382683,32.35006949],[78.47787817,32.32865434],[78.48120942,32.32365747],[78.50095895,32.31485346],[78.50928706,32.30033876],[78.49191699,32.27844772],[78.48668218,32.25465311],[78.47454693,32.23894866],[78.44956259,32.23133439],[78.43956886,32.21919913],[78.42767155,32.21420227],[78.42862334,32.19778399],[78.44242421,32.18897998],[78.44718313,32.15780904],[78.45146616,32.1421046],[78.45979428,32.13639389],[78.47145363,32.13734568],[78.500721,32.15162244],[78.51071474,32.14662558],[78.51333215,32.13401443],[78.52403972,32.1204515],[78.56044547,32.09475333],[78.57353251,32.07738326],[78.59043668,32.0665568],[78.60325425,32.06316492],[78.60510084,32.05127798],[78.59403841,32.04152407],[78.59629743,32.0326809],[78.61333211,32.02306847],[78.68780182,31.99427382],[78.71806857,31.97866455],[78.74205353,31.95448923],[78.76394457,31.94992067],[78.76756135,31.94192568],[78.75690137,31.92250927],[78.74108232,31.90569296],[78.73462962,31.88615111],[78.72073356,31.88348611],[78.68418504,31.86997078],[78.66648185,31.85588437],[78.65848686,31.84465331],[78.65563151,31.82066834],[78.68742111,31.79953873],[78.71540357,31.76222878],[78.73234533,31.73005846],[78.75480744,31.68056568],[78.76127958,31.67542604],[78.77612742,31.67542604],[78.79573417,31.68075603],[78.80144488,31.64801465],[78.82504914,31.62593325],[78.84237161,31.61317934],[78.83780305,31.59509543],[78.82333592,31.58081867],[78.80810737,31.57244297],[78.77612742,31.54921943],[78.7589953,31.54484122],[78.73976925,31.53589445],[78.72910927,31.52275982],[78.72282749,31.502582],[78.72301784,31.4822138],[78.75404601,31.4805006],[78.77555634,31.45404099],[78.78926204,31.44642671],[78.78602597,31.43195959],[78.77898277,31.42567781],[78.76032779,31.40093142],[78.7523328,31.37180682],[78.75613994,31.35638791],[78.767371,31.34287257],[78.77803099,31.32041046],[78.78964276,31.30746619],[78.81191451,31.3061337],[78.83285376,31.29452193],[78.85493517,31.29642549],[78.85950373,31.31412868],[78.86616622,31.31546118],[78.87682621,31.30251691],[78.88444048,31.28119694],[78.89567153,31.26349375],[78.91737222,31.2535952],[78.92270221,31.24598092],[78.93164899,31.22199595],[78.94725825,31.21628525],[78.95296895,31.19858205],[78.95982181,31.19172921],[78.98647177,31.17821387],[78.99465711,31.16222389],[78.99275354,31.15518068],[78.97505036,31.12719823],[78.97105286,31.11691896],[78.98991964,31.09658777],[78.9929439,31.07618258],[79.01064709,31.04705798],[79.03025385,31.04401227],[79.05880738,31.03163907],[79.08222128,31.00708304],[79.09097769,31.00042054],[79.11401087,30.99870733],[79.12904907,31.00822518],[79.15017868,31.00632161],[79.1810165,31.02040802],[79.20138469,31.00365661],[79.20995074,30.98519199],[79.21528074,30.96082631],[79.22498894,30.95416382],[79.2529714,30.95378311],[79.26686745,30.95835167],[79.28628385,30.96920202],[79.29827634,30.96977308],[79.31807345,30.96368167],[79.32740094,30.97491272],[79.32121661,30.99118084],[79.3224886,30.99904037],[79.31198204,31.01089017],[79.31445667,31.02212123],[79.34167771,31.03144871],[79.36547231,31.04172799],[79.3911705,31.06723581],[79.40106906,31.07465973],[79.41458439,31.07009116],[79.42303068,31.05720678],[79.42219867,31.03506549],[79.43038402,31.02573801],[79.45722434,31.0324005],[79.49072714,31.03392335],[79.50024499,31.03201979],[79.51928068,30.99813626],[79.53698387,30.9811945],[79.54802456,30.96234917],[79.59149731,30.94343245],[79.60149106,30.93224898],[79.61886112,30.95033289],[79.65671834,30.96139738],[79.66338083,30.97034416],[79.66604583,30.98309807],[79.67385047,30.98233664],[79.69429004,30.97055831],[79.71713286,30.95152262],[79.7485624,30.94385945],[79.7593207,30.93569921],[79.80005708,30.89077498],[79.81300134,30.86755144],[79.82461311,30.85593967],[79.83679595,30.8540361],[79.87201198,30.86222145],[79.88685981,30.85955645],[79.90875086,30.83766541],[79.91103514,30.82529222],[79.89637766,30.81958151],[79.89656801,30.80796974],[79.90608585,30.80130725],[79.92340834,30.79864225],[79.94244402,30.79236047],[79.95443651,30.78246191],[79.95995686,30.76019016],[79.95348472,30.7529566],[79.958434,30.73944126],[79.96795185,30.72668735],[79.97619905,30.70841143],[79.96207193,30.70686245],[79.97004577,30.69261347],[80.00118339,30.68052414],[80.01630249,30.66596351],[80.03400568,30.64331104],[80.03781282,30.63379319],[80.04085853,30.60809501],[80.08184713,30.59557739],[80.09493416,30.57725554],[80.13205375,30.56178904],[80.14609257,30.56416851],[80.16687479,30.5785897],[80.21408329,30.58829789],[80.24054289,30.57897041],[80.25626161,30.57106894],[80.26625535,30.56987921],[80.29980575,30.5734484],[80.31630494,30.56926221],[80.34086097,30.53328476],[80.35456667,30.52490906],[80.37131808,30.52966798],[80.39263804,30.52395727],[80.4109123,30.52357656],[80.43185156,30.51653336],[80.44117905,30.50777694],[80.47506258,30.49216767],[80.50437753,30.48931232],[80.5437814,30.45371558],[80.55107683,30.45495124],[80.60467406,30.47363841],[80.66694231,30.44096167],[80.68516317,30.4277157],[80.69378424,30.41604706],[80.71509139,30.4193783],[80.74879577,30.3931821],[80.75983646,30.38023782],[80.78248893,30.36177321],[80.79448142,30.33931109],[80.80190533,30.33188718],[80.83560012,30.31634764],[80.86510544,30.31658558],[80.88176166,30.30421239],[80.90460449,30.30492623],[80.91221877,30.30183293],[80.93125446,30.28541464],[80.93387186,30.2697102],[80.97554058,30.27366917],[80.99814546,30.27009999],[81.02862038,30.25212764],[81.03283472,30.24484274],[81.02888526,30.22923075],[81.04255215,30.21245159],[81.03817394,30.20122053],[81.05606748,30.17247665],[81.07891032,30.15382168],[81.08271745,30.14544597],[81.08614388,30.10623245],[81.10727349,30.09481104],[81.10689277,30.07939214],[81.09547136,30.0575011],[81.09813636,30.05140967],[81.13163917,30.02304649],[81.14496415,30.01524187],[81.15886021,30.01143473],[81.18551017,30.01143473],[81.20397478,30.01923936],[81.22434297,30.01086366],[81.24603105,30.01259158],[81.25594221,30.02209472],[81.24604366,30.03465826],[81.27250326,30.04893503],[81.28106932,30.0632118],[81.29249074,30.10375781],[81.29077752,30.11594066],[81.26032042,30.1435424],[81.25936863,30.15325061],[81.30352901,30.1593021],[81.33302092,30.15278688],[81.33439668,30.15741336],[81.35511814,30.17780664],[81.3924281,30.20198196],[81.39680631,30.2097866],[81.39566416,30.23529442],[81.40061344,30.24938083],[81.41907806,30.27051044],[81.41793592,30.27964757],[81.40175558,30.28554863],[81.40289772,30.29125934],[81.42402733,30.30534575],[81.42383698,30.31143717],[81.40137487,30.32285859],[81.40594344,30.33504143],[81.40689522,30.35026998],[81.40156523,30.36778281],[81.42650197,30.37349351],[81.43088018,30.38263064],[81.4091795,30.39462313],[81.40613379,30.40337954],[81.40956022,30.4146106],[81.42326591,30.4216538],[81.45467479,30.41346846],[81.4603855,30.4062349],[81.49141368,30.3841535],[81.54395217,30.37139959],[81.55803858,30.37330316],[81.55784823,30.40185669],[81.56470107,30.41042275],[81.56413,30.42298631],[81.57536106,30.42641272],[81.60353387,30.4146106],[81.61876243,30.41575274],[81.62295027,30.42622237],[81.61857207,30.4450677],[81.62428278,30.44659056],[81.65099996,30.43872597],[81.68098117,30.42754251],[81.69478204,30.42444921],[81.72095612,30.41207601],[81.73142574,30.40969654],[81.74522662,30.394468],[81.76093106,30.38923318],[81.80328547,30.38709167],[81.82945954,30.37757382],[81.86824476,30.37804971],[81.88719727,30.36405608],[81.93837006,30.3485462],[81.95145709,30.3604435],[81.95829804,30.35910506],[81.96573386,30.34423343],[81.97956447,30.33188997],[81.99205665,30.32504902],[82.00053348,30.32534645],[82.02209734,30.34334113],[82.03890228,30.33650018],[82.05258418,30.33709504],[82.07801467,30.35598201],[82.10166056,30.34914107],[82.11742449,30.33174125],[82.12322443,30.3147876],[82.13006538,30.30512104],[82.11920909,30.28905968],[82.11568587,30.25729117],[82.10583949,30.24563947],[82.11059841,30.23041092],[82.13129973,30.22541405],[82.13843811,30.21875156],[82.14205489,30.20614042],[82.15761656,30.19443347],[82.18645563,30.19100704],[82.19002482,30.16445226],[82.20530097,30.15817048],[82.20829909,30.15260255],[82.20244561,30.1413239],[82.18517072,30.13018802],[82.18017386,30.12247857],[82.187455,30.10406154],[82.17217886,30.08593004],[82.17560529,30.07122498],[82.22643058,30.06836963],[82.24142118,30.0737948],[82.28425148,30.06165955],[82.30352512,30.04210038],[82.31166287,30.04081547],[82.33165034,30.05095197],[82.33793212,30.04852492],[82.34778309,30.03267771],[82.35863343,30.02282674],[82.37191083,30.02154183],[82.37562279,30.02882298],[82.40389078,30.020828],[82.42344995,30.00555186],[82.44129591,29.98841974],[82.47213372,29.97828323],[82.4791103,29.9679754],[82.49469017,29.95408932],[82.50743086,29.95082278],[82.52215377,29.96182779],[82.53167162,29.96420725],[82.55957421,29.96006302],[82.57241989,29.93788446],[82.59383504,29.91602316],[82.60811181,29.89148497],[82.61748094,29.8853876],[82.64082939,29.8781005],[82.64127555,29.87006982],[82.62461931,29.84181372],[82.64157298,29.8370548],[82.66477272,29.84419319],[82.68931091,29.85475204],[82.70150565,29.85281873],[82.72976175,29.82828054],[82.73362837,29.81355762],[82.72752503,29.80552036],[82.70180309,29.79169632],[82.69778774,29.78708612],[82.69451598,29.76790171],[82.74374108,29.77191705],[82.75504353,29.76805043],[82.76500752,29.7540711],[82.77095617,29.73369696],[82.77526894,29.7313175],[82.81973512,29.72447655],[82.82315559,29.71971763],[82.82285816,29.70261525],[82.83430932,29.69235383],[82.87580117,29.69384099],[82.89721632,29.70276397],[82.92220066,29.70782032],[82.94108763,29.71451256],[82.947185,29.71287668],[82.94748243,29.69443586],[82.9544721,29.67064125],[82.96562582,29.66707206],[83.0091997,29.67331814],[83.01812268,29.67153355],[83.02927641,29.65755421],[83.03671222,29.65457988],[83.05976325,29.62929811],[83.06972724,29.62691865],[83.07671691,29.61665723],[83.09056194,29.61162671],[83.11721191,29.62257223],[83.12577797,29.63185213],[83.15528329,29.62376196],[83.1636114,29.61733741],[83.16813238,29.59806378],[83.18383682,29.60044324],[83.20073099,29.61186466],[83.21476981,29.60829546],[83.22928452,29.58664237],[83.25617243,29.58283523],[83.27021125,29.57450712],[83.27901526,29.55832678],[83.26093135,29.55309196],[83.27092509,29.52715584],[83.27306661,29.5114514],[83.29376791,29.50383713],[83.30590317,29.5021715],[83.32544149,29.5063169],[83.34066852,29.49953259],[83.34745284,29.49003454],[83.34820665,29.47118921],[83.37046668,29.44276824],[83.37760537,29.42927719],[83.40549646,29.42701575],[83.41755747,29.42264363],[83.42494484,29.39972771],[83.41872846,29.37747491],[83.41876357,29.36414773],[83.44454398,29.34756384],[83.44339658,29.3134912],[83.45836085,29.29132784],[83.47168583,29.28181],[83.48862759,29.28352321],[83.49338651,29.2721018],[83.5124222,29.2597286],[83.52232076,29.24469041],[83.52232076,29.22508365],[83.54287931,29.20604796],[83.55277786,29.20490582],[83.56895819,29.20985509],[83.57885675,29.18377621],[83.59065888,29.18092085],[83.61978349,29.17863657],[83.62549419,29.16721515],[83.64605274,29.16740551],[83.65633201,29.1754005],[83.66605067,29.20470227],[83.68355304,29.21518509],[83.70148765,29.23316106],[83.71724621,29.24373862],[83.74427689,29.24887826],[83.76654864,29.24583255],[83.79167574,29.24983004],[83.80214537,29.26010932],[83.79929002,29.27495715],[83.82022928,29.3012264],[83.83279283,29.30255889],[83.84916353,29.29970354],[83.8581103,29.30731782],[83.90569952,29.32635351],[83.92701949,29.32635351],[83.94872018,29.31645495],[83.96585229,29.32825708],[83.98031941,29.32920886],[84,29.3196491],[83.99460723,29.30493619],[84,29.29818657],[84.01769037,29.28991119],[84.04736679,29.29916734],[84.05913967,29.29853386],[84.06866999,29.28885226],[84.09302523,29.29823131],[84.10558104,29.29429816],[84.11813685,29.28249873],[84.1165445,29.2566803],[84.1196496,29.24921827],[84.13265923,29.24150325],[84.14824054,29.24104943],[84.18000132,29.2450658],[84.2001278,29.2405956],[84.19846378,29.2189633],[84.18817709,29.20882789],[84.17274706,29.20171797],[84.16367057,29.18432137],[84.16593969,29.17025281],[84.17259578,29.15694063],[84.1742598,29.13833382],[84.18000825,29.12986244],[84.20542242,29.1210885],[84.19165641,29.08493381],[84.18802581,29.06209132],[84.19074876,29.04877913],[84.22039862,29.05225846],[84.23794651,29.04635873],[84.24808192,29.03667715],[84.24551025,29.00158139],[84.23582865,28.96981368],[84.22887001,28.95604768],[84.2217601,28.92987713],[84.22312157,28.9126318],[84.22947511,28.8946301],[84.24263602,28.89190715],[84.25685585,28.89795814],[84.27047059,28.8976556],[84.28756464,28.87904879],[84.32840884,28.86361876],[84.34580544,28.87012358],[84.35942018,28.86422386],[84.37439638,28.86785445],[84.40389498,28.86104709],[84.40994597,28.84561706],[84.40616409,28.83003575],[84.42719129,28.82882556],[84.43324229,28.82035417],[84.43309101,28.80295756],[84.44171368,28.79418362],[84.44110858,28.7678618],[84.47015335,28.75197795],[84.48679357,28.73851449],[84.50388762,28.7450193],[84.52249443,28.74471675],[84.55501851,28.74895245],[84.5833069,28.73821194],[84.61583099,28.73700174],[84.62763043,28.73397625],[84.64986782,28.71945386],[84.65939813,28.69857794],[84.67059247,28.68602213],[84.69479645,28.67679436],[84.70220891,28.67165102],[84.69797321,28.64154734],[84.74411203,28.61613317],[84.78729619,28.61157123],[84.85706174,28.57303525],[84.87954759,28.58743861],[84.90779138,28.59752636],[84.92942368,28.60009803],[84.94243332,28.59843401],[84.95423275,28.58678585],[84.98191604,28.59313939],[84.98989993,28.61480278],[85.00324579,28.6273275],[85.01882709,28.64623685],[85.03108036,28.65455697],[85.0572509,28.67860966],[85.08417782,28.67255867],[85.10384354,28.68254281],[85.11655062,28.68284535],[85.14135969,28.66408728],[85.156941,28.64638813],[85.18432175,28.64548048],[85.19445716,28.61522551],[85.18084242,28.59692126],[85.18205262,28.58028104],[85.18674214,28.5672714],[85.18386792,28.54215978],[85.16616877,28.5300578],[85.16072287,28.50509745],[85.15058746,28.49223909],[85.11776083,28.48391897],[85.10656649,28.46470707],[85.10702031,28.44761302],[85.11307131,28.43218299],[85.11049964,28.41690424],[85.12638349,28.38438015],[85.11881975,28.36773992],[85.11413023,28.34792292],[85.12713986,28.33430818],[85.16541239,28.32689572],[85.18674214,28.33128269],[85.20398747,28.34156937],[85.2452855,28.31010422],[85.25245082,28.2942054],[85.27009456,28.29588438],[85.27459254,28.28501344],[85.31749423,28.2926232],[85.32763636,28.29866961],[85.34270648,28.29860733],[85.35556484,28.28469005],[85.37541208,28.27955491],[85.38791626,28.28726626],[85.39810129,28.29858052],[85.41018802,28.31996005],[85.41704087,28.32538523],[85.44456032,28.33548881],[85.46258375,28.33095316],[85.50939704,28.331039],[85.52501226,28.3255365],[85.54226334,28.31289561],[85.59503287,28.30133027],[85.59805836,28.29467419],[85.59790709,28.25670421],[85.61303457,28.2585195],[85.63496941,28.27273933],[85.64752522,28.28862319],[85.66613203,28.33975408],[85.68050313,28.34656144],[85.6799925,28.38118614],[85.7046597,28.38523189],[85.71322577,28.38094886],[85.71941236,28.36881361],[85.72369539,28.34216365],[85.73154762,28.31884493],[85.73749626,28.27125571],[85.75201098,28.23413612],[85.7717605,28.20938972],[85.78627521,28.19963393],[85.80935599,28.19320939],[85.84909299,28.17679111],[85.866701,28.14395455],[85.86789073,28.12610859],[85.87502911,28.11778048],[85.8909715,28.1101662],[85.89834783,28.10041041],[85.89977551,28.08946489],[85.89430274,28.07185688],[85.89929962,28.05258324],[85.92690136,28.03045425],[85.97750869,27.99423499],[85.97751017,27.98758994],[85.96002534,27.97013304],[85.95458827,27.96132904],[85.94934982,27.94054791],[85.9689603,27.93082986],[85.99594681,27.91394445],[86.01599824,27.91303986],[86.05157822,27.9020342],[86.09921922,27.92314097],[86.1238244,27.92731085],[86.12484887,27.9403279],[86.1102249,27.959324],[86.10266977,27.98619999],[86.0822916,28.0095353],[86.08122084,28.02095672],[86.08621771,28.0413011],[86.08800231,28.06093166],[86.08157776,28.08127605],[86.08300543,28.08912827],[86.09549761,28.09448206],[86.12317074,28.09060353],[86.13459215,28.11001994],[86.14867856,28.12753277],[86.17133103,28.14142883],[86.1758996,28.14809132],[86.17666102,28.16198737],[86.1816103,28.1711245],[86.19150886,28.16884022],[86.19760028,28.15798988],[86.20140742,28.12981706],[86.21187704,28.12048957],[86.22232431,28.09992666],[86.2133999,28.09312577],[86.20840303,28.08289408],[86.21054455,28.05600618],[86.2195865,28.03768432],[86.22230518,27.99987655],[86.22535105,27.97990792],[86.23263815,27.97560705],[86.25110872,27.97340605],[86.2759146,27.97946177],[86.28989393,27.97767718],[86.29985793,27.97009265],[86.30565786,27.95789791],[86.31519171,27.94892331],[86.33512247,27.96574573],[86.34372924,27.944216],[86.34938046,27.9396058],[86.37838014,27.93767249],[86.41139516,27.90926767],[86.44128714,27.91015997],[86.4582408,27.91566248],[86.47162527,27.94064682],[86.47906108,27.94704162],[86.50954792,27.95789791],[86.51772733,27.97291826],[86.51400941,27.98303096],[86.51566651,28],[86.52999108,28.02438378],[86.5320684,28.0444615],[86.55253177,28.05231373],[86.56252551,28.0656387],[86.56395318,28.10537571],[86.57323308,28.10942078],[86.59607591,28.10204446],[86.61106651,28.07444271],[86.62415355,28.07039762],[86.64057183,28.06992174],[86.65223119,28.07872574],[86.66627001,28.09633375],[86.67578785,28.10014089],[86.70294815,28.1048393],[86.71933199,28.10299624],[86.74479222,28.08990921],[86.74717168,28.07872574],[86.76025872,28.0753945],[86.75074088,28.0537414],[86.75121677,28.04469945],[86.76025872,28.03541955],[86.78857431,28.02280841],[86.8097515,28.02257046],[86.82307649,28.01543207],[86.83544969,28.01662181],[86.85163002,28.02613965],[86.86685857,28.02280841],[86.87566257,28.00686602],[86.89241331,27.99316123],[86.91291704,27.99059826],[86.92814406,27.98321089],[86.93477762,27.96195336],[86.95467829,27.95592285],[86.98226785,27.95260608],[87.01468183,27.95351065],[87.03428097,27.94808319],[87.07016248,27.92305659],[87.07830366,27.91220169],[87.08267578,27.89591932],[87.09081696,27.88853195],[87.10981305,27.86380688],[87.11629585,27.84420773],[87.1294122,27.83621731],[87.14358389,27.8350112],[87.16725363,27.82189486],[87.19212946,27.81722122],[87.22635259,27.82023647],[87.2509269,27.84119248],[87.26916917,27.84677069],[87.29404502,27.84420773],[87.31816703,27.8277746],[87.33384635,27.82400554],[87.34560584,27.82958375],[87.35917448,27.82445782],[87.38148735,27.84194629],[87.42520547,27.85961378],[87.43327076,27.84565151],[87.42680837,27.84020839],[87.40516134,27.83735683],[87.40449107,27.82974677],[87.44527684,27.82562826],[87.46894658,27.83090496],[87.48085683,27.83964919],[87.49457623,27.84311673],[87.53211613,27.84432283],[87.54176494,27.85005181],[87.55554269,27.86570895],[87.57689264,27.86196206],[87.59015975,27.84145834],[87.59061204,27.82200996],[87.61503559,27.80994894],[87.62619202,27.81552717],[87.63900685,27.83000038],[87.65442406,27.83633241],[87.66765175,27.83211105],[87.66719947,27.81326573],[87.67066701,27.80602912],[87.69509056,27.80949666],[87.72343394,27.80557683],[87.73308275,27.80874285],[87.7433346,27.83165877],[87.75569714,27.84115682],[87.77348714,27.86241435],[87.78720654,27.89874814],[87.82338957,27.92287017],[87.82926931,27.94457999],[87.84117596,27.95063742],[87.85791421,27.94367542],[87.86258786,27.93598652],[87.86334167,27.92060873],[87.873292,27.9118645],[87.91701317,27.91276908],[87.94249207,27.91126144],[87.97174001,27.8904562],[87.99616356,27.88894858],[88.02918059,27.90281874],[88.03747253,27.90357255],[88.05526253,27.89015467],[88.0811937,27.89241612],[88.09099327,27.87522918],[88.10365734,27.86859561],[88.12250266,27.87718909],[88.14097046,27.88014521],[88.1385209,27.88871835],[88.12023744,27.91602888],[88.13242599,27.9308552],[88.13674641,27.95274021],[88.14479348,27.96133382],[88.19641306,27.94829312],[88.20741807,27.94978028],[88.21336672,27.96851853],[88.22526402,27.96167759],[88.24519201,27.97268259],[88.25173553,27.9426419],[88.25917134,27.93937014],[88.26749946,27.94769825],[88.28713001,27.95959555],[88.29307867,27.96643651],[88.31044241,27.97128365],[88.33923808,27.98620915],[88.36441544,27.99208889],[88.39426644,27.98228933],[88.40677974,27.98153551],[88.41934284,27.98992197],[88.42953859,28.0021953],[88.45656927,28.01095172],[88.47065568,28.01266493],[88.47617603,28.01837564],[88.47903138,28.03227169],[88.48493244,28.03817275],[88.50187421,28.04464489],[88.51310526,28.04388346],[88.5319506,28.03417525],[88.55231878,28.03055847],[88.56050412,28.04826167],[88.5597427,28.0768152],[88.56335948,28.08500055],[88.58677337,28.08176448],[88.60085979,28.08461983],[88.61761119,28.09413768],[88.63436259,28.11241194],[88.64654544,28.11336372],[88.6524465,28.09965803],[88.66539077,28.08861733],[88.66995934,28.07605377],[88.67833504,28.069772],[88.70251036,28.07453092],[88.761521,28.07243699],[88.77789169,28.05416273],[88.79273952,28.04654845],[88.81234628,28.02446706],[88.83937695,28.013236],[88.84261303,28.00276637],[88.84378988,27.95890448],[88.84074416,27.92825702],[88.86510984,27.92197524],[88.87443734,27.91131525],[88.88071911,27.89513492],[88.88109982,27.87019817],[88.88776231,27.85554069],[88.88300339,27.83193644],[88.86415806,27.81804038],[88.8639677,27.79633969],[88.85844736,27.77711365],[88.85705168,27.75305279],[88.86739413,27.74798905],[88.86815556,27.73923264],[88.85901843,27.71905481],[88.84417059,27.71486695],[88.83957622,27.70945907],[88.85064273,27.69621198],[88.85045236,27.67222701],[88.83560453,27.65185883],[88.81713992,27.64538669],[88.81047742,27.63682063],[88.81257135,27.61283567],[88.80895456,27.60141425],[88.78820567,27.57533536],[88.77507104,27.57171858],[88.76974105,27.56486573],[88.77887818,27.53859648],[88.79524887,27.53250506],[88.79543923,27.52489079],[88.78668281,27.5031901],[88.79010924,27.49195905],[88.78211425,27.47882442],[88.78192389,27.46607051],[88.79524887,27.44456018],[88.79543923,27.43351948],[88.80990635,27.4255245],[88.80628957,27.40953452],[88.8251349,27.40382381],[88.83579489,27.38098098],[88.85349807,27.3870724],[88.86244485,27.38554955],[88.86625199,27.37070171],[88.88052875,27.35870923],[88.88566839,27.34671675],[88.89785123,27.3314882],[88.91422192,27.33034606],[88.91840977,27.31473679],[88.91307978,27.3054093],[88.90912768,27.27493889],[88.92383494,27.27400041],[88.94858134,27.26143687],[88.96190632,27.2347869],[88.97884809,27.21384765],[89.00150055,27.22355584],[89.03534448,27.23334362],[89.04819357,27.23524719],[89.06770515,27.24547886],[89.07103639,27.25071368],[89.06960872,27.28331229],[89.08864441,27.29711317],[89.12528811,27.31638681],[89.15027245,27.32066983],[89.1593144,27.33970552],[89.15969558,27.35809015],[89.17858804,27.37373181],[89.17977777,27.38110814],[89.16359743,27.39681259],[89.16312154,27.40989962],[89.15170013,27.42274871],[89.13718542,27.43345628],[89.13409212,27.44368797],[89.11791178,27.4417844],[89.1072042,27.46248571],[89.09506896,27.47414507],[89.09459306,27.48485264],[89.10363501,27.51150261],[89.10387296,27.53172803],[89.11196312,27.54124587],[89.12457427,27.54291149],[89.14932066,27.55647442],[89.15866694,27.56789292],[89.16057051,27.57779148],[89.14146844,27.60168418],[89.12372846,27.61493123],[89.13028497,27.63404484],[89.14146844,27.64713189],[89.1562211,27.65950508],[89.18263312,27.67401979],[89.18453669,27.68853451],[89.19738578,27.70661841],[89.2021447,27.72113312],[89.2268911,27.72755767],[89.22927055,27.743738],[89.22522547,27.76610494],[89.23759867,27.79204106],[89.24545089,27.80013122],[89.26567631,27.81298031],[89.27804951,27.82797092],[89.29898876,27.84867223],[89.32325926,27.85295526],[89.34538825,27.86509051],[89.36727929,27.87103917],[89.39250158,27.89792708],[89.4029712,27.91601097],[89.43580777,27.95408235],[89.45530031,27.98858644],[89.45884584,28.00327002],[89.47169493,28.01207403],[89.47145698,28.02040214],[89.46098735,28.03420302],[89.48383018,28.05395255],[89.51619084,28.09178598],[89.53379885,28.08821678],[89.54377405,28.09619075],[89.557957,28.11675952],[89.57342349,28.1238979],[89.60123345,28.162118],[89.60911541,28.16702564],[89.67113012,28.17133841],[89.67707876,28.18100497],[89.68763762,28.18353314],[89.7202065,28.17297428],[89.74132421,28.18606132],[89.76006247,28.19156383],[89.77731356,28.20033809],[89.78564167,28.21416871],[89.77419052,28.2278506],[89.78772371,28.23186595],[89.79396979,28.24450683],[89.82177974,28.24287095],[89.83575907,28.23127108],[89.8652049,28.22740445],[89.87963038,28.21312769],[89.89598918,28.18829206],[89.90283013,28.18323571],[89.93837333,28.18963051],[89.97876556,28.19087777],[90.01610364,28.16616624],[90.02444784,28.14851507],[90.03150831,28.1404918],[90.04135017,28.13835227],[90.05985716,28.1530081],[90.08219163,28.15513751],[90.10195903,28.1426422],[90.12155831,28.16855611],[90.12285425,28.19204466],[90.13668113,28.1937481],[90.16349189,28.19104044],[90.17862526,28.18261714],[90.18870228,28.1616303],[90.19933847,28.15887013],[90.21658956,28.14685384],[90.22372794,28.1453072],[90.29521489,28.15739484],[90.30415373,28.13674114],[90.32199968,28.13352887],[90.34412867,28.11044809],[90.36185565,28.09748003],[90.37637037,28.06714191],[90.38755384,28.0627399],[90.40099779,28.06654704],[90.43787943,28.06535731],[90.45536848,28.049058],[90.47654567,28.04739238],[90.48653942,28.05048568],[90.50509921,28.06464347],[90.5179483,28.06464347],[90.56982055,28.04429908],[90.58266964,28.02966539],[90.59230646,28.02454955],[90.60063457,28.02752388],[90.61610107,28.04275243],[90.65464834,28.05203233],[90.66702153,28.05762406],[90.68665208,28.07784948],[90.70128577,28.07773051],[90.72650805,28.06464347],[90.75422878,28.04715443],[90.78266333,28.04203859],[90.79348989,28.04608368],[90.80217492,28.04227653],[90.80253183,28.02086139],[90.83912302,27.98320432],[90.84439971,27.97159559],[90.85932522,27.96827882],[90.88480411,27.95606704],[90.89158842,27.95033806],[90.91525816,27.95003653],[90.93304815,27.94506137],[90.96335144,27.95561476],[90.97842771,27.94174459],[90.96289916,27.90450622],[90.99048872,27.88852537],[91.01837981,27.86576022],[91.02950472,27.86072219],[91.07900886,27.85466225],[91.09556991,27.85123584],[91.11581912,27.85048333],[91.13321893,27.87442666],[91.14972644,27.88870342],[91.15478279,27.90060072],[91.15047002,27.92617993],[91.16311091,27.93971312],[91.16990732,27.95296007],[91.16599422,27.96805101],[91.18660809,27.97956909],[91.18987984,27.98581517],[91.21783851,27.9914664],[91.23895622,27.97763578],[91.25278684,27.9742153],[91.27226868,27.98908693],[91.28648545,28.02159902],[91.29314794,28.02864223],[91.31047042,28.03340115],[91.31446791,28.04615506],[91.31066078,28.05186576],[91.31465827,28.06347753],[91.33445538,28.06557146],[91.3458768,28.06062218],[91.3515875,28.0512947],[91.36738712,28.04786827],[91.38242532,28.03473364],[91.39841943,28.03103608],[91.40978002,28.02079772],[91.42297134,28.01779188],[91.43001454,28.00827404],[91.44448166,28.01036797],[91.460662,28.00770296],[91.46706177,27.98712388],[91.47562783,27.97870059],[91.48804862,27.97398925],[91.48176684,27.94543572],[91.48833415,27.93844011],[91.50817886,27.93444261],[91.52531098,27.92302119],[91.54963859,27.91582565],[91.55015255,27.89903623],[91.55429281,27.89375383],[91.57485135,27.90303373],[91.58955642,27.90389033],[91.60982943,27.89375383],[91.61596844,27.88518776],[91.62025147,27.86862672],[91.61396969,27.86034619],[91.59169794,27.85377888],[91.57870608,27.85991789],[91.56628529,27.8612028],[91.55600602,27.85706254],[91.54287139,27.8329348],[91.54658335,27.81980018],[91.57213877,27.81466055],[91.61030443,27.82132537],[91.63126043,27.7966003],[91.6338234,27.78257938],[91.64241687,27.76569396],[91.63397416,27.7441349],[91.63563255,27.72860634],[91.62266696,27.71036406],[91.620104,27.69679543],[91.56718631,27.65337578],[91.55964817,27.63332435],[91.56507563,27.61960495],[91.57698588,27.6064886],[91.57412139,27.59804589],[91.56386953,27.59171386],[91.56477411,27.57452692],[91.57713664,27.55929989],[91.5837702,27.54437439],[91.60608307,27.53819312],[91.6164857,27.51949855],[91.62236544,27.51452339],[91.66032927,27.5107269],[91.66984711,27.49645014],[91.7153424,27.47208446],[91.74199236,27.46561233],[91.75664984,27.46827732],[91.79300801,27.4829348],[91.81128227,27.48864551],[91.83488652,27.49302372],[91.86296416,27.48660869],[91.8830944,27.48618039],[91.90450955,27.47789986],[91.9497669,27.46733505],[91.98174685,27.4697621],[92.00787333,27.47832817],[92.01415511,27.47604388],[92.02029413,27.45163061],[92.02600483,27.44392116],[92.04408874,27.42952542],[92.11559753,27.29163655],[92.12510836,27.28331773],[92.10803219,27.27117846],[92.09127999,27.271128],[92.07773329,27.25658449],[92.06897687,27.24078487],[92.06634081,27.21452324],[92.05473209,27.18859206],[92.03377608,27.17653105],[92.0304593,27.16884216],[92.03437913,27.13884039],[92.02548414,27.1198443],[92.02307193,27.10748175],[92.02699176,27.08381202],[92.03618828,27.06195144],[92.04553557,27.05305644],[92.07026064,27.0471767],[92.0768942,27.04205076],[92.07975869,27.01702417],[92.09408114,27.01099366],[92.10116698,27.0019479],[92.10342842,26.98265028],[92.12227376,26.96214656],[92.12197223,26.9494825],[92.11271031,26.93063159],[92.11495009,26.90560766],[92.10825283,26.88269464],[92.10544859,26.85703682],[92.16838533,26.87012386],[92.20407724,26.87488278],[92.29050879,26.89617896],[92.31849125,26.90150895],[92.35751441,26.90512573],[92.38705832,26.90489204],[92.4119882,26.90679135],[92.47052295,26.91916455],[92.50359745,26.92844445],[92.54190677,26.94319711],[92.57260182,26.94914576],[92.63066067,26.95342879],[92.66325929,26.95438057],[92.67729811,26.95128728],[92.71536948,26.9312998],[92.73678463,26.92223406],[92.78080466,26.90105685],[92.80674078,26.89605998],[92.87146213,26.91009881],[92.90881966,26.91557157],[92.942608,26.91152648],[93.0406418,26.88749393],[93.07514399,26.88083143],[93.09536941,26.8801176],[93.14224479,26.88773187],[93.20625228,26.90058096],[93.24884464,26.91105059],[93.28525039,26.91295416],[93.36305876,26.92104433],[93.4375359,26.92675503],[93.49853064,26.93285124],[93.52205435,26.93365547],[93.57035741,26.93960412],[93.61604306,26.95221527],[93.64935552,26.96672997],[93.69765858,26.99028664],[93.72026345,27.00622902],[93.74762725,27.01622277],[93.80735173,27.02431293],[93.81996287,27.02764418],[93.83328785,27.03573434],[93.84375748,27.0566736],[93.84732667,27.11853959],[93.84566105,27.16184578],[93.85018203,27.17707433],[93.87564225,27.21110062],[93.91038238,27.2425095],[93.94512252,27.27629785],[93.97843497,27.31651075],[94.01817197,27.35029909],[94.02697598,27.3555339],[94.05933664,27.38099414],[94.08551071,27.4071682],[94.13476556,27.44952261],[94.16189142,27.47807615],[94.17426462,27.48854577],[94.2180467,27.53661089],[94.2405088,27.5471519],[94.27015531,27.57857664],[94.29513965,27.58642887],[94.3227414,27.58642887],[94.35248466,27.57952843],[94.38270381,27.58381146],[94.40078771,27.58928422],[94.4202993,27.58595298],[94.44790104,27.58738065],[94.46360548,27.59713644],[94.48097555,27.60213331],[94.51119471,27.59547082],[94.52880271,27.59927795],[94.56092544,27.61355473],[94.60708698,27.62902122],[94.68156412,27.66161983],[94.70868997,27.67994169],[94.72459255,27.68686615],[94.75271,27.69160104],[94.78626039,27.7037363],[94.81457598,27.72086842],[94.88143883,27.74228357],[94.8988089,27.75251524],[94.94116331,27.788921],[94.97304809,27.80557723],[95.00374313,27.82580265],[95.01944757,27.83079951],[95.06537118,27.83912762],[95.1098671,27.86434992],[95.16911568,27.8921896],[95.24692405,27.9200293],[95.27928472,27.93620963],[95.29189586,27.94834489],[95.30403111,27.96738057],[95.32229719,28.01231912],[95.35013689,28.03896909],[95.35727527,28.06157397],[95.35770127,28.07323091],[95.3646516,28.08584446],[95.36988642,28.1108288],[95.37940426,28.12724709],[95.3955846,28.14366537],[95.43627338,28.16270105],[95.53882814,28.18673362],[95.62377491,28.22599472],[95.68302348,28.25906923],[95.71538415,28.26596966],[95.74560331,28.27667724],[95.76606667,28.27739108],[95.78319879,28.27144243],[95.79914118,28.2764393],[95.82674293,28.2945232],[95.85002169,28.28944011],[95.87552188,28.29666471],[95.89860265,28.27405983],[95.90240659,28.25063449],[95.91414863,28.23972435],[95.93905349,28.23812997],[95.98354941,28.19958271],[96.02060892,28.19512419],[96.06077422,28.1968374],[96.07752563,28.20349989],[96.09123132,28.21492131],[96.15633337,28.21549237],[96.19421439,28.21948987],[96.22873215,28.23133967],[96.24412851,28.23309847],[96.27168964,28.23186307],[96.28273034,28.21644416],[96.2815882,28.18617742],[96.29186699,28.1524128],[96.29710856,28.14404863],[96.32833631,28.13226644],[96.34724984,28.13088015],[96.36686808,28.12374036],[96.39561197,28.12469215],[96.4005745,28.13608684],[96.39694447,28.15324568],[96.4197873,28.1620021],[96.42968585,28.16276352],[96.4559551,28.1526746],[96.46928008,28.13896891],[96.48374721,28.11707787],[96.48661836,28.09745715],[96.49542297,28.07838591],[96.50363905,28.06765438],[96.51886608,28.08016768],[96.54404344,28.07519251],[96.55233004,28.06587753],[96.57181294,28.06599116],[96.58190185,28.05989974],[96.58418614,28.05209511],[96.6068386,28.04410012],[96.62530322,28.02906192],[96.63101393,28.02030551],[96.63681171,28.00051566],[96.64804661,27.99048362],[96.65664008,27.97601041],[96.68362659,27.95535592],[96.71534848,27.9593911],[96.73081531,27.95158686],[96.74966063,27.94721473],[96.76187241,27.93575677],[96.79063394,27.93219749],[96.79805545,27.92505263],[96.80197528,27.91269009],[96.81711899,27.89594354],[96.83583968,27.89089653],[96.85266979,27.88042564],[96.87841194,27.87515019],[96.89861413,27.88148222],[96.91806252,27.88253756],[96.93117886,27.87801468],[96.94525831,27.868187],[96.96713692,27.86081561],[96.97791529,27.8484652],[96.98198645,27.83570534],[97.00203731,27.80956844],[97.02796849,27.81454361],[97.04718368,27.82154755],[97.05657494,27.80328999],[97.04884377,27.79030282],[97.04900073,27.77648325],[97.05608282,27.76386635],[97.05280787,27.74469365],[97.06342798,27.74669644],[97.08982435,27.74185416],[97.09772416,27.75308522],[97.09764668,27.76935445],[97.10214387,27.78084724],[97.12899735,27.78984333],[97.14238182,27.80412009],[97.16766359,27.81408409],[97.1722738,27.82553524],[97.18565827,27.83163261],[97.2149979,27.86199995],[97.23720892,27.88176856],[97.26091896,27.89890931],[97.29023723,27.91210367],[97.31147819,27.91492325],[97.32332935,27.89789208],[97.32713649,27.88304425],[97.34274575,27.88152139],[97.36178144,27.8735264],[97.38348212,27.88285388],[97.38176891,27.89579816],[97.37437463,27.90460075],[97.38519533,27.92168669],[97.37777142,27.93938988],[97.37891356,27.96261342],[97.38217891,27.97732947],[97.39485595,27.9980198],[97.40743354,28.00911978],[97.410346,28.01848534],[97.3981822,28.03024939],[97.378937,28.03396132],[97.37265534,28.04892341],[97.37573912,28.06736899],[97.32982505,28.05886004],[97.30909518,28.06388545],[97.30646826,28.082845],[97.31029443,28.09306716],[97.34257711,28.11282957],[97.34324521,28.12327681],[97.33056743,28.13395583],[97.32959661,28.14400666],[97.34772331,28.15007339],[97.35752197,28.16193828],[97.36031308,28.20318958],[97.34837736,28.21094164],[97.34776212,28.23026026],[97.3580982,28.24158072],[97.38209266,28.23776621],[97.40682543,28.24699486],[97.41383919,28.25388558],[97.40104214,28.27898748],[97.40940944,28.28932356],[97.42036077,28.29609123],[97.43023187,28.29271168],[97.4468162,28.27775699],[97.46490434,28.27148152],[97.47967016,28.28169455],[97.46847275,28.30002878],[97.47610176,28.31245668],[97.48852965,28.31590204],[97.50674084,28.31614814],[97.51621558,28.32279276],[97.51523119,28.33534371],[97.49379531,28.34668253],[97.49197502,28.36241439],[97.48200809,28.38234826],[97.48717612,28.39071555],[97.50354158,28.40178993],[97.50674084,28.41569441],[97.50009622,28.42972195],[97.51289326,28.43562828],[97.52113752,28.44571825],[97.50883266,28.46331419],[97.50809438,28.49604511],[97.51978398,28.49813694],[97.53787212,28.51142618],[97.54463979,28.52237749],[97.55694465,28.52877602],[97.56986475,28.54391099],[97.58709154,28.5431727],[97.59791981,28.53172919],[97.59902725,28.51979348],[97.6241555,28.51885279],[97.63508047,28.5348054],[97.66473517,28.53394406],[97.67199504,28.5226236],[97.68639172,28.52114701],[97.6916828,28.50601204],[97.70977094,28.50145925],[97.72023007,28.49530681],[97.73721076,28.47057406],[97.73671857,28.45064019],[97.73967173,28.44104241],[97.73598028,28.4207394],[97.74317481,28.41245155],[97.73979478,28.39859066],[97.74902342,28.38074862],[97.76489669,28.37988728],[97.78495359,28.35921513],[97.79467443,28.33263664],[97.80611794,28.32980652],[97.8168908,28.33330973],[97.83872581,28.32992958],[97.84635482,28.3320214],[97.8483236,28.34814076],[97.86456601,28.36143],[97.88125694,28.36596847],[97.90689471,28.36635194],[97.91587725,28.36019952],[97.94211327,28.32894482],[97.96325094,28.31897825],[97.95254571,28.30359718],[97.96362008,28.29621428],[97.9915521,28.28944661],[98.01837668,28.25979191],[98.01973022,28.24711791],[98.00840975,28.21881674],[98.01160901,28.20442006],[98.02822057,28.19113082],[98.04790834,28.18990033],[98.05467601,28.20294348],[98.0757173,28.20429701],[98.08853355,28.19853114],[98.09798909,28.16910513],[98.11669247,28.16381404],[98.13115365,28.15349736],[98.1355189,28.14437237],[98.15900691,28.16353262],[98.16882177,28.1644024],[98.16628978,28.21110911],[98.17960357,28.22018862],[98.20170816,28.22340484],[98.20929067,28.21961234],[98.24024517,28.23657822],[98.26370103,28.24246199],[98.26602118,28.25271806],[98.25402898,28.27140555],[98.2444734,28.27991575],[98.23807936,28.30514129],[98.22714582,28.32064348],[98.21036415,28.32952062],[98.20520198,28.33772016],[98.20497786,28.35837425],[98.21134467,28.36188693],[98.22877095,28.35639696],[98.23649388,28.37340684],[98.24770459,28.37913767],[98.26626679,28.38101906],[98.28931251,28.39691901],[98.30146445,28.38871976],[98.29978481,28.37236221],[98.30375675,28.36239837],[98.31417639,28.35773285],[98.32286681,28.34751636],[98.3217775,28.31930319],[98.35361074,28.28819083],[98.36869495,28.26772704],[98.37760642,28.24965217],[98.37939136,28.21668802],[98.36989017,28.18659245],[98.38169185,28.18267244],[98.38889935,28.17060867],[98.39055127,28.1537059],[98.39002538,28.1225965],[98.39529723,28.10883177],[98.42827432,28.10717856],[98.43380449,28.11844611],[98.46058769,28.13701309],[98.45325333,28.14328638],[98.46439229,28.15459039],[98.4801037,28.15371386],[98.49459549,28.14492157],[98.50860794,28.1497183],[98.53626896,28.18078791],[98.55810868,28.18711208],[98.57839852,28.18443395],[98.62313914,28.16930352],[98.63981565,28.19398186],[98.66367923,28.21405991],[98.67564139,28.21112273],[98.69365524,28.2179569],[98.7109813,28.23249786],[98.70870091,28.26185231],[98.71639421,28.27929114],[98.7105144,28.29004966],[98.71382015,28.30903467],[98.72182194,28.31654621],[98.745544,28.32515239],[98.75179151,28.3439846],[98.73521001,28.35708852],[98.73199041,28.37418519],[98.71833797,28.38818646],[98.71046099,28.40229159],[98.70574644,28.42001514],[98.6951158,28.43302599],[98.68436686,28.43932508],[98.68846914,28.45263251],[98.6784171,28.46444001],[98.67478609,28.47784801],[98.6479892,28.48945048],[98.63606914,28.48984973],[98.61875092,28.50289489],[98.62015006,28.51463762],[98.63477064,28.53711841],[98.62367426,28.58097035],[98.61888225,28.59065141],[98.61649363,28.61802652],[98.61883648,28.62755312],[98.60981926,28.6384745],[98.59651974,28.67240202],[98.59443933,28.68366759],[98.60462798,28.68670925],[98.61510284,28.68378148],[98.63378161,28.68971111],[98.63510451,28.69866575],[98.654825,28.70884844],[98.68136288,28.73242404],[98.68237117,28.75541726],[98.6754469,28.75971583],[98.67760961,28.77871552],[98.66563641,28.78860767],[98.65213968,28.8149355],[98.65328733,28.82333168],[98.66272309,28.84348813],[98.65175343,28.86346992],[98.64327469,28.89586086],[98.64757638,28.91864707],[98.65699414,28.93042784],[98.64703503,28.93373301],[98.6291992,28.96169817],[98.63016734,28.97613142],[98.65724138,28.98043886],[98.70390382,28.9666244],[98.71750889,28.98118238],[98.74620496,28.9952724],[98.75618031,29.00612066],[98.76696667,29.00921695],[98.7827838,29.00241708],[98.81535783,28.95041666],[98.81008763,28.93216888],[98.82105909,28.89174473],[98.82203702,28.86939727],[98.82878617,28.84912092],[98.82636026,28.82512623],[98.83894979,28.80558265],[98.85828666,28.80320204],[98.87157014,28.81247025],[98.89677621,28.80358025],[98.91104049,28.80354023],[98.92162618,28.81082276],[98.92353446,28.82342728],[98.94031746,28.82773183],[98.96998699,28.83168495],[98.9722476,28.83714382],[98.9642079,28.85452797],[98.97413357,28.8639972],[98.9653743,28.87727941],[98.950556,28.87496805],[98.91685897,28.89058185],[98.91288368,28.91092683],[98.91941079,28.92295431],[98.92061346,28.95120132],[98.9238616,28.97781192],[98.9339412,28.98749959],[98.94428003,28.98782964],[98.95691173,28.99970855],[98.96228188,29.01100068],[98.99411529,29.03048814],[99.00783817,29.03484071],[99.01466947,29.04302587],[99.01406861,29.05567501],[99.00554135,29.08130498],[98.98997162,29.10907064],[98.96685436,29.13311012],[98.96146209,29.14943014],[98.96166696,29.17786318],[98.97355035,29.1838445],[98.97448822,29.20766076],[99.0107571,29.2003582],[99.02427203,29.19993709],[99.03598705,29.21083951],[99.07489811,29.21366536],[99.09007074,29.22528598],[99.1130874,29.22426528],[99.11398186,29.24543984],[99.0936635,29.26906586],[99.09500603,29.27958822],[99.08544888,29.2927965],[99.06569662,29.30351027],[99.07486827,29.31787584],[99.06759161,29.33495675],[99.06262457,29.37866636],[99.06558636,29.38594288],[99.06047446,29.41524816],[99.06718138,29.42659108],[99.05862351,29.43970662],[99.0624838,29.44997355],[99.05577999,29.45869021],[99.06150453,29.47892375],[99.0521795,29.48857753],[99.05120695,29.50809969],[99.04539983,29.52750686],[99.05083319,29.54820622],[99.05014129,29.56831315],[99.04189073,29.57573898],[99.03088067,29.59565483],[99.01438472,29.60991434],[99.01286645,29.62466738],[99.00548246,29.64002273],[98.99779546,29.64664162],[98.99935377,29.65738366],[98.99191609,29.65998689],[98.99231902,29.67769251],[98.99712914,29.69191738],[98.99974739,29.73793192],[99.00563809,29.74626724],[99.01097891,29.78028143],[99.01820767,29.79377832],[99.01253049,29.81479157],[99.02281496,29.83831553],[99.02302531,29.8511541],[99.03357612,29.85889965],[99.04120853,29.88626226],[99.05188449,29.89578883],[99.05601068,29.92315175],[99.06403765,29.92507926],[99.06603933,29.9349465],[99.05577435,29.93730726],[99.05033663,29.94745136],[99.05399992,29.96080605],[99.04125944,30.00445188],[99.04049523,30.04218808],[99.03580657,30.05401807],[99.04410686,30.08182961],[99.03135436,30.09502899],[99.02586572,30.10714355],[99.00964344,30.12305413],[99.01389076,30.13851253],[99.00553801,30.15049866],[98.98934799,30.15396136],[98.99011383,30.16974858],[98.98091935,30.18698637],[98.99284536,30.2096747],[98.99026008,30.21990753],[98.97277681,30.23608832],[98.96887445,30.2594147],[98.98577604,30.28250089],[98.97897422,30.29473111],[98.9810715,30.32307287],[98.96677415,30.33813004],[98.97228244,30.35722843],[98.96649604,30.36757086],[98.96652005,30.37876144],[98.97286479,30.38284338],[98.97313541,30.4018417],[98.96569931,30.41045936],[98.96231671,30.42647305],[98.96457753,30.45393321],[98.94662776,30.48012729],[98.9427023,30.49226371],[98.9450443,30.50294165],[98.93672615,30.51326994],[98.93084424,30.52952077],[98.93742222,30.55169958],[98.92900018,30.5584833],[98.92623736,30.57402061],[98.93547742,30.5817828],[98.94200972,30.59423205],[98.9382967,30.60225114],[98.92138984,30.61201356],[98.92473312,30.62707264],[98.92320096,30.64233176],[98.9151628,30.65272826],[98.90556967,30.68582446],[98.90695775,30.70096457],[98.93505905,30.70927926],[98.94229985,30.72290222],[98.9596722,30.7265478],[98.96331355,30.73580986],[98.95923727,30.74706229],[98.95742673,30.76732506],[98.95300141,30.77186496],[98.90277928,30.7865394],[98.88965179,30.80098973],[98.88274156,30.80262999],[98.87938368,30.82168763],[98.87202431,30.8304463],[98.85691823,30.83243537],[98.84992057,30.85152033],[98.83278951,30.86090896],[98.811224,30.87611483],[98.79596276,30.882193],[98.77970896,30.89611367],[98.77410016,30.91162518],[98.77978518,30.92740703],[98.79577709,30.94869203],[98.7990612,30.96955279],[98.80581327,30.98231061],[98.80591534,30.99792361],[98.79677156,31.01371956],[98.7829457,31.02130781],[98.77372679,31.03399548],[98.75798032,31.03578062],[98.73594243,31.05193275],[98.73527018,31.06635013],[98.71184993,31.08527469],[98.70990689,31.1204131],[98.68898896,31.135174],[98.66987203,31.1585935],[98.64308318,31.17251618],[98.63658331,31.18200397],[98.61858359,31.1815132],[98.60443016,31.18675336],[98.60088601,31.19386899],[98.61494011,31.19854701],[98.62084432,31.20657889],[98.62277785,31.22433108],[98.60602549,31.23212431],[98.60307603,31.2588988],[98.61462483,31.29293975],[98.61817461,31.30949733],[98.63118238,31.33354041],[98.64642487,31.34157384],[98.66409335,31.34019769],[98.69309294,31.33440951],[98.70307174,31.32443726],[98.71346184,31.3075804],[98.73311477,31.29218528],[98.74114915,31.27038003],[98.77199076,31.25183025],[98.80517927,31.28127669],[98.80915455,31.30657375],[98.81911283,31.32021265],[98.83235327,31.32672516],[98.84319592,31.34002115],[98.86071327,31.34617771],[98.86265223,31.35353487],[98.88343647,31.37178663],[98.88627307,31.37847228],[98.85770598,31.40885199],[98.84289525,31.41700656],[98.84621666,31.42518602],[98.83719994,31.43894581],[98.81194753,31.44824739],[98.79747904,31.45977802],[98.78754195,31.47592745],[98.7442285,31.4935281],[98.71112233,31.51765772],[98.69517617,31.53404312],[98.69558775,31.54293939],[98.66150199,31.56929245],[98.65593922,31.57040021],[98.63912334,31.58980822],[98.61865155,31.59404004],[98.59327289,31.62371909],[98.58475059,31.63756026],[98.56559719,31.64768028],[98.55456636,31.65771338],[98.55756525,31.67913527],[98.54849176,31.68352932],[98.55670352,31.69251444],[98.54713993,31.69845965],[98.54783096,31.71656017],[98.52244423,31.71814186],[98.51293829,31.74198479],[98.49340669,31.77388054],[98.47665261,31.78463193],[98.4597335,31.78390953],[98.45596056,31.79003013],[98.46231391,31.80079477],[98.44773607,31.80680224],[98.43796545,31.81966236],[98.44026552,31.83113768],[98.41391079,31.83512288],[98.41411302,31.84471708],[98.42443808,31.85598129],[98.41161627,31.87278402],[98.41036527,31.88684703],[98.39844581,31.89841139],[98.40344673,31.91346869],[98.43291638,31.92585532],[98.43448959,31.93869373],[98.42078565,31.94536088],[98.4237432,31.95446634],[98.43341277,31.96169621],[98.42733879,31.98315834],[98.43186321,31.98831804],[98.42716656,31.99851332],[98.43526803,32.00280668],[98.42926013,32.01452905],[98.4018901,32.0291195],[98.40544205,32.04553899],[98.35473232,32.09023022],[98.3452706,32.08938788],[98.34326227,32.09907934],[98.32790169,32.11107445],[98.312711,32.112881],[98.31027653,32.1274779],[98.30121007,32.12572057],[98.29512365,32.15247423],[98.27125567,32.18648137],[98.25987787,32.21079701],[98.2407941,32.22895752],[98.21898841,32.23636357],[98.22289768,32.2504432],[98.22122082,32.26099522],[98.22944513,32.26960556],[98.21861827,32.2870747],[98.20819923,32.32169638],[98.2164477,32.34161844],[98.20381516,32.34915553],[98.19578243,32.36258799],[98.18519256,32.36140806],[98.18138743,32.36865274],[98.162678,32.37762402],[98.15036734,32.37626747],[98.12506837,32.39383396],[98.10622983,32.3938364],[98.09837616,32.40434035],[98.08631487,32.40066941],[98.07320551,32.41323775],[98.05929282,32.42012121],[98.05127198,32.43046359],[98.03580197,32.43111153],[98.02438432,32.44553587],[98.02312696,32.454896],[98.00962107,32.45312425],[97.96770458,32.47418348],[97.96049022,32.46986611],[97.94347098,32.47677043],[97.94127745,32.481581],[97.92399737,32.48905174],[97.88118594,32.48797004],[97.86023852,32.49413627],[97.83502006,32.50716445],[97.82739674,32.5019996],[97.80656928,32.50211849],[97.79762999,32.52268789],[97.77411595,32.51928409],[97.75812333,32.53318628],[97.7304463,32.52984106],[97.72500463,32.52673984],[97.70110394,32.52545838],[97.68372116,32.53273783],[97.67089823,32.52019673],[97.63601991,32.52718034],[97.62372296,32.52241334],[97.60321336,32.52629029],[97.59104384,32.53338009],[97.58577703,32.5261028],[97.57351895,32.52712953],[97.54114173,32.53973669],[97.53087158,32.528101],[97.50111888,32.53333343],[97.48495263,32.54363833],[97.47166156,32.54732893],[97.46253114,32.55729591],[97.46128253,32.57307297],[97.44719557,32.5891648],[97.41190659,32.57769533],[97.40800529,32.56581986],[97.3958358,32.56055504],[97.38619613,32.55131976],[97.37364689,32.54892863],[97.36503712,32.55274004],[97.35608195,32.56611641],[97.34047849,32.55891545],[97.33053426,32.54031278],[97.3349094,32.51645698],[97.34649372,32.51705163],[97.36885141,32.51257856],[97.38179284,32.49992252],[97.37489678,32.48531455],[97.34713731,32.46579418],[97.33993727,32.44581354],[97.3468037,32.43469271],[97.36564198,32.43880654],[97.3726117,32.43209361],[97.383441,32.43108443],[97.39137173,32.42310588],[97.38884243,32.41482996],[97.40003444,32.40413309],[97.40192558,32.39257554],[97.40906416,32.38110525],[97.41592066,32.35845565],[97.41339355,32.34399832],[97.40744657,32.33583538],[97.4128668,32.3294378],[97.41733562,32.30849378],[97.41501,32.2977124],[97.39617992,32.29403048],[97.38877251,32.2852686],[97.3686776,32.27534244],[97.35087133,32.28574757],[97.34018015,32.28501011],[97.34425717,32.29881103],[97.31930881,32.30581729],[97.29321298,32.29311415],[97.28643899,32.26122002],[97.281112,32.2473025],[97.27680525,32.21486336],[97.26375998,32.18640453],[97.27013023,32.16109012],[97.27553308,32.15733837],[97.2710246,32.14251157],[97.29232445,32.13342358],[97.30468027,32.12516868],[97.29235981,32.10005115],[97.3073453,32.0807655],[97.27315379,32.07361967],[97.25680731,32.07480502],[97.23180224,32.09771765],[97.22925274,32.10878464],[97.2179268,32.10924832],[97.21266487,32.10010967],[97.20068582,32.0930202],[97.21086054,32.08305926],[97.22648431,32.07377386],[97.2346863,32.06467566],[97.23472139,32.04861392],[97.21260928,32.0448039],[97.20247821,32.05375365],[97.18606125,32.05744619],[97.17825473,32.04381308],[97.16946951,32.03780996],[97.16601494,32.02677994],[97.1527851,32.03954887],[97.12996247,32.04631794],[97.11078222,32.04470182],[97.09836483,32.0400166],[97.07403143,32.05140762],[97.06821885,32.04764468],[97.02770197,32.05185137],[97.01787181,32.05691881],[97.01040127,32.06911272],[96.98881135,32.06671713],[96.97506063,32.06922174],[96.94709978,32.06131803],[96.93472589,32.05050191],[96.9353037,32.04232977],[96.94385291,32.02822097],[96.96141516,32.02179739],[96.96669865,32.01165624],[96.95583711,31.99662393],[96.94340436,31.99132583],[96.91116297,32.00483365],[96.8944879,32.01763295],[96.88920584,32.00458955],[96.86316015,31.99143516],[96.86982531,31.97405554],[96.86618047,31.96764822],[96.84781704,31.97972948],[96.8468183,31.99149084],[96.839146,32.00260315],[96.82738294,32.0029586],[96.82226478,32.0116646],[96.80400188,32.0150938],[96.78970162,32.02178189],[96.7834931,32.01600541],[96.76608202,32.01350663],[96.76172033,32.01794933],[96.74429283,32.01632939],[96.73217801,32.02971586],[96.72367228,32.0263256],[96.72328249,32.0156059],[96.74262615,32.00414975],[96.73889365,31.98127483],[96.74689548,31.97095319],[96.75658034,31.94620916],[96.77071532,31.94306527],[96.78463545,31.91465399],[96.79893212,31.90920157],[96.81084286,31.89987147],[96.80043827,31.88509256],[96.79540702,31.8716701],[96.76167577,31.8689267],[96.75923708,31.85671293],[96.76447137,31.82299783],[96.76827489,31.81733974],[96.79720314,31.79862073],[96.7992668,31.77334928],[96.80986277,31.7661865],[96.81957907,31.74543943],[96.83075834,31.74357616],[96.84058718,31.72984004],[96.83996256,31.72226768],[96.81962756,31.7030769],[96.79703848,31.70473357],[96.78794573,31.7003557],[96.78268319,31.68622622],[96.77334042,31.67574343],[96.74628257,31.67582712],[96.73010562,31.68249184],[96.71988441,31.69055353],[96.71163741,31.70376507],[96.69261126,31.72369879],[96.67554338,31.73051111],[96.66766529,31.72831957],[96.67075817,31.71374043],[96.65933946,31.70780578],[96.64625758,31.71112483],[96.62544379,31.72542052],[96.61505781,31.73941596],[96.57378603,31.71573987],[96.56748717,31.7144479],[96.54379063,31.73084508],[96.52884401,31.73772527],[96.52452312,31.74543789],[96.50583535,31.75475019],[96.48653131,31.76755855],[96.47397739,31.77091953],[96.46110581,31.78187321],[96.4374406,31.79692306],[96.43255029,31.80399473],[96.43200589,31.81957078],[96.42627841,31.83142697],[96.41222009,31.83567632],[96.40740965,31.84794066],[96.40407275,31.86858319],[96.39846652,31.88180125],[96.40160219,31.8922625],[96.38584647,31.92559502],[96.36674997,31.92710569],[96.3540284,31.91844479],[96.27923518,31.92220025],[96.26889089,31.92357235],[96.25200021,31.93233829],[96.23984111,31.92813478],[96.23644704,31.91829495],[96.21840212,31.90778922],[96.20181737,31.90950468],[96.18736385,31.90581486],[96.19769632,31.88675212],[96.21375105,31.87575922],[96.2062375,31.85180488],[96.20012717,31.84087742],[96.18270991,31.83792124],[96.17528209,31.82217945],[96.1818925,31.79700544],[96.1760281,31.77771643],[96.20960182,31.76541108],[96.23142679,31.75076834],[96.22317721,31.74439167],[96.22382074,31.7317887],[96.25173263,31.6993206],[96.24608211,31.680466],[96.25052302,31.66693712],[96.24615353,31.66069462],[96.22985366,31.65947476],[96.22232951,31.65175022],[96.22572792,31.62755523],[96.21432084,31.618401],[96.21630039,31.61133514],[96.20584391,31.60066822],[96.18933685,31.60808922],[96.1621365,31.60206092],[96.15390452,31.60574114],[96.14986618,31.61848267],[96.15219019,31.65536935],[96.14665481,31.67717042],[96.14681418,31.68960032],[96.13435614,31.69941983],[96.12073066,31.69883666],[96.10736074,31.70311692],[96.09771945,31.71466519],[96.07014262,31.72309223],[96.05351775,31.73309768],[96.04391593,31.73403636],[96,31.77503445],[95.99312195,31.77528677],[95.98870015,31.7904894],[95.99200502,31.81208897],[95.97142417,31.82030365],[95.91879285,31.82302291],[95.89835334,31.81904676],[95.87803321,31.78640786],[95.86761011,31.77486984],[95.85153539,31.74095987],[95.85280538,31.71535488],[95.84992451,31.70740317],[95.83380127,31.68874005],[95.82383239,31.68321569],[95.80377977,31.69951493],[95.7935028,31.72224989],[95.78955481,31.73812277],[95.77093895,31.75472202],[95.74059618,31.76392354],[95.72370396,31.76530454],[95.61692853,31.78622068],[95.6068948,31.77107637],[95.58068905,31.77039007],[95.57840214,31.74985163],[95.56563017,31.7420426],[95.53637825,31.74256598],[95.51359482,31.75042481],[95.50849305,31.76376808],[95.48818308,31.78173762],[95.48663278,31.79038449],[95.45292202,31.80459394],[95.46240915,31.81427146],[95.44834265,31.82941236],[95.44006579,31.83251481],[95.41840958,31.87342463],[95.41876103,31.88762947],[95.40525484,31.90042011],[95.40869072,31.91759297],[95.39283812,31.92165575],[95.38235865,31.92804027],[95.36852326,31.9296289],[95.35994505,31.93947169],[95.36977822,31.95018315],[95.36843463,31.96789402],[95.37313917,31.97928303],[95.39490199,32.00388308],[95.41328033,32.00279311],[95.42130134,32.01041006],[95.4300525,32.00157754],[95.44862349,32.00524198],[95.45324065,32.00979618],[95.42209674,32.03256673],[95.4182252,32.04683859],[95.4348078,32.06166797],[95.45269707,32.06727962],[95.44809097,32.08111044],[95.45030742,32.10339644],[95.44017905,32.12208328],[95.43295606,32.12252335],[95.43966078,32.13907708],[95.43497592,32.15097846],[95.4394094,32.15978142],[95.42159808,32.16145235],[95.41648119,32.17488787],[95.4047719,32.18496793],[95.36798309,32.18252194],[95.35809217,32.16747514],[95.36527142,32.15312066],[95.35546534,32.14806144],[95.3403074,32.15737141],[95.33100924,32.15167206],[95.31168021,32.15122422],[95.30658982,32.16614821],[95.28519477,32.17454147],[95.26886846,32.19719474],[95.27941184,32.20352654],[95.27655112,32.21013615],[95.26179958,32.21410461],[95.25501987,32.23669038],[95.25508432,32.25734764],[95.24661268,32.27975568],[95.23833054,32.28936951],[95.24526279,32.29668263],[95.23984201,32.3061489],[95.24021811,32.3226085],[95.22786884,32.32066162],[95.21457317,32.32478371],[95.20647116,32.31115658],[95.20473044,32.29859087],[95.19022732,32.29550199],[95.17948518,32.28622286],[95.13771976,32.27648896],[95.12835647,32.26783151],[95.11808063,32.2675884],[95.1053491,32.26139752],[95.07804771,32.28217984],[95.07863938,32.29831629],[95.09437105,32.31601998],[95.09602986,32.32475174],[95.11748992,32.32543053],[95.15193042,32.33477831],[95.19215634,32.33417372],[95.22410003,32.34528765],[95.25115166,32.34779208],[95.25813539,32.35143462],[95.24792915,32.36228907],[95.23019888,32.36730929],[95.22240215,32.39134979],[95.19100319,32.38854432],[95.18144375,32.39649289],[95.17146431,32.39523874],[95.16585918,32.38675975],[95.15178441,32.38846217],[95.14940503,32.39452171],[95.12946419,32.40048299],[95.12930715,32.38874422],[95.10654641,32.38597906],[95.09727573,32.39026661],[95.07844123,32.38577964],[95.07380937,32.37826927],[95.05611496,32.39225745],[95.05568528,32.39704464],[95.01840664,32.41069499],[94.98704364,32.42511653],[94.97945476,32.41178925],[94.96712317,32.40961339],[94.9498917,32.41397417],[94.93866156,32.41082134],[94.92295858,32.41164603],[94.91142259,32.41998286],[94.90777886,32.43710829],[94.9016437,32.44804],[94.90380037,32.45461607],[94.89086822,32.47425958],[94.87092282,32.47221682],[94.84962111,32.46665716],[94.84022747,32.48001923],[94.82431416,32.48362839],[94.80421008,32.4924254],[94.79315987,32.50196277],[94.79262689,32.51530427],[94.78615695,32.52479667],[94.76868819,32.52658555],[94.75523285,32.53502805],[94.75816473,32.55750126],[94.74700462,32.56097863],[94.74430942,32.57138415],[94.73332547,32.58319618],[94.73492607,32.59144361],[94.72233377,32.59824737],[94.72084363,32.60640034],[94.70151125,32.60016593],[94.68515648,32.60776089],[94.68981065,32.61712023],[94.67462754,32.62175282],[94.64034845,32.64516591],[94.63319838,32.65796071],[94.61007089,32.67658619],[94.59978326,32.66671955],[94.60143132,32.65312302],[94.5902248,32.64330954],[94.59352803,32.63102845],[94.56498991,32.63035867],[94.55164096,32.61130968],[94.53091337,32.59976971],[94.51368018,32.60044993],[94.50108334,32.60594958],[94.49435615,32.60016179],[94.48395775,32.601537],[94.47228686,32.61188436],[94.45678432,32.60050689],[94.4620775,32.59368497],[94.46093571,32.57314699],[94.44885731,32.57278613],[94.43342716,32.56370064],[94.4290368,32.57187698],[94.40661661,32.58549687],[94.403692,32.60082902],[94.39393858,32.596116],[94.37677589,32.56764084],[94.38316051,32.55359175],[94.37935823,32.54095377],[94.37078836,32.53530048],[94.36733422,32.52314044],[94.35426154,32.52308158],[94.35236474,32.53510382],[94.3347473,32.53118159],[94.31751353,32.53289389],[94.29261772,32.52051369],[94.28934206,32.50499403],[94.24178159,32.51855402],[94.23029419,32.51137317],[94.1953734,32.51639651],[94.19406805,32.51007734],[94.18205434,32.50218428],[94.17744908,32.48176718],[94.18394299,32.46889788],[94.17946169,32.45711735],[94.15297964,32.45625168],[94.14960712,32.44392479],[94.13837628,32.43404524],[94.1172501,32.44540984],[94.1004507,32.44931595],[94.09178748,32.46413756],[94.06709989,32.4704187],[94.04985324,32.47230193],[94.04391176,32.46304897],[94.02944298,32.45795411],[94.02835228,32.44804345],[94.01114627,32.44794206],[93.99163731,32.465983],[93.97476299,32.46255178],[93.96568677,32.48196557],[93.96023685,32.4864352],[93.93321737,32.48052578],[93.90671955,32.46576205],[93.89336774,32.47571983],[93.86667537,32.47526412],[93.85436036,32.47994379],[93.85823653,32.49036246],[93.84853375,32.49672861],[93.84991072,32.51302569],[93.82598693,32.52170896],[93.827803,32.53376667],[93.82299909,32.54900143],[93.804496,32.55723817],[93.78318344,32.5583822],[93.761887,32.57005289],[93.74743548,32.56588187],[93.73915541,32.57614973],[93.71718958,32.58027806],[93.69718241,32.57782241],[93.67531773,32.57021003],[93.66515394,32.57734721],[93.6457276,32.57101437],[93.64034904,32.55544305],[93.62289295,32.55384111],[93.62827621,32.54533902],[93.61633692,32.52635228],[93.58072033,32.50840854],[93.57361081,32.50923868],[93.56228466,32.50123041],[93.55497157,32.48854441],[93.54314376,32.49182561],[93.53194319,32.48620403],[93.5299338,32.47871661],[93.51452486,32.47803907],[93.50192624,32.50036255],[93.47527354,32.50452697],[93.47349071,32.53084679],[93.46162015,32.54493457],[93.4617074,32.55768365],[93.44393745,32.56411305],[93.43512314,32.55939775],[93.40947009,32.55829275],[93.40987021,32.54714188],[93.39144726,32.54280887],[93.38130718,32.5263711],[93.37287007,32.54227148],[93.3372,32.57276505],[93.30753693,32.57861226],[93.3133724,32.60296954],[93.29812953,32.61004343],[93.30294898,32.61774219],[93.28527473,32.62531667],[93.26827447,32.62506799],[93.25631745,32.6328232],[93.24894477,32.64816264],[93.25163018,32.65806089],[93.24097661,32.66522249],[93.22424956,32.65728185],[93.20604129,32.65892335],[93.19262272,32.66790436],[93.17668174,32.67235906],[93.16343287,32.66693126],[93.15729687,32.64724035],[93.12623804,32.64358977],[93.11610863,32.64936537],[93.10904746,32.64004791],[93.08862553,32.63891453],[93.08122451,32.63182176],[93.06568119,32.62812807],[93.05275313,32.64497288],[93.04668925,32.65767606],[93.0460388,32.67234721],[93.03840708,32.67915797],[93.04531813,32.69389795],[93.02299147,32.70290494],[93.02420484,32.71169113],[93.01822469,32.7389496],[92.99514123,32.74188821],[92.984049,32.72529479],[92.96221616,32.71550409],[92.94967657,32.71580662],[92.93293423,32.72177192],[92.92634386,32.71147677],[92.91336569,32.70666183],[92.90074919,32.71393865],[92.88871713,32.7102469],[92.87769716,32.7128076],[92.8726812,32.69889117],[92.85003929,32.7139346],[92.83481647,32.72029995],[92.82497508,32.72975946],[92.81157408,32.7318042],[92.79341964,32.72858711],[92.78979954,32.72200472],[92.77386989,32.72557927],[92.75358504,32.74582187],[92.74347817,32.74369634],[92.73606768,32.75145821],[92.72156297,32.7496323],[92.69447626,32.76566009],[92.67948592,32.76246736],[92.67544888,32.74506969],[92.66601306,32.73247671],[92.65017573,32.72340007],[92.63697938,32.72229311],[92.62681914,32.73424568],[92.61420811,32.72945187],[92.57688108,32.74413987],[92.57098174,32.73461769],[92.55301466,32.73244189],[92.5444013,32.73933382],[92.52327662,32.73607079],[92.50606215,32.74811495],[92.48477678,32.74546203],[92.46310437,32.75801809],[92.45737637,32.76598125],[92.43172214,32.76313231],[92.4107972,32.74839316],[92.38495238,32.75455544],[92.37730252,32.75944068],[92.35499261,32.7649354],[92.35399013,32.74440339],[92.33762709,32.74090787],[92.32941292,32.74986463],[92.31855784,32.7534992],[92.30100585,32.75338368],[92.2897729,32.74211114],[92.28966963,32.73578308],[92.27281963,32.72978717],[92.26713815,32.72353996],[92.25433807,32.72451017],[92.23418437,32.73789702],[92.2160849,32.73752548],[92.20874848,32.75069496],[92.19784421,32.75744525],[92.20346999,32.76410941],[92.21025579,32.78979562],[92.19307664,32.80503993],[92.21428807,32.82128522],[92.22732635,32.82478409],[92.22886258,32.8437543],[92.20315324,32.86055721],[92.19728962,32.86971661],[92.15246678,32.87368175],[92.14684465,32.88655592],[92.1351806,32.88621561],[92.11685109,32.87906758],[92.11083154,32.86813454],[92.10167105,32.86183517],[92.08673479,32.86024173],[92.06424903,32.86319927],[92.04617282,32.85907885],[92.03709489,32.86303526],[92.0236,32.84839761],[92.02720942,32.83248667],[92.01131316,32.83215628],[91.99819233,32.83788556],[91.99048263,32.82652735],[91.97443039,32.82239119],[91.9564201,32.8215803],[91.93970811,32.8380915],[91.93320168,32.85528181],[91.92563377,32.85833108],[91.92335678,32.86949051],[91.91452312,32.87614177],[91.90345975,32.87592932],[91.8932357,32.89028325],[91.90003879,32.89670537],[91.89352559,32.90869208],[91.87727572,32.90855516],[91.85941636,32.90476074],[91.85770239,32.91906929],[91.84807763,32.92400377],[91.84376386,32.94024845],[91.83726569,32.94955915],[91.82661311,32.94936036],[91.81161015,32.95597996],[91.7992443,32.95081694],[91.79510268,32.94305469],[91.78115854,32.94740036],[91.74946709,32.97062305],[91.73046709,32.97256941],[91.72301221,32.982219],[91.70644165,32.98823096],[91.68443019,32.99146496],[91.66614976,33.00144993],[91.66351018,33.01295717],[91.64388824,33.01689247],[91.63862031,33.0236138],[91.61011078,33.03373698],[91.58144533,33.04056693],[91.57579237,33.04931503],[91.56323091,33.0521089],[91.56118265,33.06117292],[91.5516058,33.06328957],[91.55804244,33.07784072],[91.53487741,33.10165521],[91.50439271,33.10344846],[91.4950463,33.11117804],[91.48098363,33.10616943],[91.47400304,33.09838441],[91.46062739,33.0940069],[91.45704887,33.07575208],[91.42943677,33.07108461],[91.42452093,33.08152302],[91.40124636,33.08478559],[91.39035702,33.08936765],[91.37960346,33.09959652],[91.35032178,33.10421325],[91.32507739,33.11033927],[91.31439124,33.10915879],[91.29611654,33.1181339],[91.28827746,33.12851679],[91.27304273,33.13065425],[91.25881216,33.14345225],[91.22503609,33.14368764],[91.21421892,33.12952521],[91.19441559,33.12785643],[91.19514446,33.11819179],[91.18620186,33.10837634],[91.17178886,33.11598677],[91.16046285,33.11173538],[91.1588838,33.10014835],[91.14706262,33.09248441],[91.14540363,33.07424518],[91.13275066,33.07579809],[91.11665565,33.08706268],[91.10029641,33.09404886],[91.06989718,33.11511141],[91.05283962,33.11116746],[91.03619554,33.10084111],[91.02865379,33.11331282],[91.0131872,33.12282094],[91.00104938,33.12007908],[90.98115113,33.12236489],[90.95463507,33.12072163],[90.94734155,33.1176006],[90.92751488,33.12357032],[90.90925819,33.11296975],[90.9093906,33.10395902],[90.90038855,33.08817749],[90.88861281,33.10173492],[90.88066707,33.12267289],[90.85383074,33.11923341],[90.84300083,33.11286324],[90.83441342,33.11774815],[90.81696018,33.11964151],[90.80264798,33.11643163],[90.77080918,33.13018785],[90.76002188,33.13938957],[90.7403797,33.14494034],[90.72601805,33.14002064],[90.70131938,33.1382401],[90.69382125,33.14613157],[90.65272607,33.16500922],[90.64949572,33.17067235],[90.62913195,33.17917666],[90.60340448,33.20394112],[90.58078078,33.21353681],[90.56232777,33.2258603],[90.56217061,33.23073969],[90.54473372,33.23958946],[90.51772791,33.24460668],[90.49804575,33.2557423],[90.48375554,33.26875035],[90.40496554,33.26379997],[90.38859485,33.27807675],[90.36860738,33.28588138],[90.36194489,33.28454887],[90.32024874,33.32542399],[90.29413796,33.36071034],[90.24201458,33.42837325],[90.22312266,33.43851206],[90.19293274,33.43823574],[90.18433046,33.4443265],[90.14666288,33.45277103],[90.12906668,33.45938819],[90.1062181,33.46312414],[90.08893481,33.47179206],[90.08925049,33.49077403],[90.07871762,33.53383018],[90.04589005,33.54118597],[90.04323598,33.54578228],[90.02670385,33.54822981],[90.00634829,33.55830404],[89.99561777,33.57936127],[89.9858192,33.58763701],[89.98772299,33.6013886],[89.98160718,33.6158462],[89.98750901,33.64146682],[89.99577114,33.64834114],[89.99943991,33.6597145],[89.99163363,33.66943889],[90.00612029,33.69156108],[89.9839352,33.70425541],[89.97923273,33.71833541],[89.98153602,33.72642941],[89.92768199,33.7439992],[89.904661,33.74127177],[89.90178172,33.76277598],[89.91296393,33.7686966],[89.92244029,33.78504916],[89.93819483,33.80532746],[89.92223395,33.81214299],[89.89977745,33.80952171],[89.89338341,33.82449441],[89.88295256,33.82517158],[89.869333,33.83310707],[89.85999871,33.8434883],[89.85658125,33.85836605],[89.835848,33.87061579],[89.81183831,33.86453043],[89.79261513,33.86646875],[89.78015195,33.87831065],[89.78167689,33.88443796],[89.7611647,33.89843927],[89.76077586,33.9137954],[89.7395237,33.91762505],[89.72459535,33.92965933],[89.71572477,33.94886192],[89.69397376,33.96190547],[89.67959385,33.98422645],[89.68105961,33.99529366],[89.67469704,34.00030633],[89.66374854,34.02115469],[89.65030113,34.0269685],[89.64632234,34.0417726],[89.63397093,34.04408782],[89.63317177,34.05260675],[89.65344319,34.05919336],[89.64884183,34.08325604],[89.65423099,34.0983445],[89.66189217,34.09837678],[89.68064414,34.10917244],[89.69242052,34.13119028],[89.70741802,34.13351958],[89.72271353,34.12969935],[89.75471769,34.12633835],[89.75131061,34.14163998],[89.7578144,34.15446524],[89.77907184,34.1519039],[89.79047077,34.15380682],[89.81398164,34.17092148],[89.81576546,34.17950971],[89.8029616,34.18827051],[89.82165766,34.20616332],[89.81933641,34.22507505],[89.82848113,34.2395997],[89.83604477,34.26339062],[89.8249476,34.28172912],[89.82595247,34.29952258],[89.84569715,34.3086996],[89.86537463,34.32635119],[89.87063854,34.34052462],[89.85978675,34.34660962],[89.8584787,34.3610919],[89.83831283,34.35874217],[89.81932793,34.36937067],[89.82274904,34.38655314],[89.81085717,34.38837441],[89.79769722,34.39754023],[89.80799502,34.41559783],[89.82044325,34.42869851],[89.81770332,34.45093614],[89.82150849,34.45557162],[89.80700105,34.4761021],[89.81579125,34.48342324],[89.80994853,34.50638827],[89.81752149,34.52282056],[89.80994842,34.5276627],[89.81584613,34.53643353],[89.80832705,34.5442704],[89.81319336,34.55040934],[89.77555752,34.57704919],[89.77930284,34.58453825],[89.7751776,34.59652309],[89.79261286,34.60627953],[89.79089992,34.61567633],[89.79631871,34.62867256],[89.77276829,34.63889478],[89.74054273,34.6453644],[89.73643387,34.65793261],[89.72424309,34.66586726],[89.73433962,34.68229263],[89.73009629,34.69716339],[89.72151681,34.70263211],[89.73074465,34.73404319],[89.74680125,34.74033415],[89.76239269,34.74133948],[89.76866062,34.75056589],[89.79431788,34.74453284],[89.80579161,34.75246462],[89.80553177,34.77048075],[89.82218656,34.77990734],[89.8273703,34.78912865],[89.82366113,34.79801998],[89.83956106,34.80677699],[89.86327772,34.81093209],[89.86678347,34.81752797],[89.84901539,34.82334454],[89.84440935,34.85824052],[89.83663053,34.8665153],[89.80909148,34.87479955],[89.82120081,34.8839917],[89.813939,34.89308596],[89.81534271,34.90076906],[89.80329643,34.91652178],[89.78295654,34.92372844],[89.76342038,34.91745718],[89.74454116,34.90427165],[89.72993436,34.90827174],[89.71199127,34.92102242],[89.70289904,34.91982615],[89.69653419,34.9070992],[89.6699639,34.89664493],[89.66543396,34.88969283],[89.62034106,34.88312851],[89.6203747,34.89450341],[89.58952674,34.89658765],[89.58065096,34.89990874],[89.58243985,34.91144314],[89.56716511,34.91808428],[89.55884124,34.9399121],[89.56836488,34.95655409],[89.56534125,34.96681893],[89.57493739,34.98910593],[89.57471745,35.00107893],[89.5652188,35.01414908],[89.5774498,35.01911757],[89.58327824,35.02843044],[89.59157379,35.08876556],[89.58395432,35.0976804],[89.5898788,35.10911073],[89.5786988,35.11947109],[89.56452548,35.12334269],[89.55392585,35.12032486],[89.53621121,35.12346686],[89.53284948,35.1308599],[89.51042064,35.13991483],[89.51054331,35.1474631],[89.50132975,35.16670454],[89.48310084,35.18604135],[89.46825119,35.21439484],[89.44715581,35.22674974],[89.45425012,35.2374762],[89.47034296,35.2458876],[89.4868656,35.25846098],[89.50274344,35.26305774],[89.52651384,35.27581583],[89.52283915,35.28789695],[89.50814864,35.28492563],[89.49815873,35.28716266],[89.4931132,35.29593414],[89.5031218,35.32253175],[89.51381189,35.33292252],[89.50806413,35.35056478],[89.49888278,35.35254669],[89.49556024,35.36268032],[89.50670571,35.37343925],[89.53391877,35.36973105],[89.56503311,35.3828346],[89.58341573,35.383958],[89.59846468,35.39350904],[89.60332667,35.40204638],[89.61996839,35.4149931],[89.65532772,35.42687637],[89.68288206,35.41709],[89.69611306,35.43584413],[89.70949036,35.43978717],[89.70976944,35.44789358],[89.72352232,35.45496266],[89.72920518,35.465335],[89.73883048,35.47053914],[89.74197085,35.48091316],[89.76278001,35.4828518],[89.73891658,35.5078656],[89.71970371,35.50397818],[89.70319522,35.50981628],[89.70368344,35.53589449],[89.69607515,35.53910296],[89.70130153,35.55063229],[89.70930629,35.58332931],[89.72013119,35.58397605],[89.74155533,35.57963392],[89.75831421,35.58547528],[89.76184521,35.60262844],[89.74197764,35.6200413],[89.73606464,35.63609655],[89.72303753,35.6487229],[89.7311666,35.65796215],[89.7438421,35.65938809],[89.74498623,35.68443161],[89.74782371,35.69267871],[89.74212973,35.70079952],[89.74951512,35.70698261],[89.73930266,35.71635476],[89.7494645,35.72826622],[89.75037036,35.74036533],[89.74536027,35.75782681],[89.76134589,35.76474992],[89.77785099,35.7632827],[89.78000895,35.77542704],[89.76540953,35.80101554],[89.77722301,35.80642438],[89.78218943,35.82265687],[89.78132166,35.83212391],[89.79542052,35.84150861],[89.79964725,35.84934501],[89.79015851,35.85802568],[89.77607121,35.86238006],[89.74457419,35.85488051],[89.72963417,35.85941574],[89.72181709,35.85318452],[89.70718598,35.84957539],[89.68615981,35.84899485],[89.67195546,35.85330034],[89.65188854,35.84897198],[89.62293648,35.85986957],[89.60279522,35.86202029],[89.59683208,35.85562201],[89.57590826,35.86217709],[89.55754339,35.86208744],[89.54707529,35.85751819],[89.5359082,35.87536388],[89.53916859,35.8823812],[89.48938947,35.90284444],[89.46746307,35.90117612],[89.42086033,35.91988473],[89.41974571,35.93539792],[89.43153734,35.94758884],[89.43077112,35.95970172],[89.42448945,35.96634037],[89.42619772,35.9903935],[89.43151275,35.99437116],[89.41979082,36.00610692],[89.4010164,36.0193392],[89.41490929,36.04503331],[89.43065044,36.04329013],[89.43224199,36.03695569],[89.44836046,36.02851968],[89.46349439,36.03013443],[89.47298086,36.02258515],[89.50401938,36.02958531],[89.51030263,36.02609469],[89.52455539,36.02998874],[89.54795588,36.0293721],[89.56430818,36.03735955],[89.59536735,36.0378224],[89.61362953,36.04257248],[89.61743656,36.04887816],[89.63008808,36.04841198],[89.64164134,36.05778797],[89.64573433,36.06829866],[89.66007312,36.07417741],[89.6925641,36.0918555],[89.7093238,36.09319327]]]}}]}
