{"type":"FeatureCollection","features":[{"type":"Feature","id":"osm-node-940975616","properties":{"id":"osm-node-940975616","name":"Dwarka Sector 21","lineIds":["osm-8037716","osm-8037671"],"osmNodeIds":[940975616,5737167168,347688731,5737167202]},"geometry":{"type":"Point","coordinates":[77.0586489,28.5518376]}},{"type":"Feature","id":"osm-node-6547772096","properties":{"id":"osm-node-6547772096","name":"New Delhi Airport Express Terminal","lineIds":["osm-8037716"],"osmNodeIds":[6547772096,5737167170]},"geometry":{"type":"Point","coordinates":[77.2230952,28.64249]}},{"type":"Feature","id":"osm-node-9240935054","properties":{"id":"osm-node-9240935054","name":"Yashobhoomi Dwarka Sector 25","lineIds":["osm-8037716"],"osmNodeIds":[9240935054,9240935053]},"geometry":{"type":"Point","coordinates":[77.0453294,28.5508515]}},{"type":"Feature","id":"osm-node-9914269805","properties":{"id":"osm-node-9914269805","name":"IGI Airport","lineIds":["osm-8037716"],"osmNodeIds":[9914269805,5737167158]},"geometry":{"type":"Point","coordinates":[77.0867238,28.5564899]}},{"type":"Feature","id":"osm-node-9938725205","properties":{"id":"osm-node-9938725205","name":"Delhi Aerocity","lineIds":["osm-8037716"],"osmNodeIds":[9938725205,5737167174]},"geometry":{"type":"Point","coordinates":[77.1208093,28.5487998]}},{"type":"Feature","id":"osm-node-9938725206","properties":{"id":"osm-node-9938725206","name":"Dhaula Kuan","lineIds":["osm-8037716"],"osmNodeIds":[9938725206,5737167172]},"geometry":{"type":"Point","coordinates":[77.1616835,28.591914]}},{"type":"Feature","id":"osm-node-9938725207","properties":{"id":"osm-node-9938725207","name":"Shivaji Stadium","lineIds":["osm-8037716"],"osmNodeIds":[9938725207,5737166761]},"geometry":{"type":"Point","coordinates":[77.211311,28.6289139]}},{"type":"Feature","id":"osm-node-554257854","properties":{"id":"osm-node-554257854","name":"Anand Vihar (Blue Line)","lineIds":["osm-8037671"],"osmNodeIds":[554257854,5777614015]},"geometry":{"type":"Point","coordinates":[77.316053,28.6468919]}},{"type":"Feature","id":"osm-node-554257855","properties":{"id":"osm-node-554257855","name":"Kaushambi","lineIds":["osm-8037671"],"osmNodeIds":[554257855,5777614010]},"geometry":{"type":"Point","coordinates":[77.3243389,28.6454076]}},{"type":"Feature","id":"osm-node-663790306","properties":{"id":"osm-node-663790306","name":"Karkarduma (Blue Line)","lineIds":["osm-8037671"],"osmNodeIds":[663790306,5777614023]},"geometry":{"type":"Point","coordinates":[77.305527,28.6484435]}},{"type":"Feature","id":"osm-node-663793549","properties":{"id":"osm-node-663793549","name":"Preet Vihar","lineIds":["osm-8037671"],"osmNodeIds":[663793549,5777613981]},"geometry":{"type":"Point","coordinates":[77.2952594,28.6414409]}},{"type":"Feature","id":"osm-node-663793972","properties":{"id":"osm-node-663793972","name":"Nirman Vihar","lineIds":["osm-8037671"],"osmNodeIds":[663793972,5777613985]},"geometry":{"type":"Point","coordinates":[77.2867522,28.6365579]}},{"type":"Feature","id":"osm-node-663794722","properties":{"id":"osm-node-663794722","name":"Laxmi Nagar","lineIds":["osm-8037671"],"osmNodeIds":[663794722,5777613988]},"geometry":{"type":"Point","coordinates":[77.2775015,28.6306223]}},{"type":"Feature","id":"osm-node-1924974147","properties":{"id":"osm-node-1924974147","name":"Vaishali","lineIds":["osm-8037671"],"osmNodeIds":[1924974147,5777614000]},"geometry":{"type":"Point","coordinates":[77.3395056,28.6497651]}},{"type":"Feature","id":"osm-node-5737168028","properties":{"id":"osm-node-5737168028","name":"Yamuna Bank","lineIds":["osm-8037671"],"osmNodeIds":[5737168028,6537317882,554257844]},"geometry":{"type":"Point","coordinates":[77.2679515,28.6233069]}},{"type":"Feature","id":"osm-node-249235041","properties":{"id":"osm-node-249235041","name":"Dwarka Sector 12","lineIds":["osm-8037671"],"osmNodeIds":[249235041,5737168034]},"geometry":{"type":"Point","coordinates":[77.0407464,28.5922515]}},{"type":"Feature","id":"osm-node-249235042","properties":{"id":"osm-node-249235042","name":"Dwarka Sector 13","lineIds":["osm-8037671"],"osmNodeIds":[249235042,5737167995]},"geometry":{"type":"Point","coordinates":[77.0335556,28.597025]}},{"type":"Feature","id":"osm-node-249235048","properties":{"id":"osm-node-249235048","name":"Dwarka - Kakrola (Blue Line)","lineIds":["osm-8037671"],"osmNodeIds":[249235048,5737167978]},"geometry":{"type":"Point","coordinates":[77.0227861,28.6149318]}},{"type":"Feature","id":"osm-node-249823531","properties":{"id":"osm-node-249823531","name":"Dwarka Sector 14","lineIds":["osm-8037671"],"osmNodeIds":[249823531,5737167992]},"geometry":{"type":"Point","coordinates":[77.0259935,28.602234]}},{"type":"Feature","id":"osm-node-249823552","properties":{"id":"osm-node-249823552","name":"Dwarka Mor","lineIds":["osm-8037671"],"osmNodeIds":[249823552,5737167960]},"geometry":{"type":"Point","coordinates":[77.0332835,28.6192912]}},{"type":"Feature","id":"osm-node-249823558","properties":{"id":"osm-node-249823558","name":"Nawada","lineIds":["osm-8037671"],"osmNodeIds":[249823558,5737167949]},"geometry":{"type":"Point","coordinates":[77.0450835,28.6202562]}},{"type":"Feature","id":"osm-node-249823566","properties":{"id":"osm-node-249823566","name":"Uttam Nagar West","lineIds":["osm-8037671"],"osmNodeIds":[249823566,5737167941]},"geometry":{"type":"Point","coordinates":[77.0557191,28.6217367]}},{"type":"Feature","id":"osm-node-249823630","properties":{"id":"osm-node-249823630","name":"Rajouri Garden (Blue Line)","lineIds":["osm-8037671"],"osmNodeIds":[249823630,5737167679]},"geometry":{"type":"Point","coordinates":[77.122743,28.6490372]}},{"type":"Feature","id":"osm-node-345234440","properties":{"id":"osm-node-345234440","name":"Rajendra Place","lineIds":["osm-8037671"],"osmNodeIds":[345234440,5737167628]},"geometry":{"type":"Point","coordinates":[77.1782794,28.6424765]}},{"type":"Feature","id":"osm-node-345234443","properties":{"id":"osm-node-345234443","name":"Jhandewalan","lineIds":["osm-8037671"],"osmNodeIds":[345234443,5737167621]},"geometry":{"type":"Point","coordinates":[77.1999053,28.6442998]}},{"type":"Feature","id":"osm-node-347677816","properties":{"id":"osm-node-347677816","name":"Tilak Nagar","lineIds":["osm-8037671"],"osmNodeIds":[347677816,5737167703]},"geometry":{"type":"Point","coordinates":[77.096482,28.6365265]}},{"type":"Feature","id":"osm-node-347685176","properties":{"id":"osm-node-347685176","name":"Uttam Nagar East","lineIds":["osm-8037671"],"osmNodeIds":[347685176,5737167932]},"geometry":{"type":"Point","coordinates":[77.0652972,28.6248301]}},{"type":"Feature","id":"osm-node-347685192","properties":{"id":"osm-node-347685192","name":"Janakpuri West","lineIds":["osm-8037671","osm-8051576"],"osmNodeIds":[347685192,5737167717,9937092485,5777631164]},"geometry":{"type":"Point","coordinates":[77.0780939,28.6295652]}},{"type":"Feature","id":"osm-node-347688420","properties":{"id":"osm-node-347688420","name":"Dwarka Sector 11","lineIds":["osm-8037671"],"osmNodeIds":[347688420,7661805973]},"geometry":{"type":"Point","coordinates":[77.0494551,28.586462]}},{"type":"Feature","id":"osm-node-347688434","properties":{"id":"osm-node-347688434","name":"Dwarka Sector 10","lineIds":["osm-8037671"],"osmNodeIds":[347688434,5737168024]},"geometry":{"type":"Point","coordinates":[77.0575146,28.5810731]}},{"type":"Feature","id":"osm-node-347688615","properties":{"id":"osm-node-347688615","name":"Dwarka Sector 9","lineIds":["osm-8037671"],"osmNodeIds":[347688615,5737168016]},"geometry":{"type":"Point","coordinates":[77.0653509,28.5742819]}},{"type":"Feature","id":"osm-node-347688730","properties":{"id":"osm-node-347688730","name":"Dwarka Sector 8","lineIds":["osm-8037671"],"osmNodeIds":[347688730,5737168005]},"geometry":{"type":"Point","coordinates":[77.0670615,28.5656075]}},{"type":"Feature","id":"osm-node-554257820","properties":{"id":"osm-node-554257820","name":"Ramakrishna Ashram Marg","lineIds":["osm-8037671"],"osmNodeIds":[554257820,5737167211]},"geometry":{"type":"Point","coordinates":[77.2085684,28.6392249]}},{"type":"Feature","id":"osm-node-554257824","properties":{"id":"osm-node-554257824","name":"Supreme Court","lineIds":["osm-8037671"],"osmNodeIds":[554257824,5737167195]},"geometry":{"type":"Point","coordinates":[77.2425121,28.6234593]}},{"type":"Feature","id":"osm-node-554257827","properties":{"id":"osm-node-554257827","name":"Mandi House","lineIds":["osm-8037671","osm-8037706"],"osmNodeIds":[554257827,5737167205,2622338438,5777629183]},"geometry":{"type":"Point","coordinates":[77.2341954,28.6255914]}},{"type":"Feature","id":"osm-node-554257831","properties":{"id":"osm-node-554257831","name":"Indraprastha","lineIds":["osm-8037671"],"osmNodeIds":[554257831,5737167185]},"geometry":{"type":"Point","coordinates":[77.2495452,28.6205832]}},{"type":"Feature","id":"osm-node-554257839","properties":{"id":"osm-node-554257839","name":"Barakhambha Road","lineIds":["osm-8037671"],"osmNodeIds":[554257839,5737167209]},"geometry":{"type":"Point","coordinates":[77.2249956,28.6297527]}},{"type":"Feature","id":"osm-node-610886106","properties":{"id":"osm-node-610886106","name":"Subhash Nagar","lineIds":["osm-8037671"],"osmNodeIds":[610886106,5737167695]},"geometry":{"type":"Point","coordinates":[77.1052347,28.6404628]}},{"type":"Feature","id":"osm-node-663798999","properties":{"id":"osm-node-663798999","name":"Tagore Garden","lineIds":["osm-8037671"],"osmNodeIds":[663798999,5737167688]},"geometry":{"type":"Point","coordinates":[77.1128703,28.6437288]}},{"type":"Feature","id":"osm-node-913550169","properties":{"id":"osm-node-913550169","name":"Janakpuri East","lineIds":["osm-8037671"],"osmNodeIds":[913550169,5737167711]},"geometry":{"type":"Point","coordinates":[77.0867273,28.6329889]}},{"type":"Feature","id":"osm-node-939091076","properties":{"id":"osm-node-939091076","name":"Rajiv Chowk","lineIds":["osm-8037671","osm-8037713"],"osmNodeIds":[939091076,6539894853,5453621429,6539894852]},"geometry":{"type":"Point","coordinates":[77.2196877,28.6327591]}},{"type":"Feature","id":"osm-node-5777613716","properties":{"id":"osm-node-5777613716","name":"Noida Sector 62","lineIds":["osm-8037671"],"osmNodeIds":[5777613716,4267878882]},"geometry":{"type":"Point","coordinates":[77.3736218,28.6169832]}},{"type":"Feature","id":"osm-node-5777613718","properties":{"id":"osm-node-5777613718","name":"Noida Sector 59","lineIds":["osm-8037671"],"osmNodeIds":[5777613718,4267878880]},"geometry":{"type":"Point","coordinates":[77.3727211,28.6065246]}},{"type":"Feature","id":"osm-node-5777613720","properties":{"id":"osm-node-5777613720","name":"Noida Sector 61","lineIds":["osm-8037671"],"osmNodeIds":[5777613720,4267878881]},"geometry":{"type":"Point","coordinates":[77.372309,28.5975791]}},{"type":"Feature","id":"osm-node-5777613736","properties":{"id":"osm-node-5777613736","name":"Noida Sector 52","lineIds":["osm-8037671"],"osmNodeIds":[5777613736,4267878879]},"geometry":{"type":"Point","coordinates":[77.3728019,28.5867347]}},{"type":"Feature","id":"osm-node-5777613740","properties":{"id":"osm-node-5777613740","name":"Noida Sector 34","lineIds":["osm-8037671"],"osmNodeIds":[5777613740,4267878878]},"geometry":{"type":"Point","coordinates":[77.3635215,28.5802275]}},{"type":"Feature","id":"osm-node-5777613746","properties":{"id":"osm-node-5777613746","name":"Noida City Centre","lineIds":["osm-8037671"],"osmNodeIds":[5777613746,915595470]},"geometry":{"type":"Point","coordinates":[77.3562496,28.5747852]}},{"type":"Feature","id":"osm-node-5777613749","properties":{"id":"osm-node-5777613749","name":"Noida Golf Course","lineIds":["osm-8037671"],"osmNodeIds":[5777613749,915595409]},"geometry":{"type":"Point","coordinates":[77.346399,28.5674266]}},{"type":"Feature","id":"osm-node-5777613864","properties":{"id":"osm-node-5777613864","name":"Botanical Garden","lineIds":["osm-8037671","osm-8051576"],"osmNodeIds":[5777613864,915595446,6547772122,5777631568]},"geometry":{"type":"Point","coordinates":[77.3343678,28.5639195]}},{"type":"Feature","id":"osm-node-5777613870","properties":{"id":"osm-node-5777613870","name":"Noida Sector 18","lineIds":["osm-8037671"],"osmNodeIds":[5777613870,915595437]},"geometry":{"type":"Point","coordinates":[77.3261467,28.5707894]}},{"type":"Feature","id":"osm-node-5777613877","properties":{"id":"osm-node-5777613877","name":"Noida Sector 16","lineIds":["osm-8037671"],"osmNodeIds":[5777613877,915595467]},"geometry":{"type":"Point","coordinates":[77.3178293,28.5781067]}},{"type":"Feature","id":"osm-node-5777613883","properties":{"id":"osm-node-5777613883","name":"Noida Sector 15","lineIds":["osm-8037671"],"osmNodeIds":[5777613883,906772185]},"geometry":{"type":"Point","coordinates":[77.3116814,28.5849263]}},{"type":"Feature","id":"osm-node-5777613898","properties":{"id":"osm-node-5777613898","name":"New Ashok Nagar","lineIds":["osm-8037671"],"osmNodeIds":[5777613898,1869899247]},"geometry":{"type":"Point","coordinates":[77.3015826,28.5891047]}},{"type":"Feature","id":"osm-node-5777613909","properties":{"id":"osm-node-5777613909","name":"Mayur Vihar Extension","lineIds":["osm-8037671"],"osmNodeIds":[5777613909,906780869]},"geometry":{"type":"Point","coordinates":[77.2944279,28.5944669]}},{"type":"Feature","id":"osm-node-5777613919","properties":{"id":"osm-node-5777613919","name":"Mayur Vihar - I (Blue Line)","lineIds":["osm-8037671"],"osmNodeIds":[5777613919,906772268]},"geometry":{"type":"Point","coordinates":[77.2895211,28.6040558]}},{"type":"Feature","id":"osm-node-5777613940","properties":{"id":"osm-node-5777613940","name":"Akshardham","lineIds":["osm-8037671"],"osmNodeIds":[5777613940,906780885]},"geometry":{"type":"Point","coordinates":[77.2795258,28.6178791]}},{"type":"Feature","id":"osm-node-6325711755","properties":{"id":"osm-node-6325711755","name":"Noida Electronic City","lineIds":["osm-8037671"],"osmNodeIds":[6325711755,6325711756]},"geometry":{"type":"Point","coordinates":[77.3750964,28.6282598]}},{"type":"Feature","id":"osm-node-6547772111","properties":{"id":"osm-node-6547772111","name":"Ramesh Nagar","lineIds":["osm-8037671"],"osmNodeIds":[6547772111,5737167671]},"geometry":{"type":"Point","coordinates":[77.1316569,28.652725]}},{"type":"Feature","id":"osm-node-6547772112","properties":{"id":"osm-node-6547772112","name":"Moti Nagar","lineIds":["osm-8037671"],"osmNodeIds":[6547772112,5737167663]},"geometry":{"type":"Point","coordinates":[77.1424425,28.6578419]}},{"type":"Feature","id":"osm-node-6547772113","properties":{"id":"osm-node-6547772113","name":"Kirti Nagar (Blue Line)","lineIds":["osm-8037671"],"osmNodeIds":[6547772113,5737167649]},"geometry":{"type":"Point","coordinates":[77.1506502,28.6557294]}},{"type":"Feature","id":"osm-node-6547772114","properties":{"id":"osm-node-6547772114","name":"Shadipur","lineIds":["osm-8037671"],"osmNodeIds":[6547772114,5737167642]},"geometry":{"type":"Point","coordinates":[77.1582426,28.6515664]}},{"type":"Feature","id":"osm-node-6547772115","properties":{"id":"osm-node-6547772115","name":"Patel Nagar","lineIds":["osm-8037671"],"osmNodeIds":[6547772115,5737167640]},"geometry":{"type":"Point","coordinates":[77.1692658,28.6449953]}},{"type":"Feature","id":"osm-node-6547772123","properties":{"id":"osm-node-6547772123","name":"Karol Bagh","lineIds":["osm-8037671"],"osmNodeIds":[6547772123,5737167627]},"geometry":{"type":"Point","coordinates":[77.1885276,28.6439905]}},{"type":"Feature","id":"osm-node-600644828","properties":{"id":"osm-node-600644828","name":"Madipur","lineIds":["osm-8037672"],"osmNodeIds":[600644828,5777600344]},"geometry":{"type":"Point","coordinates":[77.119345,28.6764051]}},{"type":"Feature","id":"osm-node-600644865","properties":{"id":"osm-node-600644865","name":"Shivaji Park","lineIds":["osm-8037672"],"osmNodeIds":[600644865,5777600341]},"geometry":{"type":"Point","coordinates":[77.1304571,28.6749602]}},{"type":"Feature","id":"osm-node-600645512","properties":{"id":"osm-node-600645512","name":"Paschim Vihar East","lineIds":["osm-8037672"],"osmNodeIds":[600645512,5777600345]},"geometry":{"type":"Point","coordinates":[77.1122776,28.6773285]}},{"type":"Feature","id":"osm-node-610889203","properties":{"id":"osm-node-610889203","name":"Paschim Vihar West","lineIds":["osm-8037672"],"osmNodeIds":[610889203,5777600347]},"geometry":{"type":"Point","coordinates":[77.1022105,28.6785848]}},{"type":"Feature","id":"osm-node-915232317","properties":{"id":"osm-node-915232317","name":"Inderlok","lineIds":["osm-8037672"],"osmNodeIds":[915232317,5777600303]},"geometry":{"type":"Point","coordinates":[77.1691376,28.6726319]}},{"type":"Feature","id":"osm-node-915472696","properties":{"id":"osm-node-915472696","name":"Rajdhani Park","lineIds":["osm-8037672"],"osmNodeIds":[915472696,5777601289]},"geometry":{"type":"Point","coordinates":[77.0439364,28.6822405]}},{"type":"Feature","id":"osm-node-915472875","properties":{"id":"osm-node-915472875","name":"Nangloi","lineIds":["osm-8037672"],"osmNodeIds":[915472875,5777601259]},"geometry":{"type":"Point","coordinates":[77.0647264,28.6823335]}},{"type":"Feature","id":"osm-node-915473442","properties":{"id":"osm-node-915473442","name":"Surajmal Stadium","lineIds":["osm-8037672"],"osmNodeIds":[915473442,5777600352]},"geometry":{"type":"Point","coordinates":[77.074004,28.681828]}},{"type":"Feature","id":"osm-node-915473851","properties":{"id":"osm-node-915473851","name":"Mundka","lineIds":["osm-8037672"],"osmNodeIds":[915473851,5777601291]},"geometry":{"type":"Point","coordinates":[77.0305707,28.6823507]}},{"type":"Feature","id":"osm-node-915474404","properties":{"id":"osm-node-915474404","name":"Nangloi Railway Station","lineIds":["osm-8037672"],"osmNodeIds":[915474404,5777601286]},"geometry":{"type":"Point","coordinates":[77.0562372,28.6821301]}},{"type":"Feature","id":"osm-node-941120352","properties":{"id":"osm-node-941120352","name":"Peeragarhi","lineIds":["osm-8037672"],"osmNodeIds":[941120352,5777600349]},"geometry":{"type":"Point","coordinates":[77.0926576,28.6797123]}},{"type":"Feature","id":"osm-node-1665772918","properties":{"id":"osm-node-1665772918","name":"Punjabi Bagh","lineIds":["osm-8037672"],"osmNodeIds":[1665772918,5777600327]},"geometry":{"type":"Point","coordinates":[77.1461152,28.6729266]}},{"type":"Feature","id":"osm-node-1787431976","properties":{"id":"osm-node-1787431976","name":"Udyog Nagar","lineIds":["osm-8037672"],"osmNodeIds":[1787431976,5777600351]},"geometry":{"type":"Point","coordinates":[77.0808421,28.6810385]}},{"type":"Feature","id":"osm-node-1886793206","properties":{"id":"osm-node-1886793206","name":"Ashok Park Main","lineIds":["osm-8037672"],"osmNodeIds":[1886793206,5777600321]},"geometry":{"type":"Point","coordinates":[77.1552808,28.6715367]}},{"type":"Feature","id":"osm-node-3689250979","properties":{"id":"osm-node-3689250979","name":"Bahadurgarh City","lineIds":["osm-8037672"],"osmNodeIds":[3689250979,5777601324]},"geometry":{"type":"Point","coordinates":[76.9354398,28.6906577]}},{"type":"Feature","id":"osm-node-3689250980","properties":{"id":"osm-node-3689250980","name":"Brigadier Hoshiyar Singh","lineIds":["osm-8037672"],"osmNodeIds":[3689250980,5777601335]},"geometry":{"type":"Point","coordinates":[76.9191444,28.6973429]}},{"type":"Feature","id":"osm-node-3689250981","properties":{"id":"osm-node-3689250981","name":"Tikri Kalan","lineIds":["osm-8037672"],"osmNodeIds":[3689250981,5777601308]},"geometry":{"type":"Point","coordinates":[76.9772009,28.6868186]}},{"type":"Feature","id":"osm-node-3689250982","properties":{"id":"osm-node-3689250982","name":"Ghevra","lineIds":["osm-8037672"],"osmNodeIds":[3689250982,5777601303]},"geometry":{"type":"Point","coordinates":[76.9961223,28.6852334]}},{"type":"Feature","id":"osm-node-5066137686","properties":{"id":"osm-node-5066137686","name":"Pandit Shree Ram Sharma","lineIds":["osm-8037672"],"osmNodeIds":[5066137686,5777601317]},"geometry":{"type":"Point","coordinates":[76.9511612,28.6892109]}},{"type":"Feature","id":"osm-node-5066137687","properties":{"id":"osm-node-5066137687","name":"Tikri Border","lineIds":["osm-8037672"],"osmNodeIds":[5066137687,5777601311]},"geometry":{"type":"Point","coordinates":[76.9640684,28.6878977]}},{"type":"Feature","id":"osm-node-5719817431","properties":{"id":"osm-node-5719817431","name":"Mundka Industrial Area","lineIds":["osm-8037672"],"osmNodeIds":[5719817431,5777601298]},"geometry":{"type":"Point","coordinates":[77.0171141,28.6833525]}},{"type":"Feature","id":"osm-node-9635301970","properties":{"id":"osm-node-9635301970","name":"Punjabi Bagh West","lineIds":["osm-8037672"],"osmNodeIds":[9635301970,9635301969]},"geometry":{"type":"Point","coordinates":[77.1405633,28.6740136]}},{"type":"Feature","id":"osm-node-6547772098","properties":{"id":"osm-node-6547772098","name":"Kirti Nagar","lineIds":["osm-8037672"],"osmNodeIds":[6547772098,9635301965]},"geometry":{"type":"Point","coordinates":[77.1513362,28.6545554]}},{"type":"Feature","id":"osm-node-9635301963","properties":{"id":"osm-node-9635301963","name":"Satguru Ramsingh Marg","lineIds":["osm-8037672"],"osmNodeIds":[9635301963,9635301962]},"geometry":{"type":"Point","coordinates":[77.1575529,28.6620786]}},{"type":"Feature","id":"osm-node-2832938174","properties":{"id":"osm-node-2832938174","name":"Nehru Enclave","lineIds":["osm-8051576"],"osmNodeIds":[2832938174,5777631212]},"geometry":{"type":"Point","coordinates":[77.251518,28.5460369]}},{"type":"Feature","id":"osm-node-2832938176","properties":{"id":"osm-node-2832938176","name":"IIT Delhi","lineIds":["osm-8051576"],"osmNodeIds":[2832938176,5777631229]},"geometry":{"type":"Point","coordinates":[77.1945149,28.5470025]}},{"type":"Feature","id":"osm-node-2832938325","properties":{"id":"osm-node-2832938325","name":"Dabri Mor - Janakpuri South","lineIds":["osm-8051576"],"osmNodeIds":[2832938325,5777631155]},"geometry":{"type":"Point","coordinates":[77.085178,28.6157555]}},{"type":"Feature","id":"osm-node-6547772102","properties":{"id":"osm-node-6547772102","name":"Kalkaji Mandir","lineIds":["osm-8051576"],"osmNodeIds":[6547772102,5777631557]},"geometry":{"type":"Point","coordinates":[77.2566811,28.550077]}},{"type":"Feature","id":"osm-node-6547772103","properties":{"id":"osm-node-6547772103","name":"Munirka","lineIds":["osm-8051576"],"osmNodeIds":[6547772103,5777631236]},"geometry":{"type":"Point","coordinates":[77.1750411,28.5568808]}},{"type":"Feature","id":"osm-node-6547772104","properties":{"id":"osm-node-6547772104","name":"R. K. Puram","lineIds":["osm-8051576"],"osmNodeIds":[6547772104,5777631234]},"geometry":{"type":"Point","coordinates":[77.1855052,28.5503632]}},{"type":"Feature","id":"osm-node-6547772105","properties":{"id":"osm-node-6547772105","name":"Panchsheel Park","lineIds":["osm-8051576"],"osmNodeIds":[6547772105,5777631222]},"geometry":{"type":"Point","coordinates":[77.2210921,28.5423526]}},{"type":"Feature","id":"osm-node-6547772106","properties":{"id":"osm-node-6547772106","name":"Hauz Khas (Magenta Line)","lineIds":["osm-8051576"],"osmNodeIds":[6547772106,5777631224]},"geometry":{"type":"Point","coordinates":[77.2050189,28.5433508]}},{"type":"Feature","id":"osm-node-6547772116","properties":{"id":"osm-node-6547772116","name":"Sukhdev Vihar","lineIds":["osm-8051576"],"osmNodeIds":[6547772116,5777631561]},"geometry":{"type":"Point","coordinates":[77.2749693,28.5597843]}},{"type":"Feature","id":"osm-node-6547772117","properties":{"id":"osm-node-6547772117","name":"Jamia Millia Islamia","lineIds":["osm-8051576"],"osmNodeIds":[6547772117,5777631562]},"geometry":{"type":"Point","coordinates":[77.2863588,28.5630343]}},{"type":"Feature","id":"osm-node-6547772118","properties":{"id":"osm-node-6547772118","name":"Okhla Vihar","lineIds":["osm-8051576"],"osmNodeIds":[6547772118,5777631563]},"geometry":{"type":"Point","coordinates":[77.291848,28.5613021]}},{"type":"Feature","id":"osm-node-6547772119","properties":{"id":"osm-node-6547772119","name":"Jasola Vihar Shaheen Bagh","lineIds":["osm-8051576"],"osmNodeIds":[6547772119,5777631564]},"geometry":{"type":"Point","coordinates":[77.2966352,28.5458187]}},{"type":"Feature","id":"osm-node-6547772120","properties":{"id":"osm-node-6547772120","name":"Kalindi Kunj","lineIds":["osm-8051576"],"osmNodeIds":[6547772120,5777631565]},"geometry":{"type":"Point","coordinates":[77.3101309,28.5428984]}},{"type":"Feature","id":"osm-node-6547772121","properties":{"id":"osm-node-6547772121","name":"Okhla Bird Sanctuary","lineIds":["osm-8051576"],"osmNodeIds":[6547772121,5777631566]},"geometry":{"type":"Point","coordinates":[77.321614,28.5529243]}},{"type":"Feature","id":"osm-node-9937092486","properties":{"id":"osm-node-9937092486","name":"Dashrath Puri","lineIds":["osm-8051576"],"osmNodeIds":[9937092486,5777631052]},"geometry":{"type":"Point","coordinates":[77.0823561,28.6018751]}},{"type":"Feature","id":"osm-node-9937092487","properties":{"id":"osm-node-9937092487","name":"Palam","lineIds":["osm-8051576"],"osmNodeIds":[9937092487,5777631046]},"geometry":{"type":"Point","coordinates":[77.0830489,28.5889096]}},{"type":"Feature","id":"osm-node-9937092488","properties":{"id":"osm-node-9937092488","name":"Sadar Bazar Cantonment","lineIds":["osm-8051576"],"osmNodeIds":[9937092488,5777631170]},"geometry":{"type":"Point","coordinates":[77.1111249,28.57709]}},{"type":"Feature","id":"osm-node-9937092489","properties":{"id":"osm-node-9937092489","name":"Terminal 1 IGI Airport","lineIds":["osm-8051576"],"osmNodeIds":[9937092489,5777631192]},"geometry":{"type":"Point","coordinates":[77.1226212,28.5648599]}},{"type":"Feature","id":"osm-node-9937092490","properties":{"id":"osm-node-9937092490","name":"Shankar Vihar","lineIds":["osm-8051576"],"osmNodeIds":[9937092490,5777631205]},"geometry":{"type":"Point","coordinates":[77.140254,28.5608275]}},{"type":"Feature","id":"osm-node-9937092491","properties":{"id":"osm-node-9937092491","name":"Vasant Vihar","lineIds":["osm-8051576"],"osmNodeIds":[9937092491,5777631244]},"geometry":{"type":"Point","coordinates":[77.1610899,28.557808]}},{"type":"Feature","id":"osm-node-9937948255","properties":{"id":"osm-node-9937948255","name":"Okhla NSIC","lineIds":["osm-8051576"],"osmNodeIds":[9937948255,2832938180]},"geometry":{"type":"Point","coordinates":[77.2648369,28.5544479]}},{"type":"Feature","id":"osm-node-9937948268","properties":{"id":"osm-node-9937948268","name":"Greater Kailash","lineIds":["osm-8051576"],"osmNodeIds":[9937948268,5777631214]},"geometry":{"type":"Point","coordinates":[77.2384643,28.5418724]}},{"type":"Feature","id":"osm-node-9937948269","properties":{"id":"osm-node-9937948269","name":"Chirag Delhi","lineIds":["osm-8051576"],"osmNodeIds":[9937948269,5777631218]},"geometry":{"type":"Point","coordinates":[77.2302907,28.5410914]}},{"type":"Feature","id":"osm-node-12478112132","properties":{"id":"osm-node-12478112132","name":"Krishna Park Extension","lineIds":["osm-8051576"],"osmNodeIds":[12478112132,12478112133]},"geometry":{"type":"Point","coordinates":[77.0843102,28.6478016]}},{"type":"Feature","id":"osm-node-5215706515","properties":{"id":"osm-node-5215706515","name":"Deepali Chowk","lineIds":["osm-8051576"],"osmNodeIds":[5215706515,12390111350]},"geometry":{"type":"Point","coordinates":[77.11827,28.6981132]}},{"type":"Feature","id":"osm-node-13628267997","properties":{"id":"osm-node-13628267997","name":"Majlis Park","lineIds":["osm-8051576","osm-8242438"],"osmNodeIds":[13628267997,13628267998,5961114535,6196100474]},"geometry":{"type":"Point","coordinates":[77.1816387,28.724089]}},{"type":"Feature","id":"osm-node-13628267999","properties":{"id":"osm-node-13628267999","name":"Bhalaswa","lineIds":["osm-8051576"],"osmNodeIds":[13628267999,13628268000]},"geometry":{"type":"Point","coordinates":[77.168077,28.7369383]}},{"type":"Feature","id":"osm-node-13628472101","properties":{"id":"osm-node-13628472101","name":"Haiderpur Badli Mor","lineIds":["osm-8051576","osm-8037713"],"osmNodeIds":[13628472101,13628472102,2837147021,3689331533]},"geometry":{"type":"Point","coordinates":[77.1488054,28.7298439]}},{"type":"Feature","id":"osm-node-13628472103","properties":{"id":"osm-node-13628472103","name":"Haiderpur Village","lineIds":["osm-8051576"],"osmNodeIds":[13628472103,13628472104]},"geometry":{"type":"Point","coordinates":[77.1424191,28.7248947]}},{"type":"Feature","id":"osm-node-13628472106","properties":{"id":"osm-node-13628472106","name":"North Pitampura - Prashant Vihar","lineIds":["osm-8051576"],"osmNodeIds":[13628472106,13628472105]},"geometry":{"type":"Point","coordinates":[77.1386504,28.7130881]}},{"type":"Feature","id":"osm-node-13628472108","properties":{"id":"osm-node-13628472108","name":"Madhuban Chowk","lineIds":["osm-8051576"],"osmNodeIds":[13628472108,13628472107]},"geometry":{"type":"Point","coordinates":[77.1300557,28.7035819]}},{"type":"Feature","id":"osm-node-5777629837","properties":{"id":"osm-node-5777629837","name":"Netaji Subhash Place (Pink Line)","lineIds":["osm-8242438"],"osmNodeIds":[5777629837,2833531964]},"geometry":{"type":"Point","coordinates":[77.1543015,28.6947028]}},{"type":"Feature","id":"osm-node-5777629845","properties":{"id":"osm-node-5777629845","name":"Shalimar Bagh","lineIds":["osm-8242438"],"osmNodeIds":[5777629845,2833526614]},"geometry":{"type":"Point","coordinates":[77.1654554,28.7019313]}},{"type":"Feature","id":"osm-node-5777630054","properties":{"id":"osm-node-5777630054","name":"Azadpur (Pink Line)","lineIds":["osm-8242438"],"osmNodeIds":[5777630054,2833531971]},"geometry":{"type":"Point","coordinates":[77.1819941,28.7057756]}},{"type":"Feature","id":"osm-node-5777630074","properties":{"id":"osm-node-5777630074","name":"Mayapuri","lineIds":["osm-8242438"],"osmNodeIds":[5777630074,2833531922]},"geometry":{"type":"Point","coordinates":[77.1297689,28.637181]}},{"type":"Feature","id":"osm-node-5777630083","properties":{"id":"osm-node-5777630083","name":"Rajouri Garden (Pink Line)","lineIds":["osm-8242438"],"osmNodeIds":[5777630083,2833531928]},"geometry":{"type":"Point","coordinates":[77.1242874,28.6512003]}},{"type":"Feature","id":"osm-node-5777630094","properties":{"id":"osm-node-5777630094","name":"ESI - Basaidarapur","lineIds":["osm-8242438"],"osmNodeIds":[5777630094,2833531935]},"geometry":{"type":"Point","coordinates":[77.1272899,28.6580491]}},{"type":"Feature","id":"osm-node-5777630109","properties":{"id":"osm-node-5777630109","name":"Punjabi Bagh West","lineIds":["osm-8242438"],"osmNodeIds":[5777630109,2833531944]},"geometry":{"type":"Point","coordinates":[77.1392217,28.6727635]}},{"type":"Feature","id":"osm-node-5777630123","properties":{"id":"osm-node-5777630123","name":"Shakurpur","lineIds":["osm-8242438"],"osmNodeIds":[5777630123,2833531954]},"geometry":{"type":"Point","coordinates":[77.1496639,28.6856756]}},{"type":"Feature","id":"osm-node-5777630144","properties":{"id":"osm-node-5777630144","name":"Naraina Vihar","lineIds":["osm-8242438"],"osmNodeIds":[5777630144,2833531915]},"geometry":{"type":"Point","coordinates":[77.1364778,28.6243968]}},{"type":"Feature","id":"osm-node-5777630275","properties":{"id":"osm-node-5777630275","name":"Delhi Cantt","lineIds":["osm-8242438"],"osmNodeIds":[5777630275,2833526696]},"geometry":{"type":"Point","coordinates":[77.1404465,28.6086427]}},{"type":"Feature","id":"osm-node-5777630288","properties":{"id":"osm-node-5777630288","name":"Sir M. Vishweshwaraiah Moti Bagh","lineIds":["osm-8242438"],"osmNodeIds":[5777630288,2833526642]},"geometry":{"type":"Point","coordinates":[77.175752,28.5785426]}},{"type":"Feature","id":"osm-node-5777630298","properties":{"id":"osm-node-5777630298","name":"Sarai Kale Khan - Nizamuddin","lineIds":["osm-8242438"],"osmNodeIds":[5777630298]},"geometry":{"type":"Point","coordinates":[77.2570468,28.5898274]}},{"type":"Feature","id":"osm-node-5777630323","properties":{"id":"osm-node-5777630323","name":"South Extension","lineIds":["osm-8242438"],"osmNodeIds":[5777630323,2833526616]},"geometry":{"type":"Point","coordinates":[77.2205719,28.5685857]}},{"type":"Feature","id":"osm-node-5777630330","properties":{"id":"osm-node-5777630330","name":"Dilli Haat - INA","lineIds":["osm-8242438"],"osmNodeIds":[5777630330,2833526634]},"geometry":{"type":"Point","coordinates":[77.2075986,28.5736686]}},{"type":"Feature","id":"osm-node-5777630338","properties":{"id":"osm-node-5777630338","name":"Sarojini Nagar","lineIds":["osm-8242438"],"osmNodeIds":[5777630338,2833526638]},"geometry":{"type":"Point","coordinates":[77.1980823,28.5758359]}},{"type":"Feature","id":"osm-node-5777630345","properties":{"id":"osm-node-5777630345","name":"Bhikaji Cama Place","lineIds":["osm-8242438"],"osmNodeIds":[5777630345,2833526619]},"geometry":{"type":"Point","coordinates":[77.1878724,28.5702814]}},{"type":"Feature","id":"osm-node-5777630350","properties":{"id":"osm-node-5777630350","name":"Shiv Vihar","lineIds":["osm-8242438"],"osmNodeIds":[5777630350,2833971930]},"geometry":{"type":"Point","coordinates":[77.2894139,28.7214275]}},{"type":"Feature","id":"osm-node-5777630555","properties":{"id":"osm-node-5777630555","name":"Johri Enclave","lineIds":["osm-8242438"],"osmNodeIds":[5777630555,2833971929]},"geometry":{"type":"Point","coordinates":[77.2900879,28.7128719]}},{"type":"Feature","id":"osm-node-5777630566","properties":{"id":"osm-node-5777630566","name":"Gokulpuri","lineIds":["osm-8242438"],"osmNodeIds":[5777630566,2833971922]},"geometry":{"type":"Point","coordinates":[77.2860709,28.7024535]}},{"type":"Feature","id":"osm-node-5777630574","properties":{"id":"osm-node-5777630574","name":"Maujpur-Babarpur","lineIds":["osm-8242438"],"osmNodeIds":[5777630574,13628489704,2833971918,13628489705]},"geometry":{"type":"Point","coordinates":[77.279644,28.6921128]}},{"type":"Feature","id":"osm-node-5777630582","properties":{"id":"osm-node-5777630582","name":"Jaffrabad","lineIds":["osm-8242438"],"osmNodeIds":[5777630582,2833971914]},"geometry":{"type":"Point","coordinates":[77.2748056,28.6827286]}},{"type":"Feature","id":"osm-node-5777630601","properties":{"id":"osm-node-5777630601","name":"Welcome (Pink Line)","lineIds":["osm-8242438"],"osmNodeIds":[5777630601,2833971906]},"geometry":{"type":"Point","coordinates":[77.2769489,28.6723475]}},{"type":"Feature","id":"osm-node-5777630622","properties":{"id":"osm-node-5777630622","name":"East Azad Nagar","lineIds":["osm-8242438"],"osmNodeIds":[5777630622,2833971903]},"geometry":{"type":"Point","coordinates":[77.2848234,28.6646669]}},{"type":"Feature","id":"osm-node-5777630624","properties":{"id":"osm-node-5777630624","name":"Krishna Nagar","lineIds":["osm-8242438"],"osmNodeIds":[5777630624,2833971901]},"geometry":{"type":"Point","coordinates":[77.290128,28.657775]}},{"type":"Feature","id":"osm-node-5777630635","properties":{"id":"osm-node-5777630635","name":"Karkarduma Court","lineIds":["osm-8242438"],"osmNodeIds":[5777630635,6049373299]},"geometry":{"type":"Point","coordinates":[77.2958023,28.6535862]}},{"type":"Feature","id":"osm-node-5777630855","properties":{"id":"osm-node-5777630855","name":"Karkarduma (Pink Line)","lineIds":["osm-8242438"],"osmNodeIds":[5777630855,6049373300]},"geometry":{"type":"Point","coordinates":[77.3060798,28.6492685]}},{"type":"Feature","id":"osm-node-5777630878","properties":{"id":"osm-node-5777630878","name":"Anand Vihar (Pink Line)","lineIds":["osm-8242438"],"osmNodeIds":[5777630878,6049373301]},"geometry":{"type":"Point","coordinates":[77.3153748,28.6466595]}},{"type":"Feature","id":"osm-node-5777630916","properties":{"id":"osm-node-5777630916","name":"IP Extension","lineIds":["osm-8242438"],"osmNodeIds":[5777630916,6049373302]},"geometry":{"type":"Point","coordinates":[77.3106994,28.6318836]}},{"type":"Feature","id":"osm-node-5777630934","properties":{"id":"osm-node-5777630934","name":"Mandawali - West Vinod Nagar","lineIds":["osm-8242438"],"osmNodeIds":[5777630934,6049373345]},"geometry":{"type":"Point","coordinates":[77.3044546,28.6250185]}},{"type":"Feature","id":"osm-node-5777630956","properties":{"id":"osm-node-5777630956","name":"East Vinod Nagar - Mayur Vihar - II","lineIds":["osm-8242438"],"osmNodeIds":[5777630956,6049373346]},"geometry":{"type":"Point","coordinates":[77.3054159,28.6200696]}},{"type":"Feature","id":"osm-node-5777630970","properties":{"id":"osm-node-5777630970","name":"Trilokpuri Sanjay Lake","lineIds":["osm-8242438"],"osmNodeIds":[5777630970,6049373347]},"geometry":{"type":"Point","coordinates":[77.3088121,28.6134488]}},{"type":"Feature","id":"osm-node-5777631037","properties":{"id":"osm-node-5777631037","name":"Durgabai Deshmukh South Campus","lineIds":["osm-8242438"],"osmNodeIds":[5777631037,2833526656]},"geometry":{"type":"Point","coordinates":[77.1694772,28.5893006]}},{"type":"Feature","id":"osm-node-6196100465","properties":{"id":"osm-node-6196100465","name":"Lajpat Nagar (Pink Line)","lineIds":["osm-8242438"],"osmNodeIds":[6196100465,2833526623]},"geometry":{"type":"Point","coordinates":[77.2388793,28.5694844]}},{"type":"Feature","id":"osm-node-6196100466","properties":{"id":"osm-node-6196100466","name":"Shree Ram Mandir Mayur Vihar","lineIds":["osm-8242438"],"osmNodeIds":[6196100466,6196100473]},"geometry":{"type":"Point","coordinates":[77.2992533,28.6060634]}},{"type":"Feature","id":"osm-node-6196100467","properties":{"id":"osm-node-6196100467","name":"Mayur Vihar - I (Pink Line)","lineIds":["osm-8242438"],"osmNodeIds":[6196100467,6196100472]},"geometry":{"type":"Point","coordinates":[77.2912864,28.6038135]}},{"type":"Feature","id":"osm-node-6196100468","properties":{"id":"osm-node-6196100468","name":"Ashram","lineIds":["osm-8242438"],"osmNodeIds":[6196100468,4676940460]},"geometry":{"type":"Point","coordinates":[77.2588244,28.5726209]}},{"type":"Feature","id":"osm-node-6196100469","properties":{"id":"osm-node-6196100469","name":"Vinobapuri","lineIds":["osm-8242438"],"osmNodeIds":[6196100469,6196100470]},"geometry":{"type":"Point","coordinates":[77.2498114,28.5659354]}},{"type":"Feature","id":"osm-node-13238880327","properties":{"id":"osm-node-13238880327","name":"Burari","lineIds":["osm-8242438"],"osmNodeIds":[13238880327,13238880328]},"geometry":{"type":"Point","coordinates":[77.1993105,28.7298591]}},{"type":"Feature","id":"osm-node-13628489706","properties":{"id":"osm-node-13628489706","name":"Yamuna Vihar","lineIds":["osm-8242438"],"osmNodeIds":[13628489706,13628489707]},"geometry":{"type":"Point","coordinates":[77.2773051,28.7023575]}},{"type":"Feature","id":"osm-node-13628489709","properties":{"id":"osm-node-13628489709","name":"Bhajanpura","lineIds":["osm-8242438"],"osmNodeIds":[13628489709,13628489708]},"geometry":{"type":"Point","coordinates":[77.2626469,28.7035768]}},{"type":"Feature","id":"osm-node-13628489711","properties":{"id":"osm-node-13628489711","name":"Khajuri Khas","lineIds":["osm-8242438"],"osmNodeIds":[13628489711,13628489710]},"geometry":{"type":"Point","coordinates":[77.2544624,28.7051475]}},{"type":"Feature","id":"osm-node-13628489712","properties":{"id":"osm-node-13628489712","name":"Nanaksar - Sonia Vihar","lineIds":["osm-8242438"],"osmNodeIds":[13628489712,13628489713]},"geometry":{"type":"Point","coordinates":[77.2424825,28.708631]}},{"type":"Feature","id":"osm-node-13628489716","properties":{"id":"osm-node-13628489716","name":"Soorghat","lineIds":["osm-8242438"],"osmNodeIds":[13628489716,13628489715]},"geometry":{"type":"Point","coordinates":[77.2274086,28.7102011]}},{"type":"Feature","id":"osm-node-13628489717","properties":{"id":"osm-node-13628489717","name":"Jagatpur - Wazirabad","lineIds":["osm-8242438"],"osmNodeIds":[13628489717,13628489718]},"geometry":{"type":"Point","coordinates":[77.2239258,28.7211303]}},{"type":"Feature","id":"osm-node-13628489719","properties":{"id":"osm-node-13628489719","name":"Jharoda Majra","lineIds":["osm-8242438"],"osmNodeIds":[13628489719,13628489721]},"geometry":{"type":"Point","coordinates":[77.213673,28.7248603]}},{"type":"Feature","id":"osm-node-6196100471","properties":{"id":"osm-node-6196100471","name":"Sarai Kale Khan - Nizamuddin","lineIds":["osm-8242438"],"osmNodeIds":[6196100471]},"geometry":{"type":"Point","coordinates":[77.2573864,28.5883001]}},{"type":"Feature","id":"osm-node-268381457","properties":{"id":"osm-node-268381457","name":"Pratap Nagar","lineIds":["osm-8429148"],"osmNodeIds":[268381457]},"geometry":{"type":"Point","coordinates":[77.1988974,28.6667177]}},{"type":"Feature","id":"osm-node-268381463","properties":{"id":"osm-node-268381463","name":"Pul Bangash","lineIds":["osm-8429148"],"osmNodeIds":[268381463]},"geometry":{"type":"Point","coordinates":[77.2074156,28.6664068]}},{"type":"Feature","id":"osm-node-311963955","properties":{"id":"osm-node-311963955","name":"Kohat Enclave","lineIds":["osm-8429148"],"osmNodeIds":[311963955]},"geometry":{"type":"Point","coordinates":[77.1405393,28.6980415]}},{"type":"Feature","id":"osm-node-561316983","properties":{"id":"osm-node-561316983","name":"Tis Hazari","lineIds":["osm-8429148"],"osmNodeIds":[561316983]},"geometry":{"type":"Point","coordinates":[77.2166306,28.6671626]}},{"type":"Feature","id":"osm-node-663759674","properties":{"id":"osm-node-663759674","name":"Mansarovar Park","lineIds":["osm-8429148"],"osmNodeIds":[663759674,6405278618]},"geometry":{"type":"Point","coordinates":[77.3008694,28.6754151]}},{"type":"Feature","id":"osm-node-663761411","properties":{"id":"osm-node-663761411","name":"Shastri Nagar","lineIds":["osm-8429148"],"osmNodeIds":[663761411]},"geometry":{"type":"Point","coordinates":[77.1818589,28.6700885]}},{"type":"Feature","id":"osm-node-663761428","properties":{"id":"osm-node-663761428","name":"Inderlok (Red Line)","lineIds":["osm-8429148"],"osmNodeIds":[663761428]},"geometry":{"type":"Point","coordinates":[77.1703467,28.6735891]}},{"type":"Feature","id":"osm-node-663761505","properties":{"id":"osm-node-663761505","name":"Kanhaiya Nagar","lineIds":["osm-8429148"],"osmNodeIds":[663761505]},"geometry":{"type":"Point","coordinates":[77.1647754,28.6824082]}},{"type":"Feature","id":"osm-node-663762151","properties":{"id":"osm-node-663762151","name":"Keshav Puram","lineIds":["osm-8429148"],"osmNodeIds":[663762151]},"geometry":{"type":"Point","coordinates":[77.1616833,28.6889264]}},{"type":"Feature","id":"osm-node-663765153","properties":{"id":"osm-node-663765153","name":"Madhuban Chowk","lineIds":["osm-8429148"],"osmNodeIds":[663765153]},"geometry":{"type":"Point","coordinates":[77.1322497,28.7032676]}},{"type":"Feature","id":"osm-node-1988598418","properties":{"id":"osm-node-1988598418","name":"Rohini West","lineIds":["osm-8429148"],"osmNodeIds":[1988598418]},"geometry":{"type":"Point","coordinates":[77.115385,28.7149569]}},{"type":"Feature","id":"osm-node-5777614041","properties":{"id":"osm-node-5777614041","name":"Hindon River","lineIds":["osm-8429148"],"osmNodeIds":[5777614041,6405278609]},"geometry":{"type":"Point","coordinates":[77.4065483,28.6734564]}},{"type":"Feature","id":"osm-node-5777614174","properties":{"id":"osm-node-5777614174","name":"Dilshad Garden","lineIds":["osm-8429148"],"osmNodeIds":[5777614174,6405278616]},"geometry":{"type":"Point","coordinates":[77.3215135,28.6758851]}},{"type":"Feature","id":"osm-node-5777614183","properties":{"id":"osm-node-5777614183","name":"Jhilmil","lineIds":["osm-8429148"],"osmNodeIds":[5777614183,6405278617]},"geometry":{"type":"Point","coordinates":[77.3123939,28.6757505]}},{"type":"Feature","id":"osm-node-5777614202","properties":{"id":"osm-node-5777614202","name":"Shahdara","lineIds":["osm-8429148"],"osmNodeIds":[5777614202,6405278619]},"geometry":{"type":"Point","coordinates":[77.2898815,28.6734598]}},{"type":"Feature","id":"osm-node-5777614209","properties":{"id":"osm-node-5777614209","name":"Rithala","lineIds":["osm-8429148"],"osmNodeIds":[5777614209,6405278635]},"geometry":{"type":"Point","coordinates":[77.1071611,28.7207878]}},{"type":"Feature","id":"osm-node-5777614216","properties":{"id":"osm-node-5777614216","name":"Rohini East","lineIds":["osm-8429148"],"osmNodeIds":[5777614216,6405278634]},"geometry":{"type":"Point","coordinates":[77.1260218,28.7075969]}},{"type":"Feature","id":"osm-node-5777614220","properties":{"id":"osm-node-5777614220","name":"Welcome","lineIds":["osm-8429148"],"osmNodeIds":[5777614220,6405278620]},"geometry":{"type":"Point","coordinates":[77.2778151,28.6718621]}},{"type":"Feature","id":"osm-node-5777614225","properties":{"id":"osm-node-5777614225","name":"Seelampur","lineIds":["osm-8429148"],"osmNodeIds":[5777614225,6405278621]},"geometry":{"type":"Point","coordinates":[77.2667628,28.6699174]}},{"type":"Feature","id":"osm-node-5777614244","properties":{"id":"osm-node-5777614244","name":"Shastri Park","lineIds":["osm-8429148"],"osmNodeIds":[5777614244,6405278622]},"geometry":{"type":"Point","coordinates":[77.2505385,28.6684554]}},{"type":"Feature","id":"osm-node-5777614260","properties":{"id":"osm-node-5777614260","name":"Kashmere Gate","lineIds":["osm-8429148","osm-8037713","osm-8037706"],"osmNodeIds":[5777614260,6405278623,6547772099,5777601989,6547772100,5777629220]},"geometry":{"type":"Point","coordinates":[77.2282467,28.6674784]}},{"type":"Feature","id":"osm-node-5777614297","properties":{"id":"osm-node-5777614297","name":"Netaji Subhash Place","lineIds":["osm-8429148"],"osmNodeIds":[5777614297,6405278631]},"geometry":{"type":"Point","coordinates":[77.1524671,28.6960757]}},{"type":"Feature","id":"osm-node-9631141565","properties":{"id":"osm-node-9631141565","name":"Shaheed Nagar","lineIds":["osm-8429148"],"osmNodeIds":[9631141565,6405278615]},"geometry":{"type":"Point","coordinates":[77.3339151,28.6766909]}},{"type":"Feature","id":"osm-node-9631141566","properties":{"id":"osm-node-9631141566","name":"Raj Bagh","lineIds":["osm-8429148"],"osmNodeIds":[9631141566,6405278614]},"geometry":{"type":"Point","coordinates":[77.3468626,28.6771193]}},{"type":"Feature","id":"osm-node-9631141567","properties":{"id":"osm-node-9631141567","name":"Rajendra Nagar","lineIds":["osm-8429148"],"osmNodeIds":[9631141567,6405278613]},"geometry":{"type":"Point","coordinates":[77.3581375,28.6776405]}},{"type":"Feature","id":"osm-node-9631141568","properties":{"id":"osm-node-9631141568","name":"Shyam Park","lineIds":["osm-8429148"],"osmNodeIds":[9631141568,6405278612]},"geometry":{"type":"Point","coordinates":[77.3704847,28.6782385]}},{"type":"Feature","id":"osm-node-9631141569","properties":{"id":"osm-node-9631141569","name":"Mohan Nagar","lineIds":["osm-8429148"],"osmNodeIds":[9631141569,6405278611]},"geometry":{"type":"Point","coordinates":[77.3839016,28.6785633]}},{"type":"Feature","id":"osm-node-9631141570","properties":{"id":"osm-node-9631141570","name":"Arthala","lineIds":["osm-8429148"],"osmNodeIds":[9631141570,6405278610]},"geometry":{"type":"Point","coordinates":[77.391894,28.6770273]}},{"type":"Feature","id":"osm-node-9631141572","properties":{"id":"osm-node-9631141572","name":"Shaheed Sthal","lineIds":["osm-8429148"],"osmNodeIds":[9631141572,9631141571]},"geometry":{"type":"Point","coordinates":[77.4153901,28.6707062]}},{"type":"Feature","id":"osm-node-271335327","properties":{"id":"osm-node-271335327","name":"M G Road","lineIds":["osm-8037713"],"osmNodeIds":[271335327,5777601815]},"geometry":{"type":"Point","coordinates":[77.0798993,28.4795243]}},{"type":"Feature","id":"osm-node-271335545","properties":{"id":"osm-node-271335545","name":"Guru Dronacharya","lineIds":["osm-8037713"],"osmNodeIds":[271335545,5777601797]},"geometry":{"type":"Point","coordinates":[77.102272,28.4819976]}},{"type":"Feature","id":"osm-node-271335970","properties":{"id":"osm-node-271335970","name":"Ghitorni","lineIds":["osm-8037713"],"osmNodeIds":[271335970,5777601871]},"geometry":{"type":"Point","coordinates":[77.1491983,28.4937282]}},{"type":"Feature","id":"osm-node-271335980","properties":{"id":"osm-node-271335980","name":"Arjan Garh","lineIds":["osm-8037713"],"osmNodeIds":[271335980,5777602023]},"geometry":{"type":"Point","coordinates":[77.1257838,28.4807159]}},{"type":"Feature","id":"osm-node-413317779","properties":{"id":"osm-node-413317779","name":"IFFCO Chowk","lineIds":["osm-8037713"],"osmNodeIds":[413317779,5777601824]},"geometry":{"type":"Point","coordinates":[77.0724516,28.4723308]}},{"type":"Feature","id":"osm-node-554257755","properties":{"id":"osm-node-554257755","name":"Sultanpur","lineIds":["osm-8037713"],"osmNodeIds":[554257755,7018711117]},"geometry":{"type":"Point","coordinates":[77.1609098,28.4989706]}},{"type":"Feature","id":"osm-node-554257781","properties":{"id":"osm-node-554257781","name":"Chhatarpur","lineIds":["osm-8037713"],"osmNodeIds":[554257781,5777601856]},"geometry":{"type":"Point","coordinates":[77.1749361,28.5067554]}},{"type":"Feature","id":"osm-node-554257785","properties":{"id":"osm-node-554257785","name":"Malviya Nagar","lineIds":["osm-8037713"],"osmNodeIds":[554257785,5777601903]},"geometry":{"type":"Point","coordinates":[77.2048545,28.5290666]}},{"type":"Feature","id":"osm-node-554257789","properties":{"id":"osm-node-554257789","name":"Green Park","lineIds":["osm-8037713"],"osmNodeIds":[554257789,5777601886]},"geometry":{"type":"Point","coordinates":[77.2068211,28.5580022]}},{"type":"Feature","id":"osm-node-554257793","properties":{"id":"osm-node-554257793","name":"Dilli Haat - INA","lineIds":["osm-8037713"],"osmNodeIds":[554257793,5777602018]},"geometry":{"type":"Point","coordinates":[77.2093306,28.5741591]}},{"type":"Feature","id":"osm-node-554257797","properties":{"id":"osm-node-554257797","name":"Lok Kalyan Marg","lineIds":["osm-8037713"],"osmNodeIds":[554257797,5777602010]},"geometry":{"type":"Point","coordinates":[77.2111269,28.5973548]}},{"type":"Feature","id":"osm-node-554257800","properties":{"id":"osm-node-554257800","name":"Seva Teerth","lineIds":["osm-8037713"],"osmNodeIds":[554257800,5777602008]},"geometry":{"type":"Point","coordinates":[77.2118249,28.6095117]}},{"type":"Feature","id":"osm-node-554257805","properties":{"id":"osm-node-554257805","name":"Jor Bagh","lineIds":["osm-8037713"],"osmNodeIds":[554257805,5777602013]},"geometry":{"type":"Point","coordinates":[77.2125637,28.5865942]}},{"type":"Feature","id":"osm-node-554257818","properties":{"id":"osm-node-554257818","name":"Patel Chowk","lineIds":["osm-8037713"],"osmNodeIds":[554257818,5777602002]},"geometry":{"type":"Point","coordinates":[77.2140587,28.6229537]}},{"type":"Feature","id":"osm-node-554257842","properties":{"id":"osm-node-554257842","name":"Chawri Bazaar","lineIds":["osm-8037713"],"osmNodeIds":[554257842,5777601996]},"geometry":{"type":"Point","coordinates":[77.2265435,28.6492513]}},{"type":"Feature","id":"osm-node-554257862","properties":{"id":"osm-node-554257862","name":"Chandni Chowk","lineIds":["osm-8037713"],"osmNodeIds":[554257862,5777601993]},"geometry":{"type":"Point","coordinates":[77.230366,28.6584207]}},{"type":"Feature","id":"osm-node-561300694","properties":{"id":"osm-node-561300694","name":"Civil Lines","lineIds":["osm-8037713"],"osmNodeIds":[561300694,5777601978]},"geometry":{"type":"Point","coordinates":[77.2250565,28.6768572]}},{"type":"Feature","id":"osm-node-663777956","properties":{"id":"osm-node-663777956","name":"Vidhan Sabha","lineIds":["osm-8037713"],"osmNodeIds":[663777956,5777601967]},"geometry":{"type":"Point","coordinates":[77.2217576,28.6863272]}},{"type":"Feature","id":"osm-node-663777967","properties":{"id":"osm-node-663777967","name":"Vishwa Vidyalaya","lineIds":["osm-8037713"],"osmNodeIds":[663777967,5777601954]},"geometry":{"type":"Point","coordinates":[77.2147478,28.6950993]}},{"type":"Feature","id":"osm-node-663780748","properties":{"id":"osm-node-663780748","name":"Model Town","lineIds":["osm-8037713"],"osmNodeIds":[663780748,5777601951]},"geometry":{"type":"Point","coordinates":[77.1940059,28.7027391]}},{"type":"Feature","id":"osm-node-663781034","properties":{"id":"osm-node-663781034","name":"Azadpur (Yellow Line)","lineIds":["osm-8037713"],"osmNodeIds":[663781034,5777601942]},"geometry":{"type":"Point","coordinates":[77.1803831,28.7070686]}},{"type":"Feature","id":"osm-node-663781793","properties":{"id":"osm-node-663781793","name":"Adarsh Nagar","lineIds":["osm-8037713"],"osmNodeIds":[663781793,5777601936]},"geometry":{"type":"Point","coordinates":[77.1704471,28.7165981]}},{"type":"Feature","id":"osm-node-913486465","properties":{"id":"osm-node-913486465","name":"Jahangirpuri","lineIds":["osm-8037713"],"osmNodeIds":[913486465,5777602026]},"geometry":{"type":"Point","coordinates":[77.1626826,28.7259874]}},{"type":"Feature","id":"osm-node-922909980","properties":{"id":"osm-node-922909980","name":"Millennium City Centre Gurugram","lineIds":["osm-8037713"],"osmNodeIds":[922909980,5777602022]},"geometry":{"type":"Point","coordinates":[77.0726864,28.4593314]}},{"type":"Feature","id":"osm-node-922910160","properties":{"id":"osm-node-922910160","name":"Saket","lineIds":["osm-8037713"],"osmNodeIds":[922910160,6179179026]},"geometry":{"type":"Point","coordinates":[77.2018984,28.5208731]}},{"type":"Feature","id":"osm-node-939284656","properties":{"id":"osm-node-939284656","name":"Qutab Minar","lineIds":["osm-8037713"],"osmNodeIds":[939284656,5777601843]},"geometry":{"type":"Point","coordinates":[77.1864723,28.5129302]}},{"type":"Feature","id":"osm-node-6547772094","properties":{"id":"osm-node-6547772094","name":"Sikanderpur","lineIds":["osm-8037713","osm-7890003"],"osmNodeIds":[6547772094,5777601807,6547772095,8064593905]},"geometry":{"type":"Point","coordinates":[77.0930074,28.4812437]}},{"type":"Feature","id":"osm-node-6547772097","properties":{"id":"osm-node-6547772097","name":"New Delhi","lineIds":["osm-8037713"],"osmNodeIds":[6547772097,5777602033]},"geometry":{"type":"Point","coordinates":[77.2227708,28.6434707]}},{"type":"Feature","id":"osm-node-6547772107","properties":{"id":"osm-node-6547772107","name":"Hauz Khas (Yellow Line)","lineIds":["osm-8037713"],"osmNodeIds":[6547772107,5777601896]},"geometry":{"type":"Point","coordinates":[77.2067402,28.544258]}},{"type":"Feature","id":"osm-node-6547772108","properties":{"id":"osm-node-6547772108","name":"Central Secretariat","lineIds":["osm-8037713","osm-8037706"],"osmNodeIds":[6547772108,5777602007,1665772897,5777629169]},"geometry":{"type":"Point","coordinates":[77.2123128,28.615878]}},{"type":"Feature","id":"osm-node-7018301884","properties":{"id":"osm-node-7018301884","name":"A.I.I.M.S.","lineIds":["osm-8037713"],"osmNodeIds":[7018301884,5777602034]},"geometry":{"type":"Point","coordinates":[77.207832,28.566854]}},{"type":"Feature","id":"osm-node-9944540105","properties":{"id":"osm-node-9944540105","name":"GTB Nagar","lineIds":["osm-8037713"],"osmNodeIds":[9944540105,5777601952]},"geometry":{"type":"Point","coordinates":[77.2064225,28.6981558]}},{"type":"Feature","id":"osm-node-9945617504","properties":{"id":"osm-node-9945617504","name":"Rohini Sector 18, 19","lineIds":["osm-8037713"],"osmNodeIds":[9945617504,9945617503]},"geometry":{"type":"Point","coordinates":[77.1398643,28.7383436]}},{"type":"Feature","id":"osm-node-9945617506","properties":{"id":"osm-node-9945617506","name":"Samaypur Badli","lineIds":["osm-8037713"],"osmNodeIds":[9945617506,9945617505]},"geometry":{"type":"Point","coordinates":[77.1382993,28.7446391]}},{"type":"Feature","id":"osm-node-1988848864","properties":{"id":"osm-node-1988848864","name":"Belvedere Towers","lineIds":["osm-7890003"],"osmNodeIds":[1988848864]},"geometry":{"type":"Point","coordinates":[77.0881318,28.4917023]}},{"type":"Feature","id":"osm-node-2511127144","properties":{"id":"osm-node-2511127144","name":"Cyber City","lineIds":["osm-7890003"],"osmNodeIds":[2511127144]},"geometry":{"type":"Point","coordinates":[77.0891604,28.4980613]}},{"type":"Feature","id":"osm-node-2533456421","properties":{"id":"osm-node-2533456421","name":"Moulsari Avenue Station","lineIds":["osm-7890003"],"osmNodeIds":[2533456421]},"geometry":{"type":"Point","coordinates":[77.0946306,28.5007775]}},{"type":"Feature","id":"osm-node-2533456422","properties":{"id":"osm-node-2533456422","name":"Phase 3 Station","lineIds":["osm-7890003"],"osmNodeIds":[2533456422]},"geometry":{"type":"Point","coordinates":[77.093661,28.4935677]}},{"type":"Feature","id":"osm-node-4789904280","properties":{"id":"osm-node-4789904280","name":"DLF Phase 1","lineIds":["osm-7890003"],"osmNodeIds":[4789904280]},"geometry":{"type":"Point","coordinates":[77.0939371,28.4714259]}},{"type":"Feature","id":"osm-node-8064593903","properties":{"id":"osm-node-8064593903","name":"DLF Phase 2","lineIds":["osm-7890003"],"osmNodeIds":[8064593903,8064593904]},"geometry":{"type":"Point","coordinates":[77.0930062,28.4875797]}},{"type":"Feature","id":"osm-node-8064593906","properties":{"id":"osm-node-8064593906","name":"Sector 42-43","lineIds":["osm-7890003"],"osmNodeIds":[8064593906]},"geometry":{"type":"Point","coordinates":[77.0969288,28.4574227]}},{"type":"Feature","id":"osm-node-8064593908","properties":{"id":"osm-node-8064593908","name":"Sector 53-54","lineIds":["osm-7890003"],"osmNodeIds":[8064593908]},"geometry":{"type":"Point","coordinates":[77.1004409,28.4463789]}},{"type":"Feature","id":"osm-node-8064593909","properties":{"id":"osm-node-8064593909","name":"Sector 54 Chowk","lineIds":["osm-7890003"],"osmNodeIds":[8064593909]},"geometry":{"type":"Point","coordinates":[77.1048098,28.4329643]}},{"type":"Feature","id":"osm-node-8064593912","properties":{"id":"osm-node-8064593912","name":"Sector 55–56","lineIds":["osm-7890003"],"osmNodeIds":[8064593912]},"geometry":{"type":"Point","coordinates":[77.1050893,28.4232989]}},{"type":"Feature","id":"osm-node-2579368841","properties":{"id":"osm-node-2579368841","name":"Nangli","lineIds":["osm-8051593"],"osmNodeIds":[2579368841,5777631612]},"geometry":{"type":"Point","coordinates":[77.0104516,28.6172778]}},{"type":"Feature","id":"osm-node-2579368852","properties":{"id":"osm-node-2579368852","name":"Dwarka - Kakrola (Grey Line)","lineIds":["osm-8051593"],"osmNodeIds":[2579368852,5777631610]},"geometry":{"type":"Point","coordinates":[77.0223656,28.6159127]}},{"type":"Feature","id":"osm-node-9138309313","properties":{"id":"osm-node-9138309313","name":"Najafgarh","lineIds":["osm-8051593"],"osmNodeIds":[9138309313,9172459617]},"geometry":{"type":"Point","coordinates":[76.986563,28.6124258]}},{"type":"Feature","id":"osm-node-9172459623","properties":{"id":"osm-node-9172459623","name":"Dhansa Bus Stand","lineIds":["osm-8051593"],"osmNodeIds":[9172459623,9172459619]},"geometry":{"type":"Point","coordinates":[76.9785499,28.6118826]}},{"type":"Feature","id":"osm-node-562620239","properties":{"id":"osm-node-562620239","name":"Jawaharlal Nehru Stadium","lineIds":["osm-8037706"],"osmNodeIds":[562620239,5777629158]},"geometry":{"type":"Point","coordinates":[77.2338082,28.5882486]}},{"type":"Feature","id":"osm-node-562620241","properties":{"id":"osm-node-562620241","name":"Jangpura","lineIds":["osm-8037706"],"osmNodeIds":[562620241,5777629829]},"geometry":{"type":"Point","coordinates":[77.2393458,28.5830411]}},{"type":"Feature","id":"osm-node-562620806","properties":{"id":"osm-node-562620806","name":"Lajpat Nagar (Violet Line)","lineIds":["osm-8037706"],"osmNodeIds":[562620806,5777629559]},"geometry":{"type":"Point","coordinates":[77.2364175,28.5705695]}},{"type":"Feature","id":"osm-node-562620810","properties":{"id":"osm-node-562620810","name":"Moolchand","lineIds":["osm-8037706"],"osmNodeIds":[562620810,9546632101]},"geometry":{"type":"Point","coordinates":[77.2342783,28.5644043]}},{"type":"Feature","id":"osm-node-562622101","properties":{"id":"osm-node-562622101","name":"Jasola Apollo","lineIds":["osm-8037706"],"osmNodeIds":[562622101,9546632102]},"geometry":{"type":"Point","coordinates":[77.2830377,28.5384251]}},{"type":"Feature","id":"osm-node-562622242","properties":{"id":"osm-node-562622242","name":"Sarita Vihar","lineIds":["osm-8037706"],"osmNodeIds":[562622242,5777629832]},"geometry":{"type":"Point","coordinates":[77.2883155,28.5285876]}},{"type":"Feature","id":"osm-node-562622248","properties":{"id":"osm-node-562622248","name":"Tughlakabad","lineIds":["osm-8037706"],"osmNodeIds":[562622248,5777629635]},"geometry":{"type":"Point","coordinates":[77.2992401,28.5023598]}},{"type":"Feature","id":"osm-node-562722447","properties":{"id":"osm-node-562722447","name":"Badarpur","lineIds":["osm-8037706"],"osmNodeIds":[562722447,5777629619]},"geometry":{"type":"Point","coordinates":[77.3030239,28.4931698]}},{"type":"Feature","id":"osm-node-856302882","properties":{"id":"osm-node-856302882","name":"Harkesh Nagar Okhla","lineIds":["osm-8037706"],"osmNodeIds":[856302882,5777629785]},"geometry":{"type":"Point","coordinates":[77.2756683,28.5432816]}},{"type":"Feature","id":"osm-node-927873461","properties":{"id":"osm-node-927873461","name":"Govind Puri","lineIds":["osm-8037706"],"osmNodeIds":[927873461,5777629803]},"geometry":{"type":"Point","coordinates":[77.264266,28.5443766]}},{"type":"Feature","id":"osm-node-927873481","properties":{"id":"osm-node-927873481","name":"Khan Market","lineIds":["osm-8037706"],"osmNodeIds":[927873481,5777629164]},"geometry":{"type":"Point","coordinates":[77.2291415,28.6022643]}},{"type":"Feature","id":"osm-node-927873489","properties":{"id":"osm-node-927873489","name":"Kailash Colony","lineIds":["osm-8037706"],"osmNodeIds":[927873489,5777629235]},"geometry":{"type":"Point","coordinates":[77.241984,28.5553442]}},{"type":"Feature","id":"osm-node-1135153141","properties":{"id":"osm-node-1135153141","name":"Nehru Place","lineIds":["osm-8037706"],"osmNodeIds":[1135153141,5777629833]},"geometry":{"type":"Point","coordinates":[77.2517393,28.5514411]}},{"type":"Feature","id":"osm-node-1706019482","properties":{"id":"osm-node-1706019482","name":"Mohan Estate","lineIds":["osm-8037706"],"osmNodeIds":[1706019482,5777629650]},"geometry":{"type":"Point","coordinates":[77.2944799,28.5197252]}},{"type":"Feature","id":"osm-node-1988668271","properties":{"id":"osm-node-1988668271","name":"Janpath","lineIds":["osm-8037706"],"osmNodeIds":[1988668271,5777629177]},"geometry":{"type":"Point","coordinates":[77.2192877,28.6240472]}},{"type":"Feature","id":"osm-node-1988668281","properties":{"id":"osm-node-1988668281","name":"Jama Masjid","lineIds":["osm-8037706"],"osmNodeIds":[1988668281,5777629203]},"geometry":{"type":"Point","coordinates":[77.2376857,28.6500446]}},{"type":"Feature","id":"osm-node-2722924227","properties":{"id":"osm-node-2722924227","name":"Lal Quila","lineIds":["osm-8037706"],"osmNodeIds":[2722924227,5777629211]},"geometry":{"type":"Point","coordinates":[77.2367275,28.65748]}},{"type":"Feature","id":"osm-node-2837165876","properties":{"id":"osm-node-2837165876","name":"Delhi Gate","lineIds":["osm-8037706"],"osmNodeIds":[2837165876,5777629197]},"geometry":{"type":"Point","coordinates":[77.2408097,28.6392211]}},{"type":"Feature","id":"osm-node-2837194690","properties":{"id":"osm-node-2837194690","name":"Sarai","lineIds":["osm-8037706"],"osmNodeIds":[2837194690,5777629611]},"geometry":{"type":"Point","coordinates":[77.3049182,28.4779698]}},{"type":"Feature","id":"osm-node-2837246576","properties":{"id":"osm-node-2837246576","name":"Badhkal Mor","lineIds":["osm-8037706"],"osmNodeIds":[2837246576,5777629588]},"geometry":{"type":"Point","coordinates":[77.3103769,28.4227144]}},{"type":"Feature","id":"osm-node-2837246577","properties":{"id":"osm-node-2837246577","name":"Mewala Maharajpur","lineIds":["osm-8037706"],"osmNodeIds":[2837246577,5777629596]},"geometry":{"type":"Point","coordinates":[77.308095,28.4486201]}},{"type":"Feature","id":"osm-node-2837246578","properties":{"id":"osm-node-2837246578","name":"N.H.P.C. Chowk","lineIds":["osm-8037706"],"osmNodeIds":[2837246578,5777629599]},"geometry":{"type":"Point","coordinates":[77.3073933,28.4577786]}},{"type":"Feature","id":"osm-node-2837246579","properties":{"id":"osm-node-2837246579","name":"Old Faridabad","lineIds":["osm-8037706"],"osmNodeIds":[2837246579,5777629582]},"geometry":{"type":"Point","coordinates":[77.3114622,28.4108364]}},{"type":"Feature","id":"osm-node-2837246580","properties":{"id":"osm-node-2837246580","name":"Sector 28","lineIds":["osm-8037706"],"osmNodeIds":[2837246580,5777629591]},"geometry":{"type":"Point","coordinates":[77.309063,28.4381599]}},{"type":"Feature","id":"osm-node-2837246581","properties":{"id":"osm-node-2837246581","name":"Escorts Mujesar","lineIds":["osm-8037706"],"osmNodeIds":[2837246581,5777629565]},"geometry":{"type":"Point","coordinates":[77.3149203,28.3702344]}},{"type":"Feature","id":"osm-node-3284150025","properties":{"id":"osm-node-3284150025","name":"Bata Chowk","lineIds":["osm-8037706"],"osmNodeIds":[3284150025,5777629574]},"geometry":{"type":"Point","coordinates":[77.313462,28.3858361]}},{"type":"Feature","id":"osm-node-3580369626","properties":{"id":"osm-node-3580369626","name":"ITO","lineIds":["osm-8037706"],"osmNodeIds":[3580369626,5777629192]},"geometry":{"type":"Point","coordinates":[77.2410728,28.6281909]}},{"type":"Feature","id":"osm-node-4335296791","properties":{"id":"osm-node-4335296791","name":"Sant Surdas (Sihi)","lineIds":["osm-8037706"],"osmNodeIds":[4335296791,9546649924]},"geometry":{"type":"Point","coordinates":[77.3162264,28.3546513]}},{"type":"Feature","id":"osm-node-4678405308","properties":{"id":"osm-node-4678405308","name":"Raja Nahar Singh","lineIds":["osm-8037706"],"osmNodeIds":[4678405308,9546632109]},"geometry":{"type":"Point","coordinates":[77.3164791,28.340005]}},{"type":"Feature","id":"osm-node-6547772101","properties":{"id":"osm-node-6547772101","name":"Kalkaji Mandir","lineIds":["osm-8037706"],"osmNodeIds":[6547772101,5777629811]},"geometry":{"type":"Point","coordinates":[77.2591115,28.5494963]}},{"type":"Feature","id":"osm-node-8575372986","properties":{"id":"osm-node-8575372986","name":"Neelam Chowk Ajronda","lineIds":["osm-8037706"],"osmNodeIds":[8575372986,5777629577]},"geometry":{"type":"Point","coordinates":[77.3124347,28.3974884]}},{"type":"Feature","id":"osm-node-4849443433","properties":{"id":"osm-node-4849443433","name":"Knowledge Park II","lineIds":["osm-9256785"],"osmNodeIds":[4849443433,5777613685]},"geometry":{"type":"Point","coordinates":[77.5002978,28.4570728]}},{"type":"Feature","id":"osm-node-4950923221","properties":{"id":"osm-node-4950923221","name":"Rainbow Metro Station","lineIds":["osm-9256785"],"osmNodeIds":[4950923221,5777613343]},"geometry":{"type":"Point","coordinates":[77.3782577,28.5743612]}},{"type":"Feature","id":"osm-node-10074914466","properties":{"id":"osm-node-10074914466","name":"Depot Station","lineIds":["osm-9256785"],"osmNodeIds":[10074914466,5777613712]},"geometry":{"type":"Point","coordinates":[77.5439804,28.4890297]}},{"type":"Feature","id":"osm-node-10074914467","properties":{"id":"osm-node-10074914467","name":"GNIDA Office","lineIds":["osm-9256785"],"osmNodeIds":[10074914467,5777613710]},"geometry":{"type":"Point","coordinates":[77.5364801,28.4847012]}},{"type":"Feature","id":"osm-node-10074914468","properties":{"id":"osm-node-10074914468","name":"Delta 1","lineIds":["osm-9256785"],"osmNodeIds":[10074914468,5777613706]},"geometry":{"type":"Point","coordinates":[77.5256933,28.4784907]}},{"type":"Feature","id":"osm-node-10074914469","properties":{"id":"osm-node-10074914469","name":"Alpha 1","lineIds":["osm-9256785"],"osmNodeIds":[10074914469,5777613702]},"geometry":{"type":"Point","coordinates":[77.5127076,28.4710499]}},{"type":"Feature","id":"osm-node-10074914470","properties":{"id":"osm-node-10074914470","name":"Pari Chowk","lineIds":["osm-9256785"],"osmNodeIds":[10074914470,5777613688]},"geometry":{"type":"Point","coordinates":[77.5083353,28.4634141]}},{"type":"Feature","id":"osm-node-10074914471","properties":{"id":"osm-node-10074914471","name":"Noida Sector 148","lineIds":["osm-9256785"],"osmNodeIds":[10074914471,5777613662]},"geometry":{"type":"Point","coordinates":[77.4766226,28.4480792]}},{"type":"Feature","id":"osm-node-10074914472","properties":{"id":"osm-node-10074914472","name":"Noida Sector 147","lineIds":["osm-9256785"],"osmNodeIds":[10074914472,5777613652]},"geometry":{"type":"Point","coordinates":[77.4662076,28.4593419]}},{"type":"Feature","id":"osm-node-10074914473","properties":{"id":"osm-node-10074914473","name":"Noida Sector 146","lineIds":["osm-9256785"],"osmNodeIds":[10074914473,5777613645]},"geometry":{"type":"Point","coordinates":[77.4551892,28.4688753]}},{"type":"Feature","id":"osm-node-10074914474","properties":{"id":"osm-node-10074914474","name":"Noida Sector 145","lineIds":["osm-9256785"],"osmNodeIds":[10074914474,5777613636]},"geometry":{"type":"Point","coordinates":[77.4424232,28.4790219]}},{"type":"Feature","id":"osm-node-10074914475","properties":{"id":"osm-node-10074914475","name":"Noida Sector 144","lineIds":["osm-9256785"],"osmNodeIds":[10074914475,5777613630]},"geometry":{"type":"Point","coordinates":[77.4330884,28.4863132]}},{"type":"Feature","id":"osm-node-10074914476","properties":{"id":"osm-node-10074914476","name":"Noida Sector 143","lineIds":["osm-9256785"],"osmNodeIds":[10074914476,5777613624]},"geometry":{"type":"Point","coordinates":[77.4223917,28.4942812]}},{"type":"Feature","id":"osm-node-10074914477","properties":{"id":"osm-node-10074914477","name":"Noida Sector 142","lineIds":["osm-9256785"],"osmNodeIds":[10074914477,5777613618]},"geometry":{"type":"Point","coordinates":[77.412868,28.4990137]}},{"type":"Feature","id":"osm-node-10074914478","properties":{"id":"osm-node-10074914478","name":"Noida Sector 137","lineIds":["osm-9256785"],"osmNodeIds":[10074914478,5777613604]},"geometry":{"type":"Point","coordinates":[77.4036289,28.5107876]}},{"type":"Feature","id":"osm-node-10074914479","properties":{"id":"osm-node-10074914479","name":"Noida Sector 83","lineIds":["osm-9256785"],"osmNodeIds":[10074914479,5777613593]},"geometry":{"type":"Point","coordinates":[77.3964592,28.5222947]}},{"type":"Feature","id":"osm-node-10074914480","properties":{"id":"osm-node-10074914480","name":"NSEZ","lineIds":["osm-9256785"],"osmNodeIds":[10074914480,5777613583]},"geometry":{"type":"Point","coordinates":[77.3947827,28.5324158]}},{"type":"Feature","id":"osm-node-10074914481","properties":{"id":"osm-node-10074914481","name":"Noida Sector 81","lineIds":["osm-9256785"],"osmNodeIds":[10074914481,5777613567]},"geometry":{"type":"Point","coordinates":[77.3899644,28.5493098]}},{"type":"Feature","id":"osm-node-10074914482","properties":{"id":"osm-node-10074914482","name":"Noida Sector 101","lineIds":["osm-9256785"],"osmNodeIds":[10074914482,5777613556]},"geometry":{"type":"Point","coordinates":[77.3849701,28.5560682]}},{"type":"Feature","id":"osm-node-10074914483","properties":{"id":"osm-node-10074914483","name":"Noida Sector 76","lineIds":["osm-9256785"],"osmNodeIds":[10074914483,5777613345]},"geometry":{"type":"Point","coordinates":[77.3796863,28.5653399]}},{"type":"Feature","id":"osm-node-10074914484","properties":{"id":"osm-node-10074914484","name":"Noida Sector 51","lineIds":["osm-9256785"],"osmNodeIds":[10074914484,10074914485]},"geometry":{"type":"Point","coordinates":[77.3752792,28.5857254]}}]}
