{"type":"FeatureCollection","features":[{"type":"Feature","id":"in-arunachal-t-6087","properties":{"id":"in-arunachal-t-6087","name":"Aalo HQ","region":"in-arunachal","level":"tehsil","parent":"in-arunachal-d-243","district":"West Siang","source":"LGD via Bharatlas · 2024 snapshot","state_lgd":12,"district_lgd":243,"subdistrict_lgd":6087,"center":[94.76676242522826,28.131324151152825],"bbox":[94.5853509,28.0402586,94.9438188,28.2221333]},"geometry":{"type":"Point","coordinates":[94.76676242522826,28.131324151152825]}},{"type":"Feature","id":"in-arunachal-t-1720","properties":{"id":"in-arunachal-t-1720","name":"Anelih","region":"in-arunachal","level":"tehsil","parent":"in-arunachal-d-230","district":"Dibang Valley","source":"LGD via Bharatlas · 2024 snapshot","state_lgd":12,"district_lgd":230,"subdistrict_lgd":1720,"center":[95.58103920292064,28.564609554174947],"bbox":[95.3508315,28.4282563,95.8514121,28.7314059]},"geometry":{"type":"Point","coordinates":[95.58103920292064,28.564609554174947]}},{"type":"Feature","id":"in-arunachal-t-1718","properties":{"id":"in-arunachal-t-1718","name":"Anini","region":"in-arunachal","level":"tehsil","parent":"in-arunachal-d-230","district":"Dibang Valley","source":"LGD via Bharatlas · 2024 snapshot","state_lgd":12,"district_lgd":230,"subdistrict_lgd":1718,"center":[96.03841865954675,29.009664510257423],"bbox":[95.6998703,28.6458543,96.3808314,29.4615241]},"geometry":{"type":"Point","coordinates":[96.03841865954675,29.009664510257423]}},{"type":"Feature","id":"in-arunachal-t-source-3189","properties":{"id":"in-arunachal-t-source-3189","name":"Bagra","region":"in-arunachal","level":"tehsil","parent":"in-arunachal-d-243","district":"West Siang","source":"LGD via Bharatlas · 2024 snapshot","state_lgd":12,"district_lgd":243,"subdistrict_lgd":null,"source_objectid":3189,"center":[94.77933711869049,28.043183305430794],"bbox":[94.6704058,27.9859242,94.9208164,28.1079192]},"geometry":{"type":"Point","coordinates":[94.77933711869049,28.043183305430794]}},{"type":"Feature","id":"in-arunachal-t-source-3114","properties":{"id":"in-arunachal-t-source-3114","name":"Balemu","region":"in-arunachal","level":"tehsil","parent":"in-arunachal-d-242","district":"West Kameng","source":"LGD via Bharatlas · 2024 snapshot","state_lgd":12,"district_lgd":242,"subdistrict_lgd":null,"source_objectid":3114,"center":[92.16877774473025,26.951702624482518],"bbox":[92.0971841,26.8889837,92.2390668,27.0295693]},"geometry":{"type":"Point","coordinates":[92.16877774473025,26.951702624482518]}},{"type":"Feature","id":"in-arunachal-t-1592","properties":{"id":"in-arunachal-t-1592","name":"Balijan ADC","region":"in-arunachal","level":"tehsil","parent":"in-arunachal-d-237","district":"Papum Pare","source":"LGD via Bharatlas · 2024 snapshot","state_lgd":12,"district_lgd":237,"subdistrict_lgd":1592,"center":[93.56825685389411,26.993200239844576],"bbox":[93.4736051,26.9445437,93.6906118,27.0433608]},"geometry":{"type":"Point","coordinates":[93.56825685389411,26.993200239844576]}},{"type":"Feature","id":"in-arunachal-t-1586","properties":{"id":"in-arunachal-t-1586","name":"Bameng ADC","region":"in-arunachal","level":"tehsil","parent":"in-arunachal-d-231","district":"East Kameng","source":"LGD via Bharatlas · 2024 snapshot","state_lgd":12,"district_lgd":231,"subdistrict_lgd":1586,"center":[92.92752155468004,27.518794123881417],"bbox":[92.8246598,27.4154147,93.0382068,27.6125531]},"geometry":{"type":"Point","coordinates":[92.92752155468004,27.518794123881417]}},{"type":"Feature","id":"in-arunachal-t-source-3148","properties":{"id":"in-arunachal-t-source-3148","name":"Banderdawa","region":"in-arunachal","level":"tehsil","parent":"in-arunachal-d-237","district":"Papum Pare","source":"LGD via Bharatlas · 2024 snapshot","state_lgd":12,"district_lgd":237,"subdistrict_lgd":null,"source_objectid":3148,"center":[93.72800851255174,27.051719752340066],"bbox":[93.6230749,26.9865074,93.8377744,27.1092916]},"geometry":{"type":"Point","coordinates":[93.72800851255174,27.051719752340066]}},{"type":"Feature","id":"in-arunachal-t-1620","properties":{"id":"in-arunachal-t-1620","name":"Baririjo Circle","region":"in-arunachal","level":"tehsil","parent":"in-arunachal-d-241","district":"Upper Subansiri","source":"LGD via Bharatlas · 2024 snapshot","state_lgd":12,"district_lgd":241,"subdistrict_lgd":1620,"center":[94.43054614253266,27.885244579528106],"bbox":[94.297635,27.7577772,94.594836,27.9932292]},"geometry":{"type":"Point","coordinates":[94.43054614253266,27.885244579528106]}},{"type":"Feature","id":"in-arunachal-t-1636","properties":{"id":"in-arunachal-t-1636","name":"Basar ADC","region":"in-arunachal","level":"tehsil","parent":"in-arunachal-d-724","district":"Leparada","source":"LGD via Bharatlas · 2024 snapshot","state_lgd":12,"district_lgd":724,"subdistrict_lgd":1636,"center":[94.71022646243614,27.96596023148589],"bbox":[94.5250739,27.8926931,94.9064253,28.044173]},"geometry":{"type":"Point","coordinates":[94.71022646243614,27.96596023148589]}},{"type":"Feature","id":"in-arunachal-t-6561","properties":{"id":"in-arunachal-t-6561","name":"Bhalukpong EAC","region":"in-arunachal","level":"tehsil","parent":"in-arunachal-d-242","district":"West Kameng","source":"LGD via Bharatlas · 2024 snapshot","state_lgd":12,"district_lgd":242,"subdistrict_lgd":6561,"center":[92.55359753760631,27.050207097594438],"bbox":[92.4460023,26.95744,92.6454165,27.1632474]},"geometry":{"type":"Point","coordinates":[92.55359753760631,27.050207097594438]}},{"type":"Feature","id":"in-arunachal-t-1652","properties":{"id":"in-arunachal-t-1652","name":"Bilat Circle","region":"in-arunachal","level":"tehsil","parent":"in-arunachal-d-232","district":"East Siang","source":"LGD via Bharatlas · 2024 snapshot","state_lgd":12,"district_lgd":232,"subdistrict_lgd":1652,"center":[95.18006239339257,27.97054631747054],"bbox":[95.0673672,27.9023467,95.3004597,28.0562569]},"geometry":{"type":"Point","coordinates":[95.18006239339257,27.97054631747054]}},{"type":"Feature","id":"in-arunachal-t-1643","properties":{"id":"in-arunachal-t-1643","name":"Boleng ADC","region":"in-arunachal","level":"tehsil","parent":"in-arunachal-d-679","district":"Siang","source":"LGD via Bharatlas · 2024 snapshot","state_lgd":12,"district_lgd":679,"subdistrict_lgd":1643,"center":[94.88991360037829,28.45143640185791],"bbox":[94.7417709,28.2270498,94.9970525,28.5817993]},"geometry":{"type":"Point","coordinates":[94.88991360037829,28.45143640185791]}},{"type":"Feature","id":"in-arunachal-t-6568","properties":{"id":"in-arunachal-t-6568","name":"Bomdila HQ","region":"in-arunachal","level":"tehsil","parent":"in-arunachal-d-242","district":"West Kameng","source":"LGD via Bharatlas · 2024 snapshot","state_lgd":12,"district_lgd":242,"subdistrict_lgd":6568,"center":[92.40972329012304,27.252527536345962],"bbox":[92.3806861,27.2292219,92.4437755,27.2813162]},"geometry":{"type":"Point","coordinates":[92.40972329012304,27.252527536345962]}},{"type":"Feature","id":"in-arunachal-t-6557","properties":{"id":"in-arunachal-t-6557","name":"Bongkhar Circle","region":"in-arunachal","level":"tehsil","parent":"in-arunachal-d-238","district":"Tawang","source":"LGD via Bharatlas · 2024 snapshot","state_lgd":12,"district_lgd":238,"subdistrict_lgd":6557,"center":[91.77552053803912,27.49886927749072],"bbox":[91.7045369,27.4647554,91.8420546,27.541082]},"geometry":{"type":"Point","coordinates":[91.77552053803912,27.49886927749072]}},{"type":"Feature","id":"in-arunachal-t-1683","properties":{"id":"in-arunachal-t-1683","name":"Bordumsa ADC","region":"in-arunachal","level":"tehsil","parent":"in-arunachal-d-229","district":"Changlang","source":"LGD via Bharatlas · 2024 snapshot","state_lgd":12,"district_lgd":229,"subdistrict_lgd":1683,"center":[95.94773418112193,27.485482635365486],"bbox":[95.8422701,27.3981549,96.1157138,27.5537492]},"geometry":{"type":"Point","coordinates":[95.94773418112193,27.485482635365486]}},{"type":"Feature","id":"in-arunachal-t-1739","properties":{"id":"in-arunachal-t-1739","name":"Chaglagam Circle","region":"in-arunachal","level":"tehsil","parent":"in-arunachal-d-628","district":"Anjaw","source":"LGD via Bharatlas · 2024 snapshot","state_lgd":12,"district_lgd":628,"subdistrict_lgd":1739,"center":[96.60238485260855,28.337515013904078],"bbox":[96.3892734,28.2128979,96.8118678,28.4577853]},"geometry":{"type":"Point","coordinates":[96.60238485260855,28.337515013904078]}},{"type":"Feature","id":"in-arunachal-t-1709","properties":{"id":"in-arunachal-t-1709","name":"Chambang Circle","region":"in-arunachal","level":"tehsil","parent":"in-arunachal-d-236","district":"Lower Subansiri","source":"LGD via Bharatlas · 2024 snapshot","state_lgd":12,"district_lgd":236,"subdistrict_lgd":1709,"center":[93.79610984435591,27.837189705318714],"bbox":[93.6542115,27.7543266,93.9527968,27.9190289]},"geometry":{"type":"Point","coordinates":[93.79610984435591,27.837189705318714]}},{"type":"Feature","id":"in-arunachal-t-1671","properties":{"id":"in-arunachal-t-1671","name":"Changlang HQ","region":"in-arunachal","level":"tehsil","parent":"in-arunachal-d-229","district":"Changlang","source":"LGD via Bharatlas · 2024 snapshot","state_lgd":12,"district_lgd":229,"subdistrict_lgd":1671,"center":[95.83481976027882,27.120032045820405],"bbox":[95.7227225,27.0074775,95.9756052,27.2386051]},"geometry":{"type":"Point","coordinates":[95.83481976027882,27.120032045820405]}},{"type":"Feature","id":"in-arunachal-t-1590","properties":{"id":"in-arunachal-t-1590","name":"Chayangtajo ADC","region":"in-arunachal","level":"tehsil","parent":"in-arunachal-d-231","district":"East Kameng","source":"LGD via Bharatlas · 2024 snapshot","state_lgd":12,"district_lgd":231,"subdistrict_lgd":1590,"center":[93.145858730577,27.73110873809862],"bbox":[93.064729,27.6081511,93.2369377,27.8460786]},"geometry":{"type":"Point","coordinates":[93.145858730577,27.73110873809862]}},{"type":"Feature","id":"in-arunachal-t-1614","properties":{"id":"in-arunachal-t-1614","name":"Chetam Peer Yapu Circle","region":"in-arunachal","level":"tehsil","parent":"in-arunachal-d-241","district":"Upper Subansiri","source":"LGD via Bharatlas · 2024 snapshot","state_lgd":12,"district_lgd":241,"subdistrict_lgd":1614,"center":[94.01208868338651,28.03929550112813],"bbox":[93.8749834,27.9502906,94.1578327,28.1076907]},"geometry":{"type":"Point","coordinates":[94.01208868338651,28.03929550112813]}},{"type":"Feature","id":"in-arunachal-t-1731","properties":{"id":"in-arunachal-t-1731","name":"Chongkham EAC","region":"in-arunachal","level":"tehsil","parent":"in-arunachal-d-678","district":"Namsai","source":"LGD via Bharatlas · 2024 snapshot","state_lgd":12,"district_lgd":678,"subdistrict_lgd":1731,"center":[96.11044520543018,27.720646376316978],"bbox":[95.8879137,27.5554368,96.302276,27.8502442]},"geometry":{"type":"Point","coordinates":[96.11044520543018,27.720646376316978]}},{"type":"Feature","id":"in-arunachal-t-1687","properties":{"id":"in-arunachal-t-1687","name":"Dadam Circle","region":"in-arunachal","level":"tehsil","parent":"in-arunachal-d-239","district":"Tirap","source":"LGD via Bharatlas · 2024 snapshot","state_lgd":12,"district_lgd":239,"subdistrict_lgd":1687,"center":[95.42630021198136,26.93175859027814],"bbox":[95.3681241,26.8857416,95.4810593,26.9720565]},"geometry":{"type":"Point","coordinates":[95.42630021198136,26.93175859027814]}},{"type":"Feature","id":"in-arunachal-t-1725","properties":{"id":"in-arunachal-t-1725","name":"Dambuk ADC","region":"in-arunachal","level":"tehsil","parent":"in-arunachal-d-235","district":"Lower Dibang Valley","source":"LGD via Bharatlas · 2024 snapshot","state_lgd":12,"district_lgd":235,"subdistrict_lgd":1725,"center":[95.54061678995326,28.328341637499253],"bbox":[95.3200442,28.0193011,95.764467,28.5556259]},"geometry":{"type":"Point","coordinates":[95.54061678995326,28.328341637499253]}},{"type":"Feature","id":"in-arunachal-t-1714","properties":{"id":"in-arunachal-t-1714","name":"DAMIN CIRCLE","region":"in-arunachal","level":"tehsil","parent":"in-arunachal-d-233","district":"Kurung Kumey","source":"LGD via Bharatlas · 2024 snapshot","state_lgd":12,"district_lgd":233,"subdistrict_lgd":1714,"center":[93.19908810004858,28.17959087720316],"bbox":[92.8297549,28.0196358,93.5059084,28.3669949]},"geometry":{"type":"Point","coordinates":[93.19908810004858,28.17959087720316]}},{"type":"Feature","id":"in-arunachal-t-1615","properties":{"id":"in-arunachal-t-1615","name":"Daporijo Hq","region":"in-arunachal","level":"tehsil","parent":"in-arunachal-d-241","district":"Upper Subansiri","source":"LGD via Bharatlas · 2024 snapshot","state_lgd":12,"district_lgd":241,"subdistrict_lgd":1615,"center":[94.15092604330668,27.95300287950527],"bbox":[94.0476758,27.8492972,94.285555,28.0596162]},"geometry":{"type":"Point","coordinates":[94.15092604330668,27.95300287950527]}},{"type":"Feature","id":"in-arunachal-t-1628","properties":{"id":"in-arunachal-t-1628","name":"Darak Circle","region":"in-arunachal","level":"tehsil","parent":"in-arunachal-d-243","district":"West Siang","source":"LGD via Bharatlas · 2024 snapshot","state_lgd":12,"district_lgd":243,"subdistrict_lgd":1628,"center":[94.50244007045151,28.264770805290723],"bbox":[94.3748003,28.1383763,94.6164028,28.4035672]},"geometry":{"type":"Point","coordinates":[94.50244007045151,28.264770805290723]}},{"type":"Feature","id":"in-arunachal-t-1637","properties":{"id":"in-arunachal-t-1637","name":"Daring Circle","region":"in-arunachal","level":"tehsil","parent":"in-arunachal-d-724","district":"Leparada","source":"LGD via Bharatlas · 2024 snapshot","state_lgd":12,"district_lgd":724,"subdistrict_lgd":1637,"center":[94.76640658914452,27.868092170452098],"bbox":[94.5878283,27.7729625,94.9262213,27.942856]},"geometry":{"type":"Point","coordinates":[94.76640658914452,27.868092170452098]}},{"type":"Feature","id":"in-arunachal-t-1684","properties":{"id":"in-arunachal-t-1684","name":"Deomali ADC","region":"in-arunachal","level":"tehsil","parent":"in-arunachal-d-239","district":"Tirap","source":"LGD via Bharatlas · 2024 snapshot","state_lgd":12,"district_lgd":239,"subdistrict_lgd":1684,"center":[95.53749478682454,27.15174646836508],"bbox":[95.4397432,27.0520381,95.6495088,27.2645875]},"geometry":{"type":"Point","coordinates":[95.53749478682454,27.15174646836508]}},{"type":"Feature","id":"in-arunachal-t-source-2396","properties":{"id":"in-arunachal-t-source-2396","name":"Desali","region":"in-arunachal","level":"tehsil","parent":"in-arunachal-d-235","district":"Lower Dibang Valley","source":"LGD via Bharatlas · 2024 snapshot","state_lgd":12,"district_lgd":235,"subdistrict_lgd":null,"source_objectid":2396,"center":[96.15750880063355,28.34369671553506],"bbox":[95.9744048,28.1699118,96.3635555,28.5343557]},"geometry":{"type":"Point","coordinates":[96.15750880063355,28.34369671553506]}},{"type":"Feature","id":"in-arunachal-t-1566","properties":{"id":"in-arunachal-t-1566","name":"Dirang ADC","region":"in-arunachal","level":"tehsil","parent":"in-arunachal-d-242","district":"West Kameng","source":"LGD via Bharatlas · 2024 snapshot","state_lgd":12,"district_lgd":242,"subdistrict_lgd":1566,"center":[92.2300019035743,27.426516797382554],"bbox":[92.0218608,27.185305,92.4375552,27.6741501]},"geometry":{"type":"Point","coordinates":[92.2300019035743,27.426516797382554]}},{"type":"Feature","id":"in-arunachal-t-source-3133","properties":{"id":"in-arunachal-t-source-3133","name":"Dissing-Passo","region":"in-arunachal","level":"tehsil","parent":"in-arunachal-d-723","district":"Pakke Kessang","source":"LGD via Bharatlas · 2024 snapshot","state_lgd":12,"district_lgd":723,"subdistrict_lgd":null,"source_objectid":3133,"center":[93.2151206693836,26.9849504210916],"bbox":[93.0951847,26.9322366,93.3895816,27.0553659]},"geometry":{"type":"Point","coordinates":[93.2151206693836,26.9849504210916]}},{"type":"Feature","id":"in-arunachal-t-1682","properties":{"id":"in-arunachal-t-1682","name":"Diyun EAC","region":"in-arunachal","level":"tehsil","parent":"in-arunachal-d-229","district":"Changlang","source":"LGD via Bharatlas · 2024 snapshot","state_lgd":12,"district_lgd":229,"subdistrict_lgd":1682,"center":[96.09803297350615,27.55450357861854],"bbox":[95.9419808,27.5080182,96.238126,27.6195693]},"geometry":{"type":"Point","coordinates":[96.09803297350615,27.55450357861854]}},{"type":"Feature","id":"in-arunachal-t-1598","properties":{"id":"in-arunachal-t-1598","name":"Doimukh SDO","region":"in-arunachal","level":"tehsil","parent":"in-arunachal-d-237","district":"Papum Pare","source":"LGD via Bharatlas · 2024 snapshot","state_lgd":12,"district_lgd":237,"subdistrict_lgd":1598,"center":[93.75531784649641,27.182782655735064],"bbox":[93.6912629,27.1222399,93.8447486,27.237917]},"geometry":{"type":"Point","coordinates":[93.75531784649641,27.182782655735064]}},{"type":"Feature","id":"in-arunachal-t-1701","properties":{"id":"in-arunachal-t-1701","name":"Dollungmukh Circle","region":"in-arunachal","level":"tehsil","parent":"in-arunachal-d-718","district":"Kamle","source":"LGD via Bharatlas · 2024 snapshot","state_lgd":12,"district_lgd":718,"subdistrict_lgd":1701,"center":[94.13314168397281,27.599771530135495],"bbox":[93.9260931,27.4878719,94.3560381,27.7823312]},"geometry":{"type":"Point","coordinates":[94.13314168397281,27.599771530135495]}},{"type":"Feature","id":"in-arunachal-t-source-3105","properties":{"id":"in-arunachal-t-source-3105","name":"DUDUNGHAR","region":"in-arunachal","level":"tehsil","parent":"in-arunachal-d-238","district":"Tawang","source":"LGD via Bharatlas · 2024 snapshot","state_lgd":12,"district_lgd":238,"subdistrict_lgd":null,"source_objectid":3105,"center":[91.61852125868258,27.572053108116776],"bbox":[91.5621778,27.4830413,91.6742988,27.6398296]},"geometry":{"type":"Point","coordinates":[91.61852125868258,27.572053108116776]}},{"type":"Feature","id":"in-arunachal-t-1617","properties":{"id":"in-arunachal-t-1617","name":"Dumporijo ADC","region":"in-arunachal","level":"tehsil","parent":"in-arunachal-d-241","district":"Upper Subansiri","source":"LGD via Bharatlas · 2024 snapshot","state_lgd":12,"district_lgd":241,"subdistrict_lgd":1617,"center":[94.2925099306048,28.028698818573883],"bbox":[94.2337855,27.9624542,94.3497551,28.0893594]},"geometry":{"type":"Point","coordinates":[94.2925099306048,28.028698818573883]}},{"type":"Feature","id":"in-arunachal-t-1719","properties":{"id":"in-arunachal-t-1719","name":"Etalin","region":"in-arunachal","level":"tehsil","parent":"in-arunachal-d-230","district":"Dibang Valley","source":"LGD via Bharatlas · 2024 snapshot","state_lgd":12,"district_lgd":230,"subdistrict_lgd":1719,"center":[96.04746070215963,28.59130806],"bbox":[95.2436012,28.4706455,96.6101401,29.0739583]},"geometry":{"type":"Point","coordinates":[96.04746070215963,28.59130806]}},{"type":"Feature","id":"in-arunachal-t-1665","properties":{"id":"in-arunachal-t-1665","name":"Geku EAC","region":"in-arunachal","level":"tehsil","parent":"in-arunachal-d-240","district":"Upper Siang","source":"LGD via Bharatlas · 2024 snapshot","state_lgd":12,"district_lgd":240,"subdistrict_lgd":1665,"center":[95.14558447700688,28.43137740365985],"bbox":[95.0615088,28.3268202,95.2315743,28.5622902]},"geometry":{"type":"Point","coordinates":[95.14558447700688,28.43137740365985]}},{"type":"Feature","id":"in-arunachal-t-1661","properties":{"id":"in-arunachal-t-1661","name":"Gelling Circle","region":"in-arunachal","level":"tehsil","parent":"in-arunachal-d-240","district":"Upper Siang","source":"LGD via Bharatlas · 2024 snapshot","state_lgd":12,"district_lgd":240,"subdistrict_lgd":1661,"center":[94.94094656996631,29.100157486483788],"bbox":[94.7901478,29.0133884,95.1212289,29.178352]},"geometry":{"type":"Point","coordinates":[94.94094656996631,29.100157486483788]}},{"type":"Feature","id":"in-arunachal-t-1638","properties":{"id":"in-arunachal-t-1638","name":"Gensi EAC","region":"in-arunachal","level":"tehsil","parent":"in-arunachal-d-719","district":"Lower Siang","source":"LGD via Bharatlas · 2024 snapshot","state_lgd":12,"district_lgd":719,"subdistrict_lgd":1638,"center":[94.46337687051644,27.791349291992095],"bbox":[94.3527125,27.7310496,94.562746,27.8561385]},"geometry":{"type":"Point","coordinates":[94.46337687051644,27.791349291992095]}},{"type":"Feature","id":"in-arunachal-t-1613","properties":{"id":"in-arunachal-t-1613","name":"Giba Circle","region":"in-arunachal","level":"tehsil","parent":"in-arunachal-d-241","district":"Upper Subansiri","source":"LGD via Bharatlas · 2024 snapshot","state_lgd":12,"district_lgd":241,"subdistrict_lgd":1613,"center":[93.96170965715999,28.168353116593902],"bbox":[93.8320409,28.0774621,94.1008926,28.2773368]},"geometry":{"type":"Point","coordinates":[93.96170965715999,28.168353116593902]}},{"type":"Feature","id":"in-arunachal-t-source-3178","properties":{"id":"in-arunachal-t-source-3178","name":"Gite-Ripa","region":"in-arunachal","level":"tehsil","parent":"in-arunachal-d-241","district":"Upper Subansiri","source":"LGD via Bharatlas · 2024 snapshot","state_lgd":12,"district_lgd":241,"subdistrict_lgd":null,"source_objectid":3178,"center":[94.33310322506573,28.12360609814425],"bbox":[94.2655295,28.0546193,94.3976795,28.1967927]},"geometry":{"type":"Point","coordinates":[94.33310322506573,28.12360609814425]}},{"type":"Feature","id":"in-arunachal-t-1738","properties":{"id":"in-arunachal-t-1738","name":"Goiliang Circle","region":"in-arunachal","level":"tehsil","parent":"in-arunachal-d-628","district":"Anjaw","source":"LGD via Bharatlas · 2024 snapshot","state_lgd":12,"district_lgd":628,"subdistrict_lgd":1738,"center":[96.74886692440337,28.20487999127192],"bbox":[96.5693954,28.0606303,96.9443924,28.3784856]},"geometry":{"type":"Point","coordinates":[96.74886692440337,28.20487999127192]}},{"type":"Feature","id":"in-arunachal-t-6602","properties":{"id":"in-arunachal-t-6602","name":"Gumto Circle","region":"in-arunachal","level":"tehsil","parent":"in-arunachal-d-237","district":"Papum Pare","source":"LGD via Bharatlas · 2024 snapshot","state_lgd":12,"district_lgd":237,"subdistrict_lgd":6602,"center":[93.8237491231249,27.18461193264895],"bbox":[93.7631755,27.1246194,93.895158,27.2347884]},"geometry":{"type":"Point","coordinates":[93.8237491231249,27.18461193264895]}},{"type":"Feature","id":"in-arunachal-t-source-3176","properties":{"id":"in-arunachal-t-source-3176","name":"Gussar","region":"in-arunachal","level":"tehsil","parent":"in-arunachal-d-241","district":"Upper Subansiri","source":"LGD via Bharatlas · 2024 snapshot","state_lgd":12,"district_lgd":241,"subdistrict_lgd":null,"source_objectid":3176,"center":[94.206655577386,28.094156815089534],"bbox":[94.1337474,28.0096475,94.2779245,28.1631227]},"geometry":{"type":"Point","coordinates":[94.206655577386,28.094156815089534]}},{"type":"Feature","id":"in-arunachal-t-1588","properties":{"id":"in-arunachal-t-1588","name":"Gyawe Purang Circle","region":"in-arunachal","level":"tehsil","parent":"in-arunachal-d-231","district":"East Kameng","source":"LGD via Bharatlas · 2024 snapshot","state_lgd":12,"district_lgd":231,"subdistrict_lgd":1588,"center":[93.22314975600953,27.47822779987622],"bbox":[93.1066824,27.3992344,93.3307738,27.5664974]},"geometry":{"type":"Point","coordinates":[93.22314975600953,27.47822779987622]}},{"type":"Feature","id":"in-arunachal-t-1743","properties":{"id":"in-arunachal-t-1743","name":"Hawai HQ","region":"in-arunachal","level":"tehsil","parent":"in-arunachal-d-628","district":"Anjaw","source":"LGD via Bharatlas · 2024 snapshot","state_lgd":12,"district_lgd":628,"subdistrict_lgd":1743,"center":[96.97693583007432,27.85031745987438],"bbox":[96.6809541,27.6146611,97.4128965,28.0631584]},"geometry":{"type":"Point","coordinates":[96.97693583007432,27.85031745987438]}},{"type":"Feature","id":"in-arunachal-t-1736","properties":{"id":"in-arunachal-t-1736","name":"Hayuliang ADC","region":"in-arunachal","level":"tehsil","parent":"in-arunachal-d-628","district":"Anjaw","source":"LGD via Bharatlas · 2024 snapshot","state_lgd":12,"district_lgd":628,"subdistrict_lgd":1736,"center":[96.4455267358876,28.067164057446835],"bbox":[96.2747337,27.9513602,96.6382707,28.1920611]},"geometry":{"type":"Point","coordinates":[96.4455267358876,28.067164057446835]}},{"type":"Feature","id":"in-arunachal-t-6075","properties":{"id":"in-arunachal-t-6075","name":"Hunli SDO","region":"in-arunachal","level":"tehsil","parent":"in-arunachal-d-235","district":"Lower Dibang Valley","source":"LGD via Bharatlas · 2024 snapshot","state_lgd":12,"district_lgd":235,"subdistrict_lgd":6075,"center":[95.9737363022191,28.363673086063372],"bbox":[95.839529,28.168111,96.1269686,28.512747]},"geometry":{"type":"Point","coordinates":[95.9737363022191,28.363673086063372]}},{"type":"Feature","id":"in-arunachal-t-6604","properties":{"id":"in-arunachal-t-6604","name":"Itanagar EAC","region":"in-arunachal","level":"tehsil","parent":"in-arunachal-d-237","district":"Papum Pare","source":"LGD via Bharatlas · 2024 snapshot","state_lgd":12,"district_lgd":237,"subdistrict_lgd":6604,"center":[93.5774204169176,27.102634354290302],"bbox":[93.4948604,27.0195662,93.6876794,27.1849387]},"geometry":{"type":"Point","coordinates":[93.5774204169176,27.102634354290302]}},{"type":"Feature","id":"in-arunachal-t-6582","properties":{"id":"in-arunachal-t-6582","name":"Jairampur ADC","region":"in-arunachal","level":"tehsil","parent":"in-arunachal-d-229","district":"Changlang","source":"LGD via Bharatlas · 2024 snapshot","state_lgd":12,"district_lgd":229,"subdistrict_lgd":6582,"center":[96.06640329894573,27.358808303435247],"bbox":[95.9841641,27.2819694,96.1265238,27.4225956]},"geometry":{"type":"Point","coordinates":[96.06640329894573,27.358808303435247]}},{"type":"Feature","id":"in-arunachal-t-6563","properties":{"id":"in-arunachal-t-6563","name":"Jamiri Circle","region":"in-arunachal","level":"tehsil","parent":"in-arunachal-d-242","district":"West Kameng","source":"LGD via Bharatlas · 2024 snapshot","state_lgd":12,"district_lgd":242,"subdistrict_lgd":6563,"center":[92.64020768617904,27.20993828471183],"bbox":[92.5154826,27.1308153,92.7563588,27.284243]},"geometry":{"type":"Point","coordinates":[92.64020768617904,27.20993828471183]}},{"type":"Feature","id":"in-arunachal-t-1561","properties":{"id":"in-arunachal-t-1561","name":"Jang ADC","region":"in-arunachal","level":"tehsil","parent":"in-arunachal-d-238","district":"Tawang","source":"LGD via Bharatlas · 2024 snapshot","state_lgd":12,"district_lgd":238,"subdistrict_lgd":1561,"center":[92.01507424899756,27.520911203015554],"bbox":[91.9532952,27.4500995,92.0813691,27.5813966]},"geometry":{"type":"Point","coordinates":[92.01507424899756,27.520911203015554]}},{"type":"Feature","id":"in-arunachal-t-1664","properties":{"id":"in-arunachal-t-1664","name":"Jengging Circle","region":"in-arunachal","level":"tehsil","parent":"in-arunachal-d-240","district":"Upper Siang","source":"LGD via Bharatlas · 2024 snapshot","state_lgd":12,"district_lgd":240,"subdistrict_lgd":1664,"center":[94.89406842081979,28.654410698348897],"bbox":[94.770548,28.5210669,95.0840708,28.8048761]},"geometry":{"type":"Point","coordinates":[94.89406842081979,28.654410698348897]}},{"type":"Feature","id":"in-arunachal-t-6606","properties":{"id":"in-arunachal-t-6606","name":"Jomlo Mobuk Circle","region":"in-arunachal","level":"tehsil","parent":"in-arunachal-d-679","district":"Siang","source":"LGD via Bharatlas · 2024 snapshot","state_lgd":12,"district_lgd":679,"subdistrict_lgd":6606,"center":[94.8312790005549,28.244900907123224],"bbox":[94.7480088,28.1859655,94.9357567,28.2956587]},"geometry":{"type":"Point","coordinates":[94.8312790005549,28.244900907123224]}},{"type":"Feature","id":"in-arunachal-t-6601","properties":{"id":"in-arunachal-t-6601","name":"Kakoi Circle","region":"in-arunachal","level":"tehsil","parent":"in-arunachal-d-237","district":"Papum Pare","source":"LGD via Bharatlas · 2024 snapshot","state_lgd":12,"district_lgd":237,"subdistrict_lgd":6601,"center":[94.06951495182673,27.460359381391076],"bbox":[93.9455612,27.3577568,94.2070264,27.544033]},"geometry":{"type":"Point","coordinates":[94.06951495182673,27.460359381391076]}},{"type":"Feature","id":"in-arunachal-t-1570","properties":{"id":"in-arunachal-t-1570","name":"Kalaktang ADC","region":"in-arunachal","level":"tehsil","parent":"in-arunachal-d-242","district":"West Kameng","source":"LGD via Bharatlas · 2024 snapshot","state_lgd":12,"district_lgd":242,"subdistrict_lgd":1570,"center":[92.13305962823138,27.127214947728405],"bbox":[92.0231336,27.0010157,92.2836041,27.2784814]},"geometry":{"type":"Point","coordinates":[92.13305962823138,27.127214947728405]}},{"type":"Feature","id":"in-arunachal-t-6585","properties":{"id":"in-arunachal-t-6585","name":"Kamba ADC","region":"in-arunachal","level":"tehsil","parent":"in-arunachal-d-243","district":"West Siang","source":"LGD via Bharatlas · 2024 snapshot","state_lgd":12,"district_lgd":243,"subdistrict_lgd":6585,"center":[94.62410959973906,28.30238931936143],"bbox":[94.4854375,28.1497977,94.7563151,28.4177889]},"geometry":{"type":"Point","coordinates":[94.62410959973906,28.30238931936143]}},{"type":"Feature","id":"in-arunachal-t-6567","properties":{"id":"in-arunachal-t-6567","name":"Kamengbari Doimara Circle","region":"in-arunachal","level":"tehsil","parent":"in-arunachal-d-242","district":"West Kameng","source":"LGD via Bharatlas · 2024 snapshot","state_lgd":12,"district_lgd":242,"subdistrict_lgd":6567,"center":[92.43777695420488,26.996240477768858],"bbox":[92.358914,26.9246907,92.5168139,27.070615]},"geometry":{"type":"Point","coordinates":[92.43777695420488,26.996240477768858]}},{"type":"Feature","id":"in-arunachal-t-1700","properties":{"id":"in-arunachal-t-1700","name":"Kamporijo Circle","region":"in-arunachal","level":"tehsil","parent":"in-arunachal-d-718","district":"Kamle","source":"LGD via Bharatlas · 2024 snapshot","state_lgd":12,"district_lgd":718,"subdistrict_lgd":1700,"center":[94.0484500359217,27.76383665166863],"bbox":[93.8809442,27.607989,94.3071385,27.9773401]},"geometry":{"type":"Point","coordinates":[94.0484500359217,27.76383665166863]}},{"type":"Feature","id":"in-arunachal-t-6572","properties":{"id":"in-arunachal-t-6572","name":"Kangku Circle","region":"in-arunachal","level":"tehsil","parent":"in-arunachal-d-719","district":"Lower Siang","source":"LGD via Bharatlas · 2024 snapshot","state_lgd":12,"district_lgd":719,"subdistrict_lgd":6572,"center":[94.45549664661536,27.64831490822085],"bbox":[94.2104417,27.5552424,94.6478797,27.7624929]},"geometry":{"type":"Point","coordinates":[94.45549664661536,27.64831490822085]}},{"type":"Feature","id":"in-arunachal-t-1688","properties":{"id":"in-arunachal-t-1688","name":"Kanubari ADC","region":"in-arunachal","level":"tehsil","parent":"in-arunachal-d-666","district":"Longding","source":"LGD via Bharatlas · 2024 snapshot","state_lgd":12,"district_lgd":666,"subdistrict_lgd":1688,"center":[95.24748312806997,26.97292094501865],"bbox":[95.1920433,26.8932726,95.3155142,27.0500573]},"geometry":{"type":"Point","coordinates":[95.24748312806997,26.97292094501865]}},{"type":"Feature","id":"in-arunachal-t-1668","properties":{"id":"in-arunachal-t-1668","name":"Katan Circle","region":"in-arunachal","level":"tehsil","parent":"in-arunachal-d-240","district":"Upper Siang","source":"LGD via Bharatlas · 2024 snapshot","state_lgd":12,"district_lgd":240,"subdistrict_lgd":1668,"center":[95.20835033193039,28.278359162985172],"bbox":[95.0939036,28.163165,95.3289783,28.3914449]},"geometry":{"type":"Point","coordinates":[95.20835033193039,28.278359162985172]}},{"type":"Feature","id":"in-arunachal-t-1627","properties":{"id":"in-arunachal-t-1627","name":"Kaying EAC","region":"in-arunachal","level":"tehsil","parent":"in-arunachal-d-679","district":"Siang","source":"LGD via Bharatlas · 2024 snapshot","state_lgd":12,"district_lgd":679,"subdistrict_lgd":1627,"center":[94.65075153861262,28.398118204898406],"bbox":[94.4972036,28.2575873,94.7663866,28.4687208]},"geometry":{"type":"Point","coordinates":[94.65075153861262,28.398118204898406]}},{"type":"Feature","id":"in-arunachal-t-1646","properties":{"id":"in-arunachal-t-1646","name":"Kebang Circle","region":"in-arunachal","level":"tehsil","parent":"in-arunachal-d-679","district":"Siang","source":"LGD via Bharatlas · 2024 snapshot","state_lgd":12,"district_lgd":679,"subdistrict_lgd":1646,"center":[95.09567380019304,28.100827849386476],"bbox":[94.9028754,28.0234492,95.2420737,28.2240508]},"geometry":{"type":"Point","coordinates":[95.09567380019304,28.100827849386476]}},{"type":"Feature","id":"in-arunachal-t-1681","properties":{"id":"in-arunachal-t-1681","name":"Kharsang Circle","region":"in-arunachal","level":"tehsil","parent":"in-arunachal-d-229","district":"Changlang","source":"LGD via Bharatlas · 2024 snapshot","state_lgd":12,"district_lgd":229,"subdistrict_lgd":1681,"center":[96.0323624611503,27.43273156442757],"bbox":[95.9696189,27.405062,96.1092925,27.4622136]},"geometry":{"type":"Point","coordinates":[96.0323624611503,27.43273156442757]}},{"type":"Feature","id":"in-arunachal-t-6605","properties":{"id":"in-arunachal-t-6605","name":"Khenawa Circle","region":"in-arunachal","level":"tehsil","parent":"in-arunachal-d-231","district":"East Kameng","source":"LGD via Bharatlas · 2024 snapshot","state_lgd":12,"district_lgd":231,"subdistrict_lgd":6605,"center":[92.93701155736657,27.6348792751162],"bbox":[92.7913544,27.5511438,93.0803948,27.7036864]},"geometry":{"type":"Point","coordinates":[92.93701155736657,27.6348792751162]}},{"type":"Feature","id":"in-arunachal-t-1669","properties":{"id":"in-arunachal-t-1669","name":"Khimiyang EAC","region":"in-arunachal","level":"tehsil","parent":"in-arunachal-d-229","district":"Changlang","source":"LGD via Bharatlas · 2024 snapshot","state_lgd":12,"district_lgd":229,"subdistrict_lgd":1669,"center":[95.74065622404267,26.99715602068263],"bbox":[95.6236255,26.8784596,95.8298306,27.0891885]},"geometry":{"type":"Point","coordinates":[95.74065622404267,26.99715602068263]}},{"type":"Feature","id":"in-arunachal-t-1686","properties":{"id":"in-arunachal-t-1686","name":"Khonsa HQ","region":"in-arunachal","level":"tehsil","parent":"in-arunachal-d-239","district":"Tirap","source":"LGD via Bharatlas · 2024 snapshot","state_lgd":12,"district_lgd":239,"subdistrict_lgd":1686,"center":[95.49569033206537,27.00582152292788],"bbox":[95.3602111,26.8671818,95.6516225,27.1264009]},"geometry":{"type":"Point","coordinates":[95.49569033206537,27.00582152292788]}},{"type":"Feature","id":"in-arunachal-t-1741","properties":{"id":"in-arunachal-t-1741","name":"Kibithoo Circle","region":"in-arunachal","level":"tehsil","parent":"in-arunachal-d-628","district":"Anjaw","source":"LGD via Bharatlas · 2024 snapshot","state_lgd":12,"district_lgd":628,"subdistrict_lgd":1741,"center":[97.09568068108513,28.25018072883311],"bbox":[96.8716914,28.1582732,97.4028087,28.3505222]},"geometry":{"type":"Point","coordinates":[97.09568068108513,28.25018072883311]}},{"type":"Feature","id":"in-arunachal-t-1605","properties":{"id":"in-arunachal-t-1605","name":"Kimin SDO","region":"in-arunachal","level":"tehsil","parent":"in-arunachal-d-237","district":"Papum Pare","source":"LGD via Bharatlas · 2024 snapshot","state_lgd":12,"district_lgd":237,"subdistrict_lgd":1605,"center":[93.9186559030109,27.363270637131322],"bbox":[93.8139213,27.2333607,94.0500203,27.4955926]},"geometry":{"type":"Point","coordinates":[93.9186559030109,27.363270637131322]}},{"type":"Feature","id":"in-arunachal-t-1560","properties":{"id":"in-arunachal-t-1560","name":"Kitpi Circle","region":"in-arunachal","level":"tehsil","parent":"in-arunachal-d-238","district":"Tawang","source":"LGD via Bharatlas · 2024 snapshot","state_lgd":12,"district_lgd":238,"subdistrict_lgd":1560,"center":[91.87870147352768,27.62331936204316],"bbox":[91.8373465,27.5532173,91.9185626,27.7042318]},"geometry":{"type":"Point","coordinates":[91.87870147352768,27.62331936204316]}},{"type":"Feature","id":"in-arunachal-t-6130","properties":{"id":"in-arunachal-t-6130","name":"KOLORIANG HQ","region":"in-arunachal","level":"tehsil","parent":"in-arunachal-d-233","district":"Kurung Kumey","source":"LGD via Bharatlas · 2024 snapshot","state_lgd":12,"district_lgd":233,"subdistrict_lgd":6130,"center":[93.3322189924251,27.895065001101656],"bbox":[93.1908752,27.791083,93.4913937,27.9903684]},"geometry":{"type":"Point","coordinates":[93.3322189924251,27.895065001101656]}},{"type":"Feature","id":"in-arunachal-t-6574","properties":{"id":"in-arunachal-t-6574","name":"Kora Circle","region":"in-arunachal","level":"tehsil","parent":"in-arunachal-d-719","district":"Lower Siang","source":"LGD via Bharatlas · 2024 snapshot","state_lgd":12,"district_lgd":719,"subdistrict_lgd":6574,"center":[95.01481326608088,27.927919868552777],"bbox":[94.9046514,27.826085,95.0890744,28.033234]},"geometry":{"type":"Point","coordinates":[95.01481326608088,27.927919868552777]}},{"type":"Feature","id":"in-arunachal-t-1727","properties":{"id":"in-arunachal-t-1727","name":"Koronu Circle","region":"in-arunachal","level":"tehsil","parent":"in-arunachal-d-235","district":"Lower Dibang Valley","source":"LGD via Bharatlas · 2024 snapshot","state_lgd":12,"district_lgd":235,"subdistrict_lgd":1727,"center":[95.95047636356266,28.050549433986028],"bbox":[95.894336,27.9621779,95.9990019,28.2109413]},"geometry":{"type":"Point","coordinates":[95.95047636356266,28.050549433986028]}},{"type":"Feature","id":"in-arunachal-t-1648","properties":{"id":"in-arunachal-t-1648","name":"Koyu EAC","region":"in-arunachal","level":"tehsil","parent":"in-arunachal-d-719","district":"Lower Siang","source":"LGD via Bharatlas · 2024 snapshot","state_lgd":12,"district_lgd":719,"subdistrict_lgd":1648,"center":[94.9419473058221,27.96878710712706],"bbox":[94.8658869,27.8667238,95.0337525,28.0504373]},"geometry":{"type":"Point","coordinates":[94.9419473058221,27.96878710712706]}},{"type":"Feature","id":"in-arunachal-t-1721","properties":{"id":"in-arunachal-t-1721","name":"Kronli (Arzoo circle)","region":"in-arunachal","level":"tehsil","parent":"in-arunachal-d-230","district":"Dibang Valley","source":"LGD via Bharatlas · 2024 snapshot","state_lgd":12,"district_lgd":230,"subdistrict_lgd":1721,"center":[95.781095539324,28.42117262179827],"bbox":[95.5636916,28.2747009,96.0086285,28.546947]},"geometry":{"type":"Point","coordinates":[95.781095539324,28.42117262179827]}},{"type":"Feature","id":"in-arunachal-t-6098","properties":{"id":"in-arunachal-t-6098","name":"Lada Circle","region":"in-arunachal","level":"tehsil","parent":"in-arunachal-d-231","district":"East Kameng","source":"LGD via Bharatlas · 2024 snapshot","state_lgd":12,"district_lgd":231,"subdistrict_lgd":6098,"center":[92.71263752337282,27.587843635956578],"bbox":[92.5308187,27.428605,92.842018,27.7512757]},"geometry":{"type":"Point","coordinates":[92.71263752337282,27.587843635956578]}},{"type":"Feature","id":"in-arunachal-t-1694","properties":{"id":"in-arunachal-t-1694","name":"Laju SDO","region":"in-arunachal","level":"tehsil","parent":"in-arunachal-d-239","district":"Tirap","source":"LGD via Bharatlas · 2024 snapshot","state_lgd":12,"district_lgd":239,"subdistrict_lgd":1694,"center":[95.58983094957013,26.890891686943416],"bbox":[95.4964723,26.7996354,95.6951122,26.9815732]},"geometry":{"type":"Point","coordinates":[95.58983094957013,26.890891686943416]}},{"type":"Feature","id":"in-arunachal-t-1733","properties":{"id":"in-arunachal-t-1733","name":"Lathao Circle","region":"in-arunachal","level":"tehsil","parent":"in-arunachal-d-678","district":"Namsai","source":"LGD via Bharatlas · 2024 snapshot","state_lgd":12,"district_lgd":678,"subdistrict_lgd":1733,"center":[95.88838096722388,27.73841896075506],"bbox":[95.7523141,27.7072386,95.9867824,27.7850467]},"geometry":{"type":"Point","coordinates":[95.88838096722388,27.73841896075506]}},{"type":"Feature","id":"in-arunachal-t-1689","properties":{"id":"in-arunachal-t-1689","name":"Lawnu Circle","region":"in-arunachal","level":"tehsil","parent":"in-arunachal-d-666","district":"Longding","source":"LGD via Bharatlas · 2024 snapshot","state_lgd":12,"district_lgd":666,"subdistrict_lgd":1689,"center":[95.32884722199974,27.046739427773222],"bbox":[95.2691148,26.9885065,95.3888254,27.1081842]},"geometry":{"type":"Point","coordinates":[95.32884722199974,27.046739427773222]}},{"type":"Feature","id":"in-arunachal-t-1735","properties":{"id":"in-arunachal-t-1735","name":"Lekang Mahadevpur Circle","region":"in-arunachal","level":"tehsil","parent":"in-arunachal-d-678","district":"Namsai","source":"LGD via Bharatlas · 2024 snapshot","state_lgd":12,"district_lgd":678,"subdistrict_lgd":1735,"center":[95.84415207765976,27.62343689125174],"bbox":[95.7558464,27.5430507,95.949965,27.7178618]},"geometry":{"type":"Point","coordinates":[95.84415207765976,27.62343689125174]}},{"type":"Feature","id":"in-arunachal-t-1603","properties":{"id":"in-arunachal-t-1603","name":"Leporiang Circle","region":"in-arunachal","level":"tehsil","parent":"in-arunachal-d-237","district":"Papum Pare","source":"LGD via Bharatlas · 2024 snapshot","state_lgd":12,"district_lgd":237,"subdistrict_lgd":1603,"center":[93.34252800389737,27.263110049408393],"bbox":[93.2199322,27.1692343,93.4584855,27.388027]},"geometry":{"type":"Point","coordinates":[93.34252800389737,27.263110049408393]}},{"type":"Feature","id":"in-arunachal-t-6555","properties":{"id":"in-arunachal-t-6555","name":"Lhou Circle","region":"in-arunachal","level":"tehsil","parent":"in-arunachal-d-238","district":"Tawang","source":"LGD via Bharatlas · 2024 snapshot","state_lgd":12,"district_lgd":238,"subdistrict_lgd":6555,"center":[91.91349428496439,27.64830402308325],"bbox":[91.8508609,27.5510757,91.9831239,27.7419949]},"geometry":{"type":"Point","coordinates":[91.91349428496439,27.64830402308325]}},{"type":"Feature","id":"in-arunachal-t-1640","properties":{"id":"in-arunachal-t-1640","name":"Likabali SDO","region":"in-arunachal","level":"tehsil","parent":"in-arunachal-d-719","district":"Lower Siang","source":"LGD via Bharatlas · 2024 snapshot","state_lgd":12,"district_lgd":719,"subdistrict_lgd":1640,"center":[94.73563577944687,27.730241115073163],"bbox":[94.5974861,27.638678,94.9003651,27.8229163]},"geometry":{"type":"Point","coordinates":[94.73563577944687,27.730241115073163]}},{"type":"Feature","id":"in-arunachal-t-1608","properties":{"id":"in-arunachal-t-1608","name":"Limeking Circle","region":"in-arunachal","level":"tehsil","parent":"in-arunachal-d-241","district":"Upper Subansiri","source":"LGD via Bharatlas · 2024 snapshot","state_lgd":12,"district_lgd":241,"subdistrict_lgd":1608,"center":[93.5317793189357,28.465990108132836],"bbox":[93.3374257,28.2558845,93.7008015,28.6859666]},"geometry":{"type":"Point","coordinates":[93.5317793189357,28.465990108132836]}},{"type":"Feature","id":"in-arunachal-t-1632","properties":{"id":"in-arunachal-t-1632","name":"Liromoba EAC","region":"in-arunachal","level":"tehsil","parent":"in-arunachal-d-243","district":"West Siang","source":"LGD via Bharatlas · 2024 snapshot","state_lgd":12,"district_lgd":243,"subdistrict_lgd":1632,"center":[94.44224413959658,28.1413898107077],"bbox":[94.3564972,28.0216925,94.5387134,28.2589375]},"geometry":{"type":"Point","coordinates":[94.44224413959658,28.1413898107077]}},{"type":"Feature","id":"in-arunachal-t-6074","properties":{"id":"in-arunachal-t-6074","name":"Longding HQ","region":"in-arunachal","level":"tehsil","parent":"in-arunachal-d-666","district":"Longding","source":"LGD via Bharatlas · 2024 snapshot","state_lgd":12,"district_lgd":666,"subdistrict_lgd":6074,"center":[95.324960223244,26.894833591747208],"bbox":[95.2526965,26.7620532,95.3790696,27.0395142]},"geometry":{"type":"Point","coordinates":[95.324960223244,26.894833591747208]}},{"type":"Feature","id":"in-arunachal-t-1557","properties":{"id":"in-arunachal-t-1557","name":"Lumla ADC","region":"in-arunachal","level":"tehsil","parent":"in-arunachal-d-238","district":"Tawang","source":"LGD via Bharatlas · 2024 snapshot","state_lgd":12,"district_lgd":238,"subdistrict_lgd":1557,"center":[91.715242831609,27.54717293425543],"bbox":[91.6402771,27.4933392,91.8026754,27.5938467]},"geometry":{"type":"Point","coordinates":[91.715242831609,27.54717293425543]}},{"type":"Feature","id":"in-arunachal-t-6578","properties":{"id":"in-arunachal-t-6578","name":"Lyngok Longtoi Circle","region":"in-arunachal","level":"tehsil","parent":"in-arunachal-d-229","district":"Changlang","source":"LGD via Bharatlas · 2024 snapshot","state_lgd":12,"district_lgd":229,"subdistrict_lgd":6578,"center":[95.85909643254219,27.23573364863641],"bbox":[95.7687034,27.1695399,95.9255386,27.2872209]},"geometry":{"type":"Point","coordinates":[95.85909643254219,27.23573364863641]}},{"type":"Feature","id":"in-arunachal-t-1737","properties":{"id":"in-arunachal-t-1737","name":"Manchal Circle","region":"in-arunachal","level":"tehsil","parent":"in-arunachal-d-628","district":"Anjaw","source":"LGD via Bharatlas · 2024 snapshot","state_lgd":12,"district_lgd":628,"subdistrict_lgd":1737,"center":[96.73145355028997,28.019030079275296],"bbox":[96.5824945,27.8303626,96.9247534,28.2113638]},"geometry":{"type":"Point","coordinates":[96.73145355028997,28.019030079275296]}},{"type":"Feature","id":"in-arunachal-t-1673","properties":{"id":"in-arunachal-t-1673","name":"Manmao EAC","region":"in-arunachal","level":"tehsil","parent":"in-arunachal-d-229","district":"Changlang","source":"LGD via Bharatlas · 2024 snapshot","state_lgd":12,"district_lgd":229,"subdistrict_lgd":1673,"center":[95.972006375219,27.244465900056365],"bbox":[95.8451723,27.1334316,96.0582125,27.3607247]},"geometry":{"type":"Point","coordinates":[95.972006375219,27.244465900056365]}},{"type":"Feature","id":"in-arunachal-t-1666","properties":{"id":"in-arunachal-t-1666","name":"Mariyang ADC","region":"in-arunachal","level":"tehsil","parent":"in-arunachal-d-240","district":"Upper Siang","source":"LGD via Bharatlas · 2024 snapshot","state_lgd":12,"district_lgd":240,"subdistrict_lgd":1666,"center":[95.27531296564432,28.573590964594757],"bbox":[95.1471035,28.4183328,95.4095775,28.7119938]},"geometry":{"type":"Point","coordinates":[95.27531296564432,28.573590964594757]}},{"type":"Feature","id":"in-arunachal-t-6554","properties":{"id":"in-arunachal-t-6554","name":"Maro Circle","region":"in-arunachal","level":"tehsil","parent":"in-arunachal-d-241","district":"Upper Subansiri","source":"LGD via Bharatlas · 2024 snapshot","state_lgd":12,"district_lgd":241,"subdistrict_lgd":6554,"center":[94.40955682374366,28.00781691398101],"bbox":[94.2973171,27.9406431,94.5320849,28.0817478]},"geometry":{"type":"Point","coordinates":[94.40955682374366,28.00781691398101]}},{"type":"Feature","id":"in-arunachal-t-1656","properties":{"id":"in-arunachal-t-1656","name":"Mebo ADC","region":"in-arunachal","level":"tehsil","parent":"in-arunachal-d-232","district":"East Siang","source":"LGD via Bharatlas · 2024 snapshot","state_lgd":12,"district_lgd":232,"subdistrict_lgd":1656,"center":[95.40422825563797,28.182765988708546],"bbox":[95.1850534,28.042497,95.5639747,28.3226808]},"geometry":{"type":"Point","coordinates":[95.40422825563797,28.182765988708546]}},{"type":"Feature","id":"in-arunachal-t-1622","properties":{"id":"in-arunachal-t-1622","name":"Mechuka ADC","region":"in-arunachal","level":"tehsil","parent":"in-arunachal-d-725","district":"Shi Yomi","source":"LGD via Bharatlas · 2024 snapshot","state_lgd":12,"district_lgd":725,"subdistrict_lgd":1622,"center":[94.13547607329996,28.59018185604892],"bbox":[93.9677108,28.4281471,94.3096903,28.7641147]},"geometry":{"type":"Point","coordinates":[94.13547607329996,28.59018185604892]}},{"type":"Feature","id":"in-arunachal-t-1604","properties":{"id":"in-arunachal-t-1604","name":"Mengio EAC","region":"in-arunachal","level":"tehsil","parent":"in-arunachal-d-237","district":"Papum Pare","source":"LGD via Bharatlas · 2024 snapshot","state_lgd":12,"district_lgd":237,"subdistrict_lgd":1604,"center":[93.43959515122847,27.521760223519372],"bbox":[93.2695297,27.4053958,93.6234291,27.633242]},"geometry":{"type":"Point","coordinates":[93.43959515122847,27.521760223519372]}},{"type":"Feature","id":"in-arunachal-t-1740","properties":{"id":"in-arunachal-t-1740","name":"Metengliang Circle","region":"in-arunachal","level":"tehsil","parent":"in-arunachal-d-628","district":"Anjaw","source":"LGD via Bharatlas · 2024 snapshot","state_lgd":12,"district_lgd":628,"subdistrict_lgd":1740,"center":[96.46701909862483,28.19934325338725],"bbox":[96.305205,28.0950432,96.6179417,28.2969616]},"geometry":{"type":"Point","coordinates":[96.46701909862483,28.19934325338725]}},{"type":"Feature","id":"in-arunachal-t-1680","properties":{"id":"in-arunachal-t-1680","name":"Miao ADC","region":"in-arunachal","level":"tehsil","parent":"in-arunachal-d-229","district":"Changlang","source":"LGD via Bharatlas · 2024 snapshot","state_lgd":12,"district_lgd":229,"subdistrict_lgd":1680,"center":[96.53617300775942,27.512962635411373],"bbox":[95.979711,27.3455216,96.9298228,27.6604553]},"geometry":{"type":"Point","coordinates":[96.53617300775942,27.512962635411373]}},{"type":"Feature","id":"in-arunachal-t-1659","properties":{"id":"in-arunachal-t-1659","name":"Migging Circle","region":"in-arunachal","level":"tehsil","parent":"in-arunachal-d-240","district":"Upper Siang","source":"LGD via Bharatlas · 2024 snapshot","state_lgd":12,"district_lgd":240,"subdistrict_lgd":1659,"center":[94.67755238050937,28.80311075809241],"bbox":[94.459864,28.5480905,94.8024328,28.9190069]},"geometry":{"type":"Point","coordinates":[94.67755238050937,28.80311075809241]}},{"type":"Feature","id":"in-arunachal-t-1717","properties":{"id":"in-arunachal-t-1717","name":"Mipi","region":"in-arunachal","level":"tehsil","parent":"in-arunachal-d-230","district":"Dibang Valley","source":"LGD via Bharatlas · 2024 snapshot","state_lgd":12,"district_lgd":230,"subdistrict_lgd":1717,"center":[95.78138267128666,29.12376456646832],"bbox":[95.4634146,28.8067583,96.0799811,29.4659473]},"geometry":{"type":"Point","coordinates":[95.78138267128666,29.12376456646832]}},{"type":"Feature","id":"in-arunachal-t-1623","properties":{"id":"in-arunachal-t-1623","name":"Monigong EAC","region":"in-arunachal","level":"tehsil","parent":"in-arunachal-d-725","district":"Shi Yomi","source":"LGD via Bharatlas · 2024 snapshot","state_lgd":12,"district_lgd":725,"subdistrict_lgd":1623,"center":[94.22901394995223,28.823324962486897],"bbox":[93.9867043,28.6180807,94.4427465,29.0372492]},"geometry":{"type":"Point","coordinates":[94.22901394995223,28.823324962486897]}},{"type":"Feature","id":"in-arunachal-t-1667","properties":{"id":"in-arunachal-t-1667","name":"Mopom Adipasi Circle","region":"in-arunachal","level":"tehsil","parent":"in-arunachal-d-240","district":"Upper Siang","source":"LGD via Bharatlas · 2024 snapshot","state_lgd":12,"district_lgd":240,"subdistrict_lgd":1667,"center":[95.3011606077269,28.371353295929527],"bbox":[95.225514,28.2957386,95.3765744,28.4433172]},"geometry":{"type":"Point","coordinates":[95.3011606077269,28.371353295929527]}},{"type":"Feature","id":"in-arunachal-t-1563","properties":{"id":"in-arunachal-t-1563","name":"Mukto Circle","region":"in-arunachal","level":"tehsil","parent":"in-arunachal-d-238","district":"Tawang","source":"LGD via Bharatlas · 2024 snapshot","state_lgd":12,"district_lgd":238,"subdistrict_lgd":1563,"center":[91.90509324237154,27.511301806007996],"bbox":[91.821949,27.4597363,91.9804211,27.5646387]},"geometry":{"type":"Point","coordinates":[91.90509324237154,27.511301806007996]}},{"type":"Feature","id":"in-arunachal-t-1609","properties":{"id":"in-arunachal-t-1609","name":"Nacho SDO","region":"in-arunachal","level":"tehsil","parent":"in-arunachal-d-241","district":"Upper Subansiri","source":"LGD via Bharatlas · 2024 snapshot","state_lgd":12,"district_lgd":241,"subdistrict_lgd":1609,"center":[93.79174480796364,28.482319648990096],"bbox":[93.5301459,28.244893,93.9815779,28.707036]},"geometry":{"type":"Point","coordinates":[93.79174480796364,28.482319648990096]}},{"type":"Feature","id":"in-arunachal-t-1568","properties":{"id":"in-arunachal-t-1568","name":"Nafra EAC","region":"in-arunachal","level":"tehsil","parent":"in-arunachal-d-242","district":"West Kameng","source":"LGD via Bharatlas · 2024 snapshot","state_lgd":12,"district_lgd":242,"subdistrict_lgd":1568,"center":[92.53286302695277,27.495629518056116],"bbox":[92.3601038,27.3056819,92.8213226,27.7469646]},"geometry":{"type":"Point","coordinates":[92.53286302695277,27.495629518056116]}},{"type":"Feature","id":"in-arunachal-t-1596","properties":{"id":"in-arunachal-t-1596","name":"Naharlagun EAC","region":"in-arunachal","level":"tehsil","parent":"in-arunachal-d-237","district":"Papum Pare","source":"LGD via Bharatlas · 2024 snapshot","state_lgd":12,"district_lgd":237,"subdistrict_lgd":1596,"center":[93.68168310798474,27.1270957199529],"bbox":[93.5786489,27.060718,93.8265965,27.1906494]},"geometry":{"type":"Point","coordinates":[93.68168310798474,27.1270957199529]}},{"type":"Feature","id":"in-arunachal-t-1676","properties":{"id":"in-arunachal-t-1676","name":"Nampong SDO","region":"in-arunachal","level":"tehsil","parent":"in-arunachal-d-229","district":"Changlang","source":"LGD via Bharatlas · 2024 snapshot","state_lgd":12,"district_lgd":229,"subdistrict_lgd":1676,"center":[96.45570505205853,27.362686195925267],"bbox":[96.2133939,27.2714811,96.7167695,27.4475799]},"geometry":{"type":"Point","coordinates":[96.45570505205853,27.362686195925267]}},{"type":"Feature","id":"in-arunachal-t-1732","properties":{"id":"in-arunachal-t-1732","name":"Namsai HQ","region":"in-arunachal","level":"tehsil","parent":"in-arunachal-d-678","district":"Namsai","source":"LGD via Bharatlas · 2024 snapshot","state_lgd":12,"district_lgd":678,"subdistrict_lgd":1732,"center":[95.90509075558366,27.68949267833263],"bbox":[95.7522627,27.6248498,96.0042419,27.729542]},"geometry":{"type":"Point","coordinates":[95.90509075558366,27.68949267833263]}},{"type":"Feature","id":"in-arunachal-t-6115","properties":{"id":"in-arunachal-t-6115","name":"Namsing Circle","region":"in-arunachal","level":"tehsil","parent":"in-arunachal-d-232","district":"East Siang","source":"LGD via Bharatlas · 2024 snapshot","state_lgd":12,"district_lgd":232,"subdistrict_lgd":6115,"center":[95.49573445280211,28.013567943925896],"bbox":[95.427404,27.8563826,95.5699712,28.1721823]},"geometry":{"type":"Point","coordinates":[95.49573445280211,28.013567943925896]}},{"type":"Feature","id":"in-arunachal-t-6580","properties":{"id":"in-arunachal-t-6580","name":"Namtok EAC","region":"in-arunachal","level":"tehsil","parent":"in-arunachal-d-229","district":"Changlang","source":"LGD via Bharatlas · 2024 snapshot","state_lgd":12,"district_lgd":229,"subdistrict_lgd":6580,"center":[95.71969639766338,27.22965666621063],"bbox":[95.6339069,27.1802115,95.8310959,27.2691705]},"geometry":{"type":"Point","coordinates":[95.71969639766338,27.22965666621063]}},{"type":"Feature","id":"in-arunachal-t-1651","properties":{"id":"in-arunachal-t-1651","name":"Nari ADC","region":"in-arunachal","level":"tehsil","parent":"in-arunachal-d-719","district":"Lower Siang","source":"LGD via Bharatlas · 2024 snapshot","state_lgd":12,"district_lgd":719,"subdistrict_lgd":1651,"center":[95.06369324348279,27.84391675415974],"bbox":[94.9798249,27.7806543,95.1364019,27.9099015]},"geometry":{"type":"Point","coordinates":[95.06369324348279,27.84391675415974]}},{"type":"Feature","id":"in-arunachal-t-6575","properties":{"id":"in-arunachal-t-6575","name":"New Seren Circle","region":"in-arunachal","level":"tehsil","parent":"in-arunachal-d-719","district":"Lower Siang","source":"LGD via Bharatlas · 2024 snapshot","state_lgd":12,"district_lgd":719,"subdistrict_lgd":6575,"center":[94.94011277636976,27.795076167327686],"bbox":[94.8590573,27.7332456,95.0230656,27.858275]},"geometry":{"type":"Point","coordinates":[94.94011277636976,27.795076167327686]}},{"type":"Feature","id":"in-arunachal-t-1706","properties":{"id":"in-arunachal-t-1706","name":"NYAPIN ADC","region":"in-arunachal","level":"tehsil","parent":"in-arunachal-d-233","district":"Kurung Kumey","source":"LGD via Bharatlas · 2024 snapshot","state_lgd":12,"district_lgd":233,"subdistrict_lgd":1706,"center":[93.3599431153268,27.710391155381096],"bbox":[93.1947784,27.5946739,93.5584112,27.8430797]},"geometry":{"type":"Point","coordinates":[93.3599431153268,27.710391155381096]}},{"type":"Feature","id":"in-arunachal-t-6107","properties":{"id":"in-arunachal-t-6107","name":"Old Ziro SDO","region":"in-arunachal","level":"tehsil","parent":"in-arunachal-d-236","district":"Lower Subansiri","source":"LGD via Bharatlas · 2024 snapshot","state_lgd":12,"district_lgd":236,"subdistrict_lgd":6107,"center":[93.86278440570527,27.671073564675076],"bbox":[93.7643178,27.5953779,93.9388444,27.7498616]},"geometry":{"type":"Point","coordinates":[93.86278440570527,27.671073564675076]}},{"type":"Feature","id":"in-arunachal-t-1654","properties":{"id":"in-arunachal-t-1654","name":"Oyan Circle","region":"in-arunachal","level":"tehsil","parent":"in-arunachal-d-232","district":"East Siang","source":"LGD via Bharatlas · 2024 snapshot","state_lgd":12,"district_lgd":232,"subdistrict_lgd":1654,"center":[95.34842061176826,27.89876858276195],"bbox":[95.2452562,27.8391789,95.436194,27.9709942]},"geometry":{"type":"Point","coordinates":[95.34842061176826,27.89876858276195]}},{"type":"Feature","id":"in-arunachal-t-1581","properties":{"id":"in-arunachal-t-1581","name":"Pakke Kessang EAC","region":"in-arunachal","level":"tehsil","parent":"in-arunachal-d-723","district":"Pakke Kessang","source":"LGD via Bharatlas · 2024 snapshot","state_lgd":12,"district_lgd":723,"subdistrict_lgd":1581,"center":[93.2239972599337,27.05535472],"bbox":[93.1085097,26.9882222,93.3441326,27.3238848]},"geometry":{"type":"Point","coordinates":[93.2239972599337,27.05535472]}},{"type":"Feature","id":"in-arunachal-t-1703","properties":{"id":"in-arunachal-t-1703","name":"Palin Circle","region":"in-arunachal","level":"tehsil","parent":"in-arunachal-d-677","district":"Kra Daadi","source":"LGD via Bharatlas · 2024 snapshot","state_lgd":12,"district_lgd":677,"subdistrict_lgd":1703,"center":[93.62740524573839,27.70791224119141],"bbox":[93.5094776,27.5992924,93.7732505,27.8039538]},"geometry":{"type":"Point","coordinates":[93.62740524573839,27.70791224119141]}},{"type":"Feature","id":"in-arunachal-t-1660","properties":{"id":"in-arunachal-t-1660","name":"Palling Circle","region":"in-arunachal","level":"tehsil","parent":"in-arunachal-d-240","district":"Upper Siang","source":"LGD via Bharatlas · 2024 snapshot","state_lgd":12,"district_lgd":240,"subdistrict_lgd":1660,"center":[94.8440289210489,28.85191296211809],"bbox":[94.7611648,28.7729675,94.9542274,28.9404221]},"geometry":{"type":"Point","coordinates":[94.8440289210489,28.85191296211809]}},{"type":"Feature","id":"in-arunachal-t-1692","properties":{"id":"in-arunachal-t-1692","name":"Pangchao SDO","region":"in-arunachal","level":"tehsil","parent":"in-arunachal-d-666","district":"Longding","source":"LGD via Bharatlas · 2024 snapshot","state_lgd":12,"district_lgd":666,"subdistrict_lgd":1692,"center":[95.31540528175546,26.72540392873204],"bbox":[95.2125242,26.6508226,95.409603,26.8120219]},"geometry":{"type":"Point","coordinates":[95.31540528175546,26.72540392873204]}},{"type":"Feature","id":"in-arunachal-t-1645","properties":{"id":"in-arunachal-t-1645","name":"Pangin EAC","region":"in-arunachal","level":"tehsil","parent":"in-arunachal-d-679","district":"Siang","source":"LGD via Bharatlas · 2024 snapshot","state_lgd":12,"district_lgd":679,"subdistrict_lgd":1645,"center":[94.98760056467175,28.181692949808497],"bbox":[94.8683899,28.1026111,95.1226138,28.2742821]},"geometry":{"type":"Point","coordinates":[94.98760056467175,28.181692949808497]}},{"type":"Feature","id":"in-arunachal-t-1602","properties":{"id":"in-arunachal-t-1602","name":"Parang Circle","region":"in-arunachal","level":"tehsil","parent":"in-arunachal-d-237","district":"Papum Pare","source":"LGD via Bharatlas · 2024 snapshot","state_lgd":12,"district_lgd":237,"subdistrict_lgd":1602,"center":[93.45535845881574,27.385492545900185],"bbox":[93.3632637,27.3223526,93.5810366,27.4482261]},"geometry":{"type":"Point","coordinates":[93.45535845881574,27.385492545900185]}},{"type":"Feature","id":"in-arunachal-t-source-3428","properties":{"id":"in-arunachal-t-source-3428","name":"Parsi-Parlo","region":"in-arunachal","level":"tehsil","parent":"in-arunachal-d-233","district":"Kurung Kumey","source":"LGD via Bharatlas · 2024 snapshot","state_lgd":12,"district_lgd":233,"subdistrict_lgd":null,"source_objectid":3428,"center":[93.46773274828458,27.992136352827842],"bbox":[93.2403605,27.9056596,93.6185113,28.0692116]},"geometry":{"type":"Point","coordinates":[93.46773274828458,27.992136352827842]}},{"type":"Feature","id":"in-arunachal-t-6118","properties":{"id":"in-arunachal-t-6118","name":"Pasighat HQ","region":"in-arunachal","level":"tehsil","parent":"in-arunachal-d-232","district":"East Siang","source":"LGD via Bharatlas · 2024 snapshot","state_lgd":12,"district_lgd":232,"subdistrict_lgd":6118,"center":[95.32599880557513,28.03061603751728],"bbox":[95.2128552,27.931971,95.43597,28.1548947]},"geometry":{"type":"Point","coordinates":[95.32599880557513,28.03061603751728]}},{"type":"Feature","id":"in-arunachal-t-1612","properties":{"id":"in-arunachal-t-1612","name":"Payeng Circle","region":"in-arunachal","level":"tehsil","parent":"in-arunachal-d-241","district":"Upper Subansiri","source":"LGD via Bharatlas · 2024 snapshot","state_lgd":12,"district_lgd":241,"subdistrict_lgd":1612,"center":[94.19686145424068,28.35066487551629],"bbox":[94.0922783,28.2318023,94.3210666,28.4467114]},"geometry":{"type":"Point","coordinates":[94.19686145424068,28.35066487551629]}},{"type":"Feature","id":"in-arunachal-t-6607","properties":{"id":"in-arunachal-t-6607","name":"Payum Circle","region":"in-arunachal","level":"tehsil","parent":"in-arunachal-d-679","district":"Siang","source":"LGD via Bharatlas · 2024 snapshot","state_lgd":12,"district_lgd":679,"subdistrict_lgd":6607,"center":[94.59285322234926,28.65488530568644],"bbox":[94.378501,28.4456837,94.7807467,28.9321228]},"geometry":{"type":"Point","coordinates":[94.59285322234926,28.65488530568644]}},{"type":"Feature","id":"in-arunachal-t-6590","properties":{"id":"in-arunachal-t-6590","name":"Pidi Circle","region":"in-arunachal","level":"tehsil","parent":"in-arunachal-d-725","district":"Shi Yomi","source":"LGD via Bharatlas · 2024 snapshot","state_lgd":12,"district_lgd":725,"subdistrict_lgd":6590,"center":[94.38625307973322,28.639528370779924],"bbox":[94.2606384,28.5469298,94.4845457,28.7547807]},"geometry":{"type":"Point","coordinates":[94.38625307973322,28.639528370779924]}},{"type":"Feature","id":"in-arunachal-t-1715","properties":{"id":"in-arunachal-t-1715","name":"Pipsorang Circle","region":"in-arunachal","level":"tehsil","parent":"in-arunachal-d-677","district":"Kra Daadi","source":"LGD via Bharatlas · 2024 snapshot","state_lgd":12,"district_lgd":677,"subdistrict_lgd":1715,"center":[93.65597193125768,28.173730908576353],"bbox":[93.4468977,28.03656,93.891208,28.3229356]},"geometry":{"type":"Point","coordinates":[93.65597193125768,28.173730908576353]}},{"type":"Feature","id":"in-arunachal-t-1587","properties":{"id":"in-arunachal-t-1587","name":"Pipu Dipu Circle","region":"in-arunachal","level":"tehsil","parent":"in-arunachal-d-231","district":"East Kameng","source":"LGD via Bharatlas · 2024 snapshot","state_lgd":12,"district_lgd":231,"subdistrict_lgd":1587,"center":[93.14398974440967,27.547477899217142],"bbox":[93.0263334,27.4321258,93.3147458,27.6529782]},"geometry":{"type":"Point","coordinates":[93.14398974440967,27.547477899217142]}},{"type":"Feature","id":"in-arunachal-t-6119","properties":{"id":"in-arunachal-t-6119","name":"Pistana Circle","region":"in-arunachal","level":"tehsil","parent":"in-arunachal-d-236","district":"Lower Subansiri","source":"LGD via Bharatlas · 2024 snapshot","state_lgd":12,"district_lgd":236,"subdistrict_lgd":6119,"center":[93.70760330019623,27.559397911318502],"bbox":[93.5309558,27.4570122,93.9149227,27.6809617]},"geometry":{"type":"Point","coordinates":[93.70760330019623,27.559397911318502]}},{"type":"Feature","id":"in-arunachal-t-6121","properties":{"id":"in-arunachal-t-6121","name":"Piyong Circle","region":"in-arunachal","level":"tehsil","parent":"in-arunachal-d-678","district":"Namsai","source":"LGD via Bharatlas · 2024 snapshot","state_lgd":12,"district_lgd":678,"subdistrict_lgd":6121,"center":[95.9880124020827,27.61842408225654],"bbox":[95.8932375,27.5545689,96.1257641,27.6944217]},"geometry":{"type":"Point","coordinates":[95.9880124020827,27.61842408225654]}},{"type":"Feature","id":"in-arunachal-t-6100","properties":{"id":"in-arunachal-t-6100","name":"Pizirang Veo Circle","region":"in-arunachal","level":"tehsil","parent":"in-arunachal-d-723","district":"Pakke Kessang","source":"LGD via Bharatlas · 2024 snapshot","state_lgd":12,"district_lgd":723,"subdistrict_lgd":6100,"center":[93.09746196495976,27.228477600112925],"bbox":[92.9679645,27.0553659,93.2909467,27.3901924]},"geometry":{"type":"Point","coordinates":[93.09746196495976,27.228477600112925]}},{"type":"Feature","id":"in-arunachal-t-1616","properties":{"id":"in-arunachal-t-1616","name":"Puchi Geko Circle","region":"in-arunachal","level":"tehsil","parent":"in-arunachal-d-241","district":"Upper Subansiri","source":"LGD via Bharatlas · 2024 snapshot","state_lgd":12,"district_lgd":241,"subdistrict_lgd":1616,"center":[94.25997336384967,27.870658887303666],"bbox":[94.153027,27.7882684,94.3452831,27.9714319]},"geometry":{"type":"Point","coordinates":[94.25997336384967,27.870658887303666]}},{"type":"Feature","id":"in-arunachal-t-6584","properties":{"id":"in-arunachal-t-6584","name":"Pumao Circle","region":"in-arunachal","level":"tehsil","parent":"in-arunachal-d-666","district":"Longding","source":"LGD via Bharatlas · 2024 snapshot","state_lgd":12,"district_lgd":666,"subdistrict_lgd":6584,"center":[95.24271231377648,26.841908325337965],"bbox":[95.181143,26.7560652,95.2976683,26.9120594]},"geometry":{"type":"Point","coordinates":[95.24271231377648,26.841908325337965]}},{"type":"Feature","id":"in-arunachal-t-source-3161","properties":{"id":"in-arunachal-t-source-3161","name":"Raga","region":"in-arunachal","level":"tehsil","parent":"in-arunachal-d-718","district":"Kamle","source":"LGD via Bharatlas · 2024 snapshot","state_lgd":12,"district_lgd":718,"subdistrict_lgd":null,"source_objectid":3161,"center":[94.12637712102264,27.814439810655173],"bbox":[94.0339108,27.7745513,94.2525719,27.8669225]},"geometry":{"type":"Point","coordinates":[94.12637712102264,27.814439810655173]}},{"type":"Feature","id":"in-arunachal-t-1647","properties":{"id":"in-arunachal-t-1647","name":"Rebo Perging Circle","region":"in-arunachal","level":"tehsil","parent":"in-arunachal-d-679","district":"Siang","source":"LGD via Bharatlas · 2024 snapshot","state_lgd":12,"district_lgd":679,"subdistrict_lgd":1647,"center":[95.04302278902883,28.281666401341383],"bbox":[94.9513669,28.212773,95.1357149,28.3530967]},"geometry":{"type":"Point","coordinates":[95.04302278902883,28.281666401341383]}},{"type":"Feature","id":"in-arunachal-t-source-3244","properties":{"id":"in-arunachal-t-source-3244","name":"Renuk","region":"in-arunachal","level":"tehsil","parent":"in-arunachal-d-229","district":"Changlang","source":"LGD via Bharatlas · 2024 snapshot","state_lgd":12,"district_lgd":229,"subdistrict_lgd":null,"source_objectid":3244,"center":[95.94600590020553,27.14815463338924],"bbox":[95.8752889,27.1057317,96.0196874,27.1862556]},"geometry":{"type":"Point","coordinates":[95.94600590020553,27.14815463338924]}},{"type":"Feature","id":"in-arunachal-t-6101","properties":{"id":"in-arunachal-t-6101","name":"Richukrong Circle","region":"in-arunachal","level":"tehsil","parent":"in-arunachal-d-231","district":"East Kameng","source":"LGD via Bharatlas · 2024 snapshot","state_lgd":12,"district_lgd":231,"subdistrict_lgd":6101,"center":[92.86040124299986,27.318221331064212],"bbox":[92.799404,27.1629859,92.9273335,27.463004]},"geometry":{"type":"Point","coordinates":[92.86040124299986,27.318221331064212]}},{"type":"Feature","id":"in-arunachal-t-1644","properties":{"id":"in-arunachal-t-1644","name":"Riga EAC","region":"in-arunachal","level":"tehsil","parent":"in-arunachal-d-679","district":"Siang","source":"LGD via Bharatlas · 2024 snapshot","state_lgd":12,"district_lgd":679,"subdistrict_lgd":1644,"center":[95.03324656315382,28.4465488987712],"bbox":[94.9763412,28.32318,95.1019557,28.5645184]},"geometry":{"type":"Point","coordinates":[95.03324656315382,28.4465488987712]}},{"type":"Feature","id":"in-arunachal-t-1724","properties":{"id":"in-arunachal-t-1724","name":"Roing HQ","region":"in-arunachal","level":"tehsil","parent":"in-arunachal-d-235","district":"Lower Dibang Valley","source":"LGD via Bharatlas · 2024 snapshot","state_lgd":12,"district_lgd":235,"subdistrict_lgd":1724,"center":[95.80291031194625,28.121974854638566],"bbox":[95.6604342,27.9589524,95.9778551,28.3175312]},"geometry":{"type":"Point","coordinates":[95.80291031194625,28.121974854638566]}},{"type":"Feature","id":"in-arunachal-t-1653","properties":{"id":"in-arunachal-t-1653","name":"Ruksin ADC","region":"in-arunachal","level":"tehsil","parent":"in-arunachal-d-232","district":"East Siang","source":"LGD via Bharatlas · 2024 snapshot","state_lgd":12,"district_lgd":232,"subdistrict_lgd":1653,"center":[95.18648324081057,27.86886024403631],"bbox":[95.1152187,27.815647,95.2800272,27.9105559]},"geometry":{"type":"Point","coordinates":[95.18648324081057,27.86886024403631]}},{"type":"Feature","id":"in-arunachal-t-1630","properties":{"id":"in-arunachal-t-1630","name":"Rumgong ADC","region":"in-arunachal","level":"tehsil","parent":"in-arunachal-d-679","district":"Siang","source":"LGD via Bharatlas · 2024 snapshot","state_lgd":12,"district_lgd":679,"subdistrict_lgd":1630,"center":[94.81738893167797,28.344190363009883],"bbox":[94.7325205,28.2575873,94.9224284,28.4249021]},"geometry":{"type":"Point","coordinates":[94.81738893167797,28.344190363009883]}},{"type":"Feature","id":"in-arunachal-t-6560","properties":{"id":"in-arunachal-t-6560","name":"Rupa SDO","region":"in-arunachal","level":"tehsil","parent":"in-arunachal-d-242","district":"West Kameng","source":"LGD via Bharatlas · 2024 snapshot","state_lgd":12,"district_lgd":242,"subdistrict_lgd":6560,"center":[92.3596763813311,27.189665508162385],"bbox":[92.2700412,27.0846062,92.4541817,27.2765573]},"geometry":{"type":"Point","coordinates":[92.3596763813311,27.189665508162385]}},{"type":"Feature","id":"in-arunachal-t-1601","properties":{"id":"in-arunachal-t-1601","name":"Sagalee ADC","region":"in-arunachal","level":"tehsil","parent":"in-arunachal-d-237","district":"Papum Pare","source":"LGD via Bharatlas · 2024 snapshot","state_lgd":12,"district_lgd":237,"subdistrict_lgd":1601,"center":[93.51722518067902,27.266615241206612],"bbox":[93.4098255,27.1720896,93.6291303,27.3777063]},"geometry":{"type":"Point","coordinates":[93.51722518067902,27.266615241206612]}},{"type":"Feature","id":"in-arunachal-t-6600","properties":{"id":"in-arunachal-t-6600","name":"Sangdupota Basar Nello Circle","region":"in-arunachal","level":"tehsil","parent":"in-arunachal-d-237","district":"Papum Pare","source":"LGD via Bharatlas · 2024 snapshot","state_lgd":12,"district_lgd":237,"subdistrict_lgd":6600,"center":[93.39747667109559,27.096096450164374],"bbox":[93.2106624,26.9694184,93.549143,27.1856525]},"geometry":{"type":"Point","coordinates":[93.39747667109559,27.096096450164374]}},{"type":"Feature","id":"in-arunachal-t-1705","properties":{"id":"in-arunachal-t-1705","name":"SANGRAM SDO","region":"in-arunachal","level":"tehsil","parent":"in-arunachal-d-233","district":"Kurung Kumey","source":"LGD via Bharatlas · 2024 snapshot","state_lgd":12,"district_lgd":233,"subdistrict_lgd":1705,"center":[93.5138090149944,27.83166293870169],"bbox":[93.4295277,27.7067366,93.6018007,27.930406]},"geometry":{"type":"Point","coordinates":[93.5138090149944,27.83166293870169]}},{"type":"Feature","id":"in-arunachal-t-1712","properties":{"id":"in-arunachal-t-1712","name":"SARLI CIRCLE","region":"in-arunachal","level":"tehsil","parent":"in-arunachal-d-233","district":"Kurung Kumey","source":"LGD via Bharatlas · 2024 snapshot","state_lgd":12,"district_lgd":233,"subdistrict_lgd":1712,"center":[92.97834973026998,27.991678246681673],"bbox":[92.6653363,27.8105837,93.2727212,28.2110432]},"geometry":{"type":"Point","coordinates":[92.97834973026998,27.991678246681673]}},{"type":"Feature","id":"in-arunachal-t-1591","properties":{"id":"in-arunachal-t-1591","name":"Sawa CIrcle","region":"in-arunachal","level":"tehsil","parent":"in-arunachal-d-231","district":"East Kameng","source":"LGD via Bharatlas · 2024 snapshot","state_lgd":12,"district_lgd":231,"subdistrict_lgd":1591,"center":[92.78107749514257,27.794680340572715],"bbox":[92.4504664,27.5911396,93.1065664,27.9791053]},"geometry":{"type":"Point","coordinates":[92.78107749514257,27.794680340572715]}},{"type":"Feature","id":"in-arunachal-t-6104","properties":{"id":"in-arunachal-t-6104","name":"Seijosa ADC","region":"in-arunachal","level":"tehsil","parent":"in-arunachal-d-723","district":"Pakke Kessang","source":"LGD via Bharatlas · 2024 snapshot","state_lgd":12,"district_lgd":723,"subdistrict_lgd":6104,"center":[92.87330053288855,27.06318380888601],"bbox":[92.5902613,26.9133818,93.1506841,27.1956561]},"geometry":{"type":"Point","coordinates":[92.87330053288855,27.06318380888601]}},{"type":"Feature","id":"in-arunachal-t-1584","properties":{"id":"in-arunachal-t-1584","name":"Seppa HQ","region":"in-arunachal","level":"tehsil","parent":"in-arunachal-d-231","district":"East Kameng","source":"LGD via Bharatlas · 2024 snapshot","state_lgd":12,"district_lgd":231,"subdistrict_lgd":1584,"center":[93.06774930018233,27.343494961455853],"bbox":[92.8268525,27.1503349,93.3727559,27.4696664]},"geometry":{"type":"Point","coordinates":[93.06774930018233,27.343494961455853]}},{"type":"Feature","id":"in-arunachal-t-6566","properties":{"id":"in-arunachal-t-6566","name":"Shergaon Circle","region":"in-arunachal","level":"tehsil","parent":"in-arunachal-d-242","district":"West Kameng","source":"LGD via Bharatlas · 2024 snapshot","state_lgd":12,"district_lgd":242,"subdistrict_lgd":6566,"center":[92.29265827252597,27.043159788814307],"bbox":[92.1972296,26.9019585,92.3927024,27.2007239]},"geometry":{"type":"Point","coordinates":[92.29265827252597,27.043159788814307]}},{"type":"Feature","id":"in-arunachal-t-6573","properties":{"id":"in-arunachal-t-6573","name":"Sibe Circle","region":"in-arunachal","level":"tehsil","parent":"in-arunachal-d-719","district":"Lower Siang","source":"LGD via Bharatlas · 2024 snapshot","state_lgd":12,"district_lgd":719,"subdistrict_lgd":6573,"center":[94.52759861662386,27.770219218826156],"bbox":[94.2877737,27.6739769,94.7240734,27.8708051]},"geometry":{"type":"Point","coordinates":[94.52759861662386,27.770219218826156]}},{"type":"Feature","id":"in-arunachal-t-1662","properties":{"id":"in-arunachal-t-1662","name":"Singa Circle","region":"in-arunachal","level":"tehsil","parent":"in-arunachal-d-240","district":"Upper Siang","source":"LGD via Bharatlas · 2024 snapshot","state_lgd":12,"district_lgd":240,"subdistrict_lgd":1662,"center":[95.19395014042314,28.82798031137481],"bbox":[94.9561075,28.680585,95.3893034,28.9790433]},"geometry":{"type":"Point","coordinates":[95.19395014042314,28.82798031137481]}},{"type":"Feature","id":"in-arunachal-t-1573","properties":{"id":"in-arunachal-t-1573","name":"Singchung ADC","region":"in-arunachal","level":"tehsil","parent":"in-arunachal-d-242","district":"West Kameng","source":"LGD via Bharatlas · 2024 snapshot","state_lgd":12,"district_lgd":242,"subdistrict_lgd":1573,"center":[92.49821022452602,27.22070744841287],"bbox":[92.3736072,27.0092249,92.6703081,27.3616944]},"geometry":{"type":"Point","coordinates":[92.49821022452602,27.22070744841287]}},{"type":"Feature","id":"in-arunachal-t-1610","properties":{"id":"in-arunachal-t-1610","name":"Siyum ADC","region":"in-arunachal","level":"tehsil","parent":"in-arunachal-d-241","district":"Upper Subansiri","source":"LGD via Bharatlas · 2024 snapshot","state_lgd":12,"district_lgd":241,"subdistrict_lgd":1610,"center":[94.01468752786229,28.464310788457457],"bbox":[93.88402,28.2509144,94.1408193,28.7073198]},"geometry":{"type":"Point","coordinates":[94.01468752786229,28.464310788457457]}},{"type":"Feature","id":"in-arunachal-t-1685","properties":{"id":"in-arunachal-t-1685","name":"Soha Circle","region":"in-arunachal","level":"tehsil","parent":"in-arunachal-d-239","district":"Tirap","source":"LGD via Bharatlas · 2024 snapshot","state_lgd":12,"district_lgd":239,"subdistrict_lgd":1685,"center":[95.60721949125215,27.19193700532623],"bbox":[95.5650827,27.1528086,95.6424662,27.2326385]},"geometry":{"type":"Point","coordinates":[95.60721949125215,27.19193700532623]}},{"type":"Feature","id":"in-arunachal-t-1728","properties":{"id":"in-arunachal-t-1728","name":"Sunpura Circle","region":"in-arunachal","level":"tehsil","parent":"in-arunachal-d-234","district":"Lohit","source":"LGD via Bharatlas · 2024 snapshot","state_lgd":12,"district_lgd":234,"subdistrict_lgd":1728,"center":[96.02126435027279,27.998688796407965],"bbox":[95.7742973,27.7309383,96.1748467,28.2014235]},"geometry":{"type":"Point","coordinates":[96.02126435027279,27.998688796407965]}},{"type":"Feature","id":"in-arunachal-t-source-3182","properties":{"id":"in-arunachal-t-source-3182","name":"Taksing","region":"in-arunachal","level":"tehsil","parent":"in-arunachal-d-241","district":"Upper Subansiri","source":"LGD via Bharatlas · 2024 snapshot","state_lgd":12,"district_lgd":241,"subdistrict_lgd":null,"source_objectid":3182,"center":[93.34031648519023,28.44913332039931],"bbox":[93.180451,28.2799242,93.4574619,28.6420003]},"geometry":{"type":"Point","coordinates":[93.34031648519023,28.44913332039931]}},{"type":"Feature","id":"in-arunachal-t-1716","properties":{"id":"in-arunachal-t-1716","name":"Tali ADC","region":"in-arunachal","level":"tehsil","parent":"in-arunachal-d-677","district":"Kra Daadi","source":"LGD via Bharatlas · 2024 snapshot","state_lgd":12,"district_lgd":677,"subdistrict_lgd":1716,"center":[93.77151397558552,27.988106367535828],"bbox":[93.574783,27.8870489,93.9772177,28.084595]},"geometry":{"type":"Point","coordinates":[93.77151397558552,27.988106367535828]}},{"type":"Feature","id":"in-arunachal-t-1611","properties":{"id":"in-arunachal-t-1611","name":"Taliha ADC","region":"in-arunachal","level":"tehsil","parent":"in-arunachal-d-241","district":"Upper Subansiri","source":"LGD via Bharatlas · 2024 snapshot","state_lgd":12,"district_lgd":241,"subdistrict_lgd":1611,"center":[94.20223893570042,28.237859616582377],"bbox":[93.960492,28.0936424,94.417017,28.3692022]},"geometry":{"type":"Point","coordinates":[94.20223893570042,28.237859616582377]}},{"type":"Feature","id":"in-arunachal-t-1595","properties":{"id":"in-arunachal-t-1595","name":"Taraso Circle","region":"in-arunachal","level":"tehsil","parent":"in-arunachal-d-237","district":"Papum Pare","source":"LGD via Bharatlas · 2024 snapshot","state_lgd":12,"district_lgd":237,"subdistrict_lgd":1595,"center":[93.44799057475763,26.97805978366092],"bbox":[93.3872338,26.9361768,93.5100115,27.029084]},"geometry":{"type":"Point","coordinates":[93.44799057475763,26.97805978366092]}},{"type":"Feature","id":"in-arunachal-t-source-3186","properties":{"id":"in-arunachal-t-source-3186","name":"Tato","region":"in-arunachal","level":"tehsil","parent":"in-arunachal-d-725","district":"Shi Yomi","source":"LGD via Bharatlas · 2024 snapshot","state_lgd":12,"district_lgd":725,"subdistrict_lgd":null,"source_objectid":3186,"center":[94.39845704803996,28.47787281215427],"bbox":[94.2387371,28.3358376,94.5609614,28.6002297]},"geometry":{"type":"Point","coordinates":[94.39845704803996,28.47787281215427]}},{"type":"Feature","id":"in-arunachal-t-1559","properties":{"id":"in-arunachal-t-1559","name":"TAWANG HQ","region":"in-arunachal","level":"tehsil","parent":"in-arunachal-d-238","district":"Tawang","source":"LGD via Bharatlas · 2024 snapshot","state_lgd":12,"district_lgd":238,"subdistrict_lgd":1559,"center":[91.8208342311616,27.599037677595113],"bbox":[91.7541344,27.5303744,91.8919051,27.6805891]},"geometry":{"type":"Point","coordinates":[91.8208342311616,27.599037677595113]}},{"type":"Feature","id":"in-arunachal-t-1729","properties":{"id":"in-arunachal-t-1729","name":"Tezu HQ","region":"in-arunachal","level":"tehsil","parent":"in-arunachal-d-234","district":"Lohit","source":"LGD via Bharatlas · 2024 snapshot","state_lgd":12,"district_lgd":234,"subdistrict_lgd":1729,"center":[96.24748797736723,28.0550279091714],"bbox":[96.0259616,27.8357405,96.4254739,28.3863567]},"geometry":{"type":"Point","coordinates":[96.24748797736723,28.0550279091714]}},{"type":"Feature","id":"in-arunachal-t-6565","properties":{"id":"in-arunachal-t-6565","name":"Thembang Circle","region":"in-arunachal","level":"tehsil","parent":"in-arunachal-d-242","district":"West Kameng","source":"LGD via Bharatlas · 2024 snapshot","state_lgd":12,"district_lgd":242,"subdistrict_lgd":6565,"center":[92.36258579483244,27.365825027076106],"bbox":[92.2596905,27.2885736,92.4508802,27.4617933]},"geometry":{"type":"Point","coordinates":[92.36258579483244,27.365825027076106]}},{"type":"Feature","id":"in-arunachal-t-6556","properties":{"id":"in-arunachal-t-6556","name":"Thingbu Circle","region":"in-arunachal","level":"tehsil","parent":"in-arunachal-d-238","district":"Tawang","source":"LGD via Bharatlas · 2024 snapshot","state_lgd":12,"district_lgd":238,"subdistrict_lgd":6556,"center":[92.17211126607408,27.702472561065246],"bbox":[91.9218864,27.4924527,92.4705483,27.8721005]},"geometry":{"type":"Point","coordinates":[92.17211126607408,27.702472561065246]}},{"type":"Feature","id":"in-arunachal-t-1575","properties":{"id":"in-arunachal-t-1575","name":"Thrizino ADC","region":"in-arunachal","level":"tehsil","parent":"in-arunachal-d-242","district":"West Kameng","source":"LGD via Bharatlas · 2024 snapshot","state_lgd":12,"district_lgd":242,"subdistrict_lgd":1575,"center":[92.75155821513673,27.304961276198906],"bbox":[92.6383361,27.1778623,92.8442495,27.4067927]},"geometry":{"type":"Point","coordinates":[92.75155821513673,27.304961276198906]}},{"type":"Feature","id":"in-arunachal-t-source-3238","properties":{"id":"in-arunachal-t-source-3238","name":"Tikhak Rima Putok","region":"in-arunachal","level":"tehsil","parent":"in-arunachal-d-229","district":"Changlang","source":"LGD via Bharatlas · 2024 snapshot","state_lgd":12,"district_lgd":229,"subdistrict_lgd":null,"source_objectid":3238,"center":[96.15219479542782,27.305703818549055],"bbox":[96.0324399,27.201724,96.2562242,27.4040358]},"geometry":{"type":"Point","coordinates":[96.15219479542782,27.305703818549055]}},{"type":"Feature","id":"in-arunachal-t-1726","properties":{"id":"in-arunachal-t-1726","name":"Tinali Paglam Circle","region":"in-arunachal","level":"tehsil","parent":"in-arunachal-d-235","district":"Lower Dibang Valley","source":"LGD via Bharatlas · 2024 snapshot","state_lgd":12,"district_lgd":235,"subdistrict_lgd":1726,"center":[95.58231180496371,27.99081422220279],"bbox":[95.4987435,27.8797121,95.6651299,28.0883553]},"geometry":{"type":"Point","coordinates":[95.58231180496371,27.99081422220279]}},{"type":"Feature","id":"in-arunachal-t-1635","properties":{"id":"in-arunachal-t-1635","name":"Tirbin EAC","region":"in-arunachal","level":"tehsil","parent":"in-arunachal-d-724","district":"Leparada","source":"LGD via Bharatlas · 2024 snapshot","state_lgd":12,"district_lgd":724,"subdistrict_lgd":1635,"center":[94.56876242182047,28.011047416101807],"bbox":[94.4842949,27.9556337,94.639494,28.062067]},"geometry":{"type":"Point","coordinates":[94.56876242182047,28.011047416101807]}},{"type":"Feature","id":"in-arunachal-t-1600","properties":{"id":"in-arunachal-t-1600","name":"Toru Circle","region":"in-arunachal","level":"tehsil","parent":"in-arunachal-d-237","district":"Papum Pare","source":"LGD via Bharatlas · 2024 snapshot","state_lgd":12,"district_lgd":237,"subdistrict_lgd":1600,"center":[93.71736856796014,27.25155978436637],"bbox":[93.54236,27.174945,93.8927372,27.3292372]},"geometry":{"type":"Point","coordinates":[93.71736856796014,27.25155978436637]}},{"type":"Feature","id":"in-arunachal-t-1658","properties":{"id":"in-arunachal-t-1658","name":"Tuting ADC","region":"in-arunachal","level":"tehsil","parent":"in-arunachal-d-240","district":"Upper Siang","source":"LGD via Bharatlas · 2024 snapshot","state_lgd":12,"district_lgd":240,"subdistrict_lgd":1658,"center":[94.69249575052163,29.05355679170962],"bbox":[94.1915879,28.8547352,95.2778829,29.3412364]},"geometry":{"type":"Point","coordinates":[94.69249575052163,29.05355679170962]}},{"type":"Feature","id":"in-arunachal-t-1679","properties":{"id":"in-arunachal-t-1679","name":"Vijoynagar EAC","region":"in-arunachal","level":"tehsil","parent":"in-arunachal-d-229","district":"Changlang","source":"LGD via Bharatlas · 2024 snapshot","state_lgd":12,"district_lgd":229,"subdistrict_lgd":1679,"center":[96.96439266816179,27.261506267126805],"bbox":[96.7915709,27.08916,97.1658975,27.447491]},"geometry":{"type":"Point","coordinates":[96.96439266816179,27.261506267126805]}},{"type":"Feature","id":"in-arunachal-t-6012","properties":{"id":"in-arunachal-t-6012","name":"Wakka SDO","region":"in-arunachal","level":"tehsil","parent":"in-arunachal-d-666","district":"Longding","source":"LGD via Bharatlas · 2024 snapshot","state_lgd":12,"district_lgd":666,"subdistrict_lgd":6012,"center":[95.42769152609104,26.810395642994372],"bbox":[95.3421285,26.6939649,95.5056847,26.912689]},"geometry":{"type":"Point","coordinates":[95.42769152609104,26.810395642994372]}},{"type":"Feature","id":"in-arunachal-t-1730","properties":{"id":"in-arunachal-t-1730","name":"Wakro Circle","region":"in-arunachal","level":"tehsil","parent":"in-arunachal-d-234","district":"Lohit","source":"LGD via Bharatlas · 2024 snapshot","state_lgd":12,"district_lgd":234,"subdistrict_lgd":1730,"center":[96.45870330387794,27.781235798110494],"bbox":[96.1816482,27.5569958,96.7190961,28.0008672]},"geometry":{"type":"Point","coordinates":[96.45870330387794,27.781235798110494]}},{"type":"Feature","id":"in-arunachal-t-1742","properties":{"id":"in-arunachal-t-1742","name":"Walong Circle","region":"in-arunachal","level":"tehsil","parent":"in-arunachal-d-628","district":"Anjaw","source":"LGD via Bharatlas · 2024 snapshot","state_lgd":12,"district_lgd":628,"subdistrict_lgd":1742,"center":[97.08571112002049,28.06865814601534],"bbox":[96.8812093,27.8858886,97.3472429,28.2497082]},"geometry":{"type":"Point","coordinates":[97.08571112002049,28.06865814601534]}},{"type":"Feature","id":"in-arunachal-t-1697","properties":{"id":"in-arunachal-t-1697","name":"Yachuli ADC","region":"in-arunachal","level":"tehsil","parent":"in-arunachal-d-236","district":"Lower Subansiri","source":"LGD via Bharatlas · 2024 snapshot","state_lgd":12,"district_lgd":236,"subdistrict_lgd":1697,"center":[93.81873817144957,27.736540984124794],"bbox":[93.7143826,27.6624787,93.9158644,27.798854]},"geometry":{"type":"Point","coordinates":[93.81873817144957,27.736540984124794]}},{"type":"Feature","id":"in-arunachal-t-1704","properties":{"id":"in-arunachal-t-1704","name":"Yangte Circle","region":"in-arunachal","level":"tehsil","parent":"in-arunachal-d-677","district":"Kra Daadi","source":"LGD via Bharatlas · 2024 snapshot","state_lgd":12,"district_lgd":677,"subdistrict_lgd":1704,"center":[93.63314376203921,27.861315812900806],"bbox":[93.5586856,27.7628919,93.6945245,27.9561041]},"geometry":{"type":"Point","coordinates":[93.63314376203921,27.861315812900806]}},{"type":"Feature","id":"in-arunachal-t-6579","properties":{"id":"in-arunachal-t-6579","name":"Yatdam Circle","region":"in-arunachal","level":"tehsil","parent":"in-arunachal-d-229","district":"Changlang","source":"LGD via Bharatlas · 2024 snapshot","state_lgd":12,"district_lgd":229,"subdistrict_lgd":6579,"center":[95.67875969780641,27.098587160813178],"bbox":[95.6059965,26.9815732,95.7377992,27.2089505]},"geometry":{"type":"Point","coordinates":[95.67875969780641,27.098587160813178]}},{"type":"Feature","id":"in-arunachal-t-1698","properties":{"id":"in-arunachal-t-1698","name":"Yazali Circle","region":"in-arunachal","level":"tehsil","parent":"in-arunachal-d-236","district":"Lower Subansiri","source":"LGD via Bharatlas · 2024 snapshot","state_lgd":12,"district_lgd":236,"subdistrict_lgd":1698,"center":[93.70908563680273,27.397330927233504],"bbox":[93.5510243,27.2914714,93.8755981,27.5009133]},"geometry":{"type":"Point","coordinates":[93.70908563680273,27.397330927233504]}},{"type":"Feature","id":"in-arunachal-t-1663","properties":{"id":"in-arunachal-t-1663","name":"Yingkiong Circle","region":"in-arunachal","level":"tehsil","parent":"in-arunachal-d-240","district":"Upper Siang","source":"LGD via Bharatlas · 2024 snapshot","state_lgd":12,"district_lgd":240,"subdistrict_lgd":1663,"center":[95.04897189492299,28.685594762925955],"bbox":[94.8689388,28.4990856,95.1941119,28.8550134]},"geometry":{"type":"Point","coordinates":[95.04897189492299,28.685594762925955]}},{"type":"Feature","id":"in-arunachal-t-1633","properties":{"id":"in-arunachal-t-1633","name":"Yomcha ADC","region":"in-arunachal","level":"tehsil","parent":"in-arunachal-d-243","district":"West Siang","source":"LGD via Bharatlas · 2024 snapshot","state_lgd":12,"district_lgd":243,"subdistrict_lgd":1633,"center":[94.55619462700622,28.100733316191164],"bbox":[94.4987385,28.0492179,94.6186633,28.1726406]},"geometry":{"type":"Point","coordinates":[94.55619462700622,28.100733316191164]}},{"type":"Feature","id":"in-arunachal-t-1556","properties":{"id":"in-arunachal-t-1556","name":"Zemithang Circle","region":"in-arunachal","level":"tehsil","parent":"in-arunachal-d-238","district":"Tawang","source":"LGD via Bharatlas · 2024 snapshot","state_lgd":12,"district_lgd":238,"subdistrict_lgd":1556,"center":[91.71254078661379,27.71784211634991],"bbox":[91.5535448,27.5696355,91.861567,27.8643656]},"geometry":{"type":"Point","coordinates":[91.71254078661379,27.71784211634991]}},{"type":"Feature","id":"in-arunachal-t-1695","properties":{"id":"in-arunachal-t-1695","name":"Ziro HQ","region":"in-arunachal","level":"tehsil","parent":"in-arunachal-d-236","district":"Lower Subansiri","source":"LGD via Bharatlas · 2024 snapshot","state_lgd":12,"district_lgd":236,"subdistrict_lgd":1695,"center":[93.88701802503377,27.563065838463377],"bbox":[93.7985821,27.4785704,93.9637658,27.6279765]},"geometry":{"type":"Point","coordinates":[93.88701802503377,27.563065838463377]}}]}
