{"type":"FeatureCollection","features":[{"type":"Feature","id":"in-assam-d-739","properties":{"id":"in-assam-d-739","name":"Bajali","region":"in-assam","level":"district","parent":"","source":"LGD via Bharatlas · 2024 snapshot","state_lgd":18,"district_lgd":739,"center":[91.14029739337073,26.506222783597256],"bbox":[90.9907143,26.4117082,91.298453,26.6057919]},"geometry":{"type":"Point","coordinates":[91.14029739337073,26.506222783597256]}},{"type":"Feature","id":"in-assam-d-616","properties":{"id":"in-assam-d-616","name":"Baksa","region":"in-assam","level":"district","parent":"","source":"LGD via Bharatlas · 2024 snapshot","state_lgd":18,"district_lgd":616,"center":[91.19639252130656,26.66432515573629],"bbox":[90.8696039,26.4264157,91.5280939,26.8383939]},"geometry":{"type":"Point","coordinates":[91.19639252130656,26.66432515573629]}},{"type":"Feature","id":"in-assam-d-280","properties":{"id":"in-assam-d-280","name":"Barpeta","region":"in-assam","level":"district","parent":"","source":"LGD via Bharatlas · 2024 snapshot","state_lgd":18,"district_lgd":280,"center":[90.97314556793641,26.30154805750449],"bbox":[90.6533959,26.0896566,91.282665,26.6270077]},"geometry":{"type":"Point","coordinates":[90.97314556793641,26.30154805750449]}},{"type":"Feature","id":"in-assam-d-705","properties":{"id":"in-assam-d-705","name":"Biswanath","region":"in-assam","level":"district","parent":"","source":"LGD via Bharatlas · 2024 snapshot","state_lgd":18,"district_lgd":705,"center":[93.27655889503411,26.80684776326555],"bbox":[92.858824,26.5767914,93.7894834,26.9942031]},"geometry":{"type":"Point","coordinates":[93.27655889503411,26.80684776326555]}},{"type":"Feature","id":"in-assam-d-281","properties":{"id":"in-assam-d-281","name":"Bongaigaon","region":"in-assam","level":"district","parent":"","source":"LGD via Bharatlas · 2024 snapshot","state_lgd":18,"district_lgd":281,"center":[90.58492049127629,26.33272172630138],"bbox":[90.3666165,26.1476856,90.8620364,26.5163456]},"geometry":{"type":"Point","coordinates":[90.58492049127629,26.33272172630138]}},{"type":"Feature","id":"in-assam-d-282","properties":{"id":"in-assam-d-282","name":"Cachar","region":"in-assam","level":"district","parent":"","source":"LGD via Bharatlas · 2024 snapshot","state_lgd":18,"district_lgd":282,"center":[92.85483279242453,24.81246615791815],"bbox":[92.4163468,24.3735927,93.2630056,25.1433446]},"geometry":{"type":"Point","coordinates":[92.85483279242453,24.81246615791815]}},{"type":"Feature","id":"in-assam-d-708","properties":{"id":"in-assam-d-708","name":"Charaideo","region":"in-assam","level":"district","parent":"","source":"LGD via Bharatlas · 2024 snapshot","state_lgd":18,"district_lgd":708,"center":[95.04538238316381,27.062535716806668],"bbox":[94.733828,26.9129982,95.3721152,27.2271575]},"geometry":{"type":"Point","coordinates":[95.04538238316381,27.062535716806668]}},{"type":"Feature","id":"in-assam-d-612","properties":{"id":"in-assam-d-612","name":"Chirang","region":"in-assam","level":"district","parent":"","source":"LGD via Bharatlas · 2024 snapshot","state_lgd":18,"district_lgd":612,"center":[90.61362409160691,26.646169297412953],"bbox":[90.3375093,26.3820256,90.9569244,26.9045319]},"geometry":{"type":"Point","coordinates":[90.61362409160691,26.646169297412953]}},{"type":"Feature","id":"in-assam-d-283","properties":{"id":"in-assam-d-283","name":"Darrang","region":"in-assam","level":"district","parent":"","source":"LGD via Bharatlas · 2024 snapshot","state_lgd":18,"district_lgd":283,"center":[92.02953561519014,26.442823262546103],"bbox":[91.745007,26.1984791,92.3818449,26.6596445]},"geometry":{"type":"Point","coordinates":[92.02953561519014,26.442823262546103]}},{"type":"Feature","id":"in-assam-d-284","properties":{"id":"in-assam-d-284","name":"Dhemaji","region":"in-assam","level":"district","parent":"","source":"LGD via Bharatlas · 2024 snapshot","state_lgd":18,"district_lgd":284,"center":[94.77478266041818,27.590001490671902],"bbox":[94.2091745,27.3084569,95.5154142,27.8794556]},"geometry":{"type":"Point","coordinates":[94.77478266041818,27.590001490671902]}},{"type":"Feature","id":"in-assam-d-285","properties":{"id":"in-assam-d-285","name":"Dhubri","region":"in-assam","level":"district","parent":"","source":"LGD via Bharatlas · 2024 snapshot","state_lgd":18,"district_lgd":285,"center":[89.98125317252476,26.08107036],"bbox":[89.6986005,25.8789974,90.4837396,26.3841798]},"geometry":{"type":"Point","coordinates":[89.98125317252476,26.08107036]}},{"type":"Feature","id":"in-assam-d-286","properties":{"id":"in-assam-d-286","name":"Dibrugarh","region":"in-assam","level":"district","parent":"","source":"LGD via Bharatlas · 2024 snapshot","state_lgd":18,"district_lgd":286,"center":[95.052397890888,27.367921972174514],"bbox":[94.5679431,27.0911661,95.4847251,27.7048913]},"geometry":{"type":"Point","coordinates":[95.052397890888,27.367921972174514]}},{"type":"Feature","id":"in-assam-d-299","properties":{"id":"in-assam-d-299","name":"Dima Hasao","region":"in-assam","level":"district","parent":"","source":"LGD via Bharatlas · 2024 snapshot","state_lgd":18,"district_lgd":299,"center":[93.03096162148968,25.377941004025576],"bbox":[92.5206394,24.9703281,93.4737042,25.8267571]},"geometry":{"type":"Point","coordinates":[93.03096162148968,25.377941004025576]}},{"type":"Feature","id":"in-assam-d-287","properties":{"id":"in-assam-d-287","name":"Goalpara","region":"in-assam","level":"district","parent":"","source":"LGD via Bharatlas · 2024 snapshot","state_lgd":18,"district_lgd":287,"center":[90.60905502170823,26.048123078355726],"bbox":[90.1158723,25.8841729,91.1001139,26.2115114]},"geometry":{"type":"Point","coordinates":[90.60905502170823,26.048123078355726]}},{"type":"Feature","id":"in-assam-d-288","properties":{"id":"in-assam-d-288","name":"Golaghat","region":"in-assam","level":"district","parent":"","source":"LGD via Bharatlas · 2024 snapshot","state_lgd":18,"district_lgd":288,"center":[93.83130739641142,26.450262599621293],"bbox":[93.2868406,25.8089278,94.1778539,26.8161527]},"geometry":{"type":"Point","coordinates":[93.83130739641142,26.450262599621293]}},{"type":"Feature","id":"in-assam-d-289","properties":{"id":"in-assam-d-289","name":"Hailakandi","region":"in-assam","level":"district","parent":"","source":"LGD via Bharatlas · 2024 snapshot","state_lgd":18,"district_lgd":289,"center":[92.58781044126131,24.49707406023981],"bbox":[92.4185735,24.1361352,92.7805975,24.8794416]},"geometry":{"type":"Point","coordinates":[92.58781044126131,24.49707406023981]}},{"type":"Feature","id":"in-assam-d-709","properties":{"id":"in-assam-d-709","name":"Hojai","region":"in-assam","level":"district","parent":"","source":"LGD via Bharatlas · 2024 snapshot","state_lgd":18,"district_lgd":709,"center":[92.97995817630404,25.97816689823819],"bbox":[92.7024036,25.7183725,93.2478641,26.2079785]},"geometry":{"type":"Point","coordinates":[92.97995817630404,25.97816689823819]}},{"type":"Feature","id":"in-assam-d-290","properties":{"id":"in-assam-d-290","name":"Jorhat","region":"in-assam","level":"district","parent":"","source":"LGD via Bharatlas · 2024 snapshot","state_lgd":18,"district_lgd":290,"center":[94.26375599376779,26.710939027151515],"bbox":[93.9712429,26.3475682,94.6033471,26.9526141]},"geometry":{"type":"Point","coordinates":[94.26375599376779,26.710939027151515]}},{"type":"Feature","id":"in-assam-d-291","properties":{"id":"in-assam-d-291","name":"Kamrup","region":"in-assam","level":"district","parent":"","source":"LGD via Bharatlas · 2024 snapshot","state_lgd":18,"district_lgd":291,"center":[91.41438664724987,26.100787227907965],"bbox":[90.9358829,25.7225633,91.8229548,26.5565359]},"geometry":{"type":"Point","coordinates":[91.41438664724987,26.100787227907965]}},{"type":"Feature","id":"in-assam-d-618","properties":{"id":"in-assam-d-618","name":"Kamrup Metro","region":"in-assam","level":"district","parent":"","source":"LGD via Bharatlas · 2024 snapshot","state_lgd":18,"district_lgd":618,"center":[91.88426364084032,26.12665445179917],"bbox":[91.5608172,25.9977553,92.1761332,26.2543078]},"geometry":{"type":"Point","coordinates":[91.88426364084032,26.12665445179917]}},{"type":"Feature","id":"in-assam-d-292","properties":{"id":"in-assam-d-292","name":"Karbi Anglong","region":"in-assam","level":"district","parent":"","source":"LGD via Bharatlas · 2024 snapshot","state_lgd":18,"district_lgd":292,"center":[93.40481013319022,26.15680187837623],"bbox":[92.7933365,25.5303214,93.8949137,26.61248]},"geometry":{"type":"Point","coordinates":[93.40481013319022,26.15680187837623]}},{"type":"Feature","id":"in-assam-d-293","properties":{"id":"in-assam-d-293","name":"Karimganj","region":"in-assam","level":"district","parent":"","source":"LGD via Bharatlas · 2024 snapshot","state_lgd":18,"district_lgd":293,"center":[92.379082810964,24.57949777594743],"bbox":[92.2128724,24.2499268,92.5863287,24.9160127]},"geometry":{"type":"Point","coordinates":[92.379082810964,24.57949777594743]}},{"type":"Feature","id":"in-assam-d-294","properties":{"id":"in-assam-d-294","name":"Kokrajhar","region":"in-assam","level":"district","parent":"","source":"LGD via Bharatlas · 2024 snapshot","state_lgd":18,"district_lgd":294,"center":[90.12595826172708,26.497736245492984],"bbox":[89.8299535,26.12617,90.4455758,26.8694271]},"geometry":{"type":"Point","coordinates":[90.12595826172708,26.497736245492984]}},{"type":"Feature","id":"in-assam-d-295","properties":{"id":"in-assam-d-295","name":"Lakhimpur","region":"in-assam","level":"district","parent":"","source":"LGD via Bharatlas · 2024 snapshot","state_lgd":18,"district_lgd":295,"center":[94.14063992860272,27.1739772334513],"bbox":[93.6977834,26.8214919,94.6289714,27.5208122]},"geometry":{"type":"Point","coordinates":[94.14063992860272,27.1739772334513]}},{"type":"Feature","id":"in-assam-d-706","properties":{"id":"in-assam-d-706","name":"Majuli","region":"in-assam","level":"district","parent":"","source":"LGD via Bharatlas · 2024 snapshot","state_lgd":18,"district_lgd":706,"center":[94.20376647739346,26.962389239034444],"bbox":[93.7390655,26.763663,94.5930355,27.1838645]},"geometry":{"type":"Point","coordinates":[94.20376647739346,26.962389239034444]}},{"type":"Feature","id":"in-assam-d-296","properties":{"id":"in-assam-d-296","name":"Marigaon","region":"in-assam","level":"district","parent":"","source":"LGD via Bharatlas · 2024 snapshot","state_lgd":18,"district_lgd":296,"center":[92.2785061431149,26.28065652104222],"bbox":[91.9528572,26.0619774,92.5681731,26.5169149]},"geometry":{"type":"Point","coordinates":[92.2785061431149,26.28065652104222]}},{"type":"Feature","id":"in-assam-d-297","properties":{"id":"in-assam-d-297","name":"Nagaon","region":"in-assam","level":"district","parent":"","source":"LGD via Bharatlas · 2024 snapshot","state_lgd":18,"district_lgd":297,"center":[92.75355962510046,26.362321070058403],"bbox":[92.3953293,25.9616582,93.3179172,26.7004117]},"geometry":{"type":"Point","coordinates":[92.75355962510046,26.362321070058403]}},{"type":"Feature","id":"in-assam-d-298","properties":{"id":"in-assam-d-298","name":"Nalbari","region":"in-assam","level":"district","parent":"","source":"LGD via Bharatlas · 2024 snapshot","state_lgd":18,"district_lgd":298,"center":[91.38314067733397,26.372673273387846],"bbox":[91.2152886,26.1360469,91.5885537,26.577138]},"geometry":{"type":"Point","coordinates":[91.38314067733397,26.372673273387846]}},{"type":"Feature","id":"in-assam-d-300","properties":{"id":"in-assam-d-300","name":"Sivasagar","region":"in-assam","level":"district","parent":"","source":"LGD via Bharatlas · 2024 snapshot","state_lgd":18,"district_lgd":300,"center":[94.65930020196117,26.97021514836639],"bbox":[94.3952829,26.7119599,94.9419178,27.2754975]},"geometry":{"type":"Point","coordinates":[94.65930020196117,26.97021514836639]}},{"type":"Feature","id":"in-assam-d-301","properties":{"id":"in-assam-d-301","name":"Sonitpur","region":"in-assam","level":"district","parent":"","source":"LGD via Bharatlas · 2024 snapshot","state_lgd":18,"district_lgd":301,"center":[92.62862175062942,26.760255699077213],"bbox":[92.3131456,26.4957203,92.983036,27.0316605]},"geometry":{"type":"Point","coordinates":[92.62862175062942,26.760255699077213]}},{"type":"Feature","id":"in-assam-d-707","properties":{"id":"in-assam-d-707","name":"South Salmara Mancachar","region":"in-assam","level":"district","parent":"","source":"LGD via Bharatlas · 2024 snapshot","state_lgd":18,"district_lgd":707,"center":[89.92335534547504,25.87803422],"bbox":[89.8165447,25.4658815,90.1973224,26.0546711]},"geometry":{"type":"Point","coordinates":[89.92335534547504,25.87803422]}},{"type":"Feature","id":"in-assam-d-756","properties":{"id":"in-assam-d-756","name":"Tamulpur","region":"in-assam","level":"district","parent":"","source":"LGD via Bharatlas · 2024 snapshot","state_lgd":18,"district_lgd":756,"center":[91.62294812235221,26.654362951781515],"bbox":[91.4068068,26.4464079,91.7872489,26.8396026]},"geometry":{"type":"Point","coordinates":[91.62294812235221,26.654362951781515]}},{"type":"Feature","id":"in-assam-d-302","properties":{"id":"in-assam-d-302","name":"Tinsukia","region":"in-assam","level":"district","parent":"","source":"LGD via Bharatlas · 2024 snapshot","state_lgd":18,"district_lgd":302,"center":[95.61969813360324,27.579815707137218],"bbox":[95.2171479,27.2229074,96.0178764,27.9714751]},"geometry":{"type":"Point","coordinates":[95.61969813360324,27.579815707137218]}},{"type":"Feature","id":"in-assam-d-617","properties":{"id":"in-assam-d-617","name":"Udalguri","region":"in-assam","level":"district","parent":"","source":"LGD via Bharatlas · 2024 snapshot","state_lgd":18,"district_lgd":617,"center":[92.03131867563378,26.72450712250912],"bbox":[91.7048602,26.4737597,92.4074021,26.9251456]},"geometry":{"type":"Point","coordinates":[92.03131867563378,26.72450712250912]}},{"type":"Feature","id":"in-assam-d-710","properties":{"id":"in-assam-d-710","name":"West Karbi Anglong","region":"in-assam","level":"district","parent":"","source":"LGD via Bharatlas · 2024 snapshot","state_lgd":18,"district_lgd":710,"center":[92.53297295355178,25.849984473168885],"bbox":[92.1442469,25.5503585,93.0753686,26.1553984]},"geometry":{"type":"Point","coordinates":[92.53297295355178,25.849984473168885]}}]}
