{"type":"FeatureCollection","features":[{"type":"Feature","id":"in-arunachal-d-628","properties":{"id":"in-arunachal-d-628","name":"Anjaw","region":"in-arunachal","level":"district","parent":"","source":"LGD via Bharatlas · 2024 snapshot","state_lgd":12,"district_lgd":628,"center":[96.84984416973025,28.070967175244956],"bbox":[96.2747337,27.6146611,97.4128965,28.4577853]},"geometry":{"type":"Point","coordinates":[96.84984416973025,28.070967175244956]}},{"type":"Feature","id":"in-arunachal-d-229","properties":{"id":"in-arunachal-d-229","name":"Changlang","region":"in-arunachal","level":"district","parent":"","source":"LGD via Bharatlas · 2024 snapshot","state_lgd":12,"district_lgd":229,"center":[96.33435797559943,27.360200168278745],"bbox":[95.6059965,26.8784596,97.1658975,27.6604553]},"geometry":{"type":"Point","coordinates":[96.33435797559943,27.360200168278745]}},{"type":"Feature","id":"in-arunachal-d-230","properties":{"id":"in-arunachal-d-230","name":"Dibang Valley","region":"in-arunachal","level":"district","parent":"","source":"LGD via Bharatlas · 2024 snapshot","state_lgd":12,"district_lgd":230,"center":[95.90784412617778,28.867744584053245],"bbox":[95.2436012,28.2747009,96.6101401,29.4659473]},"geometry":{"type":"Point","coordinates":[95.90784412617778,28.867744584053245]}},{"type":"Feature","id":"in-arunachal-d-231","properties":{"id":"in-arunachal-d-231","name":"East Kameng","region":"in-arunachal","level":"district","parent":"","source":"LGD via Bharatlas · 2024 snapshot","state_lgd":12,"district_lgd":231,"center":[92.91712687987201,27.598726102112966],"bbox":[92.4504664,27.1503349,93.3727559,27.9791053]},"geometry":{"type":"Point","coordinates":[92.91712687987201,27.598726102112966]}},{"type":"Feature","id":"in-arunachal-d-232","properties":{"id":"in-arunachal-d-232","name":"East Siang","region":"in-arunachal","level":"district","parent":"","source":"LGD via Bharatlas · 2024 snapshot","state_lgd":12,"district_lgd":232,"center":[95.35059320278575,28.0501066256375],"bbox":[95.0673672,27.815647,95.5699712,28.3226808]},"geometry":{"type":"Point","coordinates":[95.35059320278575,28.0501066256375]}},{"type":"Feature","id":"in-arunachal-d-766","properties":{"id":"in-arunachal-d-766","name":"Itanagar capital complex","region":"in-arunachal","level":"district","parent":"","source":"LGD via Bharatlas · 2024 snapshot","state_lgd":12,"district_lgd":766,"center":[93.62670342299484,27.11419677976704],"bbox":[93.4948604,27.0195662,93.8265965,27.1906494]},"geometry":{"type":"Point","coordinates":[93.62670342299484,27.11419677976704]}},{"type":"Feature","id":"in-arunachal-d-718","properties":{"id":"in-arunachal-d-718","name":"Kamle","region":"in-arunachal","level":"district","parent":"","source":"LGD via Bharatlas · 2024 snapshot","state_lgd":12,"district_lgd":718,"center":[94.08649675870433,27.709227998173972],"bbox":[93.8809442,27.4878719,94.3560381,27.9773401]},"geometry":{"type":"Point","coordinates":[94.08649675870433,27.709227998173972]}},{"type":"Feature","id":"in-arunachal-d-677","properties":{"id":"in-arunachal-d-677","name":"Kra Daadi","region":"in-arunachal","level":"district","parent":"","source":"LGD via Bharatlas · 2024 snapshot","state_lgd":12,"district_lgd":677,"center":[93.68294513146652,28.017523547813823],"bbox":[93.4468977,27.5992924,93.9772177,28.3229356]},"geometry":{"type":"Point","coordinates":[93.68294513146652,28.017523547813823]}},{"type":"Feature","id":"in-arunachal-d-233","properties":{"id":"in-arunachal-d-233","name":"Kurung Kumey","region":"in-arunachal","level":"district","parent":"","source":"LGD via Bharatlas · 2024 snapshot","state_lgd":12,"district_lgd":233,"center":[93.20693065839035,28.002615885872693],"bbox":[92.6653363,27.5946739,93.6185113,28.3669949]},"geometry":{"type":"Point","coordinates":[93.20693065839035,28.002615885872693]}},{"type":"Feature","id":"in-arunachal-d-724","properties":{"id":"in-arunachal-d-724","name":"Leparada","region":"in-arunachal","level":"district","parent":"","source":"LGD via Bharatlas · 2024 snapshot","state_lgd":12,"district_lgd":724,"center":[94.7160861531976,27.925490563889028],"bbox":[94.4842949,27.7729625,94.9262213,28.062067]},"geometry":{"type":"Point","coordinates":[94.7160861531976,27.925490563889028]}},{"type":"Feature","id":"in-arunachal-d-234","properties":{"id":"in-arunachal-d-234","name":"Lohit","region":"in-arunachal","level":"district","parent":"","source":"LGD via Bharatlas · 2024 snapshot","state_lgd":12,"district_lgd":234,"center":[96.29609751045282,27.916705960382266],"bbox":[95.7742973,27.5569958,96.7190961,28.3863567]},"geometry":{"type":"Point","coordinates":[96.29609751045282,27.916705960382266]}},{"type":"Feature","id":"in-arunachal-d-666","properties":{"id":"in-arunachal-d-666","name":"Longding","region":"in-arunachal","level":"district","parent":"","source":"LGD via Bharatlas · 2024 snapshot","state_lgd":12,"district_lgd":666,"center":[95.32765981229345,26.855199674788334],"bbox":[95.181143,26.6508226,95.5056847,27.1081842]},"geometry":{"type":"Point","coordinates":[95.32765981229345,26.855199674788334]}},{"type":"Feature","id":"in-arunachal-d-235","properties":{"id":"in-arunachal-d-235","name":"Lower Dibang Valley","region":"in-arunachal","level":"district","parent":"","source":"LGD via Bharatlas · 2024 snapshot","state_lgd":12,"district_lgd":235,"center":[95.82433299456186,28.26067185911843],"bbox":[95.3200442,27.8797233,96.3635555,28.5556259]},"geometry":{"type":"Point","coordinates":[95.82433299456186,28.26067185911843]}},{"type":"Feature","id":"in-arunachal-d-719","properties":{"id":"in-arunachal-d-719","name":"Lower Siang","region":"in-arunachal","level":"district","parent":"","source":"LGD via Bharatlas · 2024 snapshot","state_lgd":12,"district_lgd":719,"center":[94.69445877732629,27.775243752604172],"bbox":[94.2104417,27.5552424,95.1364019,28.0504373]},"geometry":{"type":"Point","coordinates":[94.69445877732629,27.775243752604172]}},{"type":"Feature","id":"in-arunachal-d-236","properties":{"id":"in-arunachal-d-236","name":"Lower Subansiri","region":"in-arunachal","level":"district","parent":"","source":"LGD via Bharatlas · 2024 snapshot","state_lgd":12,"district_lgd":236,"center":[93.76363218281236,27.590376893864526],"bbox":[93.5309558,27.2914714,93.9637658,27.9190289]},"geometry":{"type":"Point","coordinates":[93.76363218281236,27.590376893864526]}},{"type":"Feature","id":"in-arunachal-d-678","properties":{"id":"in-arunachal-d-678","name":"Namsai","region":"in-arunachal","level":"district","parent":"","source":"LGD via Bharatlas · 2024 snapshot","state_lgd":12,"district_lgd":678,"center":[96.01936042651091,27.690495604789504],"bbox":[95.7522627,27.5430507,96.302276,27.8502442]},"geometry":{"type":"Point","coordinates":[96.01936042651091,27.690495604789504]}},{"type":"Feature","id":"in-arunachal-d-723","properties":{"id":"in-arunachal-d-723","name":"Pakke Kessang","region":"in-arunachal","level":"district","parent":"","source":"LGD via Bharatlas · 2024 snapshot","state_lgd":12,"district_lgd":723,"center":[93.02917079496085,27.1105484277439],"bbox":[92.5902613,26.9133818,93.3895816,27.3901924]},"geometry":{"type":"Point","coordinates":[93.02917079496085,27.1105484277439]}},{"type":"Feature","id":"in-arunachal-d-237","properties":{"id":"in-arunachal-d-237","name":"Papum Pare","region":"in-arunachal","level":"district","parent":"","source":"LGD via Bharatlas · 2024 snapshot","state_lgd":12,"district_lgd":237,"center":[93.59318112664072,27.286027218685206],"bbox":[93.2106624,26.9361768,94.2070264,27.633242]},"geometry":{"type":"Point","coordinates":[93.59318112664072,27.286027218685206]}},{"type":"Feature","id":"in-arunachal-d-725","properties":{"id":"in-arunachal-d-725","name":"Shi Yomi","region":"in-arunachal","level":"district","parent":"","source":"LGD via Bharatlas · 2024 snapshot","state_lgd":12,"district_lgd":725,"center":[94.2609832192284,28.67696521501382],"bbox":[93.9677108,28.3358376,94.5609614,29.0372492]},"geometry":{"type":"Point","coordinates":[94.2609832192284,28.67696521501382]}},{"type":"Feature","id":"in-arunachal-d-679","properties":{"id":"in-arunachal-d-679","name":"Siang","region":"in-arunachal","level":"district","parent":"","source":"LGD via Bharatlas · 2024 snapshot","state_lgd":12,"district_lgd":679,"center":[94.81881680014561,28.419934029752213],"bbox":[94.378501,28.0234492,95.2420737,28.9321228]},"geometry":{"type":"Point","coordinates":[94.81881680014561,28.419934029752213]}},{"type":"Feature","id":"in-arunachal-d-238","properties":{"id":"in-arunachal-d-238","name":"Tawang","region":"in-arunachal","level":"district","parent":"","source":"LGD via Bharatlas · 2024 snapshot","state_lgd":12,"district_lgd":238,"center":[91.96516823955018,27.662207392214572],"bbox":[91.5535448,27.4500995,92.4705483,27.8721005]},"geometry":{"type":"Point","coordinates":[91.96516823955018,27.662207392214572]}},{"type":"Feature","id":"in-arunachal-d-239","properties":{"id":"in-arunachal-d-239","name":"Tirap","region":"in-arunachal","level":"district","parent":"","source":"LGD via Bharatlas · 2024 snapshot","state_lgd":12,"district_lgd":239,"center":[95.52555962569953,27.025494468462394],"bbox":[95.3602111,26.7996354,95.6951122,27.2645875]},"geometry":{"type":"Point","coordinates":[95.52555962569953,27.025494468462394]}},{"type":"Feature","id":"in-arunachal-d-240","properties":{"id":"in-arunachal-d-240","name":"Upper Siang","region":"in-arunachal","level":"district","parent":"","source":"LGD via Bharatlas · 2024 snapshot","state_lgd":12,"district_lgd":240,"center":[94.91529445713495,28.832949320297825],"bbox":[94.1915879,28.163165,95.4095775,29.3412364]},"geometry":{"type":"Point","coordinates":[94.91529445713495,28.832949320297825]}},{"type":"Feature","id":"in-arunachal-d-241","properties":{"id":"in-arunachal-d-241","name":"Upper Subansiri","region":"in-arunachal","level":"district","parent":"","source":"LGD via Bharatlas · 2024 snapshot","state_lgd":12,"district_lgd":241,"center":[93.93300014018774,28.290188665040414],"bbox":[93.180451,27.7577772,94.594836,28.7073198]},"geometry":{"type":"Point","coordinates":[93.93300014018774,28.290188665040414]}},{"type":"Feature","id":"in-arunachal-d-242","properties":{"id":"in-arunachal-d-242","name":"West Kameng","region":"in-arunachal","level":"district","parent":"","source":"LGD via Bharatlas · 2024 snapshot","state_lgd":12,"district_lgd":242,"center":[92.39305155327311,27.291857051632114],"bbox":[92.0218608,26.8889837,92.8442495,27.7469646]},"geometry":{"type":"Point","coordinates":[92.39305155327311,27.291857051632114]}},{"type":"Feature","id":"in-arunachal-d-243","properties":{"id":"in-arunachal-d-243","name":"West Siang","region":"in-arunachal","level":"district","parent":"","source":"LGD via Bharatlas · 2024 snapshot","state_lgd":12,"district_lgd":243,"center":[94.62065123265427,28.185069830813916],"bbox":[94.3564972,27.9859242,94.9438188,28.4177889]},"geometry":{"type":"Point","coordinates":[94.62065123265427,28.185069830813916]}}]}
