{"type":"FeatureCollection","features":[{"type":"Feature","id":"in-andaman-nicobar-t-5916","properties":{"id":"in-andaman-nicobar-t-5916","name":"Car Nicobar","region":"in-andaman-nicobar","level":"tehsil","parent":"in-andaman-nicobar-d-603","district":"Nicobars","source":"LGD via Bharatlas · 2024 snapshot","state_lgd":35,"district_lgd":603,"subdistrict_lgd":5916,"center":[92.77192776483761,9.176240043461785],"bbox":[92.7143133,9.1187193,92.8306572,9.2589223]},"geometry":{"type":"Point","coordinates":[92.77192776483761,9.176240043461785]}},{"type":"Feature","id":"in-andaman-nicobar-t-5919","properties":{"id":"in-andaman-nicobar-t-5919","name":"Diglipur","region":"in-andaman-nicobar","level":"tehsil","parent":"in-andaman-nicobar-d-632","district":"North And Middle Andaman","source":"LGD via Bharatlas · 2024 snapshot","state_lgd":35,"district_lgd":632,"subdistrict_lgd":5919,"center":[92.92588702091643,13.23447085034622],"bbox":[92.6938968,12.8769195,94.2673984,13.677059]},"geometry":{"type":"Point","coordinates":[92.92588702091643,13.23447085034622]}},{"type":"Feature","id":"in-andaman-nicobar-t-5922","properties":{"id":"in-andaman-nicobar-t-5922","name":"Ferrargunj","region":"in-andaman-nicobar","level":"tehsil","parent":"in-andaman-nicobar-d-602","district":"South Andamans","source":"LGD via Bharatlas · 2024 snapshot","state_lgd":35,"district_lgd":602,"subdistrict_lgd":5922,"center":[92.66152808832298,11.869290522548821],"bbox":[92.1958926,11.4930907,92.7899765,12.2390812]},"geometry":{"type":"Point","coordinates":[92.66152808832298,11.869290522548821]}},{"type":"Feature","id":"in-andaman-nicobar-t-5918","properties":{"id":"in-andaman-nicobar-t-5918","name":"Great Nicobar","region":"in-andaman-nicobar","level":"tehsil","parent":"in-andaman-nicobar-d-603","district":"Nicobars","source":"LGD via Bharatlas · 2024 snapshot","state_lgd":35,"district_lgd":603,"subdistrict_lgd":5918,"center":[93.79902255838515,7.024826029426001],"bbox":[93.6070627,6.7527826,93.9506921,7.4478099]},"geometry":{"type":"Point","coordinates":[93.79902255838515,7.024826029426001]}},{"type":"Feature","id":"in-andaman-nicobar-t-5924","properties":{"id":"in-andaman-nicobar-t-5924","name":"Little Andaman","region":"in-andaman-nicobar","level":"tehsil","parent":"in-andaman-nicobar-d-602","district":"South Andamans","source":"LGD via Bharatlas · 2024 snapshot","state_lgd":35,"district_lgd":602,"subdistrict_lgd":5924,"center":[92.4874026542668,10.7020087279531],"bbox":[92.2081922,10.5108073,92.6686893,10.993243]},"geometry":{"type":"Point","coordinates":[92.4874026542668,10.7020087279531]}},{"type":"Feature","id":"in-andaman-nicobar-t-5920","properties":{"id":"in-andaman-nicobar-t-5920","name":"Mayabunder","region":"in-andaman-nicobar","level":"tehsil","parent":"in-andaman-nicobar-d-632","district":"North And Middle Andaman","source":"LGD via Bharatlas · 2024 snapshot","state_lgd":35,"district_lgd":632,"subdistrict_lgd":5920,"center":[92.84832149879853,12.753981946506672],"bbox":[92.6468539,12.6130309,92.9800497,12.992249]},"geometry":{"type":"Point","coordinates":[92.84832149879853,12.753981946506672]}},{"type":"Feature","id":"in-andaman-nicobar-t-5917","properties":{"id":"in-andaman-nicobar-t-5917","name":"Nancowry","region":"in-andaman-nicobar","level":"tehsil","parent":"in-andaman-nicobar-d-603","district":"Nicobars","source":"LGD via Bharatlas · 2024 snapshot","state_lgd":35,"district_lgd":603,"subdistrict_lgd":5917,"center":[93.376802598071,7.9463599604741395],"bbox":[93.0245398,7.4710288,93.6464212,8.5832104]},"geometry":{"type":"Point","coordinates":[93.376802598071,7.9463599604741395]}},{"type":"Feature","id":"in-andaman-nicobar-t-5923","properties":{"id":"in-andaman-nicobar-t-5923","name":"Port Blair","region":"in-andaman-nicobar","level":"tehsil","parent":"in-andaman-nicobar-d-602","district":"South Andamans","source":"LGD via Bharatlas · 2024 snapshot","state_lgd":35,"district_lgd":602,"subdistrict_lgd":5923,"center":[92.63926495032155,11.418552892251682],"bbox":[92.5397649,11.1403547,93.1249528,12.3196519]},"geometry":{"type":"Point","coordinates":[92.63926495032155,11.418552892251682]}},{"type":"Feature","id":"in-andaman-nicobar-t-5921","properties":{"id":"in-andaman-nicobar-t-5921","name":"Rangat","region":"in-andaman-nicobar","level":"tehsil","parent":"in-andaman-nicobar-d-632","district":"North And Middle Andaman","source":"LGD via Bharatlas · 2024 snapshot","state_lgd":35,"district_lgd":632,"subdistrict_lgd":5921,"center":[92.81535074250851,12.48964463474437],"bbox":[92.6617901,12.0632235,93.8685313,12.6719529]},"geometry":{"type":"Point","coordinates":[92.81535074250851,12.48964463474437]}}]}
