{"type":"FeatureCollection","features":[{"type":"Feature","id":"in-andhra-d-745","properties":{"id":"in-andhra-d-745","name":"Alluri Sitharama Raju","region":"in-andhra","level":"district","parent":"","source":"LGD via Bharatlas · 2024 snapshot","state_lgd":28,"district_lgd":745,"center":[82.12882608661812,17.83527688416271],"bbox":[80.8760662,17.2222851,83.2668734,18.5497979]},"geometry":{"type":"Point","coordinates":[82.12882608661812,17.83527688416271]}},{"type":"Feature","id":"in-andhra-d-744","properties":{"id":"in-andhra-d-744","name":"Anakapalli","region":"in-andhra","level":"district","parent":"","source":"LGD via Bharatlas · 2024 snapshot","state_lgd":28,"district_lgd":744,"center":[82.79583057379304,17.662638885417067],"bbox":[82.3288948,17.2485619,83.1637663,18.0937675]},"geometry":{"type":"Point","coordinates":[82.79583057379304,17.662638885417067]}},{"type":"Feature","id":"in-andhra-d-502","properties":{"id":"in-andhra-d-502","name":"Anantapur","region":"in-andhra","level":"district","parent":"","source":"LGD via Bharatlas · 2024 snapshot","state_lgd":28,"district_lgd":502,"center":[77.40721379965949,14.783063530094923],"bbox":[76.7605691,14.2141521,78.1372547,15.2342775]},"geometry":{"type":"Point","coordinates":[77.40721379965949,14.783063530094923]}},{"type":"Feature","id":"in-andhra-d-753","properties":{"id":"in-andhra-d-753","name":"Annamayya","region":"in-andhra","level":"district","parent":"","source":"LGD via Bharatlas · 2024 snapshot","state_lgd":28,"district_lgd":753,"center":[78.83279636866058,13.924752181298352],"bbox":[78.0657166,13.308111,79.468903,14.4846488]},"geometry":{"type":"Point","coordinates":[78.83279636866058,13.924752181298352]}},{"type":"Feature","id":"in-andhra-d-750","properties":{"id":"in-andhra-d-750","name":"Bapatla","region":"in-andhra","level":"district","parent":"","source":"LGD via Bharatlas · 2024 snapshot","state_lgd":28,"district_lgd":750,"center":[80.37164780995005,15.938630458438087],"bbox":[79.8628845,15.611338,80.9032379,16.2559892]},"geometry":{"type":"Point","coordinates":[80.37164780995005,15.938630458438087]}},{"type":"Feature","id":"in-andhra-d-503","properties":{"id":"in-andhra-d-503","name":"Chittoor","region":"in-andhra","level":"district","parent":"","source":"LGD via Bharatlas · 2024 snapshot","state_lgd":28,"district_lgd":503,"center":[78.85878051473094,13.223836134248092],"bbox":[78.1993226,12.6240111,79.7948388,13.7820829]},"geometry":{"type":"Point","coordinates":[78.85878051473094,13.223836134248092]}},{"type":"Feature","id":"in-andhra-d-505","properties":{"id":"in-andhra-d-505","name":"East Godavari","region":"in-andhra","level":"district","parent":"","source":"LGD via Bharatlas · 2024 snapshot","state_lgd":28,"district_lgd":505,"center":[81.72494064684854,17.037664061234402],"bbox":[81.291899,16.6735193,82.0781293,17.318516]},"geometry":{"type":"Point","coordinates":[81.72494064684854,17.037664061234402]}},{"type":"Feature","id":"in-andhra-d-748","properties":{"id":"in-andhra-d-748","name":"Eluru","region":"in-andhra","level":"district","parent":"","source":"LGD via Bharatlas · 2024 snapshot","state_lgd":28,"district_lgd":748,"center":[81.19203224402831,16.96770959925758],"bbox":[80.686343,16.3761043,81.6806406,17.6291173]},"geometry":{"type":"Point","coordinates":[81.19203224402831,16.96770959925758]}},{"type":"Feature","id":"in-andhra-d-506","properties":{"id":"in-andhra-d-506","name":"Guntur","region":"in-andhra","level":"district","parent":"","source":"LGD via Bharatlas · 2024 snapshot","state_lgd":28,"district_lgd":506,"center":[80.46799564367109,16.283975935710764],"bbox":[80.122908,15.9808245,80.8041209,16.5890831]},"geometry":{"type":"Point","coordinates":[80.46799564367109,16.283975935710764]}},{"type":"Feature","id":"in-andhra-d-746","properties":{"id":"in-andhra-d-746","name":"Kakinada","region":"in-andhra","level":"district","parent":"","source":"LGD via Bharatlas · 2024 snapshot","state_lgd":28,"district_lgd":746,"center":[82.25090339093688,17.163917570923836],"bbox":[81.8985813,16.7042824,82.6045791,17.5358242]},"geometry":{"type":"Point","coordinates":[82.25090339093688,17.163917570923836]}},{"type":"Feature","id":"in-andhra-d-747","properties":{"id":"in-andhra-d-747","name":"Konaseema","region":"in-andhra","level":"district","parent":"","source":"LGD via Bharatlas · 2024 snapshot","state_lgd":28,"district_lgd":747,"center":[81.98441177034961,16.646394088249494],"bbox":[81.6976059,16.3065508,82.3653381,16.9806474]},"geometry":{"type":"Point","coordinates":[81.98441177034961,16.646394088249494]}},{"type":"Feature","id":"in-andhra-d-510","properties":{"id":"in-andhra-d-510","name":"Krishna","region":"in-andhra","level":"district","parent":"","source":"LGD via Bharatlas · 2024 snapshot","state_lgd":28,"district_lgd":510,"center":[80.99267063036048,16.26373544751054],"bbox":[80.6518601,15.7052211,81.5546312,16.7624528]},"geometry":{"type":"Point","coordinates":[80.99267063036048,16.26373544751054]}},{"type":"Feature","id":"in-andhra-d-511","properties":{"id":"in-andhra-d-511","name":"Kurnool","region":"in-andhra","level":"district","parent":"","source":"LGD via Bharatlas · 2024 snapshot","state_lgd":28,"district_lgd":511,"center":[77.53922082402886,15.600224726865576],"bbox":[76.9738257,15.1307209,78.2733927,15.9645554]},"geometry":{"type":"Point","coordinates":[77.53922082402886,15.600224726865576]}},{"type":"Feature","id":"in-andhra-d-755","properties":{"id":"in-andhra-d-755","name":"Nandyal","region":"in-andhra","level":"district","parent":"","source":"LGD via Bharatlas · 2024 snapshot","state_lgd":28,"district_lgd":755,"center":[78.3754539526186,15.476174670205179],"bbox":[77.6524102,14.9004176,78.9310423,16.1488598]},"geometry":{"type":"Point","coordinates":[78.3754539526186,15.476174670205179]}},{"type":"Feature","id":"in-andhra-d-749","properties":{"id":"in-andhra-d-749","name":"Ntr","region":"in-andhra","level":"district","parent":"","source":"LGD via Bharatlas · 2024 snapshot","state_lgd":28,"district_lgd":749,"center":[80.4405279122887,16.749494220000003],"bbox":[79.9987615,16.4804461,80.8563243,17.1530664]},"geometry":{"type":"Point","coordinates":[80.4405279122887,16.749494220000003]}},{"type":"Feature","id":"in-andhra-d-751","properties":{"id":"in-andhra-d-751","name":"Palnadu","region":"in-andhra","level":"district","parent":"","source":"LGD via Bharatlas · 2024 snapshot","state_lgd":28,"district_lgd":751,"center":[79.8106354144348,16.361921219423575],"bbox":[79.2077234,15.8235485,80.4285499,16.8223119]},"geometry":{"type":"Point","coordinates":[79.8106354144348,16.361921219423575]}},{"type":"Feature","id":"in-andhra-d-743","properties":{"id":"in-andhra-d-743","name":"Parvathipuram Manyam","region":"in-andhra","level":"district","parent":"","source":"LGD via Bharatlas · 2024 snapshot","state_lgd":28,"district_lgd":743,"center":[83.48700111903845,18.748943414291226],"bbox":[82.999323,18.3411208,83.9247856,19.1626664]},"geometry":{"type":"Point","coordinates":[83.48700111903845,18.748943414291226]}},{"type":"Feature","id":"in-andhra-d-517","properties":{"id":"in-andhra-d-517","name":"Prakasam","region":"in-andhra","level":"district","parent":"","source":"LGD via Bharatlas · 2024 snapshot","state_lgd":28,"district_lgd":517,"center":[79.39254748445667,15.61368754599217],"bbox":[78.7365474,15.021776,80.2738008,16.305816]},"geometry":{"type":"Point","coordinates":[79.39254748445667,15.61368754599217]}},{"type":"Feature","id":"in-andhra-d-515","properties":{"id":"in-andhra-d-515","name":"Spsr Nellore","region":"in-andhra","level":"district","parent":"","source":"LGD via Bharatlas · 2024 snapshot","state_lgd":28,"district_lgd":515,"center":[79.68598912501818,14.689346826784474],"bbox":[79.0814058,14.1062669,80.1955132,15.3282493]},"geometry":{"type":"Point","coordinates":[79.68598912501818,14.689346826784474]}},{"type":"Feature","id":"in-andhra-d-754","properties":{"id":"in-andhra-d-754","name":"Sri Sathya Sai","region":"in-andhra","level":"district","parent":"","source":"LGD via Bharatlas · 2024 snapshot","state_lgd":28,"district_lgd":754,"center":[77.76261380631719,14.136418435748636],"bbox":[76.885914,13.6822616,78.4692619,14.6536768]},"geometry":{"type":"Point","coordinates":[77.76261380631719,14.136418435748636]}},{"type":"Feature","id":"in-andhra-d-519","properties":{"id":"in-andhra-d-519","name":"Srikakulam","region":"in-andhra","level":"district","parent":"","source":"LGD via Bharatlas · 2024 snapshot","state_lgd":28,"district_lgd":519,"center":[84.11618232195606,18.58500047359528],"bbox":[83.5857289,18.0778315,84.7614638,19.166913]},"geometry":{"type":"Point","coordinates":[84.11618232195606,18.58500047359528]}},{"type":"Feature","id":"in-andhra-d-752","properties":{"id":"in-andhra-d-752","name":"Tirupati","region":"in-andhra","level":"district","parent":"","source":"LGD via Bharatlas · 2024 snapshot","state_lgd":28,"district_lgd":752,"center":[79.71545521582689,13.752240094844037],"bbox":[78.9805305,13.2935241,80.2685393,14.2658503]},"geometry":{"type":"Point","coordinates":[79.71545521582689,13.752240094844037]}},{"type":"Feature","id":"in-andhra-d-520","properties":{"id":"in-andhra-d-520","name":"Visakhapatanam","region":"in-andhra","level":"district","parent":"","source":"LGD via Bharatlas · 2024 snapshot","state_lgd":28,"district_lgd":520,"center":[83.28838703620669,17.820477439365344],"bbox":[83.1098926,17.5457508,83.5250268,18.0647045]},"geometry":{"type":"Point","coordinates":[83.28838703620669,17.820477439365344]}},{"type":"Feature","id":"in-andhra-d-521","properties":{"id":"in-andhra-d-521","name":"Vizianagaram","region":"in-andhra","level":"district","parent":"","source":"LGD via Bharatlas · 2024 snapshot","state_lgd":28,"district_lgd":521,"center":[83.4137133710165,18.279692606201987],"bbox":[83.0055981,17.840398,83.8361786,18.7108144]},"geometry":{"type":"Point","coordinates":[83.4137133710165,18.279692606201987]}},{"type":"Feature","id":"in-andhra-d-523","properties":{"id":"in-andhra-d-523","name":"West Godavari","region":"in-andhra","level":"district","parent":"","source":"LGD via Bharatlas · 2024 snapshot","state_lgd":28,"district_lgd":523,"center":[81.59371957257669,16.59482125231744],"bbox":[81.3263397,16.3164848,81.8584127,16.9720815]},"geometry":{"type":"Point","coordinates":[81.59371957257669,16.59482125231744]}},{"type":"Feature","id":"in-andhra-d-504","properties":{"id":"in-andhra-d-504","name":"Y.S.R.","region":"in-andhra","level":"district","parent":"","source":"LGD via Bharatlas · 2024 snapshot","state_lgd":28,"district_lgd":504,"center":[78.65329885372442,14.658379322221776],"bbox":[77.9440389,14.1124514,79.2929249,15.2292456]},"geometry":{"type":"Point","coordinates":[78.65329885372442,14.658379322221776]}}]}
