{"type":"FeatureCollection","features":[{"type":"Feature","id":"in-assam-t-2006","properties":{"id":"in-assam-t-2006","name":"Agamoni","region":"in-assam","level":"tehsil","parent":"in-assam-d-285","district":"Dhubri","source":"LGD via Bharatlas · 2024 snapshot","state_lgd":18,"district_lgd":285,"subdistrict_lgd":2006,"center":[89.78126505793419,26.215094980636234],"bbox":[89.6986005,26.0890711,89.8531623,26.3232147]},"geometry":{"type":"Point","coordinates":[89.78126505793419,26.215094980636234]}},{"type":"Feature","id":"in-assam-t-2106","properties":{"id":"in-assam-t-2106","name":"Algapur","region":"in-assam","level":"tehsil","parent":"in-assam-d-289","district":"Hailakandi","source":"LGD via Bharatlas · 2024 snapshot","state_lgd":18,"district_lgd":289,"subdistrict_lgd":2106,"center":[92.58184627351083,24.683287910661946],"bbox":[92.493486,24.621645,92.6656657,24.7551015]},"geometry":{"type":"Point","coordinates":[92.58184627351083,24.683287910661946]}},{"type":"Feature","id":"in-assam-t-2072","properties":{"id":"in-assam-t-2072","name":"Amguri","region":"in-assam","level":"tehsil","parent":"in-assam-d-300","district":"Sivasagar","source":"LGD via Bharatlas · 2024 snapshot","state_lgd":18,"district_lgd":300,"subdistrict_lgd":2072,"center":[94.58388902505655,26.843774373093485],"bbox":[94.4857204,26.7119599,94.6824147,26.9566524]},"geometry":{"type":"Point","coordinates":[94.58388902505655,26.843774373093485]}},{"type":"Feature","id":"in-assam-t-2127-618","properties":{"id":"in-assam-t-2127-618","name":"Azara","region":"in-assam","level":"tehsil","parent":"in-assam-d-618","district":"Kamrup Metro","source":"LGD via Bharatlas · 2024 snapshot","state_lgd":18,"district_lgd":618,"subdistrict_lgd":2127,"center":[91.66699893098755,26.114456905427218],"bbox":[91.5608172,26.0349852,91.7999138,26.2215782]},"geometry":{"type":"Point","coordinates":[91.66699893098755,26.114456905427218]}},{"type":"Feature","id":"in-assam-t-2127-291","properties":{"id":"in-assam-t-2127-291","name":"Azara","region":"in-assam","level":"tehsil","parent":"in-assam-d-291","district":"Kamrup","source":"LGD via Bharatlas · 2024 snapshot","state_lgd":18,"district_lgd":291,"subdistrict_lgd":2127,"center":[91.65227264854897,26.03246216],"bbox":[91.4721957,25.8572028,91.7250371,26.076277]},"geometry":{"type":"Point","coordinates":[91.65227264854897,26.03246216]}},{"type":"Feature","id":"in-assam-t-2102","properties":{"id":"in-assam-t-2102","name":"Badarpur","region":"in-assam","level":"tehsil","parent":"in-assam-d-293","district":"Karimganj","source":"LGD via Bharatlas · 2024 snapshot","state_lgd":18,"district_lgd":293,"subdistrict_lgd":2102,"center":[92.38466538463362,24.734452147480173],"bbox":[92.2544159,24.6434575,92.5391237,24.8147815]},"geometry":{"type":"Point","coordinates":[92.38466538463362,24.734452147480173]}},{"type":"Feature","id":"in-assam-t-2139-616","properties":{"id":"in-assam-t-2139-616","name":"Baganpara (Pt)","region":"in-assam","level":"tehsil","parent":"in-assam-d-616","district":"Baksa","source":"LGD via Bharatlas · 2024 snapshot","state_lgd":18,"district_lgd":616,"subdistrict_lgd":2139,"center":[91.4465841986773,26.678235193282728],"bbox":[91.3592446,26.5332567,91.5280939,26.8383939]},"geometry":{"type":"Point","coordinates":[91.4465841986773,26.678235193282728]}},{"type":"Feature","id":"in-assam-t-2139-298","properties":{"id":"in-assam-t-2139-298","name":"Baganpara (Pt)","region":"in-assam","level":"tehsil","parent":"in-assam-d-298","district":"Nalbari","source":"LGD via Bharatlas · 2024 snapshot","state_lgd":18,"district_lgd":298,"subdistrict_lgd":2139,"center":[91.4617005288623,26.55594820677647],"bbox":[91.4259109,26.5423016,91.4926743,26.5712336]},"geometry":{"type":"Point","coordinates":[91.4617005288623,26.55594820677647]}},{"type":"Feature","id":"in-assam-t-2020","properties":{"id":"in-assam-t-2020","name":"Baghbor","region":"in-assam","level":"tehsil","parent":"in-assam-d-280","district":"Barpeta","source":"LGD via Bharatlas · 2024 snapshot","state_lgd":18,"district_lgd":280,"subdistrict_lgd":2020,"center":[90.87772196370335,26.208813945657948],"bbox":[90.6711192,26.0896566,91.1065057,26.3639513]},"geometry":{"type":"Point","coordinates":[90.87772196370335,26.208813945657948]}},{"type":"Feature","id":"in-assam-t-2005-294","properties":{"id":"in-assam-t-2005-294","name":"Bagribari (Pt)","region":"in-assam","level":"tehsil","parent":"in-assam-d-294","district":"Kokrajhar","source":"LGD via Bharatlas · 2024 snapshot","state_lgd":18,"district_lgd":294,"subdistrict_lgd":2005,"center":[90.02859331546658,26.26033695490917],"bbox":[89.9061789,26.1557291,90.1527039,26.3509019]},"geometry":{"type":"Point","coordinates":[90.02859331546658,26.26033695490917]}},{"type":"Feature","id":"in-assam-t-2005-285","properties":{"id":"in-assam-t-2005-285","name":"Bagribari (Pt)","region":"in-assam","level":"tehsil","parent":"in-assam-d-285","district":"Dhubri","source":"LGD via Bharatlas · 2024 snapshot","state_lgd":18,"district_lgd":285,"subdistrict_lgd":2005,"center":[90.12035692042953,26.11863593246812],"bbox":[90.0305354,26.0258522,90.2146091,26.2092392]},"geometry":{"type":"Point","coordinates":[90.12035692042953,26.11863593246812]}},{"type":"Feature","id":"in-assam-t-2024","properties":{"id":"in-assam-t-2024","name":"Bajali (Pt)","region":"in-assam","level":"tehsil","parent":"in-assam-d-739","district":"Bajali","source":"LGD via Bharatlas · 2024 snapshot","state_lgd":18,"district_lgd":739,"subdistrict_lgd":2024,"center":[91.20595956420945,26.519071600848353],"bbox":[91.1293366,26.4266566,91.298453,26.5917596]},"geometry":{"type":"Point","coordinates":[91.20595956420945,26.519071600848353]}},{"type":"Feature","id":"in-assam-t-2014","properties":{"id":"in-assam-t-2014","name":"Balijana","region":"in-assam","level":"tehsil","parent":"in-assam-d-287","district":"Goalpara","source":"LGD via Bharatlas · 2024 snapshot","state_lgd":18,"district_lgd":287,"subdistrict_lgd":2014,"center":[90.51858697605209,26.085080231506222],"bbox":[90.3276702,25.8961013,90.6567231,26.2115114]},"geometry":{"type":"Point","coordinates":[90.51858697605209,26.085080231506222]}},{"type":"Feature","id":"in-assam-t-2137","properties":{"id":"in-assam-t-2137","name":"Banekuchi","region":"in-assam","level":"tehsil","parent":"in-assam-d-298","district":"Nalbari","source":"LGD via Bharatlas · 2024 snapshot","state_lgd":18,"district_lgd":298,"subdistrict_lgd":2137,"center":[91.3801373016764,26.474352955238736],"bbox":[91.2843914,26.4250655,91.4355728,26.5354904]},"geometry":{"type":"Point","coordinates":[91.3801373016764,26.474352955238736]}},{"type":"Feature","id":"in-assam-t-5935","properties":{"id":"in-assam-t-5935","name":"Barama Pt","region":"in-assam","level":"tehsil","parent":"in-assam-d-298","district":"Nalbari","source":"LGD via Bharatlas · 2024 snapshot","state_lgd":18,"district_lgd":298,"subdistrict_lgd":5935,"center":[91.36184662367539,26.49843706861755],"bbox":[91.3225125,26.4717672,91.3863198,26.5264672]},"geometry":{"type":"Point","coordinates":[91.36184662367539,26.49843706861755]}},{"type":"Feature","id":"in-assam-t-2142","properties":{"id":"in-assam-t-2142","name":"Barama Pt","region":"in-assam","level":"tehsil","parent":"in-assam-d-616","district":"Baksa","source":"LGD via Bharatlas · 2024 snapshot","state_lgd":18,"district_lgd":616,"subdistrict_lgd":2142,"center":[91.38590297869551,26.561986552384724],"bbox":[91.3216192,26.492774,91.4591107,26.6186912]},"geometry":{"type":"Point","coordinates":[91.38590297869551,26.561986552384724]}},{"type":"Feature","id":"in-assam-t-2135","properties":{"id":"in-assam-t-2135","name":"Barbhag","region":"in-assam","level":"tehsil","parent":"in-assam-d-298","district":"Nalbari","source":"LGD via Bharatlas · 2024 snapshot","state_lgd":18,"district_lgd":298,"subdistrict_lgd":2135,"center":[91.4829263890727,26.36447884487417],"bbox":[91.4094552,26.3130493,91.5484969,26.4249925]},"geometry":{"type":"Point","coordinates":[91.4829263890727,26.36447884487417]}},{"type":"Feature","id":"in-assam-t-2134","properties":{"id":"in-assam-t-2134","name":"Barkhetri","region":"in-assam","level":"tehsil","parent":"in-assam-d-298","district":"Nalbari","source":"LGD via Bharatlas · 2024 snapshot","state_lgd":18,"district_lgd":298,"subdistrict_lgd":2134,"center":[91.33397281676511,26.246883482862668],"bbox":[91.2152886,26.1360469,91.4575053,26.3665876]},"geometry":{"type":"Point","coordinates":[91.33397281676511,26.246883482862668]}},{"type":"Feature","id":"in-assam-t-2018-616","properties":{"id":"in-assam-t-2018-616","name":"Barnagar (Pt)","region":"in-assam","level":"tehsil","parent":"in-assam-d-616","district":"Baksa","source":"LGD via Bharatlas · 2024 snapshot","state_lgd":18,"district_lgd":616,"subdistrict_lgd":2018,"center":[91.00163024037816,26.665897117441897],"bbox":[90.8696039,26.4264157,91.1525328,26.8219929]},"geometry":{"type":"Point","coordinates":[91.00163024037816,26.665897117441897]}},{"type":"Feature","id":"in-assam-t-2018-280","properties":{"id":"in-assam-t-2018-280","name":"Barnagar (Pt)","region":"in-assam","level":"tehsil","parent":"in-assam-d-280","district":"Barpeta","source":"LGD via Bharatlas · 2024 snapshot","state_lgd":18,"district_lgd":280,"subdistrict_lgd":2018,"center":[90.89727894363614,26.506546306889064],"bbox":[90.7871757,26.4129646,90.9968093,26.6270077]},"geometry":{"type":"Point","coordinates":[90.89727894363614,26.506546306889064]}},{"type":"Feature","id":"in-assam-t-2022","properties":{"id":"in-assam-t-2022","name":"Barpeta","region":"in-assam","level":"tehsil","parent":"in-assam-d-280","district":"Barpeta","source":"LGD via Bharatlas · 2024 snapshot","state_lgd":18,"district_lgd":280,"subdistrict_lgd":2022,"center":[91.0266450950896,26.34140287790643],"bbox":[90.909759,26.218816,91.1462867,26.4679906]},"geometry":{"type":"Point","coordinates":[91.0266450950896,26.34140287790643]}},{"type":"Feature","id":"in-assam-t-2143","properties":{"id":"in-assam-t-2143","name":"Baska","region":"in-assam","level":"tehsil","parent":"in-assam-d-616","district":"Baksa","source":"LGD via Bharatlas · 2024 snapshot","state_lgd":18,"district_lgd":616,"subdistrict_lgd":2143,"center":[91.33660964789853,26.673031685656042],"bbox":[91.2354247,26.5598222,91.4258489,26.7890085]},"geometry":{"type":"Point","coordinates":[91.33660964789853,26.673031685656042]}},{"type":"Feature","id":"in-assam-t-2113","properties":{"id":"in-assam-t-2113","name":"Bengtol","region":"in-assam","level":"tehsil","parent":"in-assam-d-612","district":"Chirang","source":"LGD via Bharatlas · 2024 snapshot","state_lgd":18,"district_lgd":612,"subdistrict_lgd":2113,"center":[90.46829713589811,26.523028025576636],"bbox":[90.3616758,26.3858185,90.5615985,26.6027194]},"geometry":{"type":"Point","coordinates":[90.46829713589811,26.523028025576636]}},{"type":"Feature","id":"in-assam-t-2002","properties":{"id":"in-assam-t-2002","name":"Bhowraguri","region":"in-assam","level":"tehsil","parent":"in-assam-d-294","district":"Kokrajhar","source":"LGD via Bharatlas · 2024 snapshot","state_lgd":18,"district_lgd":294,"subdistrict_lgd":2002,"center":[90.05629093625502,26.377845869755483],"bbox":[89.9763691,26.2968251,90.1236031,26.4654018]},"geometry":{"type":"Point","coordinates":[90.05629093625502,26.377845869755483]}},{"type":"Feature","id":"in-assam-t-2027","properties":{"id":"in-assam-t-2027","name":"Bhuragaon","region":"in-assam","level":"tehsil","parent":"in-assam-d-296","district":"Marigaon","source":"LGD via Bharatlas · 2024 snapshot","state_lgd":18,"district_lgd":296,"subdistrict_lgd":2027,"center":[92.2127386591701,26.373549693211103],"bbox":[92.0582329,26.2971498,92.3081826,26.4553907]},"geometry":{"type":"Point","coordinates":[92.2127386591701,26.373549693211103]}},{"type":"Feature","id":"in-assam-t-2049","properties":{"id":"in-assam-t-2049","name":"Bihpuria","region":"in-assam","level":"tehsil","parent":"in-assam-d-295","district":"Lakhimpur","source":"LGD via Bharatlas · 2024 snapshot","state_lgd":18,"district_lgd":295,"subdistrict_lgd":2049,"center":[93.93884050426253,27.0583524989891],"bbox":[93.7943827,26.9006558,94.0694653,27.2152]},"geometry":{"type":"Point","coordinates":[93.93884050426253,27.0583524989891]}},{"type":"Feature","id":"in-assam-t-2115","properties":{"id":"in-assam-t-2115","name":"Bijni (Pt)","region":"in-assam","level":"tehsil","parent":"in-assam-d-612","district":"Chirang","source":"LGD via Bharatlas · 2024 snapshot","state_lgd":18,"district_lgd":612,"subdistrict_lgd":2115,"center":[90.75450642203458,26.458181059131437],"bbox":[90.6240291,26.3820256,90.8615597,26.5321357]},"geometry":{"type":"Point","coordinates":[90.75450642203458,26.458181059131437]}},{"type":"Feature","id":"in-assam-t-6018","properties":{"id":"in-assam-t-6018","name":"Bilasipara Pt","region":"in-assam","level":"tehsil","parent":"in-assam-d-285","district":"Dhubri","source":"LGD via Bharatlas · 2024 snapshot","state_lgd":18,"district_lgd":285,"subdistrict_lgd":6018,"center":[90.20214774214789,26.25499708576508],"bbox":[90.1048811,26.1272399,90.3100283,26.3607052]},"geometry":{"type":"Point","coordinates":[90.20214774214789,26.25499708576508]}},{"type":"Feature","id":"in-assam-t-2045","properties":{"id":"in-assam-t-2045","name":"Biswanath","region":"in-assam","level":"tehsil","parent":"in-assam-d-705","district":"Biswanath","source":"LGD via Bharatlas · 2024 snapshot","state_lgd":18,"district_lgd":705,"subdistrict_lgd":2045,"center":[93.23724128904298,26.809324372388247],"bbox":[93.0433621,26.5917795,93.4726481,26.9600792]},"geometry":{"type":"Point","coordinates":[93.23724128904298,26.809324372388247]}},{"type":"Feature","id":"in-assam-t-2111","properties":{"id":"in-assam-t-2111","name":"Boitamari","region":"in-assam","level":"tehsil","parent":"in-assam-d-281","district":"Bongaigaon","source":"LGD via Bharatlas · 2024 snapshot","state_lgd":18,"district_lgd":281,"subdistrict_lgd":2111,"center":[90.70063327490838,26.339767854809192],"bbox":[90.5836643,26.2012694,90.8620364,26.4579843]},"geometry":{"type":"Point","coordinates":[90.70063327490838,26.339767854809192]}},{"type":"Feature","id":"in-assam-t-2082","properties":{"id":"in-assam-t-2082","name":"Bokakhat","region":"in-assam","level":"tehsil","parent":"in-assam-d-288","district":"Golaghat","source":"LGD via Bharatlas · 2024 snapshot","state_lgd":18,"district_lgd":288,"subdistrict_lgd":2082,"center":[93.55389765855168,26.672790735673175],"bbox":[93.2868406,26.5658446,93.8275671,26.8161527]},"geometry":{"type":"Point","coordinates":[93.55389765855168,26.672790735673175]}},{"type":"Feature","id":"in-assam-t-2124","properties":{"id":"in-assam-t-2124","name":"Boko","region":"in-assam","level":"tehsil","parent":"in-assam-d-291","district":"Kamrup","source":"LGD via Bharatlas · 2024 snapshot","state_lgd":18,"district_lgd":291,"subdistrict_lgd":2124,"center":[91.16297307775919,25.903206336082818],"bbox":[91.0013969,25.7225633,91.2848742,26.0499628]},"geometry":{"type":"Point","coordinates":[91.16297307775919,25.903206336082818]}},{"type":"Feature","id":"in-assam-t-2110","properties":{"id":"in-assam-t-2110","name":"Bongaigaon (Pt)","region":"in-assam","level":"tehsil","parent":"in-assam-d-281","district":"Bongaigaon","source":"LGD via Bharatlas · 2024 snapshot","state_lgd":18,"district_lgd":281,"subdistrict_lgd":2110,"center":[90.50557420488899,26.25646753326367],"bbox":[90.3666165,26.1476856,90.6404804,26.3818835]},"geometry":{"type":"Point","coordinates":[90.50557420488899,26.25646753326367]}},{"type":"Feature","id":"in-assam-t-2065","properties":{"id":"in-assam-t-2065","name":"Chabua","region":"in-assam","level":"tehsil","parent":"in-assam-d-286","district":"Dibrugarh","source":"LGD via Bharatlas · 2024 snapshot","state_lgd":18,"district_lgd":286,"subdistrict_lgd":2065,"center":[95.14680220855482,27.56970862502432],"bbox":[94.9509589,27.4071831,95.3183781,27.7048913]},"geometry":{"type":"Point","coordinates":[95.14680220855482,27.56970862502432]}},{"type":"Feature","id":"in-assam-t-2122","properties":{"id":"in-assam-t-2122","name":"Chamaria","region":"in-assam","level":"tehsil","parent":"in-assam-d-291","district":"Kamrup","source":"LGD via Bharatlas · 2024 snapshot","state_lgd":18,"district_lgd":291,"subdistrict_lgd":2122,"center":[91.14340423967737,26.101841592543693],"bbox":[91.0724365,26.0166306,91.2241506,26.1800337]},"geometry":{"type":"Point","coordinates":[91.14340423967737,26.101841592543693]}},{"type":"Feature","id":"in-assam-t-2131","properties":{"id":"in-assam-t-2131","name":"Chandrapur","region":"in-assam","level":"tehsil","parent":"in-assam-d-618","district":"Kamrup Metro","source":"LGD via Bharatlas · 2024 snapshot","state_lgd":18,"district_lgd":618,"subdistrict_lgd":2131,"center":[91.90996952463938,26.198239139806685],"bbox":[91.8236466,26.1557373,91.989944,26.2543078]},"geometry":{"type":"Point","coordinates":[91.90996952463938,26.198239139806685]}},{"type":"Feature","id":"in-assam-t-6019-294","properties":{"id":"in-assam-t-6019-294","name":"Chapar Pt","region":"in-assam","level":"tehsil","parent":"in-assam-d-294","district":"Kokrajhar","source":"LGD via Bharatlas · 2024 snapshot","state_lgd":18,"district_lgd":294,"subdistrict_lgd":6019,"center":[90.3225222287794,26.312116352032326],"bbox":[90.2514521,26.2366495,90.3828852,26.4173748]},"geometry":{"type":"Point","coordinates":[90.3225222287794,26.312116352032326]}},{"type":"Feature","id":"in-assam-t-6019-285","properties":{"id":"in-assam-t-6019-285","name":"Chapar Pt","region":"in-assam","level":"tehsil","parent":"in-assam-d-285","district":"Dhubri","source":"LGD via Bharatlas · 2024 snapshot","state_lgd":18,"district_lgd":285,"subdistrict_lgd":6019,"center":[90.37948333031459,26.26086304323776],"bbox":[90.2600332,26.1728272,90.4837396,26.3642433]},"geometry":{"type":"Point","coordinates":[90.37948333031459,26.26086304323776]}},{"type":"Feature","id":"in-assam-t-2042","properties":{"id":"in-assam-t-2042","name":"Chariduar","region":"in-assam","level":"tehsil","parent":"in-assam-d-301","district":"Sonitpur","source":"LGD via Bharatlas · 2024 snapshot","state_lgd":18,"district_lgd":301,"subdistrict_lgd":2042,"center":[92.7516244287276,26.869205462908333],"bbox":[92.5711343,26.6815902,92.983036,27.0316605]},"geometry":{"type":"Point","coordinates":[92.7516244287276,26.869205462908333]}},{"type":"Feature","id":"in-assam-t-2021","properties":{"id":"in-assam-t-2021","name":"Chenga","region":"in-assam","level":"tehsil","parent":"in-assam-d-280","district":"Barpeta","source":"LGD via Bharatlas · 2024 snapshot","state_lgd":18,"district_lgd":280,"subdistrict_lgd":2021,"center":[91.0958448601097,26.20516801574855],"bbox":[90.8956073,26.1188444,91.2485233,26.3037115]},"geometry":{"type":"Point","coordinates":[91.0958448601097,26.20516801574855]}},{"type":"Feature","id":"in-assam-t-2120","properties":{"id":"in-assam-t-2120","name":"Chhaygaon","region":"in-assam","level":"tehsil","parent":"in-assam-d-291","district":"Kamrup","source":"LGD via Bharatlas · 2024 snapshot","state_lgd":18,"district_lgd":291,"subdistrict_lgd":2120,"center":[91.3269809877013,25.952519188556074],"bbox":[91.2175519,25.745854,91.4483644,26.0893579]},"geometry":{"type":"Point","coordinates":[91.3269809877013,25.952519188556074]}},{"type":"Feature","id":"in-assam-t-2149-283","properties":{"id":"in-assam-t-2149-283","name":"Dalgaon (Pt)","region":"in-assam","level":"tehsil","parent":"in-assam-d-283","district":"Darrang","source":"LGD via Bharatlas · 2024 snapshot","state_lgd":18,"district_lgd":283,"subdistrict_lgd":2149,"center":[92.19583670809536,26.53574257055918],"bbox":[92.0208733,26.4139889,92.3818449,26.6596445]},"geometry":{"type":"Point","coordinates":[92.19583670809536,26.53574257055918]}},{"type":"Feature","id":"in-assam-t-2149-617","properties":{"id":"in-assam-t-2149-617","name":"Dalgaon (Pt)","region":"in-assam","level":"tehsil","parent":"in-assam-d-617","district":"Udalguri","source":"LGD via Bharatlas · 2024 snapshot","state_lgd":18,"district_lgd":617,"subdistrict_lgd":2149,"center":[92.06839144966169,26.534529659228006],"bbox":[92.0186526,26.4737597,92.1165428,26.5821947]},"geometry":{"type":"Point","coordinates":[92.06839144966169,26.534529659228006]}},{"type":"Feature","id":"in-assam-t-2084","properties":{"id":"in-assam-t-2084","name":"Dergaon","region":"in-assam","level":"tehsil","parent":"in-assam-d-288","district":"Golaghat","source":"LGD via Bharatlas · 2024 snapshot","state_lgd":18,"district_lgd":288,"subdistrict_lgd":2084,"center":[93.97600792912986,26.684027843527662],"bbox":[93.8484501,26.5694915,94.0982123,26.8098842]},"geometry":{"type":"Point","coordinates":[93.97600792912986,26.684027843527662]}},{"type":"Feature","id":"in-assam-t-2053-295","properties":{"id":"in-assam-t-2053-295","name":"Dhakuakhana (Pt-I)","region":"in-assam","level":"tehsil","parent":"in-assam-d-295","district":"Lakhimpur","source":"LGD via Bharatlas · 2024 snapshot","state_lgd":18,"district_lgd":295,"subdistrict_lgd":2053,"center":[94.48513623206615,27.230924717424344],"bbox":[94.304776,27.0928765,94.6289714,27.377828]},"geometry":{"type":"Point","coordinates":[94.48513623206615,27.230924717424344]}},{"type":"Feature","id":"in-assam-t-2053-284","properties":{"id":"in-assam-t-2053-284","name":"Dhakuakhana (Pt-I)","region":"in-assam","level":"tehsil","parent":"in-assam-d-284","district":"Dhemaji","source":"LGD via Bharatlas · 2024 snapshot","state_lgd":18,"district_lgd":284,"subdistrict_lgd":2053,"center":[94.56990559158965,27.380084722661117],"bbox":[94.549427,27.3586888,94.5923872,27.4078089]},"geometry":{"type":"Point","coordinates":[94.56990559158965,27.380084722661117]}},{"type":"Feature","id":"in-assam-t-2041","properties":{"id":"in-assam-t-2041","name":"Dhekiajuli (Pt)","region":"in-assam","level":"tehsil","parent":"in-assam-d-301","district":"Sonitpur","source":"LGD via Bharatlas · 2024 snapshot","state_lgd":18,"district_lgd":301,"subdistrict_lgd":2041,"center":[92.43161326624633,26.728068439707783],"bbox":[92.3131456,26.5005075,92.5506731,26.9427609]},"geometry":{"type":"Point","coordinates":[92.43161326624633,26.728068439707783]}},{"type":"Feature","id":"in-assam-t-2055","properties":{"id":"in-assam-t-2055","name":"Dhemaji","region":"in-assam","level":"tehsil","parent":"in-assam-d-284","district":"Dhemaji","source":"LGD via Bharatlas · 2024 snapshot","state_lgd":18,"district_lgd":284,"subdistrict_lgd":2055,"center":[94.51513153700044,27.46439972214739],"bbox":[94.4015336,27.3084569,94.6072072,27.6212301]},"geometry":{"type":"Point","coordinates":[94.51513153700044,27.46439972214739]}},{"type":"Feature","id":"in-assam-t-2034","properties":{"id":"in-assam-t-2034","name":"Dhing","region":"in-assam","level":"tehsil","parent":"in-assam-d-297","district":"Nagaon","source":"LGD via Bharatlas · 2024 snapshot","state_lgd":18,"district_lgd":297,"subdistrict_lgd":2034,"center":[92.51505024433885,26.444285632873218],"bbox":[92.4168332,26.363396,92.6210669,26.5202955]},"geometry":{"type":"Point","coordinates":[92.51505024433885,26.444285632873218]}},{"type":"Feature","id":"in-assam-t-6014-285","properties":{"id":"in-assam-t-6014-285","name":"Dhubri","region":"in-assam","level":"tehsil","parent":"in-assam-d-285","district":"Dhubri","source":"LGD via Bharatlas · 2024 snapshot","state_lgd":18,"district_lgd":285,"subdistrict_lgd":6014,"center":[89.94913953443445,26.023043954657982],"bbox":[89.8148656,25.8789974,90.0795726,26.1566633]},"geometry":{"type":"Point","coordinates":[89.94913953443445,26.023043954657982]}},{"type":"Feature","id":"in-assam-t-6014-294","properties":{"id":"in-assam-t-6014-294","name":"Dhubri","region":"in-assam","level":"tehsil","parent":"in-assam-d-294","district":"Kokrajhar","source":"LGD via Bharatlas · 2024 snapshot","state_lgd":18,"district_lgd":294,"subdistrict_lgd":6014,"center":[89.97941788001928,26.178167045960084],"bbox":[89.9034199,26.12617,90.0526197,26.2352362]},"geometry":{"type":"Point","coordinates":[89.97941788001928,26.178167045960084]}},{"type":"Feature","id":"in-assam-t-2064","properties":{"id":"in-assam-t-2064","name":"Dibrugarh East","region":"in-assam","level":"tehsil","parent":"in-assam-d-286","district":"Dibrugarh","source":"LGD via Bharatlas · 2024 snapshot","state_lgd":18,"district_lgd":286,"subdistrict_lgd":2064,"center":[94.97955267441327,27.486578208134716],"bbox":[94.8258557,27.3405173,95.1249918,27.6192758]},"geometry":{"type":"Point","coordinates":[94.97955267441327,27.486578208134716]}},{"type":"Feature","id":"in-assam-t-2063","properties":{"id":"in-assam-t-2063","name":"Dibrugarh West","region":"in-assam","level":"tehsil","parent":"in-assam-d-286","district":"Dibrugarh","source":"LGD via Bharatlas · 2024 snapshot","state_lgd":18,"district_lgd":286,"subdistrict_lgd":2063,"center":[94.78773763215173,27.35320047031974],"bbox":[94.5679431,27.1457066,95.0037961,27.5233438]},"geometry":{"type":"Point","coordinates":[94.78773763215173,27.35320047031974]}},{"type":"Feature","id":"in-assam-t-2070","properties":{"id":"in-assam-t-2070","name":"Dimow","region":"in-assam","level":"tehsil","parent":"in-assam-d-300","district":"Sivasagar","source":"LGD via Bharatlas · 2024 snapshot","state_lgd":18,"district_lgd":300,"subdistrict_lgd":2070,"center":[94.70559381630396,27.12527366833334],"bbox":[94.5388353,26.9833994,94.8369558,27.2754975]},"geometry":{"type":"Point","coordinates":[94.70559381630396,27.12527366833334]}},{"type":"Feature","id":"in-assam-t-2089","properties":{"id":"in-assam-t-2089","name":"Diphu","region":"in-assam","level":"tehsil","parent":"in-assam-d-292","district":"Karbi Anglong","source":"LGD via Bharatlas · 2024 snapshot","state_lgd":18,"district_lgd":292,"subdistrict_lgd":2089,"center":[93.24377892773461,26.27177633437846],"bbox":[92.7932662,25.9759074,93.6480999,26.6065281]},"geometry":{"type":"Point","coordinates":[93.24377892773461,26.27177633437846]}},{"type":"Feature","id":"in-assam-t-2129","properties":{"id":"in-assam-t-2129","name":"Dispur","region":"in-assam","level":"tehsil","parent":"in-assam-d-618","district":"Kamrup Metro","source":"LGD via Bharatlas · 2024 snapshot","state_lgd":18,"district_lgd":618,"subdistrict_lgd":2129,"center":[91.79293211664601,26.143743826657186],"bbox":[91.7063039,26.09119,91.8581515,26.209616]},"geometry":{"type":"Point","coordinates":[91.79293211664601,26.143743826657186]}},{"type":"Feature","id":"in-assam-t-2039","properties":{"id":"in-assam-t-2039","name":"Doboka","region":"in-assam","level":"tehsil","parent":"in-assam-d-709","district":"Hojai","source":"LGD via Bharatlas · 2024 snapshot","state_lgd":18,"district_lgd":709,"subdistrict_lgd":2039,"center":[92.86769560636445,26.132761184212967],"bbox":[92.7024036,26.0484089,93.0353289,26.2079785]},"geometry":{"type":"Point","coordinates":[92.86769560636445,26.132761184212967]}},{"type":"Feature","id":"in-assam-t-2088","properties":{"id":"in-assam-t-2088","name":"Donka","region":"in-assam","level":"tehsil","parent":"in-assam-d-292","district":"Karbi Anglong","source":"LGD via Bharatlas · 2024 snapshot","state_lgd":18,"district_lgd":292,"subdistrict_lgd":2088,"center":[93.4590979555145,25.86322193757018],"bbox":[93.131738,25.5303214,93.8314482,26.1793141]},"geometry":{"type":"Point","coordinates":[93.4590979555145,25.86322193757018]}},{"type":"Feature","id":"in-assam-t-2060","properties":{"id":"in-assam-t-2060","name":"Doom Dooma","region":"in-assam","level":"tehsil","parent":"in-assam-d-302","district":"Tinsukia","source":"LGD via Bharatlas · 2024 snapshot","state_lgd":18,"district_lgd":302,"subdistrict_lgd":2060,"center":[95.58936806722406,27.635670624739777],"bbox":[95.3559742,27.4672519,95.790483,27.7919177]},"geometry":{"type":"Point","coordinates":[95.58936806722406,27.635670624739777]}},{"type":"Feature","id":"in-assam-t-2003","properties":{"id":"in-assam-t-2003","name":"Dotoma","region":"in-assam","level":"tehsil","parent":"in-assam-d-294","district":"Kokrajhar","source":"LGD via Bharatlas · 2024 snapshot","state_lgd":18,"district_lgd":294,"subdistrict_lgd":2003,"center":[90.16296797417178,26.466377014639047],"bbox":[90.0955302,26.3312528,90.2695964,26.6265164]},"geometry":{"type":"Point","coordinates":[90.16296797417178,26.466377014639047]}},{"type":"Feature","id":"in-assam-t-2016","properties":{"id":"in-assam-t-2016","name":"Dudhnai","region":"in-assam","level":"tehsil","parent":"in-assam-d-287","district":"Goalpara","source":"LGD via Bharatlas · 2024 snapshot","state_lgd":18,"district_lgd":287,"subdistrict_lgd":2016,"center":[90.82384756842293,25.979754376992428],"bbox":[90.7041917,25.9076406,90.9271803,26.0569414]},"geometry":{"type":"Point","coordinates":[90.82384756842293,25.979754376992428]}},{"type":"Feature","id":"in-assam-t-2138","properties":{"id":"in-assam-t-2138","name":"Ghograpar (Pt)","region":"in-assam","level":"tehsil","parent":"in-assam-d-298","district":"Nalbari","source":"LGD via Bharatlas · 2024 snapshot","state_lgd":18,"district_lgd":298,"subdistrict_lgd":2138,"center":[91.51882728062716,26.500874459350186],"bbox":[91.4212091,26.4095828,91.5885537,26.577138]},"geometry":{"type":"Point","coordinates":[91.51882728062716,26.500874459350186]}},{"type":"Feature","id":"in-assam-t-2058","properties":{"id":"in-assam-t-2058","name":"Gogamukh","region":"in-assam","level":"tehsil","parent":"in-assam-d-284","district":"Dhemaji","source":"LGD via Bharatlas · 2024 snapshot","state_lgd":18,"district_lgd":284,"subdistrict_lgd":2058,"center":[94.35193019829758,27.478901262808833],"bbox":[94.2091745,27.3180258,94.4641916,27.6376348]},"geometry":{"type":"Point","coordinates":[94.35193019829758,27.478901262808833]}},{"type":"Feature","id":"in-assam-t-2047","properties":{"id":"in-assam-t-2047","name":"Gohpur","region":"in-assam","level":"tehsil","parent":"in-assam-d-705","district":"Biswanath","source":"LGD via Bharatlas · 2024 snapshot","state_lgd":18,"district_lgd":705,"subdistrict_lgd":2047,"center":[93.67021249260415,26.891521629455344],"bbox":[93.5340162,26.7639102,93.7894834,26.9942031]},"geometry":{"type":"Point","coordinates":[93.67021249260415,26.891521629455344]}},{"type":"Feature","id":"in-assam-t-2085","properties":{"id":"in-assam-t-2085","name":"Golaghat","region":"in-assam","level":"tehsil","parent":"in-assam-d-288","district":"Golaghat","source":"LGD via Bharatlas · 2024 snapshot","state_lgd":18,"district_lgd":288,"subdistrict_lgd":2085,"center":[94.02316427466972,26.426308328791965],"bbox":[93.8720274,26.173729,94.1778539,26.632279]},"geometry":{"type":"Point","coordinates":[94.02316427466972,26.426308328791965]}},{"type":"Feature","id":"in-assam-t-6015-285","properties":{"id":"in-assam-t-6015-285","name":"Golakganj Pt","region":"in-assam","level":"tehsil","parent":"in-assam-d-285","district":"Dhubri","source":"LGD via Bharatlas · 2024 snapshot","state_lgd":18,"district_lgd":285,"subdistrict_lgd":6015,"center":[89.86342073800618,26.138258814126548],"bbox":[89.773654,26.0177795,89.9804623,26.3278663]},"geometry":{"type":"Point","coordinates":[89.86342073800618,26.138258814126548]}},{"type":"Feature","id":"in-assam-t-6015-294","properties":{"id":"in-assam-t-6015-294","name":"Golakganj Pt","region":"in-assam","level":"tehsil","parent":"in-assam-d-294","district":"Kokrajhar","source":"LGD via Bharatlas · 2024 snapshot","state_lgd":18,"district_lgd":294,"subdistrict_lgd":6015,"center":[89.90216734282704,26.260440956233452],"bbox":[89.8659779,26.1498345,89.932749,26.3412424]},"geometry":{"type":"Point","coordinates":[89.90216734282704,26.260440956233452]}},{"type":"Feature","id":"in-assam-t-2141-756","properties":{"id":"in-assam-t-2141-756","name":"Goreswar (Pt)","region":"in-assam","level":"tehsil","parent":"in-assam-d-756","district":"Tamulpur","source":"LGD via Bharatlas · 2024 snapshot","state_lgd":18,"district_lgd":756,"subdistrict_lgd":2141,"center":[91.70487078064758,26.575098614750004],"bbox":[91.617965,26.4484554,91.7872489,26.8093789]},"geometry":{"type":"Point","coordinates":[91.70487078064758,26.575098614750004]}},{"type":"Feature","id":"in-assam-t-2141-291","properties":{"id":"in-assam-t-2141-291","name":"Goreswar (Pt)","region":"in-assam","level":"tehsil","parent":"in-assam-d-291","district":"Kamrup","source":"LGD via Bharatlas · 2024 snapshot","state_lgd":18,"district_lgd":291,"subdistrict_lgd":2141,"center":[91.7410064717961,26.450646901816803],"bbox":[91.6874865,26.4000439,91.7830385,26.5030614]},"geometry":{"type":"Point","coordinates":[91.7410064717961,26.450646901816803]}},{"type":"Feature","id":"in-assam-t-2121","properties":{"id":"in-assam-t-2121","name":"Goroimari","region":"in-assam","level":"tehsil","parent":"in-assam-d-291","district":"Kamrup","source":"LGD via Bharatlas · 2024 snapshot","state_lgd":18,"district_lgd":291,"subdistrict_lgd":2121,"center":[91.25264987535805,26.110537105678024],"bbox":[91.1421672,26.057747,91.3767289,26.1794389]},"geometry":{"type":"Point","coordinates":[91.25264987535805,26.110537105678024]}},{"type":"Feature","id":"in-assam-t-2001-285","properties":{"id":"in-assam-t-2001-285","name":"Gossaigaon (Pt)","region":"in-assam","level":"tehsil","parent":"in-assam-d-285","district":"Dhubri","source":"LGD via Bharatlas · 2024 snapshot","state_lgd":18,"district_lgd":285,"subdistrict_lgd":2001,"center":[89.83024669512008,26.333536192693117],"bbox":[89.758627,26.2933495,89.9051758,26.3841798]},"geometry":{"type":"Point","coordinates":[89.83024669512008,26.333536192693117]}},{"type":"Feature","id":"in-assam-t-2001-294","properties":{"id":"in-assam-t-2001-294","name":"Gossaigaon (Pt)","region":"in-assam","level":"tehsil","parent":"in-assam-d-294","district":"Kokrajhar","source":"LGD via Bharatlas · 2024 snapshot","state_lgd":18,"district_lgd":294,"subdistrict_lgd":2001,"center":[89.99619216506733,26.565382562080615],"bbox":[89.8299535,26.3276892,90.1963409,26.7503439]},"geometry":{"type":"Point","coordinates":[89.99619216506733,26.565382562080615]}},{"type":"Feature","id":"in-assam-t-2128","properties":{"id":"in-assam-t-2128","name":"Guwahati","region":"in-assam","level":"tehsil","parent":"in-assam-d-618","district":"Kamrup Metro","source":"LGD via Bharatlas · 2024 snapshot","state_lgd":18,"district_lgd":618,"subdistrict_lgd":2128,"center":[91.71596052078701,26.15672180995639],"bbox":[91.626049,26.1048623,91.8269832,26.2091344]},"geometry":{"type":"Point","coordinates":[91.71596052078701,26.15672180995639]}},{"type":"Feature","id":"in-assam-t-2093","properties":{"id":"in-assam-t-2093","name":"Haflong","region":"in-assam","level":"tehsil","parent":"in-assam-d-299","district":"Dima Hasao","source":"LGD via Bharatlas · 2024 snapshot","state_lgd":18,"district_lgd":299,"subdistrict_lgd":2093,"center":[93.2420208741633,25.14005163610797],"bbox":[93.0910477,24.9703281,93.4705033,25.3100949]},"geometry":{"type":"Point","coordinates":[93.2420208741633,25.14005163610797]}},{"type":"Feature","id":"in-assam-t-2107","properties":{"id":"in-assam-t-2107","name":"Hailakandi","region":"in-assam","level":"tehsil","parent":"in-assam-d-289","district":"Hailakandi","source":"LGD via Bharatlas · 2024 snapshot","state_lgd":18,"district_lgd":289,"subdistrict_lgd":2107,"center":[92.61734396408255,24.57488764322231],"bbox":[92.5028249,24.504712,92.7805975,24.6601828]},"geometry":{"type":"Point","coordinates":[92.61734396408255,24.57488764322231]}},{"type":"Feature","id":"in-assam-t-2119","properties":{"id":"in-assam-t-2119","name":"Hajo","region":"in-assam","level":"tehsil","parent":"in-assam-d-291","district":"Kamrup","source":"LGD via Bharatlas · 2024 snapshot","state_lgd":18,"district_lgd":291,"subdistrict_lgd":2119,"center":[91.53185808882735,26.230731190401517],"bbox":[91.4110613,26.1351022,91.6702632,26.3365924]},"geometry":{"type":"Point","coordinates":[91.53185808882735,26.230731190401517]}},{"type":"Feature","id":"in-assam-t-2151","properties":{"id":"in-assam-t-2151","name":"Harisinga","region":"in-assam","level":"tehsil","parent":"in-assam-d-617","district":"Udalguri","source":"LGD via Bharatlas · 2024 snapshot","state_lgd":18,"district_lgd":617,"subdistrict_lgd":2151,"center":[91.85805826196487,26.75023892622806],"bbox":[91.7048602,26.5688613,92.0025461,26.9190627]},"geometry":{"type":"Point","coordinates":[91.85805826196487,26.75023892622806]}},{"type":"Feature","id":"in-assam-t-2046","properties":{"id":"in-assam-t-2046","name":"Helem","region":"in-assam","level":"tehsil","parent":"in-assam-d-705","district":"Biswanath","source":"LGD via Bharatlas · 2024 snapshot","state_lgd":18,"district_lgd":705,"subdistrict_lgd":2046,"center":[93.52833203690925,26.830608047749973],"bbox":[93.4015894,26.7062196,93.6705189,26.9559981]},"geometry":{"type":"Point","coordinates":[93.52833203690925,26.830608047749973]}},{"type":"Feature","id":"in-assam-t-2038","properties":{"id":"in-assam-t-2038","name":"Hojai","region":"in-assam","level":"tehsil","parent":"in-assam-d-709","district":"Hojai","source":"LGD via Bharatlas · 2024 snapshot","state_lgd":18,"district_lgd":709,"subdistrict_lgd":2038,"center":[92.83542599156036,26.012173459064577],"bbox":[92.7299058,25.9083277,92.9241307,26.1105405]},"geometry":{"type":"Point","coordinates":[92.83542599156036,26.012173459064577]}},{"type":"Feature","id":"in-assam-t-2140","properties":{"id":"in-assam-t-2140","name":"Jalah (Pt)","region":"in-assam","level":"tehsil","parent":"in-assam-d-616","district":"Baksa","source":"LGD via Bharatlas · 2024 snapshot","state_lgd":18,"district_lgd":616,"subdistrict_lgd":2140,"center":[91.21182763037373,26.721364688707535],"bbox":[91.1036875,26.5959876,91.3005741,26.8134241]},"geometry":{"type":"Point","coordinates":[91.21182763037373,26.721364688707535]}},{"type":"Feature","id":"in-assam-t-2057","properties":{"id":"in-assam-t-2057","name":"Jonai","region":"in-assam","level":"tehsil","parent":"in-assam-d-284","district":"Dhemaji","source":"LGD via Bharatlas · 2024 snapshot","state_lgd":18,"district_lgd":284,"subdistrict_lgd":2057,"center":[95.17578413780248,27.750109990781393],"bbox":[94.8409494,27.6087228,95.5154142,27.8794556]},"geometry":{"type":"Point","coordinates":[95.17578413780248,27.750109990781393]}},{"type":"Feature","id":"in-assam-t-2078","properties":{"id":"in-assam-t-2078","name":"Jorhat East","region":"in-assam","level":"tehsil","parent":"in-assam-d-290","district":"Jorhat","source":"LGD via Bharatlas · 2024 snapshot","state_lgd":18,"district_lgd":290,"subdistrict_lgd":2078,"center":[94.27632707779155,26.800731058226287],"bbox":[94.1905848,26.6904907,94.3809442,26.8850307]},"geometry":{"type":"Point","coordinates":[94.27632707779155,26.800731058226287]}},{"type":"Feature","id":"in-assam-t-2077","properties":{"id":"in-assam-t-2077","name":"Jorhat West","region":"in-assam","level":"tehsil","parent":"in-assam-d-290","district":"Jorhat","source":"LGD via Bharatlas · 2024 snapshot","state_lgd":18,"district_lgd":290,"subdistrict_lgd":2077,"center":[94.12971808238434,26.792690267757926],"bbox":[93.9712429,26.6447973,94.3121878,26.9263637]},"geometry":{"type":"Point","coordinates":[94.12971808238434,26.792690267757926]}},{"type":"Feature","id":"in-assam-t-2051","properties":{"id":"in-assam-t-2051","name":"Kadam","region":"in-assam","level":"tehsil","parent":"in-assam-d-295","district":"Lakhimpur","source":"LGD via Bharatlas · 2024 snapshot","state_lgd":18,"district_lgd":295,"subdistrict_lgd":2051,"center":[94.20424842163293,27.362520084958994],"bbox":[94.0531843,27.2119663,94.3318003,27.5208122]},"geometry":{"type":"Point","coordinates":[94.20424842163293,27.362520084958994]}},{"type":"Feature","id":"in-assam-t-6427-617","properties":{"id":"in-assam-t-6427-617","name":"Kalaigaon","region":"in-assam","level":"tehsil","parent":"in-assam-d-617","district":"Udalguri","source":"LGD via Bharatlas · 2024 snapshot","state_lgd":18,"district_lgd":617,"subdistrict_lgd":6427,"center":[91.82399821014758,26.56974400991614],"bbox":[91.7638169,26.5043263,91.8888769,26.6282803]},"geometry":{"type":"Point","coordinates":[91.82399821014758,26.56974400991614]}},{"type":"Feature","id":"in-assam-t-6427-283","properties":{"id":"in-assam-t-6427-283","name":"Kalaigaon","region":"in-assam","level":"tehsil","parent":"in-assam-d-283","district":"Darrang","source":"LGD via Bharatlas · 2024 snapshot","state_lgd":18,"district_lgd":283,"subdistrict_lgd":6427,"center":[91.93787578535792,26.53242118601657],"bbox":[91.8654897,26.5000017,92.0132156,26.5721157]},"geometry":{"type":"Point","coordinates":[91.93787578535792,26.53242118601657]}},{"type":"Feature","id":"in-assam-t-2019","properties":{"id":"in-assam-t-2019","name":"Kalgachia","region":"in-assam","level":"tehsil","parent":"in-assam-d-280","district":"Barpeta","source":"LGD via Bharatlas · 2024 snapshot","state_lgd":18,"district_lgd":280,"subdistrict_lgd":2019,"center":[90.79872426250073,26.29934742086195],"bbox":[90.6533959,26.192605,90.9342828,26.4289716]},"geometry":{"type":"Point","coordinates":[90.79872426250073,26.29934742086195]}},{"type":"Feature","id":"in-assam-t-2031","properties":{"id":"in-assam-t-2031","name":"Kaliabor","region":"in-assam","level":"tehsil","parent":"in-assam-d-297","district":"Nagaon","source":"LGD via Bharatlas · 2024 snapshot","state_lgd":18,"district_lgd":297,"subdistrict_lgd":2031,"center":[93.06118649671953,26.547316042826154],"bbox":[92.8282453,26.3493987,93.3179172,26.7004117]},"geometry":{"type":"Point","coordinates":[93.06118649671953,26.547316042826154]}},{"type":"Feature","id":"in-assam-t-2118","properties":{"id":"in-assam-t-2118","name":"Kamalpur","region":"in-assam","level":"tehsil","parent":"in-assam-d-291","district":"Kamrup","source":"LGD via Bharatlas · 2024 snapshot","state_lgd":18,"district_lgd":291,"subdistrict_lgd":2118,"center":[91.71078106713128,26.33475107522892],"bbox":[91.5972464,26.2508246,91.8229548,26.4160649]},"geometry":{"type":"Point","coordinates":[91.71078106713128,26.33475107522892]}},{"type":"Feature","id":"in-assam-t-2037","properties":{"id":"in-assam-t-2037","name":"Kampur","region":"in-assam","level":"tehsil","parent":"in-assam-d-297","district":"Nagaon","source":"LGD via Bharatlas · 2024 snapshot","state_lgd":18,"district_lgd":297,"subdistrict_lgd":2037,"center":[92.65544519585961,26.108584621708022],"bbox":[92.545857,25.9616582,92.7810232,26.2257077]},"geometry":{"type":"Point","coordinates":[92.65544519585961,26.108584621708022]}},{"type":"Feature","id":"in-assam-t-2101","properties":{"id":"in-assam-t-2101","name":"Karimganj","region":"in-assam","level":"tehsil","parent":"in-assam-d-293","district":"Karimganj","source":"LGD via Bharatlas · 2024 snapshot","state_lgd":18,"district_lgd":293,"subdistrict_lgd":2101,"center":[92.5025936530539,24.828886739763927],"bbox":[92.4208555,24.7596823,92.5863287,24.8795592]},"geometry":{"type":"Point","coordinates":[92.5025936530539,24.828886739763927]}},{"type":"Feature","id":"in-assam-t-2096","properties":{"id":"in-assam-t-2096","name":"Katigora","region":"in-assam","level":"tehsil","parent":"in-assam-d-282","district":"Cachar","source":"LGD via Bharatlas · 2024 snapshot","state_lgd":18,"district_lgd":282,"subdistrict_lgd":2096,"center":[92.75925168288245,24.817427446366114],"bbox":[92.630289,24.5617859,92.8807593,25.0739176]},"geometry":{"type":"Point","coordinates":[92.75925168288245,24.817427446366114]}},{"type":"Feature","id":"in-assam-t-2109","properties":{"id":"in-assam-t-2109","name":"Katlichara","region":"in-assam","level":"tehsil","parent":"in-assam-d-281","district":"Bongaigaon","source":"LGD via Bharatlas · 2024 snapshot","state_lgd":18,"district_lgd":281,"subdistrict_lgd":2109,"center":[90.57729016783333,26.424753612100655],"bbox":[90.4961559,26.3078112,90.653916,26.5163456]},"geometry":{"type":"Point","coordinates":[90.57729016783333,26.424753612100655]}},{"type":"Feature","id":"in-assam-t-2145","properties":{"id":"in-assam-t-2145","name":"Khoirabari (Pt)","region":"in-assam","level":"tehsil","parent":"in-assam-d-617","district":"Udalguri","source":"LGD via Bharatlas · 2024 snapshot","state_lgd":18,"district_lgd":617,"subdistrict_lgd":2145,"center":[91.9610768378253,26.598338631974944],"bbox":[91.8616539,26.5270319,92.0566266,26.6801053]},"geometry":{"type":"Point","coordinates":[91.9610768378253,26.598338631974944]}},{"type":"Feature","id":"in-assam-t-2083","properties":{"id":"in-assam-t-2083","name":"Khumtai","region":"in-assam","level":"tehsil","parent":"in-assam-d-288","district":"Golaghat","source":"LGD via Bharatlas · 2024 snapshot","state_lgd":18,"district_lgd":288,"subdistrict_lgd":2083,"center":[93.8418480228621,26.67296991498978],"bbox":[93.7579836,26.5605822,93.9394205,26.796111]},"geometry":{"type":"Point","coordinates":[93.8418480228621,26.67296991498978]}},{"type":"Feature","id":"in-assam-t-source-1625","properties":{"id":"in-assam-t-source-1625","name":"Kokrajhar (Pt)","region":"in-assam","level":"tehsil","parent":"in-assam-d-294","district":"Kokrajhar","source":"LGD via Bharatlas · 2024 snapshot","state_lgd":18,"district_lgd":294,"subdistrict_lgd":null,"source_objectid":1625,"center":[90.2895203884724,26.585601045539132],"bbox":[90.1277251,26.3041591,90.4455758,26.8694271]},"geometry":{"type":"Point","coordinates":[90.2895203884724,26.585601045539132]}},{"type":"Feature","id":"in-assam-t-2117","properties":{"id":"in-assam-t-2117","name":"Koya","region":"in-assam","level":"tehsil","parent":"in-assam-d-291","district":"Kamrup","source":"LGD via Bharatlas · 2024 snapshot","state_lgd":18,"district_lgd":291,"subdistrict_lgd":2117,"center":[91.55909450259821,26.37135072825106],"bbox":[91.5194313,26.3248096,91.6019183,26.4205846]},"geometry":{"type":"Point","coordinates":[91.55909450259821,26.37135072825106]}},{"type":"Feature","id":"in-assam-t-2028","properties":{"id":"in-assam-t-2028","name":"Laharighat","region":"in-assam","level":"tehsil","parent":"in-assam-d-296","district":"Marigaon","source":"LGD via Bharatlas · 2024 snapshot","state_lgd":18,"district_lgd":296,"subdistrict_lgd":2028,"center":[92.36508741630111,26.422688403805044],"bbox":[92.2832722,26.3268586,92.4420132,26.5169149]},"geometry":{"type":"Point","coordinates":[92.36508741630111,26.422688403805044]}},{"type":"Feature","id":"in-assam-t-2013","properties":{"id":"in-assam-t-2013","name":"Lakhipur","region":"in-assam","level":"tehsil","parent":"in-assam-d-287","district":"Goalpara","source":"LGD via Bharatlas · 2024 snapshot","state_lgd":18,"district_lgd":287,"subdistrict_lgd":2013,"center":[90.28924715834506,26.05932931802545],"bbox":[90.1158723,25.9440946,90.4830558,26.1855374]},"geometry":{"type":"Point","coordinates":[90.28924715834506,26.05932931802545]}},{"type":"Feature","id":"in-assam-t-2100","properties":{"id":"in-assam-t-2100","name":"Lakhipur","region":"in-assam","level":"tehsil","parent":"in-assam-d-293","district":"Karimganj","source":"LGD via Bharatlas · 2024 snapshot","state_lgd":18,"district_lgd":293,"subdistrict_lgd":2100,"center":[92.32416687470649,24.843745949742885],"bbox":[92.2328732,24.7774888,92.4382596,24.9160127]},"geometry":{"type":"Point","coordinates":[92.32416687470649,24.843745949742885]}},{"type":"Feature","id":"in-assam-t-2108","properties":{"id":"in-assam-t-2108","name":"Lala","region":"in-assam","level":"tehsil","parent":"in-assam-d-289","district":"Hailakandi","source":"LGD via Bharatlas · 2024 snapshot","state_lgd":18,"district_lgd":289,"subdistrict_lgd":2108,"center":[92.57479538081199,24.36677868939754],"bbox":[92.4185735,24.1361352,92.7542228,24.5519823]},"geometry":{"type":"Point","coordinates":[92.57479538081199,24.36677868939754]}},{"type":"Feature","id":"in-assam-t-2040","properties":{"id":"in-assam-t-2040","name":"Lanka","region":"in-assam","level":"tehsil","parent":"in-assam-d-709","district":"Hojai","source":"LGD via Bharatlas · 2024 snapshot","state_lgd":18,"district_lgd":709,"subdistrict_lgd":2040,"center":[93.06476770640907,25.911423253487694],"bbox":[92.8469297,25.7183725,93.2478641,26.1085955]},"geometry":{"type":"Point","coordinates":[93.06476770640907,25.911423253487694]}},{"type":"Feature","id":"in-assam-t-2075","properties":{"id":"in-assam-t-2075","name":"Mahmora","region":"in-assam","level":"tehsil","parent":"in-assam-d-708","district":"Charaideo","source":"LGD via Bharatlas · 2024 snapshot","state_lgd":18,"district_lgd":708,"subdistrict_lgd":2075,"center":[94.94764239500475,27.110351050440087],"bbox":[94.8249544,27.016266,95.1094481,27.2271575]},"geometry":{"type":"Point","coordinates":[94.94764239500475,27.110351050440087]}},{"type":"Feature","id":"in-assam-t-source-2370","properties":{"id":"in-assam-t-source-2370","name":"Mahur","region":"in-assam","level":"tehsil","parent":"in-assam-d-299","district":"Dima Hasao","source":"LGD via Bharatlas · 2024 snapshot","state_lgd":18,"district_lgd":299,"subdistrict_lgd":null,"source_objectid":2370,"center":[93.17586249355364,25.43026599529187],"bbox":[92.9446364,25.2117611,93.4737042,25.7769793]},"geometry":{"type":"Point","coordinates":[93.17586249355364,25.43026599529187]}},{"type":"Feature","id":"in-assam-t-source-3388","properties":{"id":"in-assam-t-source-3388","name":"Maibong","region":"in-assam","level":"tehsil","parent":"in-assam-d-282","district":"Cachar","source":"LGD via Bharatlas · 2024 snapshot","state_lgd":18,"district_lgd":282,"subdistrict_lgd":null,"source_objectid":3388,"center":[92.60497691329981,25.00096795104941],"bbox":[92.4163468,24.8259046,92.8223431,25.1433446]},"geometry":{"type":"Point","coordinates":[92.60497691329981,25.00096795104941]}},{"type":"Feature","id":"in-assam-t-2076","properties":{"id":"in-assam-t-2076","name":"Majuli","region":"in-assam","level":"tehsil","parent":"in-assam-d-706","district":"Majuli","source":"LGD via Bharatlas · 2024 snapshot","state_lgd":18,"district_lgd":706,"subdistrict_lgd":2076,"center":[94.20376834043756,26.96238970181781],"bbox":[93.7390655,26.763663,94.5930355,27.1838645]},"geometry":{"type":"Point","coordinates":[94.20376834043756,26.96238970181781]}},{"type":"Feature","id":"in-assam-t-2148","properties":{"id":"in-assam-t-2148","name":"Mangaldoi (Pt)","region":"in-assam","level":"tehsil","parent":"in-assam-d-283","district":"Darrang","source":"LGD via Bharatlas · 2024 snapshot","state_lgd":18,"district_lgd":283,"subdistrict_lgd":2148,"center":[92.01297692622171,26.38936486424354],"bbox":[91.9089502,26.2480372,92.1597962,26.5755199]},"geometry":{"type":"Point","coordinates":[92.01297692622171,26.38936486424354]}},{"type":"Feature","id":"in-assam-t-2012","properties":{"id":"in-assam-t-2012","name":"Mankachar","region":"in-assam","level":"tehsil","parent":"in-assam-d-707","district":"South Salmara Mancachar","source":"LGD via Bharatlas · 2024 snapshot","state_lgd":18,"district_lgd":707,"subdistrict_lgd":2012,"center":[89.9053717896837,25.654532570346475],"bbox":[89.8268845,25.4658815,90.0202503,25.7918114]},"geometry":{"type":"Point","coordinates":[89.9053717896837,25.654532570346475]}},{"type":"Feature","id":"in-assam-t-2062","properties":{"id":"in-assam-t-2062","name":"Margherita","region":"in-assam","level":"tehsil","parent":"in-assam-d-302","district":"Tinsukia","source":"LGD via Bharatlas · 2024 snapshot","state_lgd":18,"district_lgd":302,"subdistrict_lgd":2062,"center":[95.74752389127558,27.384796051552446],"bbox":[95.4399241,27.2229074,96.0178764,27.6547295]},"geometry":{"type":"Point","coordinates":[95.74752389127558,27.384796051552446]}},{"type":"Feature","id":"in-assam-t-2081","properties":{"id":"in-assam-t-2081","name":"Mariani","region":"in-assam","level":"tehsil","parent":"in-assam-d-290","district":"Jorhat","source":"LGD via Bharatlas · 2024 snapshot","state_lgd":18,"district_lgd":290,"subdistrict_lgd":2081,"center":[94.37803247720242,26.630385684828667],"bbox":[94.2337882,26.4581068,94.6033471,26.7435463]},"geometry":{"type":"Point","coordinates":[94.37803247720242,26.630385684828667]}},{"type":"Feature","id":"in-assam-t-2029","properties":{"id":"in-assam-t-2029","name":"Marigaon","region":"in-assam","level":"tehsil","parent":"in-assam-d-296","district":"Marigaon","source":"LGD via Bharatlas · 2024 snapshot","state_lgd":18,"district_lgd":296,"subdistrict_lgd":2029,"center":[92.33530288556234,26.211004104565408],"bbox":[92.2395548,26.0678187,92.4302655,26.3447651]},"geometry":{"type":"Point","coordinates":[92.33530288556234,26.211004104565408]}},{"type":"Feature","id":"in-assam-t-2015","properties":{"id":"in-assam-t-2015","name":"Matia","region":"in-assam","level":"tehsil","parent":"in-assam-d-287","district":"Goalpara","source":"LGD via Bharatlas · 2024 snapshot","state_lgd":18,"district_lgd":287,"subdistrict_lgd":2015,"center":[90.71491535016757,26.057853689292063],"bbox":[90.5893138,25.8978364,90.9225445,26.2112241]},"geometry":{"type":"Point","coordinates":[90.71491535016757,26.057853689292063]}},{"type":"Feature","id":"in-assam-t-2026","properties":{"id":"in-assam-t-2026","name":"Mayong","region":"in-assam","level":"tehsil","parent":"in-assam-d-296","district":"Marigaon","source":"LGD via Bharatlas · 2024 snapshot","state_lgd":18,"district_lgd":296,"subdistrict_lgd":2026,"center":[92.15644627636472,26.213486404418703],"bbox":[91.9528572,26.0617655,92.297693,26.3328476]},"geometry":{"type":"Point","coordinates":[92.15644627636472,26.213486404418703]}},{"type":"Feature","id":"in-assam-t-2153","properties":{"id":"in-assam-t-2153","name":"Mazbat","region":"in-assam","level":"tehsil","parent":"in-assam-d-617","district":"Udalguri","source":"LGD via Bharatlas · 2024 snapshot","state_lgd":18,"district_lgd":617,"subdistrict_lgd":2153,"center":[92.29426967925195,26.75060381557209],"bbox":[92.2085044,26.5746628,92.4074021,26.9251456]},"geometry":{"type":"Point","coordinates":[92.29426967925195,26.75060381557209]}},{"type":"Feature","id":"in-assam-t-2030","properties":{"id":"in-assam-t-2030","name":"Mikirbheta","region":"in-assam","level":"tehsil","parent":"in-assam-d-296","district":"Marigaon","source":"LGD via Bharatlas · 2024 snapshot","state_lgd":18,"district_lgd":296,"subdistrict_lgd":2030,"center":[92.47055264535129,26.32534231005632],"bbox":[92.367446,26.2666466,92.5681731,26.3827804]},"geometry":{"type":"Point","coordinates":[92.47055264535129,26.32534231005632]}},{"type":"Feature","id":"in-assam-t-2067","properties":{"id":"in-assam-t-2067","name":"Moran","region":"in-assam","level":"tehsil","parent":"in-assam-d-286","district":"Dibrugarh","source":"LGD via Bharatlas · 2024 snapshot","state_lgd":18,"district_lgd":286,"subdistrict_lgd":2067,"center":[94.89458561791484,27.236860709260853],"bbox":[94.7531313,27.0911661,95.0673549,27.3797124]},"geometry":{"type":"Point","coordinates":[94.89458561791484,27.236860709260853]}},{"type":"Feature","id":"in-assam-t-2086","properties":{"id":"in-assam-t-2086","name":"Morangi","region":"in-assam","level":"tehsil","parent":"in-assam-d-288","district":"Golaghat","source":"LGD via Bharatlas · 2024 snapshot","state_lgd":18,"district_lgd":288,"subdistrict_lgd":2086,"center":[93.84172960959883,26.492908694663797],"bbox":[93.7316162,26.3754413,93.9712222,26.6080784]},"geometry":{"type":"Point","coordinates":[93.84172960959883,26.492908694663797]}},{"type":"Feature","id":"in-assam-t-2044","properties":{"id":"in-assam-t-2044","name":"Na-Duar","region":"in-assam","level":"tehsil","parent":"in-assam-d-705","district":"Biswanath","source":"LGD via Bharatlas · 2024 snapshot","state_lgd":18,"district_lgd":705,"subdistrict_lgd":2044,"center":[92.99117403184935,26.74793740509116],"bbox":[92.858824,26.5767914,93.1451989,26.9354215]},"geometry":{"type":"Point","coordinates":[92.99117403184935,26.74793740509116]}},{"type":"Feature","id":"in-assam-t-2035","properties":{"id":"in-assam-t-2035","name":"Nagaon","region":"in-assam","level":"tehsil","parent":"in-assam-d-297","district":"Nagaon","source":"LGD via Bharatlas · 2024 snapshot","state_lgd":18,"district_lgd":297,"subdistrict_lgd":2035,"center":[92.68163229242289,26.30756482978366],"bbox":[92.5294352,26.196543,92.8030567,26.4086449]},"geometry":{"type":"Point","coordinates":[92.68163229242289,26.30756482978366]}},{"type":"Feature","id":"in-assam-t-2123","properties":{"id":"in-assam-t-2123","name":"Nagarbera","region":"in-assam","level":"tehsil","parent":"in-assam-d-291","district":"Kamrup","source":"LGD via Bharatlas · 2024 snapshot","state_lgd":18,"district_lgd":291,"subdistrict_lgd":2123,"center":[91.03889628549838,26.086460517203847],"bbox":[90.9358829,26.0280545,91.1127493,26.1616815]},"geometry":{"type":"Point","coordinates":[91.03889628549838,26.086460517203847]}},{"type":"Feature","id":"in-assam-t-2069","properties":{"id":"in-assam-t-2069","name":"Naharkatiya","region":"in-assam","level":"tehsil","parent":"in-assam-d-286","district":"Dibrugarh","source":"LGD via Bharatlas · 2024 snapshot","state_lgd":18,"district_lgd":286,"subdistrict_lgd":2069,"center":[95.3265081664995,27.245752028497144],"bbox":[95.1137329,27.0926751,95.4847251,27.3618772]},"geometry":{"type":"Point","coordinates":[95.3265081664995,27.245752028497144]}},{"type":"Feature","id":"in-assam-t-2136","properties":{"id":"in-assam-t-2136","name":"Nalbari","region":"in-assam","level":"tehsil","parent":"in-assam-d-298","district":"Nalbari","source":"LGD via Bharatlas · 2024 snapshot","state_lgd":18,"district_lgd":298,"subdistrict_lgd":2136,"center":[91.44362022774972,26.42839322280996],"bbox":[91.3775198,26.3343784,91.5040187,26.5089224]},"geometry":{"type":"Point","coordinates":[91.44362022774972,26.42839322280996]}},{"type":"Feature","id":"in-assam-t-2050","properties":{"id":"in-assam-t-2050","name":"Naobaicha","region":"in-assam","level":"tehsil","parent":"in-assam-d-295","district":"Lakhimpur","source":"LGD via Bharatlas · 2024 snapshot","state_lgd":18,"district_lgd":295,"subdistrict_lgd":2050,"center":[93.99798184467834,27.184956444450805],"bbox":[93.8799616,26.9979848,94.1039896,27.3226712]},"geometry":{"type":"Point","coordinates":[93.99798184467834,27.184956444450805]}},{"type":"Feature","id":"in-assam-t-2048","properties":{"id":"in-assam-t-2048","name":"Narayanpur","region":"in-assam","level":"tehsil","parent":"in-assam-d-295","district":"Lakhimpur","source":"LGD via Bharatlas · 2024 snapshot","state_lgd":18,"district_lgd":295,"subdistrict_lgd":2048,"center":[93.82134609940911,26.95967137763115],"bbox":[93.6977834,26.8214919,93.9309896,27.0969808]},"geometry":{"type":"Point","coordinates":[93.82134609940911,26.95967137763115]}},{"type":"Feature","id":"in-assam-t-2073","properties":{"id":"in-assam-t-2073","name":"Nazira","region":"in-assam","level":"tehsil","parent":"in-assam-d-300","district":"Sivasagar","source":"LGD via Bharatlas · 2024 snapshot","state_lgd":18,"district_lgd":300,"subdistrict_lgd":2073,"center":[94.73916878994063,26.85917373069546],"bbox":[94.5993125,26.7283552,94.9419178,26.9834208]},"geometry":{"type":"Point","coordinates":[94.73916878994063,26.85917373069546]}},{"type":"Feature","id":"in-assam-t-2103","properties":{"id":"in-assam-t-2103","name":"Nilambazar","region":"in-assam","level":"tehsil","parent":"in-assam-d-293","district":"Karimganj","source":"LGD via Bharatlas · 2024 snapshot","state_lgd":18,"district_lgd":293,"subdistrict_lgd":2103,"center":[92.31081929881994,24.4651480835478],"bbox":[92.2128724,24.2499268,92.4102493,24.6806247]},"geometry":{"type":"Point","coordinates":[92.31081929881994,24.4651480835478]}},{"type":"Feature","id":"in-assam-t-2126","properties":{"id":"in-assam-t-2126","name":"North Guwahati (Pt)","region":"in-assam","level":"tehsil","parent":"in-assam-d-291","district":"Kamrup","source":"LGD via Bharatlas · 2024 snapshot","state_lgd":18,"district_lgd":291,"subdistrict_lgd":2126,"center":[91.71872297413591,26.245758520208195],"bbox":[91.6414107,26.1841353,91.7905315,26.303131]},"geometry":{"type":"Point","coordinates":[91.71872297413591,26.245758520208195]}},{"type":"Feature","id":"in-assam-t-2052","properties":{"id":"in-assam-t-2052","name":"North Lakhimpur","region":"in-assam","level":"tehsil","parent":"in-assam-d-295","district":"Lakhimpur","source":"LGD via Bharatlas · 2024 snapshot","state_lgd":18,"district_lgd":295,"subdistrict_lgd":2052,"center":[94.14244788759878,27.153932626614683],"bbox":[93.9858816,26.9598708,94.2795636,27.3598277]},"geometry":{"type":"Point","coordinates":[94.14244788759878,27.153932626614683]}},{"type":"Feature","id":"in-assam-t-2133","properties":{"id":"in-assam-t-2133","name":"Pachim Nalbari","region":"in-assam","level":"tehsil","parent":"in-assam-d-298","district":"Nalbari","source":"LGD via Bharatlas · 2024 snapshot","state_lgd":18,"district_lgd":298,"subdistrict_lgd":2133,"center":[91.33532626600007,26.38414510954937],"bbox":[91.2335806,26.3068237,91.4269428,26.4478973]},"geometry":{"type":"Point","coordinates":[91.33532626600007,26.38414510954937]}},{"type":"Feature","id":"in-assam-t-source-1500","properties":{"id":"in-assam-t-source-1500","name":"PALASHBARI CIRCLE","region":"in-assam","level":"tehsil","parent":"in-assam-d-291","district":"Kamrup","source":"LGD via Bharatlas · 2024 snapshot","state_lgd":18,"district_lgd":291,"subdistrict_lgd":null,"source_objectid":1500,"center":[91.45333420897441,26.0352808320775],"bbox":[91.3172193,25.8397379,91.5857731,26.1678519]},"geometry":{"type":"Point","coordinates":[91.45333420897441,26.0352808320775]}},{"type":"Feature","id":"in-assam-t-2104","properties":{"id":"in-assam-t-2104","name":"Patharkandi","region":"in-assam","level":"tehsil","parent":"in-assam-d-293","district":"Karimganj","source":"LGD via Bharatlas · 2024 snapshot","state_lgd":18,"district_lgd":293,"subdistrict_lgd":2104,"center":[92.44091814578707,24.491864754624284],"bbox":[92.3594448,24.2538564,92.5173034,24.7298567]},"geometry":{"type":"Point","coordinates":[92.44091814578707,24.491864754624284]}},{"type":"Feature","id":"in-assam-t-2146","properties":{"id":"in-assam-t-2146","name":"Pathorighat (Pt)","region":"in-assam","level":"tehsil","parent":"in-assam-d-283","district":"Darrang","source":"LGD via Bharatlas · 2024 snapshot","state_lgd":18,"district_lgd":283,"subdistrict_lgd":2146,"center":[91.85080468844947,26.46556288988868],"bbox":[91.7645162,26.3965065,91.9467578,26.5399649]},"geometry":{"type":"Point","coordinates":[91.85080468844947,26.46556288988868]}},{"type":"Feature","id":"in-assam-t-2090","properties":{"id":"in-assam-t-2090","name":"Phuloni","region":"in-assam","level":"tehsil","parent":"in-assam-d-292","district":"Karbi Anglong","source":"LGD via Bharatlas · 2024 snapshot","state_lgd":18,"district_lgd":292,"subdistrict_lgd":2090,"center":[93.65769030684649,26.375985066938313],"bbox":[93.4193606,26.1293185,93.8949137,26.61248]},"geometry":{"type":"Point","coordinates":[93.65769030684649,26.375985066938313]}},{"type":"Feature","id":"in-assam-t-2036","properties":{"id":"in-assam-t-2036","name":"Raha","region":"in-assam","level":"tehsil","parent":"in-assam-d-297","district":"Nagaon","source":"LGD via Bharatlas · 2024 snapshot","state_lgd":18,"district_lgd":297,"subdistrict_lgd":2036,"center":[92.51816119358736,26.205653904857666],"bbox":[92.3953293,26.0955547,92.6547911,26.3027458]},"geometry":{"type":"Point","coordinates":[92.51816119358736,26.205653904857666]}},{"type":"Feature","id":"in-assam-t-2105","properties":{"id":"in-assam-t-2105","name":"Ramkrishna Nagar","region":"in-assam","level":"tehsil","parent":"in-assam-d-289","district":"Hailakandi","source":"LGD via Bharatlas · 2024 snapshot","state_lgd":18,"district_lgd":289,"subdistrict_lgd":2105,"center":[92.60459004738894,24.787954612033506],"bbox":[92.5343598,24.7128052,92.6837944,24.8794416]},"geometry":{"type":"Point","coordinates":[92.60459004738894,24.787954612033506]}},{"type":"Feature","id":"in-assam-t-5934-756","properties":{"id":"in-assam-t-5934-756","name":"Rangia Pt","region":"in-assam","level":"tehsil","parent":"in-assam-d-756","district":"Tamulpur","source":"LGD via Bharatlas · 2024 snapshot","state_lgd":18,"district_lgd":756,"subdistrict_lgd":5934,"center":[91.60757244696778,26.540422967951482],"bbox":[91.5888542,26.4463155,91.6511544,26.5684253]},"geometry":{"type":"Point","coordinates":[91.60757244696778,26.540422967951482]}},{"type":"Feature","id":"in-assam-t-5934-291","properties":{"id":"in-assam-t-5934-291","name":"Rangia Pt","region":"in-assam","level":"tehsil","parent":"in-assam-d-291","district":"Kamrup","source":"LGD via Bharatlas · 2024 snapshot","state_lgd":18,"district_lgd":291,"subdistrict_lgd":5934,"center":[91.62552130054502,26.432293519739677],"bbox":[91.5495805,26.3214693,91.7237495,26.5565359]},"geometry":{"type":"Point","coordinates":[91.62552130054502,26.432293519739677]}},{"type":"Feature","id":"in-assam-t-2017","properties":{"id":"in-assam-t-2017","name":"Rangjuli","region":"in-assam","level":"tehsil","parent":"in-assam-d-287","district":"Goalpara","source":"LGD via Bharatlas · 2024 snapshot","state_lgd":18,"district_lgd":287,"subdistrict_lgd":2017,"center":[90.99018836489032,25.99229520604848],"bbox":[90.8856797,25.8841729,91.1001139,26.1012689]},"geometry":{"type":"Point","coordinates":[90.99018836489032,25.99229520604848]}},{"type":"Feature","id":"in-assam-t-2033","properties":{"id":"in-assam-t-2033","name":"Rupahi","region":"in-assam","level":"tehsil","parent":"in-assam-d-297","district":"Nagaon","source":"LGD via Bharatlas · 2024 snapshot","state_lgd":18,"district_lgd":297,"subdistrict_lgd":2033,"center":[92.72827584538027,26.477598832511724],"bbox":[92.5996231,26.3860834,92.8785908,26.5851859]},"geometry":{"type":"Point","coordinates":[92.72827584538027,26.477598832511724]}},{"type":"Feature","id":"in-assam-t-2059","properties":{"id":"in-assam-t-2059","name":"Sadiya","region":"in-assam","level":"tehsil","parent":"in-assam-d-302","district":"Tinsukia","source":"LGD via Bharatlas · 2024 snapshot","state_lgd":18,"district_lgd":302,"subdistrict_lgd":2059,"center":[95.69364790901017,27.861615584306417],"bbox":[95.4079224,27.6971019,95.9718204,27.9714751]},"geometry":{"type":"Point","coordinates":[95.69364790901017,27.861615584306417]}},{"type":"Feature","id":"in-assam-t-2032","properties":{"id":"in-assam-t-2032","name":"Samaguri","region":"in-assam","level":"tehsil","parent":"in-assam-d-297","district":"Nagaon","source":"LGD via Bharatlas · 2024 snapshot","state_lgd":18,"district_lgd":297,"subdistrict_lgd":2032,"center":[92.84013142494831,26.379060136951857],"bbox":[92.6978859,26.2140491,92.9648891,26.4928586]},"geometry":{"type":"Point","coordinates":[92.84013142494831,26.379060136951857]}},{"type":"Feature","id":"in-assam-t-2023","properties":{"id":"in-assam-t-2023","name":"Sarthebari","region":"in-assam","level":"tehsil","parent":"in-assam-d-280","district":"Barpeta","source":"LGD via Bharatlas · 2024 snapshot","state_lgd":18,"district_lgd":280,"subdistrict_lgd":2023,"center":[91.17729828041627,26.370232094423162],"bbox":[91.0534069,26.2708287,91.282665,26.4725272]},"geometry":{"type":"Point","coordinates":[91.17729828041627,26.370232094423162]}},{"type":"Feature","id":"in-assam-t-2087","properties":{"id":"in-assam-t-2087","name":"Sarupathar","region":"in-assam","level":"tehsil","parent":"in-assam-d-288","district":"Golaghat","source":"LGD via Bharatlas · 2024 snapshot","state_lgd":18,"district_lgd":288,"subdistrict_lgd":2087,"center":[93.89447533270075,26.096767618138703],"bbox":[93.7744605,25.8089278,94.0038844,26.4452942]},"geometry":{"type":"Point","coordinates":[93.89447533270075,26.096767618138703]}},{"type":"Feature","id":"in-assam-t-source-1593","properties":{"id":"in-assam-t-source-1593","name":"Sarupathar","region":"in-assam","level":"tehsil","parent":"in-assam-d-710","district":"West Karbi Anglong","source":"LGD via Bharatlas · 2024 snapshot","state_lgd":18,"district_lgd":710,"subdistrict_lgd":null,"source_objectid":1593,"center":[92.53297335103336,25.84998357370253],"bbox":[92.1442469,25.5503585,93.0754099,26.1553984]},"geometry":{"type":"Point","coordinates":[92.53297335103336,25.84998357370253]}},{"type":"Feature","id":"in-assam-t-2025-739","properties":{"id":"in-assam-t-2025-739","name":"Sarupeta (Pt)","region":"in-assam","level":"tehsil","parent":"in-assam-d-739","district":"Bajali","source":"LGD via Bharatlas · 2024 snapshot","state_lgd":18,"district_lgd":739,"subdistrict_lgd":2025,"center":[91.07819582192596,26.494069998622845],"bbox":[90.9907143,26.4117082,91.1604779,26.6057919]},"geometry":{"type":"Point","coordinates":[91.07819582192596,26.494069998622845]}},{"type":"Feature","id":"in-assam-t-2025-616","properties":{"id":"in-assam-t-2025-616","name":"Sarupeta (Pt)","region":"in-assam","level":"tehsil","parent":"in-assam-d-616","district":"Baksa","source":"LGD via Bharatlas · 2024 snapshot","state_lgd":18,"district_lgd":616,"subdistrict_lgd":2025,"center":[91.11153539129107,26.618245657196894],"bbox":[91.025242,26.5160124,91.2685237,26.7087935]},"geometry":{"type":"Point","coordinates":[91.11153539129107,26.618245657196894]}},{"type":"Feature","id":"in-assam-t-2071","properties":{"id":"in-assam-t-2071","name":"Sibsagar","region":"in-assam","level":"tehsil","parent":"in-assam-d-300","district":"Sivasagar","source":"LGD via Bharatlas · 2024 snapshot","state_lgd":18,"district_lgd":300,"subdistrict_lgd":2071,"center":[94.58379100377715,26.991264641420457],"bbox":[94.3952829,26.846411,94.7820959,27.0783411]},"geometry":{"type":"Point","coordinates":[94.58379100377715,26.991264641420457]}},{"type":"Feature","id":"in-assam-t-2114-612","properties":{"id":"in-assam-t-2114-612","name":"Sidli (Pt)","region":"in-assam","level":"tehsil","parent":"in-assam-d-612","district":"Chirang","source":"LGD via Bharatlas · 2024 snapshot","state_lgd":18,"district_lgd":612,"subdistrict_lgd":2114,"center":[90.72889705864944,26.639971227301405],"bbox":[90.5428851,26.4418442,90.9569244,26.7877703]},"geometry":{"type":"Point","coordinates":[90.72889705864944,26.639971227301405]}},{"type":"Feature","id":"in-assam-t-2114-281","properties":{"id":"in-assam-t-2114-281","name":"Sidli (Pt)","region":"in-assam","level":"tehsil","parent":"in-assam-d-281","district":"Bongaigaon","source":"LGD via Bharatlas · 2024 snapshot","state_lgd":18,"district_lgd":281,"subdistrict_lgd":2114,"center":[90.46081799578116,26.375693679999998],"bbox":[90.3967296,26.3423077,90.5352805,26.5092376]},"geometry":{"type":"Point","coordinates":[90.46081799578116,26.375693679999998]}},{"type":"Feature","id":"in-assam-t-2097","properties":{"id":"in-assam-t-2097","name":"Silchar","region":"in-assam","level":"tehsil","parent":"in-assam-d-282","district":"Cachar","source":"LGD via Bharatlas · 2024 snapshot","state_lgd":18,"district_lgd":282,"subdistrict_lgd":2097,"center":[92.94282105633495,24.969205901788634],"bbox":[92.8131385,24.8080003,93.069483,25.1055702]},"geometry":{"type":"Point","coordinates":[92.94282105633495,24.969205901788634]}},{"type":"Feature","id":"in-assam-t-2091","properties":{"id":"in-assam-t-2091","name":"Silonijan","region":"in-assam","level":"tehsil","parent":"in-assam-d-299","district":"Dima Hasao","source":"LGD via Bharatlas · 2024 snapshot","state_lgd":18,"district_lgd":299,"subdistrict_lgd":2091,"center":[92.85392371923669,25.54758550421288],"bbox":[92.5643142,25.3177512,93.0947097,25.8267571]},"geometry":{"type":"Point","coordinates":[92.85392371923669,25.54758550421288]}},{"type":"Feature","id":"in-assam-t-2147","properties":{"id":"in-assam-t-2147","name":"Sipajhar","region":"in-assam","level":"tehsil","parent":"in-assam-d-283","district":"Darrang","source":"LGD via Bharatlas · 2024 snapshot","state_lgd":18,"district_lgd":283,"subdistrict_lgd":2147,"center":[91.85877893415578,26.309506214050963],"bbox":[91.745007,26.1984791,91.9511245,26.4372829]},"geometry":{"type":"Point","coordinates":[91.85877893415578,26.309506214050963]}},{"type":"Feature","id":"in-assam-t-2056","properties":{"id":"in-assam-t-2056","name":"Sissibargaon","region":"in-assam","level":"tehsil","parent":"in-assam-d-284","district":"Dhemaji","source":"LGD via Bharatlas · 2024 snapshot","state_lgd":18,"district_lgd":284,"subdistrict_lgd":2056,"center":[94.72852962688077,27.54720738540316],"bbox":[94.5719032,27.3202088,94.9447395,27.7328969]},"geometry":{"type":"Point","coordinates":[94.72852962688077,27.54720738540316]}},{"type":"Feature","id":"in-assam-t-2099","properties":{"id":"in-assam-t-2099","name":"Sonai","region":"in-assam","level":"tehsil","parent":"in-assam-d-282","district":"Cachar","source":"LGD via Bharatlas · 2024 snapshot","state_lgd":18,"district_lgd":282,"subdistrict_lgd":2099,"center":[93.06264065303999,24.852236629265747],"bbox":[92.8145039,24.6800906,93.2630056,25.0007441]},"geometry":{"type":"Point","coordinates":[93.06264065303999,24.852236629265747]}},{"type":"Feature","id":"in-assam-t-2130","properties":{"id":"in-assam-t-2130","name":"Sonapur","region":"in-assam","level":"tehsil","parent":"in-assam-d-618","district":"Kamrup Metro","source":"LGD via Bharatlas · 2024 snapshot","state_lgd":18,"district_lgd":618,"subdistrict_lgd":2130,"center":[92.01019475142887,26.109403447073],"bbox":[91.8497515,25.9977553,92.1761332,26.2293575]},"geometry":{"type":"Point","coordinates":[92.01019475142887,26.109403447073]}},{"type":"Feature","id":"in-assam-t-2074","properties":{"id":"in-assam-t-2074","name":"Sonari","region":"in-assam","level":"tehsil","parent":"in-assam-d-708","district":"Charaideo","source":"LGD via Bharatlas · 2024 snapshot","state_lgd":18,"district_lgd":708,"subdistrict_lgd":2074,"center":[95.08238560378,27.044432972605115],"bbox":[94.733828,26.9129982,95.3721152,27.1975914]},"geometry":{"type":"Point","coordinates":[95.08238560378,27.044432972605115]}},{"type":"Feature","id":"in-assam-t-2011","properties":{"id":"in-assam-t-2011","name":"South Salmara","region":"in-assam","level":"tehsil","parent":"in-assam-d-707","district":"South Salmara Mancachar","source":"LGD via Bharatlas · 2024 snapshot","state_lgd":18,"district_lgd":707,"subdistrict_lgd":2011,"center":[89.9948955044145,25.910984800588295],"bbox":[89.8165447,25.7573331,90.1973224,26.0546711]},"geometry":{"type":"Point","coordinates":[89.9948955044145,25.910984800588295]}},{"type":"Feature","id":"in-assam-t-2112","properties":{"id":"in-assam-t-2112","name":"Srijangram","region":"in-assam","level":"tehsil","parent":"in-assam-d-612","district":"Chirang","source":"LGD via Bharatlas · 2024 snapshot","state_lgd":18,"district_lgd":612,"subdistrict_lgd":2112,"center":[90.46883802603732,26.73640612500648],"bbox":[90.3375093,26.4130359,90.6949247,26.9045319]},"geometry":{"type":"Point","coordinates":[90.46883802603732,26.73640612500648]}},{"type":"Feature","id":"in-assam-t-2054","properties":{"id":"in-assam-t-2054","name":"Subansiri (Pt-I)","region":"in-assam","level":"tehsil","parent":"in-assam-d-295","district":"Lakhimpur","source":"LGD via Bharatlas · 2024 snapshot","state_lgd":18,"district_lgd":295,"subdistrict_lgd":2054,"center":[94.34316382755857,27.216691002585815],"bbox":[94.2477427,27.0712635,94.4422592,27.3506889]},"geometry":{"type":"Point","coordinates":[94.34316382755857,27.216691002585815]}},{"type":"Feature","id":"in-assam-t-2144","properties":{"id":"in-assam-t-2144","name":"Tamulpur","region":"in-assam","level":"tehsil","parent":"in-assam-d-756","district":"Tamulpur","source":"LGD via Bharatlas · 2024 snapshot","state_lgd":18,"district_lgd":756,"subdistrict_lgd":2144,"center":[91.58336744382974,26.69628230116817],"bbox":[91.4068068,26.5163683,91.7075146,26.8396026]},"geometry":{"type":"Point","coordinates":[91.58336744382974,26.69628230116817]}},{"type":"Feature","id":"in-assam-t-2066","properties":{"id":"in-assam-t-2066","name":"Tengakhat","region":"in-assam","level":"tehsil","parent":"in-assam-d-286","district":"Dibrugarh","source":"LGD via Bharatlas · 2024 snapshot","state_lgd":18,"district_lgd":286,"subdistrict_lgd":2066,"center":[95.2559913257173,27.359219241443963],"bbox":[95.0177299,27.2827674,95.4738068,27.4434438]},"geometry":{"type":"Point","coordinates":[95.2559913257173,27.359219241443963]}},{"type":"Feature","id":"in-assam-t-2079","properties":{"id":"in-assam-t-2079","name":"Teok","region":"in-assam","level":"tehsil","parent":"in-assam-d-290","district":"Jorhat","source":"LGD via Bharatlas · 2024 snapshot","state_lgd":18,"district_lgd":290,"subdistrict_lgd":2079,"center":[94.40493817929067,26.80265918626763],"bbox":[94.2668105,26.65559,94.5907254,26.9526141]},"geometry":{"type":"Point","coordinates":[94.40493817929067,26.80265918626763]}},{"type":"Feature","id":"in-assam-t-2043","properties":{"id":"in-assam-t-2043","name":"Tezpur","region":"in-assam","level":"tehsil","parent":"in-assam-d-301","district":"Sonitpur","source":"LGD via Bharatlas · 2024 snapshot","state_lgd":18,"district_lgd":301,"subdistrict_lgd":2043,"center":[92.74290801626378,26.618423521896755],"bbox":[92.5776144,26.5068575,92.9342027,26.7249799]},"geometry":{"type":"Point","coordinates":[92.74290801626378,26.618423521896755]}},{"type":"Feature","id":"in-assam-t-7049","properties":{"id":"in-assam-t-7049","name":"Thelamara","region":"in-assam","level":"tehsil","parent":"in-assam-d-301","district":"Sonitpur","source":"LGD via Bharatlas · 2024 snapshot","state_lgd":18,"district_lgd":301,"subdistrict_lgd":7049,"center":[92.548600807712,26.74436519959147],"bbox":[92.4192167,26.4957203,92.6415006,26.9633736]},"geometry":{"type":"Point","coordinates":[92.548600807712,26.74436519959147]}},{"type":"Feature","id":"in-assam-t-2132-298","properties":{"id":"in-assam-t-2132-298","name":"Tihu (Pt)","region":"in-assam","level":"tehsil","parent":"in-assam-d-298","district":"Nalbari","source":"LGD via Bharatlas · 2024 snapshot","state_lgd":18,"district_lgd":298,"subdistrict_lgd":2132,"center":[91.28654273027782,26.47277550492388],"bbox":[91.2303581,26.406409,91.370981,26.5544433]},"geometry":{"type":"Point","coordinates":[91.28654273027782,26.47277550492388]}},{"type":"Feature","id":"in-assam-t-2132-616","properties":{"id":"in-assam-t-2132-616","name":"Tihu (Pt)","region":"in-assam","level":"tehsil","parent":"in-assam-d-616","district":"Baksa","source":"LGD via Bharatlas · 2024 snapshot","state_lgd":18,"district_lgd":616,"subdistrict_lgd":2132,"center":[91.30719242959947,26.536208375432768],"bbox":[91.2616566,26.4922281,91.3351782,26.5825355]},"geometry":{"type":"Point","coordinates":[91.30719242959947,26.536208375432768]}},{"type":"Feature","id":"in-assam-t-2068","properties":{"id":"in-assam-t-2068","name":"Tingkhong","region":"in-assam","level":"tehsil","parent":"in-assam-d-286","district":"Dibrugarh","source":"LGD via Bharatlas · 2024 snapshot","state_lgd":18,"district_lgd":286,"subdistrict_lgd":2068,"center":[95.10654257738408,27.214874095580353],"bbox":[94.9680198,27.124258,95.2671149,27.3221662]},"geometry":{"type":"Point","coordinates":[95.10654257738408,27.214874095580353]}},{"type":"Feature","id":"in-assam-t-2061","properties":{"id":"in-assam-t-2061","name":"Tinsukia","region":"in-assam","level":"tehsil","parent":"in-assam-d-302","district":"Tinsukia","source":"LGD via Bharatlas · 2024 snapshot","state_lgd":18,"district_lgd":302,"subdistrict_lgd":2061,"center":[95.43886315431645,27.42091661],"bbox":[95.2171479,27.2634809,95.6337887,27.7882666]},"geometry":{"type":"Point","coordinates":[95.43886315431645,27.42091661]}},{"type":"Feature","id":"in-assam-t-2080","properties":{"id":"in-assam-t-2080","name":"Titabor","region":"in-assam","level":"tehsil","parent":"in-assam-d-290","district":"Jorhat","source":"LGD via Bharatlas · 2024 snapshot","state_lgd":18,"district_lgd":290,"subdistrict_lgd":2080,"center":[94.17208488209859,26.54758876796811],"bbox":[94.0688486,26.3475682,94.2947971,26.6767606]},"geometry":{"type":"Point","coordinates":[94.17208488209859,26.54758876796811]}},{"type":"Feature","id":"in-assam-t-2152","properties":{"id":"in-assam-t-2152","name":"Udalguri","region":"in-assam","level":"tehsil","parent":"in-assam-d-617","district":"Udalguri","source":"LGD via Bharatlas · 2024 snapshot","state_lgd":18,"district_lgd":617,"subdistrict_lgd":2152,"center":[92.1212104588787,26.75188597097524],"bbox":[91.9592103,26.5515858,92.2767914,26.9082419]},"geometry":{"type":"Point","coordinates":[92.1212104588787,26.75188597097524]}},{"type":"Feature","id":"in-assam-t-2098","properties":{"id":"in-assam-t-2098","name":"Udarbond","region":"in-assam","level":"tehsil","parent":"in-assam-d-282","district":"Cachar","source":"LGD via Bharatlas · 2024 snapshot","state_lgd":18,"district_lgd":282,"subdistrict_lgd":2098,"center":[92.92475303227928,24.567207547845737],"bbox":[92.7334982,24.3735927,93.1044107,24.7713016]},"geometry":{"type":"Point","coordinates":[92.92475303227928,24.567207547845737]}},{"type":"Feature","id":"in-assam-t-source-3384","properties":{"id":"in-assam-t-source-3384","name":"Umrangso","region":"in-assam","level":"tehsil","parent":"in-assam-d-299","district":"Dima Hasao","source":"LGD via Bharatlas · 2024 snapshot","state_lgd":18,"district_lgd":299,"subdistrict_lgd":null,"source_objectid":3384,"center":[92.90704956508868,25.173429624608602],"bbox":[92.5206394,25.0007293,93.1525143,25.3643887]},"geometry":{"type":"Point","coordinates":[92.90704956508868,25.173429624608602]}}]}
