{"type":"FeatureCollection","features":[{"type":"Feature","id":"in-andaman-nicobar-d-603","properties":{"id":"in-andaman-nicobar-d-603","name":"Nicobars","region":"in-andaman-nicobar","level":"district","parent":"","source":"LGD via Bharatlas · 2024 snapshot","state_lgd":35,"district_lgd":603,"center":[93.79902221680386,7.024825939657508],"bbox":[92.7143133,6.7527826,93.9506921,9.2589223]},"geometry":{"type":"Point","coordinates":[93.79902221680386,7.024825939657508]}},{"type":"Feature","id":"in-andaman-nicobar-d-632","properties":{"id":"in-andaman-nicobar-d-632","name":"North And Middle Andaman","region":"in-andaman-nicobar","level":"district","parent":"","source":"LGD via Bharatlas · 2024 snapshot","state_lgd":35,"district_lgd":632,"center":[92.82952011323576,12.603203953825782],"bbox":[92.6469737,12.0632235,94.2673984,13.677059]},"geometry":{"type":"Point","coordinates":[92.82952011323576,12.603203953825782]}},{"type":"Feature","id":"in-andaman-nicobar-d-602","properties":{"id":"in-andaman-nicobar-d-602","name":"South Andamans","region":"in-andaman-nicobar","level":"district","parent":"","source":"LGD via Bharatlas · 2024 snapshot","state_lgd":35,"district_lgd":602,"center":[92.66587724739718,11.847959118619418],"bbox":[92.1961448,10.5108073,93.1249528,12.3196519]},"geometry":{"type":"Point","coordinates":[92.66587724739718,11.847959118619418]}}]}
