{"type":"FeatureCollection","features":[{"type":"Feature","id":"in-bihar-d-188","properties":{"id":"in-bihar-d-188","name":"Araria","region":"in-bihar","level":"district","parent":"","source":"LGD via Bharatlas · 2024 snapshot","state_lgd":10,"district_lgd":188,"center":[87.36339920389125,26.198732441289074],"bbox":[87.0381458,25.9426972,87.7061947,26.5872341]},"geometry":{"type":"Point","coordinates":[87.36339920389125,26.198732441289074]}},{"type":"Feature","id":"in-bihar-d-611","properties":{"id":"in-bihar-d-611","name":"Arwal","region":"in-bihar","level":"district","parent":"","source":"LGD via Bharatlas · 2024 snapshot","state_lgd":10,"district_lgd":611,"center":[84.67745578555834,25.163234044579642],"bbox":[84.4451991,25.0476218,84.8650096,25.3149805]},"geometry":{"type":"Point","coordinates":[84.67745578555834,25.163234044579642]}},{"type":"Feature","id":"in-bihar-d-189","properties":{"id":"in-bihar-d-189","name":"Aurangabad","region":"in-bihar","level":"district","parent":"","source":"LGD via Bharatlas · 2024 snapshot","state_lgd":10,"district_lgd":189,"center":[84.40873925275771,24.79089439670894],"bbox":[84.0077915,24.4767081,84.7473983,25.1289986]},"geometry":{"type":"Point","coordinates":[84.40873925275771,24.79089439670894]}},{"type":"Feature","id":"in-bihar-d-190","properties":{"id":"in-bihar-d-190","name":"Banka","region":"in-bihar","level":"district","parent":"","source":"LGD via Bharatlas · 2024 snapshot","state_lgd":10,"district_lgd":190,"center":[86.83710648281253,24.854080071690397],"bbox":[86.4868567,24.5422055,87.1754551,25.1213331]},"geometry":{"type":"Point","coordinates":[86.83710648281253,24.854080071690397]}},{"type":"Feature","id":"in-bihar-d-191","properties":{"id":"in-bihar-d-191","name":"Begusarai","region":"in-bihar","level":"district","parent":"","source":"LGD via Bharatlas · 2024 snapshot","state_lgd":10,"district_lgd":191,"center":[86.12971389505476,25.49666462671301],"bbox":[85.7337593,25.249492,86.5144014,25.7755944]},"geometry":{"type":"Point","coordinates":[86.12971389505476,25.49666462671301]}},{"type":"Feature","id":"in-bihar-d-192","properties":{"id":"in-bihar-d-192","name":"Bhagalpur","region":"in-bihar","level":"district","parent":"","source":"LGD via Bharatlas · 2024 snapshot","state_lgd":10,"district_lgd":192,"center":[87.08284763756521,25.26956858670201],"bbox":[86.6384451,25.0570171,87.551884,25.5159373]},"geometry":{"type":"Point","coordinates":[87.08284763756521,25.26956858670201]}},{"type":"Feature","id":"in-bihar-d-193","properties":{"id":"in-bihar-d-193","name":"Bhojpur","region":"in-bihar","level":"district","parent":"","source":"LGD via Bharatlas · 2024 snapshot","state_lgd":10,"district_lgd":193,"center":[84.54248486527597,25.4708292161419],"bbox":[84.2732267,25.161167,84.8513701,25.7383749]},"geometry":{"type":"Point","coordinates":[84.54248486527597,25.4708292161419]}},{"type":"Feature","id":"in-bihar-d-194","properties":{"id":"in-bihar-d-194","name":"Buxar","region":"in-bihar","level":"district","parent":"","source":"LGD via Bharatlas · 2024 snapshot","state_lgd":10,"district_lgd":194,"center":[84.09968451909343,25.491964877170933],"bbox":[83.7721288,25.2619829,84.3936338,25.747506]},"geometry":{"type":"Point","coordinates":[84.09968451909343,25.491964877170933]}},{"type":"Feature","id":"in-bihar-d-195","properties":{"id":"in-bihar-d-195","name":"Darbhanga","region":"in-bihar","level":"district","parent":"","source":"LGD via Bharatlas · 2024 snapshot","state_lgd":10,"district_lgd":195,"center":[86.05424508335757,26.084386530320465],"bbox":[85.6766766,25.7195614,86.4161211,26.4464342]},"geometry":{"type":"Point","coordinates":[86.05424508335757,26.084386530320465]}},{"type":"Feature","id":"in-bihar-d-196","properties":{"id":"in-bihar-d-196","name":"Gaya","region":"in-bihar","level":"district","parent":"","source":"LGD via Bharatlas · 2024 snapshot","state_lgd":10,"district_lgd":196,"center":[84.93425444473486,24.69679293939521],"bbox":[84.2915007,24.2860065,85.3973568,25.073009]},"geometry":{"type":"Point","coordinates":[84.93425444473486,24.69679293939521]}},{"type":"Feature","id":"in-bihar-d-197","properties":{"id":"in-bihar-d-197","name":"Gopalganj","region":"in-bihar","level":"district","parent":"","source":"LGD via Bharatlas · 2024 snapshot","state_lgd":10,"district_lgd":197,"center":[84.37383682708563,26.443843861499097],"bbox":[83.9060648,26.2033998,84.9068657,26.639142]},"geometry":{"type":"Point","coordinates":[84.37383682708563,26.443843861499097]}},{"type":"Feature","id":"in-bihar-d-198","properties":{"id":"in-bihar-d-198","name":"Jamui","region":"in-bihar","level":"district","parent":"","source":"LGD via Bharatlas · 2024 snapshot","state_lgd":10,"district_lgd":198,"center":[86.29378488983818,24.783624911794295],"bbox":[85.8213338,24.3678164,86.6190759,25.1438387]},"geometry":{"type":"Point","coordinates":[86.29378488983818,24.783624911794295]}},{"type":"Feature","id":"in-bihar-d-199","properties":{"id":"in-bihar-d-199","name":"Jehanabad","region":"in-bihar","level":"district","parent":"","source":"LGD via Bharatlas · 2024 snapshot","state_lgd":10,"district_lgd":199,"center":[85.01683214212589,25.155069908066498],"bbox":[84.82988,24.986716,85.2114771,25.3192462]},"geometry":{"type":"Point","coordinates":[85.01683214212589,25.155069908066498]}},{"type":"Feature","id":"in-bihar-d-200","properties":{"id":"in-bihar-d-200","name":"Kaimur (Bhabua)","region":"in-bihar","level":"district","parent":"","source":"LGD via Bharatlas · 2024 snapshot","state_lgd":10,"district_lgd":200,"center":[83.60560367723525,24.99184988698833],"bbox":[83.3202159,24.5400455,83.8995694,25.4106317]},"geometry":{"type":"Point","coordinates":[83.60560367723525,24.99184988698833]}},{"type":"Feature","id":"in-bihar-d-201","properties":{"id":"in-bihar-d-201","name":"Katihar","region":"in-bihar","level":"district","parent":"","source":"LGD via Bharatlas · 2024 snapshot","state_lgd":10,"district_lgd":201,"center":[87.64058059699543,25.54865291441235],"bbox":[87.2003325,25.2352886,88.0765349,25.8819015]},"geometry":{"type":"Point","coordinates":[87.64058059699543,25.54865291441235]}},{"type":"Feature","id":"in-bihar-d-202","properties":{"id":"in-bihar-d-202","name":"Khagaria","region":"in-bihar","level":"district","parent":"","source":"LGD via Bharatlas · 2024 snapshot","state_lgd":10,"district_lgd":202,"center":[86.60153282873968,25.511005685975114],"bbox":[86.2791762,25.2540065,86.8568793,25.7320238]},"geometry":{"type":"Point","coordinates":[86.60153282873968,25.511005685975114]}},{"type":"Feature","id":"in-bihar-d-203","properties":{"id":"in-bihar-d-203","name":"Kishanganj","region":"in-bihar","level":"district","parent":"","source":"LGD via Bharatlas · 2024 snapshot","state_lgd":10,"district_lgd":203,"center":[87.93555006891235,26.29636066982615],"bbox":[87.6110258,26.035395,88.2937958,26.56124]},"geometry":{"type":"Point","coordinates":[87.93555006891235,26.29636066982615]}},{"type":"Feature","id":"in-bihar-d-204","properties":{"id":"in-bihar-d-204","name":"Lakhisarai","region":"in-bihar","level":"district","parent":"","source":"LGD via Bharatlas · 2024 snapshot","state_lgd":10,"district_lgd":204,"center":[86.1367257676098,25.16123406937426],"bbox":[85.9010106,24.968971,86.3908629,25.3394573]},"geometry":{"type":"Point","coordinates":[86.1367257676098,25.16123406937426]}},{"type":"Feature","id":"in-bihar-d-205","properties":{"id":"in-bihar-d-205","name":"Madhepura","region":"in-bihar","level":"district","parent":"","source":"LGD via Bharatlas · 2024 snapshot","state_lgd":10,"district_lgd":205,"center":[86.89899604883297,25.822784724160478],"bbox":[86.6156193,25.4432759,87.1266435,26.1178456]},"geometry":{"type":"Point","coordinates":[86.89899604883297,25.822784724160478]}},{"type":"Feature","id":"in-bihar-d-206","properties":{"id":"in-bihar-d-206","name":"Madhubani","region":"in-bihar","level":"district","parent":"","source":"LGD via Bharatlas · 2024 snapshot","state_lgd":10,"district_lgd":206,"center":[86.22184322509138,26.402234241004948],"bbox":[85.7517827,26.0336529,86.7251158,26.6667872]},"geometry":{"type":"Point","coordinates":[86.22184322509138,26.402234241004948]}},{"type":"Feature","id":"in-bihar-d-207","properties":{"id":"in-bihar-d-207","name":"Munger","region":"in-bihar","level":"district","parent":"","source":"LGD via Bharatlas · 2024 snapshot","state_lgd":10,"district_lgd":207,"center":[86.52605453936238,25.210030468885154],"bbox":[86.2607212,24.9450032,86.7376422,25.4957325]},"geometry":{"type":"Point","coordinates":[86.52605453936238,25.210030468885154]}},{"type":"Feature","id":"in-bihar-d-208","properties":{"id":"in-bihar-d-208","name":"Muzaffarpur","region":"in-bihar","level":"district","parent":"","source":"LGD via Bharatlas · 2024 snapshot","state_lgd":10,"district_lgd":208,"center":[85.3285374742232,26.1521335330249],"bbox":[84.8718186,25.90355,85.7542847,26.393257]},"geometry":{"type":"Point","coordinates":[85.3285374742232,26.1521335330249]}},{"type":"Feature","id":"in-bihar-d-209","properties":{"id":"in-bihar-d-209","name":"Nalanda","region":"in-bihar","level":"district","parent":"","source":"LGD via Bharatlas · 2024 snapshot","state_lgd":10,"district_lgd":209,"center":[85.45016337476402,25.219052070838913],"bbox":[85.1529309,24.960787,85.9267683,25.4621267]},"geometry":{"type":"Point","coordinates":[85.45016337476402,25.219052070838913]}},{"type":"Feature","id":"in-bihar-d-210","properties":{"id":"in-bihar-d-210","name":"Nawada","region":"in-bihar","level":"district","parent":"","source":"LGD via Bharatlas · 2024 snapshot","state_lgd":10,"district_lgd":210,"center":[85.58966830347853,24.81100172100451],"bbox":[85.2666598,24.5212626,86.0551048,25.1132857]},"geometry":{"type":"Point","coordinates":[85.58966830347853,24.81100172100451]}},{"type":"Feature","id":"in-bihar-d-211","properties":{"id":"in-bihar-d-211","name":"Pashchim Champaran","region":"in-bihar","level":"district","parent":"","source":"LGD via Bharatlas · 2024 snapshot","state_lgd":10,"district_lgd":211,"center":[84.33890362908254,27.07982114314685],"bbox":[83.832424,26.5821839,84.7606876,27.5216235]},"geometry":{"type":"Point","coordinates":[84.33890362908254,27.07982114314685]}},{"type":"Feature","id":"in-bihar-d-212","properties":{"id":"in-bihar-d-212","name":"Patna","region":"in-bihar","level":"district","parent":"","source":"LGD via Bharatlas · 2024 snapshot","state_lgd":10,"district_lgd":212,"center":[85.22357134632598,25.455946890321524],"bbox":[84.6869288,25.2032601,86.0689271,25.7328751]},"geometry":{"type":"Point","coordinates":[85.22357134632598,25.455946890321524]}},{"type":"Feature","id":"in-bihar-d-213","properties":{"id":"in-bihar-d-213","name":"Purbi Champaran","region":"in-bihar","level":"district","parent":"","source":"LGD via Bharatlas · 2024 snapshot","state_lgd":10,"district_lgd":213,"center":[84.92199656027218,26.61834437241348],"bbox":[84.4848015,26.2567605,85.2956885,27.0210503]},"geometry":{"type":"Point","coordinates":[84.92199656027218,26.61834437241348]}},{"type":"Feature","id":"in-bihar-d-214","properties":{"id":"in-bihar-d-214","name":"Purnia","region":"in-bihar","level":"district","parent":"","source":"LGD via Bharatlas · 2024 snapshot","state_lgd":10,"district_lgd":214,"center":[87.40508844492858,25.815392719224867],"bbox":[86.9893731,25.4336159,87.873019,26.1181059]},"geometry":{"type":"Point","coordinates":[87.40508844492858,25.815392719224867]}},{"type":"Feature","id":"in-bihar-d-215","properties":{"id":"in-bihar-d-215","name":"Rohtas","region":"in-bihar","level":"district","parent":"","source":"LGD via Bharatlas · 2024 snapshot","state_lgd":10,"district_lgd":215,"center":[84.02596739195263,24.97982323823161],"bbox":[83.4971217,24.5034526,84.4633096,25.3752396]},"geometry":{"type":"Point","coordinates":[84.02596739195263,24.97982323823161]}},{"type":"Feature","id":"in-bihar-d-216","properties":{"id":"in-bihar-d-216","name":"Saharsa","region":"in-bihar","level":"district","parent":"","source":"LGD via Bharatlas · 2024 snapshot","state_lgd":10,"district_lgd":216,"center":[86.5907384991962,25.81422722360917],"bbox":[86.3133393,25.5904036,86.8741146,26.0753929]},"geometry":{"type":"Point","coordinates":[86.5907384991962,25.81422722360917]}},{"type":"Feature","id":"in-bihar-d-217","properties":{"id":"in-bihar-d-217","name":"Samastipur","region":"in-bihar","level":"district","parent":"","source":"LGD via Bharatlas · 2024 snapshot","state_lgd":10,"district_lgd":217,"center":[85.86572252310212,25.772996461962105],"bbox":[85.5275484,25.4602116,86.3922478,26.0894084]},"geometry":{"type":"Point","coordinates":[85.86572252310212,25.772996461962105]}},{"type":"Feature","id":"in-bihar-d-218","properties":{"id":"in-bihar-d-218","name":"Saran","region":"in-bihar","level":"district","parent":"","source":"LGD via Bharatlas · 2024 snapshot","state_lgd":10,"district_lgd":218,"center":[84.82319375777998,25.90568505670455],"bbox":[84.4047854,25.6226355,85.1974838,26.2206747]},"geometry":{"type":"Point","coordinates":[84.82319375777998,25.90568505670455]}},{"type":"Feature","id":"in-bihar-d-219","properties":{"id":"in-bihar-d-219","name":"Sheikhpura","region":"in-bihar","level":"district","parent":"","source":"LGD via Bharatlas · 2024 snapshot","state_lgd":10,"district_lgd":219,"center":[85.8383449781547,25.123649175936034],"bbox":[85.6021117,24.976406,86.0182506,25.2739606]},"geometry":{"type":"Point","coordinates":[85.8383449781547,25.123649175936034]}},{"type":"Feature","id":"in-bihar-d-220","properties":{"id":"in-bihar-d-220","name":"Sheohar","region":"in-bihar","level":"district","parent":"","source":"LGD via Bharatlas · 2024 snapshot","state_lgd":10,"district_lgd":220,"center":[85.30188059551641,26.497837134328588],"bbox":[85.1784348,26.3250396,85.402827,26.6615693]},"geometry":{"type":"Point","coordinates":[85.30188059551641,26.497837134328588]}},{"type":"Feature","id":"in-bihar-d-221","properties":{"id":"in-bihar-d-221","name":"Sitamarhi","region":"in-bihar","level":"district","parent":"","source":"LGD via Bharatlas · 2024 snapshot","state_lgd":10,"district_lgd":221,"center":[85.55260826252946,26.58508293046088],"bbox":[85.236874,26.2692489,85.8255449,26.873781]},"geometry":{"type":"Point","coordinates":[85.55260826252946,26.58508293046088]}},{"type":"Feature","id":"in-bihar-d-222","properties":{"id":"in-bihar-d-222","name":"Siwan","region":"in-bihar","level":"district","parent":"","source":"LGD via Bharatlas · 2024 snapshot","state_lgd":10,"district_lgd":222,"center":[84.38696043127314,26.161265167788784],"bbox":[84.0080073,25.8877342,84.7792816,26.3745299]},"geometry":{"type":"Point","coordinates":[84.38696043127314,26.161265167788784]}},{"type":"Feature","id":"in-bihar-d-223","properties":{"id":"in-bihar-d-223","name":"Supaul","region":"in-bihar","level":"district","parent":"","source":"LGD via Bharatlas · 2024 snapshot","state_lgd":10,"district_lgd":223,"center":[86.8081860782634,26.245094462651696],"bbox":[86.4048044,25.9907976,87.1202519,26.5628151]},"geometry":{"type":"Point","coordinates":[86.8081860782634,26.245094462651696]}},{"type":"Feature","id":"in-bihar-d-224","properties":{"id":"in-bihar-d-224","name":"Vaishali","region":"in-bihar","level":"district","parent":"","source":"LGD via Bharatlas · 2024 snapshot","state_lgd":10,"district_lgd":224,"center":[85.36819528362058,25.763070424556254],"bbox":[85.0663777,25.4834126,85.645997,26.0152992]},"geometry":{"type":"Point","coordinates":[85.36819528362058,25.763070424556254]}}]}
