{"type":"FeatureCollection","features":[{"type":"Feature","id":"in-chhattisgarh-t-3331","properties":{"id":"in-chhattisgarh-t-3331","name":"Abhanpur","region":"in-chhattisgarh","level":"tehsil","parent":"in-chhattisgarh-d-387","district":"Raipur","source":"LGD via Bharatlas · 2024 snapshot","state_lgd":22,"district_lgd":387,"subdistrict_lgd":3331,"center":[81.77015871260298,21.06436487355616],"bbox":[81.5750181,20.9402942,81.9774662,21.1718793]},"geometry":{"type":"Point","coordinates":[81.77015871260298,21.06436487355616]}},{"type":"Feature","id":"in-chhattisgarh-t-7255","properties":{"id":"in-chhattisgarh-t-7255","name":"Adbhar","region":"in-chhattisgarh","level":"tehsil","parent":"in-chhattisgarh-d-762","district":"Sakti","source":"LGD via Bharatlas · 2024 snapshot","state_lgd":22,"district_lgd":762,"subdistrict_lgd":7255,"center":[83.01636119517946,21.93876842671306],"bbox":[82.9147708,21.8821241,83.1173127,22.0028191]},"geometry":{"type":"Point","coordinates":[83.01636119517946,21.93876842671306]}},{"type":"Feature","id":"in-chhattisgarh-t-3278","properties":{"id":"in-chhattisgarh-t-3278","name":"Akaltara","region":"in-chhattisgarh","level":"tehsil","parent":"in-chhattisgarh-d-379","district":"Janjgir-Champa","source":"LGD via Bharatlas · 2024 snapshot","state_lgd":22,"district_lgd":379,"subdistrict_lgd":3278,"center":[82.41864494575653,22.023245219071676],"bbox":[82.3193268,21.907574,82.5221694,22.1381767]},"geometry":{"type":"Point","coordinates":[82.41864494575653,22.023245219071676]}},{"type":"Feature","id":"in-chhattisgarh-t-3310","properties":{"id":"in-chhattisgarh-t-3310","name":"Ambagarh","region":"in-chhattisgarh","level":"tehsil","parent":"in-chhattisgarh-d-761","district":"Mohla Manpur Ambagarh Chouki","source":"LGD via Bharatlas · 2024 snapshot","state_lgd":22,"district_lgd":761,"subdistrict_lgd":3310,"center":[80.68988623495785,20.764175104053102],"bbox":[80.5491748,20.652653,80.8296843,20.8708523]},"geometry":{"type":"Point","coordinates":[80.68988623495785,20.764175104053102]}},{"type":"Feature","id":"in-chhattisgarh-t-3247","properties":{"id":"in-chhattisgarh-t-3247","name":"Ambikapur","region":"in-chhattisgarh","level":"tehsil","parent":"in-chhattisgarh-d-389","district":"Surguja","source":"LGD via Bharatlas · 2024 snapshot","state_lgd":22,"district_lgd":389,"subdistrict_lgd":3247,"center":[83.206378077889,23.057310527040823],"bbox":[83.0266735,22.8548693,83.3559014,23.2361858]},"geometry":{"type":"Point","coordinates":[83.206378077889,23.057310527040823]}},{"type":"Feature","id":"in-chhattisgarh-t-3353","properties":{"id":"in-chhattisgarh-t-3353","name":"Antagarh","region":"in-chhattisgarh","level":"tehsil","parent":"in-chhattisgarh-d-381","district":"Kanker","source":"LGD via Bharatlas · 2024 snapshot","state_lgd":22,"district_lgd":381,"subdistrict_lgd":3353,"center":[81.19010568879087,19.9603854007033],"bbox":[80.9686845,19.7033808,81.4194187,20.2020478]},"geometry":{"type":"Point","coordinates":[81.19010568879087,19.9603854007033]}},{"type":"Feature","id":"in-chhattisgarh-t-3330","properties":{"id":"in-chhattisgarh-t-3330","name":"Arang","region":"in-chhattisgarh","level":"tehsil","parent":"in-chhattisgarh-d-387","district":"Raipur","source":"LGD via Bharatlas · 2024 snapshot","state_lgd":22,"district_lgd":387,"subdistrict_lgd":3330,"center":[81.9393444371983,21.2600647648255],"bbox":[81.7178751,21.0700638,82.193468,21.4561021]},"geometry":{"type":"Point","coordinates":[81.9393444371983,21.2600647648255]}},{"type":"Feature","id":"in-chhattisgarh-t-7278","properties":{"id":"in-chhattisgarh-t-7278","name":"Aundhi","region":"in-chhattisgarh","level":"tehsil","parent":"in-chhattisgarh-d-761","district":"Mohla Manpur Ambagarh Chouki","source":"LGD via Bharatlas · 2024 snapshot","state_lgd":22,"district_lgd":761,"subdistrict_lgd":7278,"center":[80.60276587086996,20.277285514002898],"bbox":[80.3885239,20.1179615,80.8033513,20.4755193]},"geometry":{"type":"Point","coordinates":[80.60276587086996,20.277285514002898]}},{"type":"Feature","id":"in-chhattisgarh-t-3356","properties":{"id":"in-chhattisgarh-t-3356","name":"Bade Rajpur","region":"in-chhattisgarh","level":"tehsil","parent":"in-chhattisgarh-d-643","district":"Kondagaon","source":"LGD via Bharatlas · 2024 snapshot","state_lgd":22,"district_lgd":643,"subdistrict_lgd":3356,"center":[81.77170768661911,20.015267802414133],"bbox":[81.6584072,19.870395,81.8843875,20.1694494]},"geometry":{"type":"Point","coordinates":[81.77170768661911,20.015267802414133]}},{"type":"Feature","id":"in-chhattisgarh-t-3343","properties":{"id":"in-chhattisgarh-t-3343","name":"Bagbahra","region":"in-chhattisgarh","level":"tehsil","parent":"in-chhattisgarh-d-385","district":"Mahasamund","source":"LGD via Bharatlas · 2024 snapshot","state_lgd":22,"district_lgd":385,"subdistrict_lgd":3343,"center":[82.38118968027455,21.00812562343614],"bbox":[82.1588751,20.8275062,82.6297855,21.1586778]},"geometry":{"type":"Point","coordinates":[82.38118968027455,21.00812562343614]}},{"type":"Feature","id":"in-chhattisgarh-t-3255","properties":{"id":"in-chhattisgarh-t-3255","name":"Bagicha","region":"in-chhattisgarh","level":"tehsil","parent":"in-chhattisgarh-d-380","district":"Jashpur","source":"LGD via Bharatlas · 2024 snapshot","state_lgd":22,"district_lgd":380,"subdistrict_lgd":3255,"center":[83.71365870487986,23.045975567679847],"bbox":[83.4998615,22.8197897,83.9152341,23.2516493]},"geometry":{"type":"Point","coordinates":[83.71365870487986,23.045975567679847]}},{"type":"Feature","id":"in-chhattisgarh-t-3232","properties":{"id":"in-chhattisgarh-t-3232","name":"Baikunthpur","region":"in-chhattisgarh","level":"tehsil","parent":"in-chhattisgarh-d-384","district":"Korea","source":"LGD via Bharatlas · 2024 snapshot","state_lgd":22,"district_lgd":384,"subdistrict_lgd":3232,"center":[82.57769706753182,23.268198854351063],"bbox":[82.3254265,23.1409159,82.7721516,23.405926]},"geometry":{"type":"Point","coordinates":[82.57769706753182,23.268198854351063]}},{"type":"Feature","id":"in-chhattisgarh-t-3364","properties":{"id":"in-chhattisgarh-t-3364","name":"Bakavand","region":"in-chhattisgarh","level":"tehsil","parent":"in-chhattisgarh-d-374","district":"Bastar","source":"LGD via Bharatlas · 2024 snapshot","state_lgd":22,"district_lgd":374,"subdistrict_lgd":3364,"center":[82.05359434789233,19.337976974926946],"bbox":[81.84547,19.0994389,82.194122,19.5523659]},"geometry":{"type":"Point","coordinates":[82.05359434789233,19.337976974926946]}},{"type":"Feature","id":"in-chhattisgarh-t-3321","properties":{"id":"in-chhattisgarh-t-3321","name":"Balod","region":"in-chhattisgarh","level":"tehsil","parent":"in-chhattisgarh-d-646","district":"Balod","source":"LGD via Bharatlas · 2024 snapshot","state_lgd":22,"district_lgd":646,"subdistrict_lgd":3321,"center":[81.25646958308941,20.74284205194676],"bbox":[81.1412209,20.6315383,81.3908268,20.8329296]},"geometry":{"type":"Point","coordinates":[81.25646958308941,20.74284205194676]}},{"type":"Feature","id":"in-chhattisgarh-t-3279","properties":{"id":"in-chhattisgarh-t-3279","name":"Baloda","region":"in-chhattisgarh","level":"tehsil","parent":"in-chhattisgarh-d-379","district":"Janjgir-Champa","source":"LGD via Bharatlas · 2024 snapshot","state_lgd":22,"district_lgd":379,"subdistrict_lgd":3279,"center":[82.55167906988076,22.161013770588347],"bbox":[82.4077844,22.0667196,82.6653351,22.2634397]},"geometry":{"type":"Point","coordinates":[82.55167906988076,22.161013770588347]}},{"type":"Feature","id":"in-chhattisgarh-t-3326","properties":{"id":"in-chhattisgarh-t-3326","name":"Baloda Bazar","region":"in-chhattisgarh","level":"tehsil","parent":"in-chhattisgarh-d-644","district":"Baloda Bazar","source":"LGD via Bharatlas · 2024 snapshot","state_lgd":22,"district_lgd":644,"subdistrict_lgd":3326,"center":[82.23614919613293,21.668848494283168],"bbox":[82.0395113,21.5554728,82.4712469,21.7660115]},"geometry":{"type":"Point","coordinates":[82.23614919613293,21.668848494283168]}},{"type":"Feature","id":"in-chhattisgarh-t-3237","properties":{"id":"in-chhattisgarh-t-3237","name":"Balrampur","region":"in-chhattisgarh","level":"tehsil","parent":"in-chhattisgarh-d-649","district":"Balrampur","source":"LGD via Bharatlas · 2024 snapshot","state_lgd":22,"district_lgd":649,"subdistrict_lgd":3237,"center":[83.53890847511065,23.58267929161374],"bbox":[83.2371451,23.406163,83.7917041,23.7637586]},"geometry":{"type":"Point","coordinates":[83.53890847511065,23.58267929161374]}},{"type":"Feature","id":"in-chhattisgarh-t-7267","properties":{"id":"in-chhattisgarh-t-7267","name":"Baradwar","region":"in-chhattisgarh","level":"tehsil","parent":"in-chhattisgarh-d-762","district":"Sakti","source":"LGD via Bharatlas · 2024 snapshot","state_lgd":22,"district_lgd":762,"subdistrict_lgd":7267,"center":[82.82343550796374,22.046269849237664],"bbox":[82.7445133,21.9599644,82.8952941,22.1478319]},"geometry":{"type":"Point","coordinates":[82.82343550796374,22.046269849237664]}},{"type":"Feature","id":"in-chhattisgarh-t-3271","properties":{"id":"in-chhattisgarh-t-3271","name":"Baramkela","region":"in-chhattisgarh","level":"tehsil","parent":"in-chhattisgarh-d-763","district":"Sarangarh Bilaigarh","source":"LGD via Bharatlas · 2024 snapshot","state_lgd":22,"district_lgd":763,"subdistrict_lgd":3271,"center":[83.29355600294623,21.477632419782438],"bbox":[83.1932883,21.3426354,83.4086356,21.6065707]},"geometry":{"type":"Point","coordinates":[83.29355600294623,21.477632419782438]}},{"type":"Feature","id":"in-chhattisgarh-t-3339","properties":{"id":"in-chhattisgarh-t-3339","name":"Basna","region":"in-chhattisgarh","level":"tehsil","parent":"in-chhattisgarh-d-385","district":"Mahasamund","source":"LGD via Bharatlas · 2024 snapshot","state_lgd":22,"district_lgd":385,"subdistrict_lgd":3339,"center":[82.863898300879,21.342760557521533],"bbox":[82.729812,21.1425452,83.0016412,21.5565226]},"geometry":{"type":"Point","coordinates":[82.863898300879,21.342760557521533]}},{"type":"Feature","id":"in-chhattisgarh-t-3362","properties":{"id":"in-chhattisgarh-t-3362","name":"Bastanar","region":"in-chhattisgarh","level":"tehsil","parent":"in-chhattisgarh-d-374","district":"Bastar","source":"LGD via Bharatlas · 2024 snapshot","state_lgd":22,"district_lgd":374,"subdistrict_lgd":3362,"center":[81.59890026849241,18.963080888830437],"bbox":[81.4572075,18.8031678,81.7314302,19.1176732]},"geometry":{"type":"Point","coordinates":[81.59890026849241,18.963080888830437]}},{"type":"Feature","id":"in-chhattisgarh-t-3363","properties":{"id":"in-chhattisgarh-t-3363","name":"Bastar","region":"in-chhattisgarh","level":"tehsil","parent":"in-chhattisgarh-d-374","district":"Bastar","source":"LGD via Bharatlas · 2024 snapshot","state_lgd":22,"district_lgd":374,"subdistrict_lgd":3363,"center":[81.83777484322933,19.295005217898133],"bbox":[81.6178535,19.1042851,82.0144053,19.5127106]},"geometry":{"type":"Point","coordinates":[81.83777484322933,19.295005217898133]}},{"type":"Feature","id":"in-chhattisgarh-t-3253","properties":{"id":"in-chhattisgarh-t-3253","name":"Batouli","region":"in-chhattisgarh","level":"tehsil","parent":"in-chhattisgarh-d-389","district":"Surguja","source":"LGD via Bharatlas · 2024 snapshot","state_lgd":22,"district_lgd":389,"subdistrict_lgd":3253,"center":[83.44972449107368,22.949782646321328],"bbox":[83.3362225,22.8420212,83.5572702,23.0644773]},"geometry":{"type":"Point","coordinates":[83.44972449107368,22.949782646321328]}},{"type":"Feature","id":"in-chhattisgarh-t-3312","properties":{"id":"in-chhattisgarh-t-3312","name":"Bemetara","region":"in-chhattisgarh","level":"tehsil","parent":"in-chhattisgarh-d-650","district":"Bemetara","source":"LGD via Bharatlas · 2024 snapshot","state_lgd":22,"district_lgd":650,"subdistrict_lgd":3312,"center":[81.56679973382684,21.78067684795092],"bbox":[81.4050939,21.6135055,81.7683415,22.018876]},"geometry":{"type":"Point","coordinates":[81.56679973382684,21.78067684795092]}},{"type":"Feature","id":"in-chhattisgarh-t-3315","properties":{"id":"in-chhattisgarh-t-3315","name":"Berla","region":"in-chhattisgarh","level":"tehsil","parent":"in-chhattisgarh-d-650","district":"Bemetara","source":"LGD via Bharatlas · 2024 snapshot","state_lgd":22,"district_lgd":650,"subdistrict_lgd":3315,"center":[81.5209805289824,21.526927878741247],"bbox":[81.3263827,21.331912,81.6981951,21.6914415]},"geometry":{"type":"Point","coordinates":[81.5209805289824,21.526927878741247]}},{"type":"Feature","id":"in-chhattisgarh-t-3379","properties":{"id":"in-chhattisgarh-t-3379","name":"Bhairamgarh","region":"in-chhattisgarh","level":"tehsil","parent":"in-chhattisgarh-d-636","district":"Bijapur","source":"LGD via Bharatlas · 2024 snapshot","state_lgd":22,"district_lgd":636,"subdistrict_lgd":3379,"center":[80.96760417706042,19.10698272864698],"bbox":[80.5058214,18.7571679,81.5021176,19.3642246]},"geometry":{"type":"Point","coordinates":[80.96760417706042,19.10698272864698]}},{"type":"Feature","id":"in-chhattisgarh-t-3244","properties":{"id":"in-chhattisgarh-t-3244","name":"Bhaiyathan","region":"in-chhattisgarh","level":"tehsil","parent":"in-chhattisgarh-d-648","district":"Surajpur","source":"LGD via Bharatlas · 2024 snapshot","state_lgd":22,"district_lgd":648,"subdistrict_lgd":3244,"center":[82.8941916690213,23.357782514538673],"bbox":[82.7380189,23.2492512,83.0716802,23.472733]},"geometry":{"type":"Point","coordinates":[82.8941916690213,23.357782514538673]}},{"type":"Feature","id":"in-chhattisgarh-t-3349","properties":{"id":"in-chhattisgarh-t-3349","name":"Bhanupratappur","region":"in-chhattisgarh","level":"tehsil","parent":"in-chhattisgarh-d-381","district":"Kanker","source":"LGD via Bharatlas · 2024 snapshot","state_lgd":22,"district_lgd":381,"subdistrict_lgd":3349,"center":[81.14760858293356,20.27735408203707],"bbox":[80.9844217,20.1272384,81.2938561,20.4198769]},"geometry":{"type":"Point","coordinates":[81.14760858293356,20.27735408203707]}},{"type":"Feature","id":"in-chhattisgarh-t-3231","properties":{"id":"in-chhattisgarh-t-3231","name":"Bharatpur","region":"in-chhattisgarh","level":"tehsil","parent":"in-chhattisgarh-d-760","district":"Manendragarh Chirimiri Bharatpur","source":"LGD via Bharatlas · 2024 snapshot","state_lgd":22,"district_lgd":760,"subdistrict_lgd":3231,"center":[81.78590414150186,23.66253833419786],"bbox":[81.5766845,23.4899603,82.0797254,23.9253673]},"geometry":{"type":"Point","coordinates":[81.78590414150186,23.66253833419786]}},{"type":"Feature","id":"in-chhattisgarh-t-3325","properties":{"id":"in-chhattisgarh-t-3325","name":"Bhatapara","region":"in-chhattisgarh","level":"tehsil","parent":"in-chhattisgarh-d-644","district":"Baloda Bazar","source":"LGD via Bharatlas · 2024 snapshot","state_lgd":22,"district_lgd":644,"subdistrict_lgd":3325,"center":[82.02820879719359,21.770515388266677],"bbox":[81.87241,21.6305573,82.1976056,21.8838369]},"geometry":{"type":"Point","coordinates":[82.02820879719359,21.770515388266677]}},{"type":"Feature","id":"in-chhattisgarh-t-7276","properties":{"id":"in-chhattisgarh-t-7276","name":"Bhatgaon","region":"in-chhattisgarh","level":"tehsil","parent":"in-chhattisgarh-d-763","district":"Sarangarh Bilaigarh","source":"LGD via Bharatlas · 2024 snapshot","state_lgd":22,"district_lgd":763,"subdistrict_lgd":7276,"center":[82.8530730115261,21.620717795139157],"bbox":[82.7364824,21.4898175,82.9858525,21.7243759]},"geometry":{"type":"Point","coordinates":[82.8530730115261,21.620717795139157]}},{"type":"Feature","id":"in-chhattisgarh-t-3376","properties":{"id":"in-chhattisgarh-t-3376","name":"Bhopalpattnam","region":"in-chhattisgarh","level":"tehsil","parent":"in-chhattisgarh-d-636","district":"Bijapur","source":"LGD via Bharatlas · 2024 snapshot","state_lgd":22,"district_lgd":636,"subdistrict_lgd":3376,"center":[80.4574251278911,18.951758412469268],"bbox":[80.2444275,18.5937916,80.6650521,19.4024832]},"geometry":{"type":"Point","coordinates":[80.4574251278911,18.951758412469268]}},{"type":"Feature","id":"in-chhattisgarh-t-3378","properties":{"id":"in-chhattisgarh-t-3378","name":"Bijapur","region":"in-chhattisgarh","level":"tehsil","parent":"in-chhattisgarh-d-636","district":"Bijapur","source":"LGD via Bharatlas · 2024 snapshot","state_lgd":22,"district_lgd":636,"subdistrict_lgd":3378,"center":[80.87714430544948,18.814198789798326],"bbox":[80.5312595,18.5314405,81.1993592,19.0388116]},"geometry":{"type":"Point","coordinates":[80.87714430544948,18.814198789798326]}},{"type":"Feature","id":"in-chhattisgarh-t-3329","properties":{"id":"in-chhattisgarh-t-3329","name":"Bilaigarh","region":"in-chhattisgarh","level":"tehsil","parent":"in-chhattisgarh-d-763","district":"Sarangarh Bilaigarh","source":"LGD via Bharatlas · 2024 snapshot","state_lgd":22,"district_lgd":763,"subdistrict_lgd":3329,"center":[82.70014316825805,21.615285672030232],"bbox":[82.6112225,21.484968,82.7759359,21.727597]},"geometry":{"type":"Point","coordinates":[82.70014316825805,21.615285672030232]}},{"type":"Feature","id":"in-chhattisgarh-t-3295","properties":{"id":"in-chhattisgarh-t-3295","name":"Bilaspur","region":"in-chhattisgarh","level":"tehsil","parent":"in-chhattisgarh-d-375","district":"Bilaspur","source":"LGD via Bharatlas · 2024 snapshot","state_lgd":22,"district_lgd":375,"subdistrict_lgd":3295,"center":[82.20179027225169,22.167635586705206],"bbox":[82.0885807,21.9962396,82.3614307,22.3275661]},"geometry":{"type":"Point","coordinates":[82.20179027225169,22.167635586705206]}},{"type":"Feature","id":"in-chhattisgarh-t-3297","properties":{"id":"in-chhattisgarh-t-3297","name":"Bilha","region":"in-chhattisgarh","level":"tehsil","parent":"in-chhattisgarh-d-375","district":"Bilaspur","source":"LGD via Bharatlas · 2024 snapshot","state_lgd":22,"district_lgd":375,"subdistrict_lgd":3297,"center":[82.12398605055475,21.93705936616254],"bbox":[81.9908845,21.8315573,82.2293567,22.045345]},"geometry":{"type":"Point","coordinates":[82.12398605055475,21.93705936616254]}},{"type":"Feature","id":"in-chhattisgarh-t-3335","properties":{"id":"in-chhattisgarh-t-3335","name":"Bindranavagarh(Gariyaband)","region":"in-chhattisgarh","level":"tehsil","parent":"in-chhattisgarh-d-645","district":"Gariyaband","source":"LGD via Bharatlas · 2024 snapshot","state_lgd":22,"district_lgd":645,"subdistrict_lgd":3335,"center":[82.19665658396241,20.538049962976878],"bbox":[81.9708358,20.3519128,82.4378744,20.7690231]},"geometry":{"type":"Point","coordinates":[82.19665658396241,20.538049962976878]}},{"type":"Feature","id":"in-chhattisgarh-t-3299","properties":{"id":"in-chhattisgarh-t-3299","name":"Bodla","region":"in-chhattisgarh","level":"tehsil","parent":"in-chhattisgarh-d-382","district":"Kabirdham","source":"LGD via Bharatlas · 2024 snapshot","state_lgd":22,"district_lgd":382,"subdistrict_lgd":3299,"center":[81.09666201672869,22.098417206739903],"bbox":[80.8254944,21.7457135,81.359009,22.4909532]},"geometry":{"type":"Point","coordinates":[81.09666201672869,22.098417206739903]}},{"type":"Feature","id":"in-chhattisgarh-t-3281","properties":{"id":"in-chhattisgarh-t-3281","name":"Champa","region":"in-chhattisgarh","level":"tehsil","parent":"in-chhattisgarh-d-379","district":"Janjgir-Champa","source":"LGD via Bharatlas · 2024 snapshot","state_lgd":22,"district_lgd":379,"subdistrict_lgd":3281,"center":[82.7376440208671,21.9419441508339],"bbox":[82.6282789,21.7218141,82.8423643,22.0985645]},"geometry":{"type":"Point","coordinates":[82.7376440208671,21.9419441508339]}},{"type":"Feature","id":"in-chhattisgarh-t-3348","properties":{"id":"in-chhattisgarh-t-3348","name":"Charama","region":"in-chhattisgarh","level":"tehsil","parent":"in-chhattisgarh-d-381","district":"Kanker","source":"LGD via Bharatlas · 2024 snapshot","state_lgd":22,"district_lgd":381,"subdistrict_lgd":3348,"center":[81.37961554216174,20.445366471234262],"bbox":[81.2199008,20.325119,81.5593049,20.5627966]},"geometry":{"type":"Point","coordinates":[81.37961554216174,20.445366471234262]}},{"type":"Feature","id":"in-chhattisgarh-t-3374","properties":{"id":"in-chhattisgarh-t-3374","name":"Chhindgarh","region":"in-chhattisgarh","level":"tehsil","parent":"in-chhattisgarh-d-642","district":"Sukma","source":"LGD via Bharatlas · 2024 snapshot","state_lgd":22,"district_lgd":642,"subdistrict_lgd":3374,"center":[81.7187341201805,18.587076924538966],"bbox":[81.5421675,18.4553259,81.9637861,18.7506908]},"geometry":{"type":"Point","coordinates":[81.7187341201805,18.587076924538966]}},{"type":"Feature","id":"in-chhattisgarh-t-3302","properties":{"id":"in-chhattisgarh-t-3302","name":"Chhuikhadan","region":"in-chhattisgarh","level":"tehsil","parent":"in-chhattisgarh-d-759","district":"Khairgarh Chhuikhadan Gandai","source":"LGD via Bharatlas · 2024 snapshot","state_lgd":22,"district_lgd":759,"subdistrict_lgd":3302,"center":[81.01329431058488,21.567752688698263],"bbox":[80.8636831,21.4850814,81.1954167,21.6845474]},"geometry":{"type":"Point","coordinates":[81.01329431058488,21.567752688698263]}},{"type":"Feature","id":"in-chhattisgarh-t-3336","properties":{"id":"in-chhattisgarh-t-3336","name":"Chhura","region":"in-chhattisgarh","level":"tehsil","parent":"in-chhattisgarh-d-645","district":"Gariyaband","source":"LGD via Bharatlas · 2024 snapshot","state_lgd":22,"district_lgd":645,"subdistrict_lgd":3336,"center":[82.1763691207826,20.807097185760767],"bbox":[81.9092455,20.6285791,82.3704949,21.0105854]},"geometry":{"type":"Point","coordinates":[82.1763691207826,20.807097185760767]}},{"type":"Feature","id":"in-chhattisgarh-t-3306","properties":{"id":"in-chhattisgarh-t-3306","name":"Chhuriya","region":"in-chhattisgarh","level":"tehsil","parent":"in-chhattisgarh-d-388","district":"Rajnandgaon","source":"LGD via Bharatlas · 2024 snapshot","state_lgd":22,"district_lgd":388,"subdistrict_lgd":3306,"center":[80.69327145275982,20.9426601837927],"bbox":[80.4241716,20.7646446,80.9951757,21.090682]},"geometry":{"type":"Point","coordinates":[80.69327145275982,20.9426601837927]}},{"type":"Feature","id":"in-chhattisgarh-t-7268","properties":{"id":"in-chhattisgarh-t-7268","name":"Chirmiri","region":"in-chhattisgarh","level":"tehsil","parent":"in-chhattisgarh-d-760","district":"Manendragarh Chirimiri Bharatpur","source":"LGD via Bharatlas · 2024 snapshot","state_lgd":22,"district_lgd":760,"subdistrict_lgd":7268,"center":[82.28834992589607,23.120131184562332],"bbox":[82.2498591,23.0745369,82.4060307,23.1742595]},"geometry":{"type":"Point","coordinates":[82.28834992589607,23.120131184562332]}},{"type":"Feature","id":"in-chhattisgarh-t-3284","properties":{"id":"in-chhattisgarh-t-3284","name":"Dabhra","region":"in-chhattisgarh","level":"tehsil","parent":"in-chhattisgarh-d-762","district":"Sakti","source":"LGD via Bharatlas · 2024 snapshot","state_lgd":22,"district_lgd":762,"subdistrict_lgd":3284,"center":[83.14118845025965,21.801342152946678],"bbox":[83.0085556,21.6814393,83.317141,21.9330576]},"geometry":{"type":"Point","coordinates":[83.14118845025965,21.801342152946678]}},{"type":"Feature","id":"in-chhattisgarh-t-3369","properties":{"id":"in-chhattisgarh-t-3369","name":"Dantewada","region":"in-chhattisgarh","level":"tehsil","parent":"in-chhattisgarh-d-376","district":"Dantewada","source":"LGD via Bharatlas · 2024 snapshot","state_lgd":22,"district_lgd":376,"subdistrict_lgd":3369,"center":[81.34247398734837,18.810921284180665],"bbox":[81.1604262,18.6197034,81.5906583,18.9513586]},"geometry":{"type":"Point","coordinates":[81.34247398734837,18.810921284180665]}},{"type":"Feature","id":"in-chhattisgarh-t-3366","properties":{"id":"in-chhattisgarh-t-3366","name":"Darbha","region":"in-chhattisgarh","level":"tehsil","parent":"in-chhattisgarh-d-374","district":"Bastar","source":"LGD via Bharatlas · 2024 snapshot","state_lgd":22,"district_lgd":374,"subdistrict_lgd":3366,"center":[81.88562945195885,18.85997103894957],"bbox":[81.659907,18.696371,82.1346337,19.0277469]},"geometry":{"type":"Point","coordinates":[81.88562945195885,18.85997103894957]}},{"type":"Feature","id":"in-chhattisgarh-t-3338","properties":{"id":"in-chhattisgarh-t-3338","name":"Deobhog","region":"in-chhattisgarh","level":"tehsil","parent":"in-chhattisgarh-d-645","district":"Gariyaband","source":"LGD via Bharatlas · 2024 snapshot","state_lgd":22,"district_lgd":645,"subdistrict_lgd":3338,"center":[82.63219039590267,19.90371464081292],"bbox":[82.5159499,19.7752928,82.7245845,20.0067133]},"geometry":{"type":"Point","coordinates":[82.63219039590267,19.90371464081292]}},{"type":"Feature","id":"in-chhattisgarh-t-3316","properties":{"id":"in-chhattisgarh-t-3316","name":"Dhamdha","region":"in-chhattisgarh","level":"tehsil","parent":"in-chhattisgarh-d-378","district":"Durg","source":"LGD via Bharatlas · 2024 snapshot","state_lgd":22,"district_lgd":378,"subdistrict_lgd":3316,"center":[81.34746318144292,21.388894722877815],"bbox":[81.157487,21.226807,81.5540022,21.5445265]},"geometry":{"type":"Point","coordinates":[81.34746318144292,21.388894722877815]}},{"type":"Feature","id":"in-chhattisgarh-t-3346","properties":{"id":"in-chhattisgarh-t-3346","name":"Dhamtari","region":"in-chhattisgarh","level":"tehsil","parent":"in-chhattisgarh-d-377","district":"Dhamtari","source":"LGD via Bharatlas · 2024 snapshot","state_lgd":22,"district_lgd":377,"subdistrict_lgd":3346,"center":[81.5734826043448,20.678280501383277],"bbox":[81.4101175,20.4927434,81.7582767,20.8582009]},"geometry":{"type":"Point","coordinates":[81.5734826043448,20.678280501383277]}},{"type":"Feature","id":"in-chhattisgarh-t-3322","properties":{"id":"in-chhattisgarh-t-3322","name":"Dondi","region":"in-chhattisgarh","level":"tehsil","parent":"in-chhattisgarh-d-646","district":"Balod","source":"LGD via Bharatlas · 2024 snapshot","state_lgd":22,"district_lgd":646,"subdistrict_lgd":3322,"center":[81.13706870506773,20.55612814108468],"bbox":[80.9541693,20.3769835,81.3106709,20.7429122]},"geometry":{"type":"Point","coordinates":[81.13706870506773,20.55612814108468]}},{"type":"Feature","id":"in-chhattisgarh-t-3320","properties":{"id":"in-chhattisgarh-t-3320","name":"Dondi Luhara","region":"in-chhattisgarh","level":"tehsil","parent":"in-chhattisgarh-d-646","district":"Balod","source":"LGD via Bharatlas · 2024 snapshot","state_lgd":22,"district_lgd":646,"subdistrict_lgd":3320,"center":[81.02342510088287,20.812001658295646],"bbox":[80.8031918,20.5982958,81.2099882,21.0078033]},"geometry":{"type":"Point","coordinates":[81.02342510088287,20.812001658295646]}},{"type":"Feature","id":"in-chhattisgarh-t-3307","properties":{"id":"in-chhattisgarh-t-3307","name":"Dongargaon","region":"in-chhattisgarh","level":"tehsil","parent":"in-chhattisgarh-d-388","district":"Rajnandgaon","source":"LGD via Bharatlas · 2024 snapshot","state_lgd":22,"district_lgd":388,"subdistrict_lgd":3307,"center":[80.87539398871989,21.027921079302125],"bbox":[80.7124812,20.921549,81.0414159,21.1791553]},"geometry":{"type":"Point","coordinates":[80.87539398871989,21.027921079302125]}},{"type":"Feature","id":"in-chhattisgarh-t-3304","properties":{"id":"in-chhattisgarh-t-3304","name":"Dongargarh","region":"in-chhattisgarh","level":"tehsil","parent":"in-chhattisgarh-d-388","district":"Rajnandgaon","source":"LGD via Bharatlas · 2024 snapshot","state_lgd":22,"district_lgd":388,"subdistrict_lgd":3304,"center":[80.72753847921432,21.190154576181104],"bbox":[80.4391472,21.0620147,81.0027662,21.3685422]},"geometry":{"type":"Point","coordinates":[80.72753847921432,21.190154576181104]}},{"type":"Feature","id":"in-chhattisgarh-t-3260","properties":{"id":"in-chhattisgarh-t-3260","name":"Duldula","region":"in-chhattisgarh","level":"tehsil","parent":"in-chhattisgarh-d-380","district":"Jashpur","source":"LGD via Bharatlas · 2024 snapshot","state_lgd":22,"district_lgd":380,"subdistrict_lgd":3260,"center":[84.10396384065575,22.704670869204804],"bbox":[83.9253394,22.577153,84.2861018,22.8306724]},"geometry":{"type":"Point","coordinates":[84.10396384065575,22.704670869204804]}},{"type":"Feature","id":"in-chhattisgarh-t-3317","properties":{"id":"in-chhattisgarh-t-3317","name":"Durg","region":"in-chhattisgarh","level":"tehsil","parent":"in-chhattisgarh-d-378","district":"Durg","source":"LGD via Bharatlas · 2024 snapshot","state_lgd":22,"district_lgd":378,"subdistrict_lgd":3317,"center":[81.29706897759357,21.17697403110935],"bbox":[81.1484226,21.0280085,81.4268352,21.3660908]},"geometry":{"type":"Point","coordinates":[81.29706897759357,21.17697403110935]}},{"type":"Feature","id":"in-chhattisgarh-t-3350","properties":{"id":"in-chhattisgarh-t-3350","name":"Durgkondal","region":"in-chhattisgarh","level":"tehsil","parent":"in-chhattisgarh-d-381","district":"Kanker","source":"LGD via Bharatlas · 2024 snapshot","state_lgd":22,"district_lgd":381,"subdistrict_lgd":3350,"center":[80.88606726010917,20.254715527374028],"bbox":[80.6832208,20.0945989,81.0648487,20.4592936]},"geometry":{"type":"Point","coordinates":[80.88606726010917,20.254715527374028]}},{"type":"Feature","id":"in-chhattisgarh-t-3359","properties":{"id":"in-chhattisgarh-t-3359","name":"Farasgaon","region":"in-chhattisgarh","level":"tehsil","parent":"in-chhattisgarh-d-643","district":"Kondagaon","source":"LGD via Bharatlas · 2024 snapshot","state_lgd":22,"district_lgd":643,"subdistrict_lgd":3359,"center":[81.53040852183626,19.808880317685617],"bbox":[81.368005,19.6604549,81.7156284,19.985334]},"geometry":{"type":"Point","coordinates":[81.53040852183626,19.808880317685617]}},{"type":"Feature","id":"in-chhattisgarh-t-3261","properties":{"id":"in-chhattisgarh-t-3261","name":"Farsabahar","region":"in-chhattisgarh","level":"tehsil","parent":"in-chhattisgarh-d-380","district":"Jashpur","source":"LGD via Bharatlas · 2024 snapshot","state_lgd":22,"district_lgd":380,"subdistrict_lgd":3261,"center":[83.89056471279541,22.448983313990315],"bbox":[83.7370906,22.2889534,84.0472472,22.6112959]},"geometry":{"type":"Point","coordinates":[83.89056471279541,22.448983313990315]}},{"type":"Feature","id":"in-chhattisgarh-t-7273","properties":{"id":"in-chhattisgarh-t-7273","name":"Gadiras","region":"in-chhattisgarh","level":"tehsil","parent":"in-chhattisgarh-d-642","district":"Sukma","source":"LGD via Bharatlas · 2024 snapshot","state_lgd":22,"district_lgd":642,"subdistrict_lgd":7273,"center":[81.5171359140501,18.515742699623527],"bbox":[81.365646,18.3550821,81.6169907,18.6240157]},"geometry":{"type":"Point","coordinates":[81.5171359140501,18.515742699623527]}},{"type":"Feature","id":"in-chhattisgarh-t-7264","properties":{"id":"in-chhattisgarh-t-7264","name":"Gandai","region":"in-chhattisgarh","level":"tehsil","parent":"in-chhattisgarh-d-759","district":"Khairgarh Chhuikhadan Gandai","source":"LGD via Bharatlas · 2024 snapshot","state_lgd":22,"district_lgd":759,"subdistrict_lgd":7264,"center":[81.07204298139929,21.671394963009377],"bbox":[80.938589,21.5796343,81.194515,21.7502288]},"geometry":{"type":"Point","coordinates":[81.07204298139929,21.671394963009377]}},{"type":"Feature","id":"in-chhattisgarh-t-3265","properties":{"id":"in-chhattisgarh-t-3265","name":"Gharghoda","region":"in-chhattisgarh","level":"tehsil","parent":"in-chhattisgarh-d-386","district":"Raigarh","source":"LGD via Bharatlas · 2024 snapshot","state_lgd":22,"district_lgd":386,"subdistrict_lgd":3265,"center":[83.33701036914847,22.218102514526407],"bbox":[83.202195,22.0532893,83.5030969,22.4058589]},"geometry":{"type":"Point","coordinates":[83.33701036914847,22.218102514526407]}},{"type":"Feature","id":"in-chhattisgarh-t-3370","properties":{"id":"in-chhattisgarh-t-3370","name":"Gidam","region":"in-chhattisgarh","level":"tehsil","parent":"in-chhattisgarh-d-376","district":"Dantewada","source":"LGD via Bharatlas · 2024 snapshot","state_lgd":22,"district_lgd":376,"subdistrict_lgd":3370,"center":[81.35242243710253,19.041275565384172],"bbox":[81.1695844,18.9046036,81.5293235,19.2175486]},"geometry":{"type":"Point","coordinates":[81.35242243710253,19.041275565384172]}},{"type":"Feature","id":"in-chhattisgarh-t-3319","properties":{"id":"in-chhattisgarh-t-3319","name":"Gunderdehi","region":"in-chhattisgarh","level":"tehsil","parent":"in-chhattisgarh-d-646","district":"Balod","source":"LGD via Bharatlas · 2024 snapshot","state_lgd":22,"district_lgd":646,"subdistrict_lgd":3319,"center":[81.2828968231753,20.932441951147037],"bbox":[81.0876064,20.7750857,81.4279964,21.078573]},"geometry":{"type":"Point","coordinates":[81.2828968231753,20.932441951147037]}},{"type":"Feature","id":"in-chhattisgarh-t-3323","properties":{"id":"in-chhattisgarh-t-3323","name":"Gurur","region":"in-chhattisgarh","level":"tehsil","parent":"in-chhattisgarh-d-646","district":"Balod","source":"LGD via Bharatlas · 2024 snapshot","state_lgd":22,"district_lgd":646,"subdistrict_lgd":3323,"center":[81.40927425447917,20.68686444502197],"bbox":[81.2497245,20.5333931,81.5170333,20.8706668]},"geometry":{"type":"Point","coordinates":[81.40927425447917,20.68686444502197]}},{"type":"Feature","id":"in-chhattisgarh-t-7327","properties":{"id":"in-chhattisgarh-t-7327","name":"Hasaud","region":"in-chhattisgarh","level":"tehsil","parent":"in-chhattisgarh-d-762","district":"Sakti","source":"LGD via Bharatlas · 2024 snapshot","state_lgd":22,"district_lgd":762,"subdistrict_lgd":7327,"center":[82.87644836087323,21.757164059697],"bbox":[82.7918642,21.6931325,82.9502952,21.8379438]},"geometry":{"type":"Point","coordinates":[82.87644836087323,21.757164059697]}},{"type":"Feature","id":"in-chhattisgarh-t-3360","properties":{"id":"in-chhattisgarh-t-3360","name":"Jagdalpur","region":"in-chhattisgarh","level":"tehsil","parent":"in-chhattisgarh-d-374","district":"Bastar","source":"LGD via Bharatlas · 2024 snapshot","state_lgd":22,"district_lgd":374,"subdistrict_lgd":3360,"center":[82.09424801776036,18.984403895689315],"bbox":[81.9448052,18.7782016,82.246054,19.1452597]},"geometry":{"type":"Point","coordinates":[82.09424801776036,18.984403895689315]}},{"type":"Feature","id":"in-chhattisgarh-t-3286","properties":{"id":"in-chhattisgarh-t-3286","name":"Jaijaipur","region":"in-chhattisgarh","level":"tehsil","parent":"in-chhattisgarh-d-762","district":"Sakti","source":"LGD via Bharatlas · 2024 snapshot","state_lgd":22,"district_lgd":762,"subdistrict_lgd":3286,"center":[82.85639964697238,21.887891503905667],"bbox":[82.7650466,21.7802236,82.9593072,22.0021738]},"geometry":{"type":"Point","coordinates":[82.85639964697238,21.887891503905667]}},{"type":"Feature","id":"in-chhattisgarh-t-3277","properties":{"id":"in-chhattisgarh-t-3277","name":"Janjgir","region":"in-chhattisgarh","level":"tehsil","parent":"in-chhattisgarh-d-379","district":"Janjgir-Champa","source":"LGD via Bharatlas · 2024 snapshot","state_lgd":22,"district_lgd":379,"subdistrict_lgd":3277,"center":[82.59029329206103,21.989943527100856],"bbox":[82.4941248,21.9057676,82.7095274,22.0930615]},"geometry":{"type":"Point","coordinates":[82.59029329206103,21.989943527100856]}},{"type":"Feature","id":"in-chhattisgarh-t-3257","properties":{"id":"in-chhattisgarh-t-3257","name":"Jashpur","region":"in-chhattisgarh","level":"tehsil","parent":"in-chhattisgarh-d-380","district":"Jashpur","source":"LGD via Bharatlas · 2024 snapshot","state_lgd":22,"district_lgd":380,"subdistrict_lgd":3257,"center":[84.22658378392808,22.887063582424688],"bbox":[84.0248398,22.7632402,84.3955505,23.0270917]},"geometry":{"type":"Point","coordinates":[84.22658378392808,22.887063582424688]}},{"type":"Feature","id":"in-chhattisgarh-t-3351","properties":{"id":"in-chhattisgarh-t-3351","name":"Kanker","region":"in-chhattisgarh","level":"tehsil","parent":"in-chhattisgarh-d-381","district":"Kanker","source":"LGD via Bharatlas · 2024 snapshot","state_lgd":22,"district_lgd":381,"subdistrict_lgd":3351,"center":[81.42229726062645,20.25616545033395],"bbox":[81.2597379,20.1464781,81.6077866,20.3803598]},"geometry":{"type":"Point","coordinates":[81.42229726062645,20.25616545033395]}},{"type":"Feature","id":"in-chhattisgarh-t-3256","properties":{"id":"in-chhattisgarh-t-3256","name":"Kansabel","region":"in-chhattisgarh","level":"tehsil","parent":"in-chhattisgarh-d-380","district":"Jashpur","source":"LGD via Bharatlas · 2024 snapshot","state_lgd":22,"district_lgd":380,"subdistrict_lgd":3256,"center":[83.76054784620183,22.713067412175075],"bbox":[83.5634561,22.5297657,83.9689149,22.9050113]},"geometry":{"type":"Point","coordinates":[83.76054784620183,22.713067412175075]}},{"type":"Feature","id":"in-chhattisgarh-t-3276","properties":{"id":"in-chhattisgarh-t-3276","name":"Kartala","region":"in-chhattisgarh","level":"tehsil","parent":"in-chhattisgarh-d-383","district":"Korba","source":"LGD via Bharatlas · 2024 snapshot","state_lgd":22,"district_lgd":383,"subdistrict_lgd":3276,"center":[82.84634101254477,22.20467683668205],"bbox":[82.6249657,22.039391,83.064738,22.3307577]},"geometry":{"type":"Point","coordinates":[82.84634101254477,22.20467683668205]}},{"type":"Feature","id":"in-chhattisgarh-t-3328","properties":{"id":"in-chhattisgarh-t-3328","name":"Kasdol","region":"in-chhattisgarh","level":"tehsil","parent":"in-chhattisgarh-d-644","district":"Baloda Bazar","source":"LGD via Bharatlas · 2024 snapshot","state_lgd":22,"district_lgd":644,"subdistrict_lgd":3328,"center":[82.48234223741869,21.484306888706815],"bbox":[82.2331258,21.2622923,82.7029018,21.7373064]},"geometry":{"type":"Point","coordinates":[82.48234223741869,21.484306888706815]}},{"type":"Feature","id":"in-chhattisgarh-t-3371","properties":{"id":"in-chhattisgarh-t-3371","name":"Katekalyan","region":"in-chhattisgarh","level":"tehsil","parent":"in-chhattisgarh-d-376","district":"Dantewada","source":"LGD via Bharatlas · 2024 snapshot","state_lgd":22,"district_lgd":376,"subdistrict_lgd":3371,"center":[81.61050800955293,18.76591879],"bbox":[81.3792497,18.5593252,81.7774425,18.8544589]},"geometry":{"type":"Point","coordinates":[81.61050800955293,18.76591879]}},{"type":"Feature","id":"in-chhattisgarh-t-3272","properties":{"id":"in-chhattisgarh-t-3272","name":"Katghora","region":"in-chhattisgarh","level":"tehsil","parent":"in-chhattisgarh-d-383","district":"Korba","source":"LGD via Bharatlas · 2024 snapshot","state_lgd":22,"district_lgd":383,"subdistrict_lgd":3272,"center":[82.60299390012277,22.389900452290824],"bbox":[82.4668881,22.2518539,82.7113509,22.5252087]},"geometry":{"type":"Point","coordinates":[82.60299390012277,22.389900452290824]}},{"type":"Feature","id":"in-chhattisgarh-t-source-4567","properties":{"id":"in-chhattisgarh-t-source-4567","name":"KATGHORA -1","region":"in-chhattisgarh","level":"tehsil","parent":"in-chhattisgarh-d-383","district":"Korba","source":"LGD via Bharatlas · 2024 snapshot","state_lgd":22,"district_lgd":383,"subdistrict_lgd":null,"source_objectid":4567,"center":[82.37062337280267,22.823572628369828],"bbox":[82.1342533,22.6333007,82.5930441,23.0004169]},"geometry":{"type":"Point","coordinates":[82.37062337280267,22.823572628369828]}},{"type":"Feature","id":"in-chhattisgarh-t-3298","properties":{"id":"in-chhattisgarh-t-3298","name":"Kawardha","region":"in-chhattisgarh","level":"tehsil","parent":"in-chhattisgarh-d-382","district":"Kabirdham","source":"LGD via Bharatlas · 2024 snapshot","state_lgd":22,"district_lgd":382,"subdistrict_lgd":3298,"center":[81.32823833504595,21.987175209889603],"bbox":[81.1867076,21.8524412,81.4858737,22.1377961]},"geometry":{"type":"Point","coordinates":[81.32823833504595,21.987175209889603]}},{"type":"Feature","id":"in-chhattisgarh-t-7269","properties":{"id":"in-chhattisgarh-t-7269","name":"Kelhari","region":"in-chhattisgarh","level":"tehsil","parent":"in-chhattisgarh-d-760","district":"Manendragarh Chirimiri Bharatpur","source":"LGD via Bharatlas · 2024 snapshot","state_lgd":22,"district_lgd":760,"subdistrict_lgd":7269,"center":[82.18770709717819,23.431596264849716],"bbox":[81.9328317,23.2416176,82.3772044,23.5764746]},"geometry":{"type":"Point","coordinates":[82.18770709717819,23.431596264849716]}},{"type":"Feature","id":"in-chhattisgarh-t-3355","properties":{"id":"in-chhattisgarh-t-3355","name":"Keskal","region":"in-chhattisgarh","level":"tehsil","parent":"in-chhattisgarh-d-643","district":"Kondagaon","source":"LGD via Bharatlas · 2024 snapshot","state_lgd":22,"district_lgd":643,"subdistrict_lgd":3355,"center":[81.5238125875758,20.038847956733846],"bbox":[81.2916529,19.8837195,81.6912093,20.1955188]},"geometry":{"type":"Point","coordinates":[81.5238125875758,20.038847956733846]}},{"type":"Feature","id":"in-chhattisgarh-t-3235","properties":{"id":"in-chhattisgarh-t-3235","name":"Khadganva","region":"in-chhattisgarh","level":"tehsil","parent":"in-chhattisgarh-d-760","district":"Manendragarh Chirimiri Bharatpur","source":"LGD via Bharatlas · 2024 snapshot","state_lgd":22,"district_lgd":760,"subdistrict_lgd":3235,"center":[82.39284562347142,23.06625397887984],"bbox":[82.1396363,22.9379224,82.6077064,23.2499259]},"geometry":{"type":"Point","coordinates":[82.39284562347142,23.06625397887984]}},{"type":"Feature","id":"in-chhattisgarh-t-7277","properties":{"id":"in-chhattisgarh-t-7277","name":"Khadgaon","region":"in-chhattisgarh","level":"tehsil","parent":"in-chhattisgarh-d-761","district":"Mohla Manpur Ambagarh Chouki","source":"LGD via Bharatlas · 2024 snapshot","state_lgd":22,"district_lgd":761,"subdistrict_lgd":7277,"center":[80.890194389038,20.459586879152408],"bbox":[80.7920741,20.3476606,80.9918785,20.5509207]},"geometry":{"type":"Point","coordinates":[80.890194389038,20.459586879152408]}},{"type":"Feature","id":"in-chhattisgarh-t-3303","properties":{"id":"in-chhattisgarh-t-3303","name":"Khairagarh","region":"in-chhattisgarh","level":"tehsil","parent":"in-chhattisgarh-d-759","district":"Khairgarh Chhuikhadan Gandai","source":"LGD via Bharatlas · 2024 snapshot","state_lgd":22,"district_lgd":759,"subdistrict_lgd":3303,"center":[80.94480764122429,21.39583968221072],"bbox":[80.6711639,21.2229067,81.1946104,21.5225111]},"geometry":{"type":"Point","coordinates":[80.94480764122429,21.39583968221072]}},{"type":"Feature","id":"in-chhattisgarh-t-3269","properties":{"id":"in-chhattisgarh-t-3269","name":"Kharsia","region":"in-chhattisgarh","level":"tehsil","parent":"in-chhattisgarh-d-386","district":"Raigarh","source":"LGD via Bharatlas · 2024 snapshot","state_lgd":22,"district_lgd":386,"subdistrict_lgd":3269,"center":[83.11040445533837,22.04038227495031],"bbox":[82.9366338,21.9141135,83.2911137,22.1945634]},"geometry":{"type":"Point","coordinates":[83.11040445533837,22.04038227495031]}},{"type":"Feature","id":"in-chhattisgarh-t-3357","properties":{"id":"in-chhattisgarh-t-3357","name":"Kondagaon","region":"in-chhattisgarh","level":"tehsil","parent":"in-chhattisgarh-d-643","district":"Kondagaon","source":"LGD via Bharatlas · 2024 snapshot","state_lgd":22,"district_lgd":643,"subdistrict_lgd":3357,"center":[81.6374960785482,19.496766440351262],"bbox":[81.3558695,19.2226565,81.9362811,19.7360428]},"geometry":{"type":"Point","coordinates":[81.6374960785482,19.496766440351262]}},{"type":"Feature","id":"in-chhattisgarh-t-3373","properties":{"id":"in-chhattisgarh-t-3373","name":"Konta","region":"in-chhattisgarh","level":"tehsil","parent":"in-chhattisgarh-d-642","district":"Sukma","source":"LGD via Bharatlas · 2024 snapshot","state_lgd":22,"district_lgd":642,"subdistrict_lgd":3373,"center":[81.22533844366514,18.152072776052425],"bbox":[80.9114891,17.7823073,81.5305496,18.5524895]},"geometry":{"type":"Point","coordinates":[81.22533844366514,18.152072776052425]}},{"type":"Feature","id":"in-chhattisgarh-t-3275","properties":{"id":"in-chhattisgarh-t-3275","name":"Korba","region":"in-chhattisgarh","level":"tehsil","parent":"in-chhattisgarh-d-383","district":"Korba","source":"LGD via Bharatlas · 2024 snapshot","state_lgd":22,"district_lgd":383,"subdistrict_lgd":3275,"center":[82.87129771308169,22.492695733029635],"bbox":[82.5958564,22.214529,83.123226,22.7518605]},"geometry":{"type":"Point","coordinates":[82.87129771308169,22.492695733029635]}},{"type":"Feature","id":"in-chhattisgarh-t-3291","properties":{"id":"in-chhattisgarh-t-3291","name":"Kota","region":"in-chhattisgarh","level":"tehsil","parent":"in-chhattisgarh-d-375","district":"Bilaspur","source":"LGD via Bharatlas · 2024 snapshot","state_lgd":22,"district_lgd":375,"subdistrict_lgd":3291,"center":[82.02646433579882,22.417293920765033],"bbox":[81.8277515,22.2184656,82.2721681,22.6158356]},"geometry":{"type":"Point","coordinates":[82.02646433579882,22.417293920765033]}},{"type":"Feature","id":"in-chhattisgarh-t-7275","properties":{"id":"in-chhattisgarh-t-7275","name":"Kotadol","region":"in-chhattisgarh","level":"tehsil","parent":"in-chhattisgarh-d-760","district":"Manendragarh Chirimiri Bharatpur","source":"LGD via Bharatlas · 2024 snapshot","state_lgd":22,"district_lgd":760,"subdistrict_lgd":7275,"center":[82.10040982220566,23.707341124140004],"bbox":[81.822816,23.5302684,82.3450514,23.8709125]},"geometry":{"type":"Point","coordinates":[82.10040982220566,23.707341124140004]}},{"type":"Feature","id":"in-chhattisgarh-t-3372","properties":{"id":"in-chhattisgarh-t-3372","name":"Kuakonda","region":"in-chhattisgarh","level":"tehsil","parent":"in-chhattisgarh-d-376","district":"Dantewada","source":"LGD via Bharatlas · 2024 snapshot","state_lgd":22,"district_lgd":376,"subdistrict_lgd":3372,"center":[81.33372404091511,18.588664757919936],"bbox":[81.1464373,18.3926298,81.4616072,18.8036589]},"geometry":{"type":"Point","coordinates":[81.33372404091511,18.588664757919936]}},{"type":"Feature","id":"in-chhattisgarh-t-3259","properties":{"id":"in-chhattisgarh-t-3259","name":"Kunkuri","region":"in-chhattisgarh","level":"tehsil","parent":"in-chhattisgarh-d-380","district":"Jashpur","source":"LGD via Bharatlas · 2024 snapshot","state_lgd":22,"district_lgd":380,"subdistrict_lgd":3259,"center":[83.92515533649464,22.781109571755703],"bbox":[83.7746203,22.6469013,84.0714151,22.8930056]},"geometry":{"type":"Point","coordinates":[83.92515533649464,22.781109571755703]}},{"type":"Feature","id":"in-chhattisgarh-t-3344","properties":{"id":"in-chhattisgarh-t-3344","name":"Kurud","region":"in-chhattisgarh","level":"tehsil","parent":"in-chhattisgarh-d-377","district":"Dhamtari","source":"LGD via Bharatlas · 2024 snapshot","state_lgd":22,"district_lgd":377,"subdistrict_lgd":3344,"center":[81.68303538510249,20.89388976014446],"bbox":[81.4720844,20.740943,81.8354674,21.0269085]},"geometry":{"type":"Point","coordinates":[81.68303538510249,20.89388976014446]}},{"type":"Feature","id":"in-chhattisgarh-t-3264","properties":{"id":"in-chhattisgarh-t-3264","name":"Lailunga","region":"in-chhattisgarh","level":"tehsil","parent":"in-chhattisgarh-d-386","district":"Raigarh","source":"LGD via Bharatlas · 2024 snapshot","state_lgd":22,"district_lgd":386,"subdistrict_lgd":3264,"center":[83.58278667257828,22.349879638677418],"bbox":[83.4112432,22.1871429,83.8036339,22.543891]},"geometry":{"type":"Point","coordinates":[83.58278667257828,22.349879638677418]}},{"type":"Feature","id":"in-chhattisgarh-t-3248","properties":{"id":"in-chhattisgarh-t-3248","name":"Lakhanpur","region":"in-chhattisgarh","level":"tehsil","parent":"in-chhattisgarh-d-389","district":"Surguja","source":"LGD via Bharatlas · 2024 snapshot","state_lgd":22,"district_lgd":389,"subdistrict_lgd":3248,"center":[83.07596973821623,22.924381899290026],"bbox":[82.9492566,22.7241406,83.1856478,23.0978815]},"geometry":{"type":"Point","coordinates":[83.07596973821623,22.924381899290026]}},{"type":"Feature","id":"in-chhattisgarh-t-3361","properties":{"id":"in-chhattisgarh-t-3361","name":"Lohandiguda","region":"in-chhattisgarh","level":"tehsil","parent":"in-chhattisgarh-d-374","district":"Bastar","source":"LGD via Bharatlas · 2024 snapshot","state_lgd":22,"district_lgd":374,"subdistrict_lgd":3361,"center":[81.6000824009713,19.15909097347233],"bbox":[81.3439289,18.9975145,81.8371681,19.3205172]},"geometry":{"type":"Point","coordinates":[81.6000824009713,19.15909097347233]}},{"type":"Feature","id":"in-chhattisgarh-t-3290","properties":{"id":"in-chhattisgarh-t-3290","name":"Lormi","region":"in-chhattisgarh","level":"tehsil","parent":"in-chhattisgarh-d-647","district":"Mungeli","source":"LGD via Bharatlas · 2024 snapshot","state_lgd":22,"district_lgd":647,"subdistrict_lgd":3290,"center":[81.69985008987528,22.386341248999074],"bbox":[81.4699408,22.1324503,81.9763984,22.6740781]},"geometry":{"type":"Point","coordinates":[81.69985008987528,22.386341248999074]}},{"type":"Feature","id":"in-chhattisgarh-t-3251","properties":{"id":"in-chhattisgarh-t-3251","name":"Lundra","region":"in-chhattisgarh","level":"tehsil","parent":"in-chhattisgarh-d-389","district":"Surguja","source":"LGD via Bharatlas · 2024 snapshot","state_lgd":22,"district_lgd":389,"subdistrict_lgd":3251,"center":[83.4088703887005,23.137617785822837],"bbox":[83.237148,23.0146403,83.5630793,23.2701541]},"geometry":{"type":"Point","coordinates":[83.4088703887005,23.137617785822837]}},{"type":"Feature","id":"in-chhattisgarh-t-3345","properties":{"id":"in-chhattisgarh-t-3345","name":"Magarlod","region":"in-chhattisgarh","level":"tehsil","parent":"in-chhattisgarh-d-377","district":"Dhamtari","source":"LGD via Bharatlas · 2024 snapshot","state_lgd":22,"district_lgd":377,"subdistrict_lgd":3345,"center":[81.86152797047396,20.704530076391027],"bbox":[81.7018303,20.4972553,82.0203399,20.9645892]},"geometry":{"type":"Point","coordinates":[81.86152797047396,20.704530076391027]}},{"type":"Feature","id":"in-chhattisgarh-t-3341","properties":{"id":"in-chhattisgarh-t-3341","name":"Mahasamund","region":"in-chhattisgarh","level":"tehsil","parent":"in-chhattisgarh-d-385","district":"Mahasamund","source":"LGD via Bharatlas · 2024 snapshot","state_lgd":22,"district_lgd":385,"subdistrict_lgd":3341,"center":[82.20178119070052,21.19914791414809],"bbox":[81.9881833,21.0069066,82.4691175,21.4348188]},"geometry":{"type":"Point","coordinates":[82.20178119070052,21.19914791414809]}},{"type":"Feature","id":"in-chhattisgarh-t-3254","properties":{"id":"in-chhattisgarh-t-3254","name":"Mainpat","region":"in-chhattisgarh","level":"tehsil","parent":"in-chhattisgarh-d-389","district":"Surguja","source":"LGD via Bharatlas · 2024 snapshot","state_lgd":22,"district_lgd":389,"subdistrict_lgd":3254,"center":[83.30635331944228,22.8402451299362],"bbox":[83.1459614,22.7293799,83.4941268,22.9543882]},"geometry":{"type":"Point","coordinates":[83.30635331944228,22.8402451299362]}},{"type":"Feature","id":"in-chhattisgarh-t-3337","properties":{"id":"in-chhattisgarh-t-3337","name":"Mainpur","region":"in-chhattisgarh","level":"tehsil","parent":"in-chhattisgarh-d-645","district":"Gariyaband","source":"LGD via Bharatlas · 2024 snapshot","state_lgd":22,"district_lgd":645,"subdistrict_lgd":3337,"center":[82.29762468099635,20.125573073243896],"bbox":[82.0176803,19.8350173,82.6356933,20.3989597]},"geometry":{"type":"Point","coordinates":[82.29762468099635,20.125573073243896]}},{"type":"Feature","id":"in-chhattisgarh-t-3358","properties":{"id":"in-chhattisgarh-t-3358","name":"Makdi","region":"in-chhattisgarh","level":"tehsil","parent":"in-chhattisgarh-d-643","district":"Kondagaon","source":"LGD via Bharatlas · 2024 snapshot","state_lgd":22,"district_lgd":643,"subdistrict_lgd":3358,"center":[81.89291827983693,19.728311534337777],"bbox":[81.6723185,19.4903324,82.0662572,19.8951883]},"geometry":{"type":"Point","coordinates":[81.89291827983693,19.728311534337777]}},{"type":"Feature","id":"in-chhattisgarh-t-3285","properties":{"id":"in-chhattisgarh-t-3285","name":"Malkharoda","region":"in-chhattisgarh","level":"tehsil","parent":"in-chhattisgarh-d-762","district":"Sakti","source":"LGD via Bharatlas · 2024 snapshot","state_lgd":22,"district_lgd":762,"subdistrict_lgd":3285,"center":[82.98468971691584,21.826030513449894],"bbox":[82.9185601,21.7219417,83.0822627,21.9229821]},"geometry":{"type":"Point","coordinates":[82.98468971691584,21.826030513449894]}},{"type":"Feature","id":"in-chhattisgarh-t-3234","properties":{"id":"in-chhattisgarh-t-3234","name":"Manendragarh","region":"in-chhattisgarh","level":"tehsil","parent":"in-chhattisgarh-d-760","district":"Manendragarh Chirimiri Bharatpur","source":"LGD via Bharatlas · 2024 snapshot","state_lgd":22,"district_lgd":760,"subdistrict_lgd":3234,"center":[82.26020088541073,23.20821521600398],"bbox":[82.1222495,23.0809718,82.4272249,23.3249703]},"geometry":{"type":"Point","coordinates":[82.26020088541073,23.20821521600398]}},{"type":"Feature","id":"in-chhattisgarh-t-3258","properties":{"id":"in-chhattisgarh-t-3258","name":"Manora","region":"in-chhattisgarh","level":"tehsil","parent":"in-chhattisgarh-d-380","district":"Jashpur","source":"LGD via Bharatlas · 2024 snapshot","state_lgd":22,"district_lgd":380,"subdistrict_lgd":3258,"center":[83.99749635693443,23.01322002829652],"bbox":[83.8267229,22.8483326,84.1549507,23.1955532]},"geometry":{"type":"Point","coordinates":[83.99749635693443,23.01322002829652]}},{"type":"Feature","id":"in-chhattisgarh-t-3309","properties":{"id":"in-chhattisgarh-t-3309","name":"Manpur","region":"in-chhattisgarh","level":"tehsil","parent":"in-chhattisgarh-d-761","district":"Mohla Manpur Ambagarh Chouki","source":"LGD via Bharatlas · 2024 snapshot","state_lgd":22,"district_lgd":761,"subdistrict_lgd":3309,"center":[80.78375346636875,20.411519584315485],"bbox":[80.6842409,20.2861176,80.8506164,20.5321881]},"geometry":{"type":"Point","coordinates":[80.78375346636875,20.411519584315485]}},{"type":"Feature","id":"in-chhattisgarh-t-3288","properties":{"id":"in-chhattisgarh-t-3288","name":"Marwahi","region":"in-chhattisgarh","level":"tehsil","parent":"in-chhattisgarh-d-734","district":"Gaurella Pendra Marwahi","source":"LGD via Bharatlas · 2024 snapshot","state_lgd":22,"district_lgd":734,"subdistrict_lgd":3288,"center":[82.05416567419446,22.961400231285523],"bbox":[81.8921241,22.8140356,82.2158414,23.1183247]},"geometry":{"type":"Point","coordinates":[82.05416567419446,22.961400231285523]}},{"type":"Feature","id":"in-chhattisgarh-t-3296","properties":{"id":"in-chhattisgarh-t-3296","name":"Masturi","region":"in-chhattisgarh","level":"tehsil","parent":"in-chhattisgarh-d-375","district":"Bilaspur","source":"LGD via Bharatlas · 2024 snapshot","state_lgd":22,"district_lgd":375,"subdistrict_lgd":3296,"center":[82.30933698097816,21.995272936747142],"bbox":[82.1816034,21.7114577,82.4729133,22.3211791]},"geometry":{"type":"Point","coordinates":[82.30933698097816,21.995272936747142]}},{"type":"Feature","id":"in-chhattisgarh-t-3308","properties":{"id":"in-chhattisgarh-t-3308","name":"Mohla","region":"in-chhattisgarh","level":"tehsil","parent":"in-chhattisgarh-d-761","district":"Mohla Manpur Ambagarh Chouki","source":"LGD via Bharatlas · 2024 snapshot","state_lgd":22,"district_lgd":761,"subdistrict_lgd":3308,"center":[80.75309687431341,20.585732518027587],"bbox":[80.4941495,20.4410388,81.0066311,20.7100959]},"geometry":{"type":"Point","coordinates":[80.75309687431341,20.585732518027587]}},{"type":"Feature","id":"in-chhattisgarh-t-3292","properties":{"id":"in-chhattisgarh-t-3292","name":"Mungeli","region":"in-chhattisgarh","level":"tehsil","parent":"in-chhattisgarh-d-647","district":"Mungeli","source":"LGD via Bharatlas · 2024 snapshot","state_lgd":22,"district_lgd":647,"subdistrict_lgd":3292,"center":[81.68053455298019,22.07577717424148],"bbox":[81.5009829,21.9436484,81.8955904,22.183772]},"geometry":{"type":"Point","coordinates":[81.68053455298019,22.07577717424148]}},{"type":"Feature","id":"in-chhattisgarh-t-3347","properties":{"id":"in-chhattisgarh-t-3347","name":"Nagri","region":"in-chhattisgarh","level":"tehsil","parent":"in-chhattisgarh-d-377","district":"Dhamtari","source":"LGD via Bharatlas · 2024 snapshot","state_lgd":22,"district_lgd":377,"subdistrict_lgd":3347,"center":[81.90395484223664,20.363555481468204],"bbox":[81.5954523,20.0438077,82.1802238,20.7103459]},"geometry":{"type":"Point","coordinates":[81.90395484223664,20.363555481468204]}},{"type":"Feature","id":"in-chhattisgarh-t-3367","properties":{"id":"in-chhattisgarh-t-3367","name":"Narayanpur","region":"in-chhattisgarh","level":"tehsil","parent":"in-chhattisgarh-d-637","district":"Narayanpur","source":"LGD via Bharatlas · 2024 snapshot","state_lgd":22,"district_lgd":637,"subdistrict_lgd":3367,"center":[81.32188750601487,19.567449889910083],"bbox":[80.9993746,19.3188662,81.5167395,19.8106996]},"geometry":{"type":"Point","coordinates":[81.32188750601487,19.567449889910083]}},{"type":"Feature","id":"in-chhattisgarh-t-3352","properties":{"id":"in-chhattisgarh-t-3352","name":"Narharpur","region":"in-chhattisgarh","level":"tehsil","parent":"in-chhattisgarh-d-381","district":"Kanker","source":"LGD via Bharatlas · 2024 snapshot","state_lgd":22,"district_lgd":381,"subdistrict_lgd":3352,"center":[81.65548843965303,20.32856308494396],"bbox":[81.4794973,20.1298315,81.8142312,20.5190255]},"geometry":{"type":"Point","coordinates":[81.65548843965303,20.32856308494396]}},{"type":"Feature","id":"in-chhattisgarh-t-3280","properties":{"id":"in-chhattisgarh-t-3280","name":"Nawagarh","region":"in-chhattisgarh","level":"tehsil","parent":"in-chhattisgarh-d-379","district":"Janjgir-Champa","source":"LGD via Bharatlas · 2024 snapshot","state_lgd":22,"district_lgd":379,"subdistrict_lgd":3280,"center":[82.63694157585957,21.82247759622887],"bbox":[82.5141943,21.7094957,82.7430395,21.9247392]},"geometry":{"type":"Point","coordinates":[82.63694157585957,21.82247759622887]}},{"type":"Feature","id":"in-chhattisgarh-t-3311","properties":{"id":"in-chhattisgarh-t-3311","name":"Nawagarh","region":"in-chhattisgarh","level":"tehsil","parent":"in-chhattisgarh-d-379","district":"Janjgir-Champa","source":"LGD via Bharatlas · 2024 snapshot","state_lgd":22,"district_lgd":379,"subdistrict_lgd":3311,"center":[81.7173846841673,21.878464918440866],"bbox":[81.5038531,21.7579271,81.9371066,22.0244917]},"geometry":{"type":"Point","coordinates":[81.7173846841673,21.878464918440866]}},{"type":"Feature","id":"in-chhattisgarh-t-3368","properties":{"id":"in-chhattisgarh-t-3368","name":"Orchha","region":"in-chhattisgarh","level":"tehsil","parent":"in-chhattisgarh-d-637","district":"Narayanpur","source":"LGD via Bharatlas · 2024 snapshot","state_lgd":22,"district_lgd":637,"subdistrict_lgd":3368,"center":[80.97976686239764,19.570965013163033],"bbox":[80.6626174,19.2278266,81.2927565,19.9473279]},"geometry":{"type":"Point","coordinates":[80.97976686239764,19.570965013163033]}},{"type":"Feature","id":"in-chhattisgarh-t-3243","properties":{"id":"in-chhattisgarh-t-3243","name":"Oudgi","region":"in-chhattisgarh","level":"tehsil","parent":"in-chhattisgarh-d-648","district":"Surajpur","source":"LGD via Bharatlas · 2024 snapshot","state_lgd":22,"district_lgd":648,"subdistrict_lgd":3243,"center":[82.77134298717854,23.617726051148242],"bbox":[82.4974036,23.3531221,83.055772,23.9189396]},"geometry":{"type":"Point","coordinates":[82.77134298717854,23.617726051148242]}},{"type":"Feature","id":"in-chhattisgarh-t-3354","properties":{"id":"in-chhattisgarh-t-3354","name":"Pakhanjur","region":"in-chhattisgarh","level":"tehsil","parent":"in-chhattisgarh-d-381","district":"Kanker","source":"LGD via Bharatlas · 2024 snapshot","state_lgd":22,"district_lgd":381,"subdistrict_lgd":3354,"center":[80.73957578287043,19.96559542583925],"bbox":[80.4014347,19.7020671,81.0892168,20.2264691]},"geometry":{"type":"Point","coordinates":[80.73957578287043,19.96559542583925]}},{"type":"Feature","id":"in-chhattisgarh-t-3327","properties":{"id":"in-chhattisgarh-t-3327","name":"Palari","region":"in-chhattisgarh","level":"tehsil","parent":"in-chhattisgarh-d-644","district":"Baloda Bazar","source":"LGD via Bharatlas · 2024 snapshot","state_lgd":22,"district_lgd":644,"subdistrict_lgd":3327,"center":[82.15096766170862,21.507173862414405],"bbox":[81.9596191,21.3587674,82.3439602,21.6242867]},"geometry":{"type":"Point","coordinates":[82.15096766170862,21.507173862414405]}},{"type":"Feature","id":"in-chhattisgarh-t-3274","properties":{"id":"in-chhattisgarh-t-3274","name":"Pali","region":"in-chhattisgarh","level":"tehsil","parent":"in-chhattisgarh-d-383","district":"Korba","source":"LGD via Bharatlas · 2024 snapshot","state_lgd":22,"district_lgd":383,"subdistrict_lgd":3274,"center":[82.34133477597344,22.447759281819174],"bbox":[82.1379636,22.2078708,82.5932068,22.7063593]},"geometry":{"type":"Point","coordinates":[82.34133477597344,22.447759281819174]}},{"type":"Feature","id":"in-chhattisgarh-t-3283","properties":{"id":"in-chhattisgarh-t-3283","name":"Pamgarh","region":"in-chhattisgarh","level":"tehsil","parent":"in-chhattisgarh-d-379","district":"Janjgir-Champa","source":"LGD via Bharatlas · 2024 snapshot","state_lgd":22,"district_lgd":379,"subdistrict_lgd":3283,"center":[82.45037983566877,21.83882204712323],"bbox":[82.3040752,21.7271034,82.5980463,21.976205]},"geometry":{"type":"Point","coordinates":[82.45037983566877,21.83882204712323]}},{"type":"Feature","id":"in-chhattisgarh-t-3301","properties":{"id":"in-chhattisgarh-t-3301","name":"Pandariya","region":"in-chhattisgarh","level":"tehsil","parent":"in-chhattisgarh-d-382","district":"Kabirdham","source":"LGD via Bharatlas · 2024 snapshot","state_lgd":22,"district_lgd":382,"subdistrict_lgd":3301,"center":[81.40647667612194,22.284437303286744],"bbox":[81.1968363,22.0048722,81.5560631,22.5261441]},"geometry":{"type":"Point","coordinates":[81.40647667612194,22.284437303286744]}},{"type":"Feature","id":"in-chhattisgarh-t-3318","properties":{"id":"in-chhattisgarh-t-3318","name":"Patan","region":"in-chhattisgarh","level":"tehsil","parent":"in-chhattisgarh-d-378","district":"Durg","source":"LGD via Bharatlas · 2024 snapshot","state_lgd":22,"district_lgd":378,"subdistrict_lgd":3318,"center":[81.49628817914494,21.061505042931895],"bbox":[81.387868,20.8490981,81.625429,21.2479479]},"geometry":{"type":"Point","coordinates":[81.49628817914494,21.061505042931895]}},{"type":"Feature","id":"in-chhattisgarh-t-3262","properties":{"id":"in-chhattisgarh-t-3262","name":"Pathalgaon","region":"in-chhattisgarh","level":"tehsil","parent":"in-chhattisgarh-d-380","district":"Jashpur","source":"LGD via Bharatlas · 2024 snapshot","state_lgd":22,"district_lgd":380,"subdistrict_lgd":3262,"center":[83.60822386761551,22.546999079962536],"bbox":[83.3798147,22.3756253,83.7950105,22.6960072]},"geometry":{"type":"Point","coordinates":[83.60822386761551,22.546999079962536]}},{"type":"Feature","id":"in-chhattisgarh-t-3293","properties":{"id":"in-chhattisgarh-t-3293","name":"Pathariya","region":"in-chhattisgarh","level":"tehsil","parent":"in-chhattisgarh-d-647","district":"Mungeli","source":"LGD via Bharatlas · 2024 snapshot","state_lgd":22,"district_lgd":647,"subdistrict_lgd":3293,"center":[81.88886993312012,21.964815282731376],"bbox":[81.7266124,21.8139059,82.0370001,22.1073044]},"geometry":{"type":"Point","coordinates":[81.88886993312012,21.964815282731376]}},{"type":"Feature","id":"in-chhattisgarh-t-3289","properties":{"id":"in-chhattisgarh-t-3289","name":"Pendra","region":"in-chhattisgarh","level":"tehsil","parent":"in-chhattisgarh-d-734","district":"Gaurella Pendra Marwahi","source":"LGD via Bharatlas · 2024 snapshot","state_lgd":22,"district_lgd":734,"subdistrict_lgd":3289,"center":[82.09329505096294,22.716602926248086],"bbox":[81.9219904,22.5441677,82.2398828,22.8603408]},"geometry":{"type":"Point","coordinates":[82.09329505096294,22.716602926248086]}},{"type":"Feature","id":"in-chhattisgarh-t-3287","properties":{"id":"in-chhattisgarh-t-3287","name":"Pendra Road Gorella","region":"in-chhattisgarh","level":"tehsil","parent":"in-chhattisgarh-d-734","district":"Gaurella Pendra Marwahi","source":"LGD via Bharatlas · 2024 snapshot","state_lgd":22,"district_lgd":734,"subdistrict_lgd":3287,"center":[81.88906390855605,22.71791873994729],"bbox":[81.7264224,22.5629132,82.0938152,22.9231301]},"geometry":{"type":"Point","coordinates":[81.88906390855605,22.71791873994729]}},{"type":"Feature","id":"in-chhattisgarh-t-3342","properties":{"id":"in-chhattisgarh-t-3342","name":"Pithora","region":"in-chhattisgarh","level":"tehsil","parent":"in-chhattisgarh-d-385","district":"Mahasamund","source":"LGD via Bharatlas · 2024 snapshot","state_lgd":22,"district_lgd":385,"subdistrict_lgd":3342,"center":[82.62708669459441,21.255909252564003],"bbox":[82.4140434,21.0335944,82.8272609,21.5241492]},"geometry":{"type":"Point","coordinates":[82.62708669459441,21.255909252564003]}},{"type":"Feature","id":"in-chhattisgarh-t-3273","properties":{"id":"in-chhattisgarh-t-3273","name":"Poundi-Uproda","region":"in-chhattisgarh","level":"tehsil","parent":"in-chhattisgarh-d-383","district":"Korba","source":"LGD via Bharatlas · 2024 snapshot","state_lgd":22,"district_lgd":383,"subdistrict_lgd":3273,"center":[82.5864792030428,22.66137618439477],"bbox":[82.3622167,22.455189,82.8324812,22.8337872]},"geometry":{"type":"Point","coordinates":[82.5864792030428,22.66137618439477]}},{"type":"Feature","id":"in-chhattisgarh-t-3239","properties":{"id":"in-chhattisgarh-t-3239","name":"Pratappur","region":"in-chhattisgarh","level":"tehsil","parent":"in-chhattisgarh-d-648","district":"Surajpur","source":"LGD via Bharatlas · 2024 snapshot","state_lgd":22,"district_lgd":648,"subdistrict_lgd":3239,"center":[83.10279926120735,23.54621446844591],"bbox":[82.804891,23.2627562,83.3584584,23.8034735]},"geometry":{"type":"Point","coordinates":[83.10279926120735,23.54621446844591]}},{"type":"Feature","id":"in-chhattisgarh-t-3246","properties":{"id":"in-chhattisgarh-t-3246","name":"Premnagar","region":"in-chhattisgarh","level":"tehsil","parent":"in-chhattisgarh-d-648","district":"Surajpur","source":"LGD via Bharatlas · 2024 snapshot","state_lgd":22,"district_lgd":648,"subdistrict_lgd":3246,"center":[82.70983727286917,22.950002242283894],"bbox":[82.555846,22.7954727,82.9258788,23.0814431]},"geometry":{"type":"Point","coordinates":[82.70983727286917,22.950002242283894]}},{"type":"Feature","id":"in-chhattisgarh-t-3268","properties":{"id":"in-chhattisgarh-t-3268","name":"Pusour","region":"in-chhattisgarh","level":"tehsil","parent":"in-chhattisgarh-d-386","district":"Raigarh","source":"LGD via Bharatlas · 2024 snapshot","state_lgd":22,"district_lgd":386,"subdistrict_lgd":3268,"center":[83.36604615753352,21.777377638805284],"bbox":[83.2354826,21.6798096,83.4940312,21.8784927]},"geometry":{"type":"Point","coordinates":[83.36604615753352,21.777377638805284]}},{"type":"Feature","id":"in-chhattisgarh-t-3267","properties":{"id":"in-chhattisgarh-t-3267","name":"Raigarh","region":"in-chhattisgarh","level":"tehsil","parent":"in-chhattisgarh-d-386","district":"Raigarh","source":"LGD via Bharatlas · 2024 snapshot","state_lgd":22,"district_lgd":386,"subdistrict_lgd":3267,"center":[83.40460804282851,21.923182702752293],"bbox":[83.1785437,21.7904482,83.6059233,22.0583419]},"geometry":{"type":"Point","coordinates":[83.40460804282851,21.923182702752293]}},{"type":"Feature","id":"in-chhattisgarh-t-3332","properties":{"id":"in-chhattisgarh-t-3332","name":"Raipur","region":"in-chhattisgarh","level":"tehsil","parent":"in-chhattisgarh-d-387","district":"Raipur","source":"LGD via Bharatlas · 2024 snapshot","state_lgd":22,"district_lgd":387,"subdistrict_lgd":3332,"center":[81.67650007969065,21.31208230549753],"bbox":[81.5340897,21.126403,81.8304092,21.4892683]},"geometry":{"type":"Point","coordinates":[81.67650007969065,21.31208230549753]}},{"type":"Feature","id":"in-chhattisgarh-t-3333","properties":{"id":"in-chhattisgarh-t-3333","name":"Rajim","region":"in-chhattisgarh","level":"tehsil","parent":"in-chhattisgarh-d-645","district":"Gariyaband","source":"LGD via Bharatlas · 2024 snapshot","state_lgd":22,"district_lgd":645,"subdistrict_lgd":3333,"center":[81.99697990154294,20.945302155333234],"bbox":[81.8731619,20.8116176,82.165056,21.0833353]},"geometry":{"type":"Point","coordinates":[81.99697990154294,20.945302155333234]}},{"type":"Feature","id":"in-chhattisgarh-t-3305","properties":{"id":"in-chhattisgarh-t-3305","name":"Rajnandgaon","region":"in-chhattisgarh","level":"tehsil","parent":"in-chhattisgarh-d-388","district":"Rajnandgaon","source":"LGD via Bharatlas · 2024 snapshot","state_lgd":22,"district_lgd":388,"subdistrict_lgd":3305,"center":[81.08172804743785,21.180957481402302],"bbox":[80.9213536,20.9927387,81.2166326,21.3718472]},"geometry":{"type":"Point","coordinates":[81.08172804743785,21.180957481402302]}},{"type":"Feature","id":"in-chhattisgarh-t-3250","properties":{"id":"in-chhattisgarh-t-3250","name":"Rajpur","region":"in-chhattisgarh","level":"tehsil","parent":"in-chhattisgarh-d-649","district":"Balrampur","source":"LGD via Bharatlas · 2024 snapshot","state_lgd":22,"district_lgd":649,"subdistrict_lgd":3250,"center":[83.37949060834647,23.351918184187117],"bbox":[83.1979963,23.172819,83.6609742,23.5593854]},"geometry":{"type":"Point","coordinates":[83.37949060834647,23.351918184187117]}},{"type":"Feature","id":"in-chhattisgarh-t-3236","properties":{"id":"in-chhattisgarh-t-3236","name":"Ramanujganj","region":"in-chhattisgarh","level":"tehsil","parent":"in-chhattisgarh-d-649","district":"Balrampur","source":"LGD via Bharatlas · 2024 snapshot","state_lgd":22,"district_lgd":649,"subdistrict_lgd":3236,"center":[83.46354643170145,23.88402334809367],"bbox":[83.2037871,23.6787784,83.746068,24.1062771]},"geometry":{"type":"Point","coordinates":[83.46354643170145,23.88402334809367]}},{"type":"Feature","id":"in-chhattisgarh-t-3245","properties":{"id":"in-chhattisgarh-t-3245","name":"Ramanujnagar","region":"in-chhattisgarh","level":"tehsil","parent":"in-chhattisgarh-d-648","district":"Surajpur","source":"LGD via Bharatlas · 2024 snapshot","state_lgd":22,"district_lgd":648,"subdistrict_lgd":3245,"center":[82.72769949218781,23.14384037916932],"bbox":[82.5689843,23.0343443,82.8524718,23.2794693]},"geometry":{"type":"Point","coordinates":[82.72769949218781,23.14384037916932]}},{"type":"Feature","id":"in-chhattisgarh-t-3300","properties":{"id":"in-chhattisgarh-t-3300","name":"Sahaspur Lohara","region":"in-chhattisgarh","level":"tehsil","parent":"in-chhattisgarh-d-382","district":"Kabirdham","source":"LGD via Bharatlas · 2024 snapshot","state_lgd":22,"district_lgd":382,"subdistrict_lgd":3300,"center":[81.17901994201439,21.81582063176712],"bbox":[80.9698902,21.7036431,81.4020631,21.953859]},"geometry":{"type":"Point","coordinates":[81.17901994201439,21.81582063176712]}},{"type":"Feature","id":"in-chhattisgarh-t-3313","properties":{"id":"in-chhattisgarh-t-3313","name":"Saja","region":"in-chhattisgarh","level":"tehsil","parent":"in-chhattisgarh-d-650","district":"Bemetara","source":"LGD via Bharatlas · 2024 snapshot","state_lgd":22,"district_lgd":650,"subdistrict_lgd":3313,"center":[81.26766488161869,21.626880362361675],"bbox":[81.1388207,21.5056668,81.4202533,21.7568799]},"geometry":{"type":"Point","coordinates":[81.26766488161869,21.626880362361675]}},{"type":"Feature","id":"in-chhattisgarh-t-3282","properties":{"id":"in-chhattisgarh-t-3282","name":"Sakti","region":"in-chhattisgarh","level":"tehsil","parent":"in-chhattisgarh-d-762","district":"Sakti","source":"LGD via Bharatlas · 2024 snapshot","state_lgd":22,"district_lgd":762,"subdistrict_lgd":3282,"center":[82.92667769676599,22.06707524672343],"bbox":[82.804653,21.9591414,83.0335772,22.1722694]},"geometry":{"type":"Point","coordinates":[82.92667769676599,22.06707524672343]}},{"type":"Feature","id":"in-chhattisgarh-t-7294","properties":{"id":"in-chhattisgarh-t-7294","name":"Salhewara","region":"in-chhattisgarh","level":"tehsil","parent":"in-chhattisgarh-d-759","district":"Khairgarh Chhuikhadan Gandai","source":"LGD via Bharatlas · 2024 snapshot","state_lgd":22,"district_lgd":759,"subdistrict_lgd":7294,"center":[80.83232734788312,21.65278211046015],"bbox":[80.7143744,21.4730055,80.9759903,21.8354777]},"geometry":{"type":"Point","coordinates":[80.83232734788312,21.65278211046015]}},{"type":"Feature","id":"in-chhattisgarh-t-3240","properties":{"id":"in-chhattisgarh-t-3240","name":"Samri(kusmi)","region":"in-chhattisgarh","level":"tehsil","parent":"in-chhattisgarh-d-649","district":"Balrampur","source":"LGD via Bharatlas · 2024 snapshot","state_lgd":22,"district_lgd":649,"subdistrict_lgd":3240,"center":[83.90325987431821,23.400444780408467],"bbox":[83.7113732,23.1506168,84.0748415,23.6344773]},"geometry":{"type":"Point","coordinates":[83.90325987431821,23.400444780408467]}},{"type":"Feature","id":"in-chhattisgarh-t-3340","properties":{"id":"in-chhattisgarh-t-3340","name":"Saraipali","region":"in-chhattisgarh","level":"tehsil","parent":"in-chhattisgarh-d-385","district":"Mahasamund","source":"LGD via Bharatlas · 2024 snapshot","state_lgd":22,"district_lgd":385,"subdistrict_lgd":3340,"center":[83.0834610285232,21.282889992446158],"bbox":[82.8964566,21.1058148,83.2793568,21.4972119]},"geometry":{"type":"Point","coordinates":[83.0834610285232,21.282889992446158]}},{"type":"Feature","id":"in-chhattisgarh-t-3270","properties":{"id":"in-chhattisgarh-t-3270","name":"Sarangarh","region":"in-chhattisgarh","level":"tehsil","parent":"in-chhattisgarh-d-763","district":"Sarangarh Bilaigarh","source":"LGD via Bharatlas · 2024 snapshot","state_lgd":22,"district_lgd":763,"subdistrict_lgd":3270,"center":[83.08838766961745,21.5738299206233],"bbox":[82.9230785,21.3627676,83.2326069,21.7434474]},"geometry":{"type":"Point","coordinates":[83.08838766961745,21.5738299206233]}},{"type":"Feature","id":"in-chhattisgarh-t-7240","properties":{"id":"in-chhattisgarh-t-7240","name":"Sariya","region":"in-chhattisgarh","level":"tehsil","parent":"in-chhattisgarh-d-763","district":"Sarangarh Bilaigarh","source":"LGD via Bharatlas · 2024 snapshot","state_lgd":22,"district_lgd":763,"subdistrict_lgd":7240,"center":[83.3176503140136,21.640931727413726],"bbox":[83.2018664,21.560768,83.4920008,21.7018283]},"geometry":{"type":"Point","coordinates":[83.3176503140136,21.640931727413726]}},{"type":"Feature","id":"in-chhattisgarh-t-3241","properties":{"id":"in-chhattisgarh-t-3241","name":"Shankargarh","region":"in-chhattisgarh","level":"tehsil","parent":"in-chhattisgarh-d-649","district":"Balrampur","source":"LGD via Bharatlas · 2024 snapshot","state_lgd":22,"district_lgd":649,"subdistrict_lgd":3241,"center":[83.65209201611502,23.318935660403266],"bbox":[83.4770768,23.174878,83.8429577,23.4896259]},"geometry":{"type":"Point","coordinates":[83.65209201611502,23.318935660403266]}},{"type":"Feature","id":"in-chhattisgarh-t-3324","properties":{"id":"in-chhattisgarh-t-3324","name":"Simga","region":"in-chhattisgarh","level":"tehsil","parent":"in-chhattisgarh-d-644","district":"Baloda Bazar","source":"LGD via Bharatlas · 2024 snapshot","state_lgd":22,"district_lgd":644,"subdistrict_lgd":3324,"center":[81.86320035388569,21.646839401744785],"bbox":[81.6572988,21.4716811,82.0561311,21.7771517]},"geometry":{"type":"Point","coordinates":[81.86320035388569,21.646839401744785]}},{"type":"Feature","id":"in-chhattisgarh-t-3252","properties":{"id":"in-chhattisgarh-t-3252","name":"Sitapur","region":"in-chhattisgarh","level":"tehsil","parent":"in-chhattisgarh-d-389","district":"Surguja","source":"LGD via Bharatlas · 2024 snapshot","state_lgd":22,"district_lgd":389,"subdistrict_lgd":3252,"center":[83.5270917857556,22.75235828835469],"bbox":[83.3655609,22.6228689,83.6905672,22.8949858]},"geometry":{"type":"Point","coordinates":[83.5270917857556,22.75235828835469]}},{"type":"Feature","id":"in-chhattisgarh-t-3233","properties":{"id":"in-chhattisgarh-t-3233","name":"Sonhat","region":"in-chhattisgarh","level":"tehsil","parent":"in-chhattisgarh-d-384","district":"Korea","source":"LGD via Bharatlas · 2024 snapshot","state_lgd":22,"district_lgd":384,"subdistrict_lgd":3233,"center":[82.45557890702179,23.560840628780742],"bbox":[82.2484855,23.305823,82.6564966,23.8118749]},"geometry":{"type":"Point","coordinates":[82.45557890702179,23.560840628780742]}},{"type":"Feature","id":"in-chhattisgarh-t-3375","properties":{"id":"in-chhattisgarh-t-3375","name":"Sukma","region":"in-chhattisgarh","level":"tehsil","parent":"in-chhattisgarh-d-642","district":"Sukma","source":"LGD via Bharatlas · 2024 snapshot","state_lgd":22,"district_lgd":642,"subdistrict_lgd":3375,"center":[81.5981387867657,18.40291231476273],"bbox":[81.3696645,18.2618786,81.839566,18.5196282]},"geometry":{"type":"Point","coordinates":[81.5981387867657,18.40291231476273]}},{"type":"Feature","id":"in-chhattisgarh-t-3242","properties":{"id":"in-chhattisgarh-t-3242","name":"Surajpur","region":"in-chhattisgarh","level":"tehsil","parent":"in-chhattisgarh-d-648","district":"Surajpur","source":"LGD via Bharatlas · 2024 snapshot","state_lgd":22,"district_lgd":648,"subdistrict_lgd":3242,"center":[82.99559381596166,23.201816459200238],"bbox":[82.7971913,23.0676266,83.24722,23.3306887]},"geometry":{"type":"Point","coordinates":[82.99559381596166,23.201816459200238]}},{"type":"Feature","id":"in-chhattisgarh-t-3294","properties":{"id":"in-chhattisgarh-t-3294","name":"Takhatpur","region":"in-chhattisgarh","level":"tehsil","parent":"in-chhattisgarh-d-375","district":"Bilaspur","source":"LGD via Bharatlas · 2024 snapshot","state_lgd":22,"district_lgd":375,"subdistrict_lgd":3294,"center":[81.97077886507623,22.14798673400507],"bbox":[81.7307044,21.9698625,82.1256752,22.3125606]},"geometry":{"type":"Point","coordinates":[81.97077886507623,22.14798673400507]}},{"type":"Feature","id":"in-chhattisgarh-t-3266","properties":{"id":"in-chhattisgarh-t-3266","name":"Tamnar","region":"in-chhattisgarh","level":"tehsil","parent":"in-chhattisgarh-d-386","district":"Raigarh","source":"LGD via Bharatlas · 2024 snapshot","state_lgd":22,"district_lgd":386,"subdistrict_lgd":3266,"center":[83.46300267905575,22.105787391547103],"bbox":[83.2157579,21.9811978,83.6193978,22.2629808]},"geometry":{"type":"Point","coordinates":[83.46300267905575,22.105787391547103]}},{"type":"Feature","id":"in-chhattisgarh-t-3314","properties":{"id":"in-chhattisgarh-t-3314","name":"Thanakhamria","region":"in-chhattisgarh","level":"tehsil","parent":"in-chhattisgarh-d-650","district":"Bemetara","source":"LGD via Bharatlas · 2024 snapshot","state_lgd":22,"district_lgd":650,"subdistrict_lgd":3314,"center":[81.39597374225833,21.77102737547741],"bbox":[81.2660936,21.6662165,81.502901,21.8896901]},"geometry":{"type":"Point","coordinates":[81.39597374225833,21.77102737547741]}},{"type":"Feature","id":"in-chhattisgarh-t-3334","properties":{"id":"in-chhattisgarh-t-3334","name":"Tilda","region":"in-chhattisgarh","level":"tehsil","parent":"in-chhattisgarh-d-387","district":"Raipur","source":"LGD via Bharatlas · 2024 snapshot","state_lgd":22,"district_lgd":387,"subdistrict_lgd":3334,"center":[81.84181671430524,21.472988246597133],"bbox":[81.6278187,21.3108464,82.0224736,21.6261391]},"geometry":{"type":"Point","coordinates":[81.84181671430524,21.472988246597133]}},{"type":"Feature","id":"in-chhattisgarh-t-3365","properties":{"id":"in-chhattisgarh-t-3365","name":"Tokapal","region":"in-chhattisgarh","level":"tehsil","parent":"in-chhattisgarh-d-374","district":"Bastar","source":"LGD via Bharatlas · 2024 snapshot","state_lgd":22,"district_lgd":374,"subdistrict_lgd":3365,"center":[81.8528770833147,19.066467336126376],"bbox":[81.7112248,18.9654022,81.9858528,19.2057286]},"geometry":{"type":"Point","coordinates":[81.8528770833147,19.066467336126376]}},{"type":"Feature","id":"in-chhattisgarh-t-7317","properties":{"id":"in-chhattisgarh-t-7317","name":"Tongpal","region":"in-chhattisgarh","level":"tehsil","parent":"in-chhattisgarh-d-642","district":"Sukma","source":"LGD via Bharatlas · 2024 snapshot","state_lgd":22,"district_lgd":642,"subdistrict_lgd":7317,"center":[81.82109439050542,18.683228996347445],"bbox":[81.6520304,18.5930094,81.9691482,18.7773307]},"geometry":{"type":"Point","coordinates":[81.82109439050542,18.683228996347445]}},{"type":"Feature","id":"in-chhattisgarh-t-3263","properties":{"id":"in-chhattisgarh-t-3263","name":"Udaipur (Dharamjaigarh)","region":"in-chhattisgarh","level":"tehsil","parent":"in-chhattisgarh-d-386","district":"Raigarh","source":"LGD via Bharatlas · 2024 snapshot","state_lgd":22,"district_lgd":386,"subdistrict_lgd":3263,"center":[83.23140184512972,22.466490513385004],"bbox":[82.9875803,22.0544602,83.4674522,22.7911951]},"geometry":{"type":"Point","coordinates":[83.23140184512972,22.466490513385004]}},{"type":"Feature","id":"in-chhattisgarh-t-3249","properties":{"id":"in-chhattisgarh-t-3249","name":"Udaypur","region":"in-chhattisgarh","level":"tehsil","parent":"in-chhattisgarh-d-389","district":"Surguja","source":"LGD via Bharatlas · 2024 snapshot","state_lgd":22,"district_lgd":389,"subdistrict_lgd":3249,"center":[82.92653224054122,22.84628974898482],"bbox":[82.7557976,22.6386149,83.1249204,23.1169797]},"geometry":{"type":"Point","coordinates":[82.92653224054122,22.84628974898482]}},{"type":"Feature","id":"in-chhattisgarh-t-3377","properties":{"id":"in-chhattisgarh-t-3377","name":"Usur","region":"in-chhattisgarh","level":"tehsil","parent":"in-chhattisgarh-d-636","district":"Bijapur","source":"LGD via Bharatlas · 2024 snapshot","state_lgd":22,"district_lgd":636,"subdistrict_lgd":3377,"center":[80.83575548127985,18.48939310592554],"bbox":[80.4998092,18.1355546,81.0892731,18.7835006]},"geometry":{"type":"Point","coordinates":[80.83575548127985,18.48939310592554]}},{"type":"Feature","id":"in-chhattisgarh-t-3238","properties":{"id":"in-chhattisgarh-t-3238","name":"Wadrafnagar","region":"in-chhattisgarh","level":"tehsil","parent":"in-chhattisgarh-d-649","district":"Balrampur","source":"LGD via Bharatlas · 2024 snapshot","state_lgd":22,"district_lgd":649,"subdistrict_lgd":3238,"center":[83.13477895912231,23.782081463639358],"bbox":[82.69271,23.555779,83.4195941,23.962305]},"geometry":{"type":"Point","coordinates":[83.13477895912231,23.782081463639358]}}]}
