{"type":"FeatureCollection","features":[{"type":"Feature","id":"in-chhattisgarh-d-646","properties":{"id":"in-chhattisgarh-d-646","name":"Balod","region":"in-chhattisgarh","level":"district","parent":"","source":"LGD via Bharatlas · 2024 snapshot","state_lgd":22,"district_lgd":646,"center":[81.1885714987049,20.741540681292875],"bbox":[80.8031918,20.3769835,81.5170333,21.078573]},"geometry":{"type":"Point","coordinates":[81.1885714987049,20.741540681292875]}},{"type":"Feature","id":"in-chhattisgarh-d-644","properties":{"id":"in-chhattisgarh-d-644","name":"Baloda Bazar","region":"in-chhattisgarh","level":"district","parent":"","source":"LGD via Bharatlas · 2024 snapshot","state_lgd":22,"district_lgd":644,"center":[82.24458277992026,21.575536576508508],"bbox":[81.6572988,21.2622923,82.7029018,21.8838369]},"geometry":{"type":"Point","coordinates":[82.24458277992026,21.575536576508508]}},{"type":"Feature","id":"in-chhattisgarh-d-649","properties":{"id":"in-chhattisgarh-d-649","name":"Balrampur","region":"in-chhattisgarh","level":"district","parent":"","source":"LGD via Bharatlas · 2024 snapshot","state_lgd":22,"district_lgd":649,"center":[83.5006004278424,23.592129372055435],"bbox":[82.69271,23.1506168,84.0748415,24.1062771]},"geometry":{"type":"Point","coordinates":[83.5006004278424,23.592129372055435]}},{"type":"Feature","id":"in-chhattisgarh-d-374","properties":{"id":"in-chhattisgarh-d-374","name":"Bastar","region":"in-chhattisgarh","level":"district","parent":"","source":"LGD via Bharatlas · 2024 snapshot","state_lgd":22,"district_lgd":374,"center":[81.87074214691401,19.11038744293894],"bbox":[81.3439289,18.696371,82.246054,19.5523659]},"geometry":{"type":"Point","coordinates":[81.87074214691401,19.11038744293894]}},{"type":"Feature","id":"in-chhattisgarh-d-650","properties":{"id":"in-chhattisgarh-d-650","name":"Bemetara","region":"in-chhattisgarh","level":"district","parent":"","source":"LGD via Bharatlas · 2024 snapshot","state_lgd":22,"district_lgd":650,"center":[81.46987127620508,21.660879948289974],"bbox":[81.1388207,21.331912,81.7683415,22.018876]},"geometry":{"type":"Point","coordinates":[81.46987127620508,21.660879948289974]}},{"type":"Feature","id":"in-chhattisgarh-d-636","properties":{"id":"in-chhattisgarh-d-636","name":"Bijapur","region":"in-chhattisgarh","level":"district","parent":"","source":"LGD via Bharatlas · 2024 snapshot","state_lgd":22,"district_lgd":636,"center":[80.8015178520315,18.861220532002086],"bbox":[80.2444275,18.1355546,81.5021176,19.4024832]},"geometry":{"type":"Point","coordinates":[80.8015178520315,18.861220532002086]}},{"type":"Feature","id":"in-chhattisgarh-d-375","properties":{"id":"in-chhattisgarh-d-375","name":"Bilaspur","region":"in-chhattisgarh","level":"district","parent":"","source":"LGD via Bharatlas · 2024 snapshot","state_lgd":22,"district_lgd":375,"center":[82.1159060006453,22.1799597108993],"bbox":[81.7307044,21.7114577,82.4729133,22.6158356]},"geometry":{"type":"Point","coordinates":[82.1159060006453,22.1799597108993]}},{"type":"Feature","id":"in-chhattisgarh-d-376","properties":{"id":"in-chhattisgarh-d-376","name":"Dantewada","region":"in-chhattisgarh","level":"district","parent":"","source":"LGD via Bharatlas · 2024 snapshot","state_lgd":22,"district_lgd":376,"center":[81.39265313198767,18.802735130620025],"bbox":[81.1464373,18.3926298,81.7774425,19.2175486]},"geometry":{"type":"Point","coordinates":[81.39265313198767,18.802735130620025]}},{"type":"Feature","id":"in-chhattisgarh-d-377","properties":{"id":"in-chhattisgarh-d-377","name":"Dhamtari","region":"in-chhattisgarh","level":"district","parent":"","source":"LGD via Bharatlas · 2024 snapshot","state_lgd":22,"district_lgd":377,"center":[81.80907596483077,20.555211080341437],"bbox":[81.4101175,20.0438077,82.1802238,21.0269085]},"geometry":{"type":"Point","coordinates":[81.80907596483077,20.555211080341437]}},{"type":"Feature","id":"in-chhattisgarh-d-378","properties":{"id":"in-chhattisgarh-d-378","name":"Durg","region":"in-chhattisgarh","level":"district","parent":"","source":"LGD via Bharatlas · 2024 snapshot","state_lgd":22,"district_lgd":378,"center":[81.3832733864341,21.22034487070796],"bbox":[81.1484226,20.8490981,81.625429,21.5445265]},"geometry":{"type":"Point","coordinates":[81.3832733864341,21.22034487070796]}},{"type":"Feature","id":"in-chhattisgarh-d-645","properties":{"id":"in-chhattisgarh-d-645","name":"Gariyaband","region":"in-chhattisgarh","level":"district","parent":"","source":"LGD via Bharatlas · 2024 snapshot","state_lgd":22,"district_lgd":645,"center":[82.2352343041147,20.44808535308798],"bbox":[81.8731619,19.7752928,82.72412,21.0833353]},"geometry":{"type":"Point","coordinates":[82.2352343041147,20.44808535308798]}},{"type":"Feature","id":"in-chhattisgarh-d-734","properties":{"id":"in-chhattisgarh-d-734","name":"Gaurella Pendra Marwahi","region":"in-chhattisgarh","level":"district","parent":"","source":"LGD via Bharatlas · 2024 snapshot","state_lgd":22,"district_lgd":734,"center":[81.99885372709778,22.80496258646808],"bbox":[81.7264224,22.5441677,82.2398828,23.1183247]},"geometry":{"type":"Point","coordinates":[81.99885372709778,22.80496258646808]}},{"type":"Feature","id":"in-chhattisgarh-d-379","properties":{"id":"in-chhattisgarh-d-379","name":"Janjgir-Champa","region":"in-chhattisgarh","level":"district","parent":"","source":"LGD via Bharatlas · 2024 snapshot","state_lgd":22,"district_lgd":379,"center":[82.55964017359987,21.95564002164547],"bbox":[81.5038531,21.7094957,82.8423643,22.2634397]},"geometry":{"type":"Point","coordinates":[82.55964017359987,21.95564002164547]}},{"type":"Feature","id":"in-chhattisgarh-d-380","properties":{"id":"in-chhattisgarh-d-380","name":"Jashpur","region":"in-chhattisgarh","level":"district","parent":"","source":"LGD via Bharatlas · 2024 snapshot","state_lgd":22,"district_lgd":380,"center":[83.86251100118363,22.801104956694296],"bbox":[83.3798147,22.2889534,84.3955505,23.2516493]},"geometry":{"type":"Point","coordinates":[83.86251100118363,22.801104956694296]}},{"type":"Feature","id":"in-chhattisgarh-d-382","properties":{"id":"in-chhattisgarh-d-382","name":"Kabirdham","region":"in-chhattisgarh","level":"district","parent":"","source":"LGD via Bharatlas · 2024 snapshot","state_lgd":22,"district_lgd":382,"center":[81.22250774139894,22.092524306945748],"bbox":[80.8254944,21.703747,81.5560631,22.5261441]},"geometry":{"type":"Point","coordinates":[81.22250774139894,22.092524306945748]}},{"type":"Feature","id":"in-chhattisgarh-d-381","properties":{"id":"in-chhattisgarh-d-381","name":"Kanker","region":"in-chhattisgarh","level":"district","parent":"","source":"LGD via Bharatlas · 2024 snapshot","state_lgd":22,"district_lgd":381,"center":[81.12271064368015,20.137567800345842],"bbox":[80.4014347,19.7021534,81.8142312,20.5627966]},"geometry":{"type":"Point","coordinates":[81.12271064368015,20.137567800345842]}},{"type":"Feature","id":"in-chhattisgarh-d-759","properties":{"id":"in-chhattisgarh-d-759","name":"Khairgarh Chhuikhadan Gandai","region":"in-chhattisgarh","level":"district","parent":"","source":"LGD via Bharatlas · 2024 snapshot","state_lgd":22,"district_lgd":759,"center":[80.93984029814548,21.532649260445933],"bbox":[80.6711639,21.2229067,81.1954167,21.8354777]},"geometry":{"type":"Point","coordinates":[80.93984029814548,21.532649260445933]}},{"type":"Feature","id":"in-chhattisgarh-d-643","properties":{"id":"in-chhattisgarh-d-643","name":"Kondagaon","region":"in-chhattisgarh","level":"district","parent":"","source":"LGD via Bharatlas · 2024 snapshot","state_lgd":22,"district_lgd":643,"center":[81.6645900823693,19.745634854178828],"bbox":[81.2916529,19.2226565,82.0662572,20.1955188]},"geometry":{"type":"Point","coordinates":[81.6645900823693,19.745634854178828]}},{"type":"Feature","id":"in-chhattisgarh-d-383","properties":{"id":"in-chhattisgarh-d-383","name":"Korba","region":"in-chhattisgarh","level":"district","parent":"","source":"LGD via Bharatlas · 2024 snapshot","state_lgd":22,"district_lgd":383,"center":[82.60867757363025,22.53432919217476],"bbox":[82.1342533,22.039391,83.123226,23.0004169]},"geometry":{"type":"Point","coordinates":[82.60867757363025,22.53432919217476]}},{"type":"Feature","id":"in-chhattisgarh-d-384","properties":{"id":"in-chhattisgarh-d-384","name":"Korea","region":"in-chhattisgarh","level":"district","parent":"","source":"LGD via Bharatlas · 2024 snapshot","state_lgd":22,"district_lgd":384,"center":[82.49515159587249,23.46600823889662],"bbox":[82.2484855,23.1409159,82.7721516,23.8118749]},"geometry":{"type":"Point","coordinates":[82.49515159587249,23.46600823889662]}},{"type":"Feature","id":"in-chhattisgarh-d-385","properties":{"id":"in-chhattisgarh-d-385","name":"Mahasamund","region":"in-chhattisgarh","level":"district","parent":"","source":"LGD via Bharatlas · 2024 snapshot","state_lgd":22,"district_lgd":385,"center":[82.60831194372228,21.207969650657137],"bbox":[81.9881833,20.8275062,83.2793568,21.5565226]},"geometry":{"type":"Point","coordinates":[82.60831194372228,21.207969650657137]}},{"type":"Feature","id":"in-chhattisgarh-d-760","properties":{"id":"in-chhattisgarh-d-760","name":"Manendragarh Chirimiri Bharatpur","region":"in-chhattisgarh","level":"district","parent":"","source":"LGD via Bharatlas · 2024 snapshot","state_lgd":22,"district_lgd":760,"center":[82.11144554971119,23.471610895167398],"bbox":[81.5766845,22.9379224,82.6077064,23.9253673]},"geometry":{"type":"Point","coordinates":[82.11144554971119,23.471610895167398]}},{"type":"Feature","id":"in-chhattisgarh-d-761","properties":{"id":"in-chhattisgarh-d-761","name":"Mohla Manpur Ambagarh Chouki","region":"in-chhattisgarh","level":"district","parent":"","source":"LGD via Bharatlas · 2024 snapshot","state_lgd":22,"district_lgd":761,"center":[80.710944408408,20.511290090706446],"bbox":[80.3885239,20.1179615,81.0066311,20.8708523]},"geometry":{"type":"Point","coordinates":[80.710944408408,20.511290090706446]}},{"type":"Feature","id":"in-chhattisgarh-d-647","properties":{"id":"in-chhattisgarh-d-647","name":"Mungeli","region":"in-chhattisgarh","level":"district","parent":"","source":"LGD via Bharatlas · 2024 snapshot","state_lgd":22,"district_lgd":647,"center":[81.73055942778906,22.240398440745576],"bbox":[81.4699408,21.8139059,82.0370001,22.6740781]},"geometry":{"type":"Point","coordinates":[81.73055942778906,22.240398440745576]}},{"type":"Feature","id":"in-chhattisgarh-d-637","properties":{"id":"in-chhattisgarh-d-637","name":"Narayanpur","region":"in-chhattisgarh","level":"district","parent":"","source":"LGD via Bharatlas · 2024 snapshot","state_lgd":22,"district_lgd":637,"center":[81.08420842065804,19.56989278756383],"bbox":[80.6626174,19.2278266,81.5167395,19.9473279]},"geometry":{"type":"Point","coordinates":[81.08420842065804,19.56989278756383]}},{"type":"Feature","id":"in-chhattisgarh-d-386","properties":{"id":"in-chhattisgarh-d-386","name":"Raigarh","region":"in-chhattisgarh","level":"district","parent":"","source":"LGD via Bharatlas · 2024 snapshot","state_lgd":22,"district_lgd":386,"center":[83.33659607922823,22.226664407989002],"bbox":[82.9366338,21.6798096,83.8036339,22.7911951]},"geometry":{"type":"Point","coordinates":[83.33659607922823,22.226664407989002]}},{"type":"Feature","id":"in-chhattisgarh-d-387","properties":{"id":"in-chhattisgarh-d-387","name":"Raipur","region":"in-chhattisgarh","level":"district","parent":"","source":"LGD via Bharatlas · 2024 snapshot","state_lgd":22,"district_lgd":387,"center":[81.82008717300901,21.28580401797058],"bbox":[81.5340897,20.9402942,82.193468,21.6261391]},"geometry":{"type":"Point","coordinates":[81.82008717300901,21.28580401797058]}},{"type":"Feature","id":"in-chhattisgarh-d-388","properties":{"id":"in-chhattisgarh-d-388","name":"Rajnandgaon","region":"in-chhattisgarh","level":"district","parent":"","source":"LGD via Bharatlas · 2024 snapshot","state_lgd":22,"district_lgd":388,"center":[80.8175471486452,21.089028913665302],"bbox":[80.4241716,20.7646446,81.2166326,21.3718472]},"geometry":{"type":"Point","coordinates":[80.8175471486452,21.089028913665302]}},{"type":"Feature","id":"in-chhattisgarh-d-762","properties":{"id":"in-chhattisgarh-d-762","name":"Sakti","region":"in-chhattisgarh","level":"district","parent":"","source":"LGD via Bharatlas · 2024 snapshot","state_lgd":22,"district_lgd":762,"center":[82.97179450685385,21.89110209929648],"bbox":[82.7445133,21.6814393,83.317141,22.1722694]},"geometry":{"type":"Point","coordinates":[82.97179450685385,21.89110209929648]}},{"type":"Feature","id":"in-chhattisgarh-d-763","properties":{"id":"in-chhattisgarh-d-763","name":"Sarangarh Bilaigarh","region":"in-chhattisgarh","level":"district","parent":"","source":"LGD via Bharatlas · 2024 snapshot","state_lgd":22,"district_lgd":763,"center":[83.05684321694794,21.57725261314349],"bbox":[82.6112234,21.3426354,83.4920008,21.7434474]},"geometry":{"type":"Point","coordinates":[83.05684321694794,21.57725261314349]}},{"type":"Feature","id":"in-chhattisgarh-d-642","properties":{"id":"in-chhattisgarh-d-642","name":"Sukma","region":"in-chhattisgarh","level":"district","parent":"","source":"LGD via Bharatlas · 2024 snapshot","state_lgd":22,"district_lgd":642,"center":[81.378411578608,18.28395278950997],"bbox":[80.9114891,17.7823073,81.9691482,18.7773307]},"geometry":{"type":"Point","coordinates":[81.378411578608,18.28395278950997]}},{"type":"Feature","id":"in-chhattisgarh-d-648","properties":{"id":"in-chhattisgarh-d-648","name":"Surajpur","region":"in-chhattisgarh","level":"district","parent":"","source":"LGD via Bharatlas · 2024 snapshot","state_lgd":22,"district_lgd":648,"center":[82.8816040121927,23.402038365762653],"bbox":[82.4974036,22.7954727,83.3584584,23.9189396]},"geometry":{"type":"Point","coordinates":[82.8816040121927,23.402038365762653]}},{"type":"Feature","id":"in-chhattisgarh-d-389","properties":{"id":"in-chhattisgarh-d-389","name":"Surguja","region":"in-chhattisgarh","level":"district","parent":"","source":"LGD via Bharatlas · 2024 snapshot","state_lgd":22,"district_lgd":389,"center":[83.22688177135888,22.928594439843724],"bbox":[82.7557976,22.6228689,83.6905672,23.2701541]},"geometry":{"type":"Point","coordinates":[83.22688177135888,22.928594439843724]}}]}
