{"type":"FeatureCollection","features":[{"type":"Feature","id":"in-delhi-t-6076","properties":{"id":"in-delhi-t-6076","name":"Alipur","region":"in-delhi","level":"tehsil","parent":"in-delhi-d-80","district":"North","source":"LGD via Bharatlas · 2024 snapshot","state_lgd":7,"district_lgd":80,"subdistrict_lgd":6076,"center":[77.15477998615837,28.794332889412726],"bbox":[77.0835008,28.7060272,77.2243934,28.863596]},"geometry":{"type":"Point","coordinates":[77.15477998615837,28.794332889412726]}},{"type":"Feature","id":"in-delhi-t-443","properties":{"id":"in-delhi-t-443","name":"Chanakya Puri","region":"in-delhi","level":"tehsil","parent":"in-delhi-d-79","district":"New Delhi","source":"LGD via Bharatlas · 2024 snapshot","state_lgd":7,"district_lgd":79,"subdistrict_lgd":443,"center":[77.20769297901461,28.610981119838964],"bbox":[77.1683692,28.5808126,77.256066,28.6460949]},"geometry":{"type":"Point","coordinates":[77.20769297901461,28.610981119838964]}},{"type":"Feature","id":"in-delhi-t-433","properties":{"id":"in-delhi-t-433","name":"Civil Lines","region":"in-delhi","level":"tehsil","parent":"in-delhi-d-77","district":"Central","source":"LGD via Bharatlas · 2024 snapshot","state_lgd":7,"district_lgd":77,"subdistrict_lgd":433,"center":[77.20310707358948,28.67665668],"bbox":[77.1679007,28.6487856,77.2420043,28.788141]},"geometry":{"type":"Point","coordinates":[77.20310707358948,28.67665668]}},{"type":"Feature","id":"in-delhi-t-455","properties":{"id":"in-delhi-t-455","name":"Defence Colony","region":"in-delhi","level":"tehsil","parent":"in-delhi-d-670","district":"South East","source":"LGD via Bharatlas · 2024 snapshot","state_lgd":7,"district_lgd":670,"subdistrict_lgd":455,"center":[77.25224223069772,28.577852664477206],"bbox":[77.2001596,28.519175,77.3030291,28.6086682]},"geometry":{"type":"Point","coordinates":[77.25224223069772,28.577852664477206]}},{"type":"Feature","id":"in-delhi-t-452","properties":{"id":"in-delhi-t-452","name":"Delhi Cantonment","region":"in-delhi","level":"tehsil","parent":"in-delhi-d-79","district":"New Delhi","source":"LGD via Bharatlas · 2024 snapshot","state_lgd":7,"district_lgd":79,"subdistrict_lgd":452,"center":[77.12688092353301,28.592099669233427],"bbox":[77.0506294,28.5481981,77.18419,28.6410304]},"geometry":{"type":"Point","coordinates":[77.12688092353301,28.592099669233427]}},{"type":"Feature","id":"in-delhi-t-6086","properties":{"id":"in-delhi-t-6086","name":"Dwarka","region":"in-delhi","level":"tehsil","parent":"in-delhi-d-84","district":"South West","source":"LGD via Bharatlas · 2024 snapshot","state_lgd":7,"district_lgd":84,"subdistrict_lgd":6086,"center":[77.0518054542735,28.591692019638888],"bbox":[76.9916337,28.5480495,77.1061509,28.6293644]},"geometry":{"type":"Point","coordinates":[77.0518054542735,28.591692019638888]}},{"type":"Feature","id":"in-delhi-t-439","properties":{"id":"in-delhi-t-439","name":"Gandhi Nagar","region":"in-delhi","level":"tehsil","parent":"in-delhi-d-78","district":"East","source":"LGD via Bharatlas · 2024 snapshot","state_lgd":7,"district_lgd":78,"subdistrict_lgd":439,"center":[77.27994650094068,28.626546237987807],"bbox":[77.2709746,28.6181638,77.2863955,28.6341278]},"geometry":{"type":"Point","coordinates":[77.27994650094068,28.626546237987807]}},{"type":"Feature","id":"in-delhi-t-454","properties":{"id":"in-delhi-t-454","name":"Hauz Khas","region":"in-delhi","level":"tehsil","parent":"in-delhi-d-83","district":"South","source":"LGD via Bharatlas · 2024 snapshot","state_lgd":7,"district_lgd":83,"subdistrict_lgd":454,"center":[77.21481667769687,28.5368297353754],"bbox":[77.18114,28.5020046,77.2468467,28.5692426]},"geometry":{"type":"Point","coordinates":[77.21481667769687,28.5368297353754]}},{"type":"Feature","id":"in-delhi-t-456","properties":{"id":"in-delhi-t-456","name":"Kalkaji","region":"in-delhi","level":"tehsil","parent":"in-delhi-d-670","district":"South East","source":"LGD via Bharatlas · 2024 snapshot","state_lgd":7,"district_lgd":670,"subdistrict_lgd":456,"center":[77.26220207324921,28.52290819227366],"bbox":[77.2237902,28.4806522,77.3009666,28.5662737]},"geometry":{"type":"Point","coordinates":[77.26220207324921,28.52290819227366]}},{"type":"Feature","id":"in-delhi-t-6078","properties":{"id":"in-delhi-t-6078","name":"Kanjhawala","region":"in-delhi","level":"tehsil","parent":"in-delhi-d-82","district":"North West","source":"LGD via Bharatlas · 2024 snapshot","state_lgd":7,"district_lgd":82,"subdistrict_lgd":6078,"center":[76.99020225944206,28.74501435011267],"bbox":[76.9418907,28.6792077,77.0642191,28.8181831]},"geometry":{"type":"Point","coordinates":[76.99020225944206,28.74501435011267]}},{"type":"Feature","id":"in-delhi-t-6085","properties":{"id":"in-delhi-t-6085","name":"Kapeshera","region":"in-delhi","level":"tehsil","parent":"in-delhi-d-84","district":"South West","source":"LGD via Bharatlas · 2024 snapshot","state_lgd":7,"district_lgd":84,"subdistrict_lgd":6085,"center":[76.98386239420928,28.54476758464145],"bbox":[76.880409,28.5007765,77.1035962,28.6036538]},"geometry":{"type":"Point","coordinates":[76.98386239420928,28.54476758464145]}},{"type":"Feature","id":"in-delhi-t-6083","properties":{"id":"in-delhi-t-6083","name":"Karawal Nagar","region":"in-delhi","level":"tehsil","parent":"in-delhi-d-81","district":"North East","source":"LGD via Bharatlas · 2024 snapshot","state_lgd":7,"district_lgd":81,"subdistrict_lgd":6083,"center":[77.24924591756317,28.740260223490917],"bbox":[77.2160271,28.7111283,77.2907673,28.786533]},"geometry":{"type":"Point","coordinates":[77.24924591756317,28.740260223490917]}},{"type":"Feature","id":"in-delhi-t-447","properties":{"id":"in-delhi-t-447","name":"Karol Bagh","region":"in-delhi","level":"tehsil","parent":"in-delhi-d-77","district":"Central","source":"LGD via Bharatlas · 2024 snapshot","state_lgd":7,"district_lgd":77,"subdistrict_lgd":447,"center":[77.19634010510737,28.64740756],"bbox":[77.1752394,28.6236602,77.2348664,28.657585]},"geometry":{"type":"Point","coordinates":[77.19634010510737,28.64740756]}},{"type":"Feature","id":"in-delhi-t-435","properties":{"id":"in-delhi-t-435","name":"Kotwali","region":"in-delhi","level":"tehsil","parent":"in-delhi-d-77","district":"Central","source":"LGD via Bharatlas · 2024 snapshot","state_lgd":7,"district_lgd":77,"subdistrict_lgd":435,"center":[77.23715690152675,28.647083777500278],"bbox":[77.1930851,28.6129171,77.2665329,28.6707845]},"geometry":{"type":"Point","coordinates":[77.23715690152675,28.647083777500278]}},{"type":"Feature","id":"in-delhi-t-6084","properties":{"id":"in-delhi-t-6084","name":"Mayur Vihar","region":"in-delhi","level":"tehsil","parent":"in-delhi-d-78","district":"East","source":"LGD via Bharatlas · 2024 snapshot","state_lgd":7,"district_lgd":78,"subdistrict_lgd":6084,"center":[77.31384331640386,28.609995945301055],"bbox":[77.2808756,28.583839,77.3425627,28.6303059]},"geometry":{"type":"Point","coordinates":[77.31384331640386,28.609995945301055]}},{"type":"Feature","id":"in-delhi-t-6080","properties":{"id":"in-delhi-t-6080","name":"Mehrauli","region":"in-delhi","level":"tehsil","parent":"in-delhi-d-83","district":"South","source":"LGD via Bharatlas · 2024 snapshot","state_lgd":7,"district_lgd":83,"subdistrict_lgd":6080,"center":[77.15851302915185,28.473191728614196],"bbox":[77.1107776,28.4046676,77.2139029,28.5507977]},"geometry":{"type":"Point","coordinates":[77.15851302915185,28.473191728614196]}},{"type":"Feature","id":"in-delhi-t-432","properties":{"id":"in-delhi-t-432","name":"Model Town","region":"in-delhi","level":"tehsil","parent":"in-delhi-d-80","district":"North","source":"LGD via Bharatlas · 2024 snapshot","state_lgd":7,"district_lgd":80,"subdistrict_lgd":432,"center":[77.18575304463702,28.71884112171597],"bbox":[77.1576718,28.6844008,77.2221369,28.7596092]},"geometry":{"type":"Point","coordinates":[77.18575304463702,28.71884112171597]}},{"type":"Feature","id":"in-delhi-t-451","properties":{"id":"in-delhi-t-451","name":"Najafgarh","region":"in-delhi","level":"tehsil","parent":"in-delhi-d-84","district":"South West","source":"LGD via Bharatlas · 2024 snapshot","state_lgd":7,"district_lgd":84,"subdistrict_lgd":451,"center":[76.9247683437363,28.597814365365025],"bbox":[76.8388922,28.5198925,77.0177786,28.6701889]},"geometry":{"type":"Point","coordinates":[76.9247683437363,28.597814365365025]}},{"type":"Feature","id":"in-delhi-t-430","properties":{"id":"in-delhi-t-430","name":"Narela","region":"in-delhi","level":"tehsil","parent":"in-delhi-d-80","district":"North","source":"LGD via Bharatlas · 2024 snapshot","state_lgd":7,"district_lgd":80,"subdistrict_lgd":430,"center":[77.05670680182202,28.80626858405033],"bbox":[76.9617966,28.7280594,77.1311774,28.8834996]},"geometry":{"type":"Point","coordinates":[77.05670680182202,28.80626858405033]}},{"type":"Feature","id":"in-delhi-t-source-87","properties":{"id":"in-delhi-t-source-87","name":"NAZUL","region":"in-delhi","level":"tehsil","parent":"in-delhi-d-77","district":"Central","source":"LGD via Bharatlas · 2024 snapshot","state_lgd":7,"district_lgd":77,"subdistrict_lgd":null,"source_objectid":87,"center":[77.27107763850881,28.61417611],"bbox":[77.2298166,28.5711667,77.3031969,28.7145314]},"geometry":{"type":"Point","coordinates":[77.27107763850881,28.61417611]}},{"type":"Feature","id":"in-delhi-t-448","properties":{"id":"in-delhi-t-448","name":"Patel Nagar","region":"in-delhi","level":"tehsil","parent":"in-delhi-d-85","district":"West","source":"LGD via Bharatlas · 2024 snapshot","state_lgd":7,"district_lgd":85,"subdistrict_lgd":448,"center":[77.14676150105166,28.651664020000002],"bbox":[77.021997,28.5962173,77.1811925,28.6754269]},"geometry":{"type":"Point","coordinates":[77.14676150105166,28.651664020000002]}},{"type":"Feature","id":"in-delhi-t-441","properties":{"id":"in-delhi-t-441","name":"Preet Vihar","region":"in-delhi","level":"tehsil","parent":"in-delhi-d-78","district":"East","source":"LGD via Bharatlas · 2024 snapshot","state_lgd":7,"district_lgd":78,"subdistrict_lgd":441,"center":[77.29559500168071,28.636716682795676],"bbox":[77.2696007,28.6174069,77.3321428,28.6579209]},"geometry":{"type":"Point","coordinates":[77.29559500168071,28.636716682795676]}},{"type":"Feature","id":"in-delhi-t-450","properties":{"id":"in-delhi-t-450","name":"Punjabi Bagh","region":"in-delhi","level":"tehsil","parent":"in-delhi-d-85","district":"West","source":"LGD via Bharatlas · 2024 snapshot","state_lgd":7,"district_lgd":85,"subdistrict_lgd":450,"center":[77.03720197044001,28.669032674551882],"bbox":[76.9537999,28.6240997,77.139371,28.7020509]},"geometry":{"type":"Point","coordinates":[77.03720197044001,28.669032674551882]}},{"type":"Feature","id":"in-delhi-t-449","properties":{"id":"in-delhi-t-449","name":"Rajouri Garden","region":"in-delhi","level":"tehsil","parent":"in-delhi-d-85","district":"West","source":"LGD via Bharatlas · 2024 snapshot","state_lgd":7,"district_lgd":85,"subdistrict_lgd":449,"center":[77.10483946864254,28.631683106431034],"bbox":[77.0834433,28.612761,77.1253257,28.6520873]},"geometry":{"type":"Point","coordinates":[77.10483946864254,28.631683106431034]}},{"type":"Feature","id":"in-delhi-t-6077","properties":{"id":"in-delhi-t-6077","name":"Rohini","region":"in-delhi","level":"tehsil","parent":"in-delhi-d-82","district":"North West","source":"LGD via Bharatlas · 2024 snapshot","state_lgd":7,"district_lgd":82,"subdistrict_lgd":6077,"center":[77.06587348370529,28.710916620601843],"bbox":[77.0009034,28.6830221,77.1203507,28.7393985]},"geometry":{"type":"Point","coordinates":[77.06587348370529,28.710916620601843]}},{"type":"Feature","id":"in-delhi-t-6079","properties":{"id":"in-delhi-t-6079","name":"Saket","region":"in-delhi","level":"tehsil","parent":"in-delhi-d-83","district":"South","source":"LGD via Bharatlas · 2024 snapshot","state_lgd":7,"district_lgd":83,"subdistrict_lgd":6079,"center":[77.20974301313859,28.469364230724498],"bbox":[77.1608706,28.4097278,77.2526387,28.5353115]},"geometry":{"type":"Point","coordinates":[77.20974301313859,28.469364230724498]}},{"type":"Feature","id":"in-delhi-t-431","properties":{"id":"in-delhi-t-431","name":"Saraswati Vihar","region":"in-delhi","level":"tehsil","parent":"in-delhi-d-82","district":"North West","source":"LGD via Bharatlas · 2024 snapshot","state_lgd":7,"district_lgd":82,"subdistrict_lgd":431,"center":[77.14464383566471,28.69467067296837],"bbox":[77.0962454,28.6561224,77.1858312,28.7325521]},"geometry":{"type":"Point","coordinates":[77.14464383566471,28.69467067296837]}},{"type":"Feature","id":"in-delhi-t-6081","properties":{"id":"in-delhi-t-6081","name":"Sarita Vihar","region":"in-delhi","level":"tehsil","parent":"in-delhi-d-670","district":"South East","source":"LGD via Bharatlas · 2024 snapshot","state_lgd":7,"district_lgd":670,"subdistrict_lgd":6081,"center":[77.30960455664504,28.521320431611354],"bbox":[77.2701326,28.4836066,77.3475705,28.5555678]},"geometry":{"type":"Point","coordinates":[77.30960455664504,28.521320431611354]}},{"type":"Feature","id":"in-delhi-t-436","properties":{"id":"in-delhi-t-436","name":"Seelam Pur","region":"in-delhi","level":"tehsil","parent":"in-delhi-d-81","district":"North East","source":"LGD via Bharatlas · 2024 snapshot","state_lgd":7,"district_lgd":81,"subdistrict_lgd":436,"center":[77.25871967057782,28.692768016832254],"bbox":[77.2419939,28.6700715,77.2720461,28.7139893]},"geometry":{"type":"Point","coordinates":[77.25871967057782,28.692768016832254]}},{"type":"Feature","id":"in-delhi-t-438","properties":{"id":"in-delhi-t-438","name":"Seema Puri","region":"in-delhi","level":"tehsil","parent":"in-delhi-d-671","district":"Shahdara","source":"LGD via Bharatlas · 2024 snapshot","state_lgd":7,"district_lgd":671,"subdistrict_lgd":438,"center":[77.31367152714397,28.68999603171354],"bbox":[77.2967025,28.6642284,77.3329222,28.7139837]},"geometry":{"type":"Point","coordinates":[77.31367152714397,28.68999603171354]}},{"type":"Feature","id":"in-delhi-t-437","properties":{"id":"in-delhi-t-437","name":"Shahdara","region":"in-delhi","level":"tehsil","parent":"in-delhi-d-671","district":"Shahdara","source":"LGD via Bharatlas · 2024 snapshot","state_lgd":7,"district_lgd":671,"subdistrict_lgd":437,"center":[77.28244900128541,28.686503663223053],"bbox":[77.2680094,28.6725406,77.2993185,28.697985]},"geometry":{"type":"Point","coordinates":[77.28244900128541,28.686503663223053]}},{"type":"Feature","id":"in-delhi-t-453","properties":{"id":"in-delhi-t-453","name":"Vasant Vihar","region":"in-delhi","level":"tehsil","parent":"in-delhi-d-79","district":"New Delhi","source":"LGD via Bharatlas · 2024 snapshot","state_lgd":7,"district_lgd":79,"subdistrict_lgd":453,"center":[77.1371298856899,28.54158552791139],"bbox":[77.0705395,28.4839322,77.2101749,28.5896876]},"geometry":{"type":"Point","coordinates":[77.1371298856899,28.54158552791139]}},{"type":"Feature","id":"in-delhi-t-440","properties":{"id":"in-delhi-t-440","name":"Vivek Vihar","region":"in-delhi","level":"tehsil","parent":"in-delhi-d-671","district":"Shahdara","source":"LGD via Bharatlas · 2024 snapshot","state_lgd":7,"district_lgd":671,"subdistrict_lgd":440,"center":[77.29079578774633,28.66311532759018],"bbox":[77.2499394,28.6400105,77.3210361,28.6903078]},"geometry":{"type":"Point","coordinates":[77.29079578774633,28.66311532759018]}},{"type":"Feature","id":"in-delhi-t-6082","properties":{"id":"in-delhi-t-6082","name":"Yamuna Vihar","region":"in-delhi","level":"tehsil","parent":"in-delhi-d-81","district":"North East","source":"LGD via Bharatlas · 2024 snapshot","state_lgd":7,"district_lgd":81,"subdistrict_lgd":6082,"center":[77.28020524145533,28.704827709762554],"bbox":[77.261308,28.6923183,77.2982734,28.7192727]},"geometry":{"type":"Point","coordinates":[77.28020524145533,28.704827709762554]}}]}
