{"type":"FeatureCollection","features":[{"type":"Feature","id":"in-dnh-dd-t-3949","properties":{"id":"in-dnh-dd-t-3949","name":"Dadra & Nagar Haveli","region":"in-dnh-dd","level":"tehsil","parent":"in-dnh-dd-d-465","district":"Dadra And Nagar Haveli","source":"LGD via Bharatlas · 2024 snapshot","state_lgd":38,"district_lgd":465,"subdistrict_lgd":3949,"center":[73.0215305402925,20.26703496],"bbox":[72.9114571,20.0470181,73.2181921,20.3613279]},"geometry":{"type":"MultiPolygon","coordinates":[[[[72.9707282,20.3324712],[72.9706298,20.3324917],[72.9700963,20.3326026],[72.9695792,20.3326571],[72.9689088,20.3325492],[72.96854,20.3324906],[72.9678505,20.332455],[72.9662656,20.3324558],[72.9646951,20.3323664],[72.9629667,20.3324758],[72.9616393,20.3324448],[72.9614535,20.3324405],[72.9611183,20.3324226],[72.9610415,20.3319529],[72.9608488,20.3300878],[72.960575,20.3285885],[72.9600929,20.3272679],[72.9600426,20.3271299],[72.9593474,20.3255903],[72.95883,20.3250305],[72.9580636,20.3244635],[72.9574697,20.3240241],[72.9572397,20.3239158],[72.9570481,20.3237172],[72.9569712,20.3232837],[72.9568649,20.3223827],[72.9567981,20.3218159],[72.956644,20.3203843],[72.9563178,20.3194179],[72.9557426,20.3180769],[72.9553783,20.3174989],[72.9545924,20.3162393],[72.9539983,20.3155125],[72.9535193,20.3150791],[72.953053,20.3145487],[72.9529636,20.3144471],[72.952772,20.3142123],[72.9527718,20.3140136],[72.9533458,20.3129474],[72.9545129,20.3112352],[72.9552977,20.3105076],[72.9557188,20.3102184],[72.9565658,20.3095856],[72.9570253,20.3093324],[72.9585712,20.3086089],[72.9598586,20.3079218],[72.9601882,20.3076255],[72.9602557,20.3075648],[72.9612511,20.3070042],[72.9626102,20.3061318],[72.963816,20.3051781],[72.9644859,20.3046358],[72.9650407,20.3038948],[72.9658633,20.3026071],[72.9664369,20.3012835],[72.9670105,20.2999147],[72.9678187,20.2986857],[72.9684118,20.2979266],[72.9687753,20.2975606],[72.9691916,20.2972758],[72.9695935,20.2970227],[72.9702493,20.2969319],[72.9708381,20.2968594],[72.9710112,20.2979702],[72.9710298,20.2980117],[72.9713276,20.2986746],[72.9719317,20.2999524],[72.972047,20.3006569],[72.9722486,20.3013884],[72.9722777,20.3018491],[72.9724794,20.30282],[72.9724511,20.303362],[72.9724226,20.3038227],[72.9723941,20.3040711],[72.9725954,20.3045045],[72.9729115,20.3047753],[72.9732278,20.3051275],[72.9732846,20.3051703],[72.9735151,20.305344],[72.9735727,20.3055608],[72.9735156,20.3059131],[72.9733571,20.3065812],[72.9732005,20.3072411],[72.9729426,20.3081897],[72.9728568,20.3086505],[72.9731444,20.3090839],[72.9735758,20.3098423],[72.9735771,20.3098435],[72.9739609,20.3101901],[72.9741506,20.3103614],[72.9747133,20.3106901],[72.9749074,20.3108035],[72.9761574,20.3115254],[72.9768279,20.311832],[72.9771918,20.3120711],[72.977307,20.3124143],[72.9775372,20.3129381],[72.9777099,20.3134439],[72.9779784,20.3140398],[72.978266,20.3144416],[72.9782879,20.3144701],[72.9785152,20.3147666],[72.9785594,20.3148652],[72.978683,20.3151414],[72.9791698,20.3155825],[72.979186,20.3155972],[72.9793586,20.3157597],[72.9795723,20.3159417],[72.9800101,20.3163147],[72.9804891,20.3166938],[72.9811214,20.3171993],[72.9816389,20.3176731],[72.982233,20.3182057],[72.9823862,20.318314],[72.9824247,20.3185488],[72.9824248,20.3186837],[72.9824249,20.3188423],[72.982521,20.3192759],[72.9825212,20.319583],[72.9825213,20.3197094],[72.9825602,20.3203598],[72.9823883,20.3210328],[72.981351,20.3232014],[72.9809543,20.3241546],[72.9803378,20.3256771],[72.9797831,20.3266665],[72.9794581,20.3274255],[72.9793627,20.3278952],[72.9792485,20.3289477],[72.9791538,20.3303523],[72.9791351,20.3309869],[72.9791164,20.3316213],[72.9791164,20.3316214],[72.9790977,20.3322357],[72.9789445,20.3322719],[72.9788498,20.3322627],[72.9780251,20.3321822],[72.977144,20.3321105],[72.9757459,20.3319668],[72.9747882,20.3319133],[72.9740986,20.3318776],[72.9733901,20.3320225],[72.9725858,20.3321495],[72.9711686,20.3323626],[72.9709087,20.3324267],[72.9707282,20.3324712]]],[[[73.0969862,20.3599348],[73.096544,20.360456],[73.0958043,20.3613279],[73.0944325,20.360045],[73.0936122,20.3596406],[73.0933399,20.3595992],[73.0922157,20.3601696],[73.0910851,20.3599868],[73.0909787,20.3599696],[73.0900524,20.3595857],[73.0893823,20.3591027],[73.0890607,20.3586851],[73.0889294,20.3581041],[73.0893978,20.35706],[73.0896981,20.3560307],[73.0896434,20.3553753],[73.0895649,20.3544326],[73.0893987,20.3534757],[73.0894437,20.3525047],[73.0891136,20.3515899],[73.0887483,20.3509772],[73.088446,20.3503296],[73.0885385,20.3498206],[73.0891731,20.3481786],[73.0900702,20.3471578],[73.090259,20.346943],[73.090259,20.3467169],[73.0902587,20.3454062],[73.0902714,20.3439329],[73.0891378,20.3429484],[73.0878186,20.3412415],[73.0879349,20.3402991],[73.0871342,20.3389865],[73.0861832,20.3373183],[73.0857036,20.3360118],[73.085548,20.334567],[73.084714,20.3325847],[73.0845341,20.3318219],[73.0830385,20.329854],[73.0813007,20.3282339],[73.0802753,20.3275723],[73.0786098,20.326374],[73.0780651,20.3258617],[73.0773243,20.3240078],[73.0771728,20.3234806],[73.075302,20.3240184],[73.0725586,20.3247926],[73.0710924,20.3252342],[73.0702678,20.3254714],[73.0702664,20.3261991],[73.0690058,20.3277566],[73.0681017,20.3292262],[73.0674358,20.3298822],[73.0666466,20.3300342],[73.0657724,20.3299088],[73.0641928,20.32939],[73.0626964,20.3292344],[73.0603545,20.328294],[73.0571745,20.3266774],[73.0542666,20.3257665],[73.0515155,20.3249221],[73.049241,20.3244122],[73.0482848,20.3243122],[73.0471683,20.3243131],[73.0452766,20.3249271],[73.0435027,20.3256247],[73.0417409,20.3259881],[73.041062,20.3246099],[73.0398919,20.3229056],[73.0387445,20.321039],[73.0382974,20.3197963],[73.0377021,20.3176693],[73.0379438,20.3148248],[73.0379992,20.3141721],[73.0379104,20.3135395],[73.0375144,20.3107183],[73.0372181,20.3089407],[73.0364613,20.3065303],[73.0361619,20.3046757],[73.0361149,20.3033188],[73.0361109,20.3032634],[73.0361109,20.303263],[73.0357862,20.2988736],[73.0352286,20.2956851],[73.0351644,20.2949019],[73.0356481,20.2938175],[73.0356089,20.293202],[73.0348796,20.2919447],[73.0342924,20.2916304],[73.0323881,20.2910869],[73.0295925,20.2905486],[73.0266099,20.2906709],[73.0238733,20.2911552],[73.0234064,20.291259],[73.0228028,20.2919116],[73.0218213,20.2929682],[73.0208058,20.2931787],[73.0191405,20.2933087],[73.0167376,20.2936503],[73.0156959,20.2939598],[73.0154412,20.2939977],[73.015321,20.2940157],[73.0153413,20.294186],[73.0154543,20.2951348],[73.0158747,20.2980133],[73.0158757,20.2981851],[73.016285,20.3017756],[73.0163694,20.302516],[73.0165803,20.3051147],[73.0167496,20.3071307],[73.0167624,20.3072834],[73.0167958,20.3077225],[73.0167701,20.3077314],[73.0164627,20.3078379],[73.0165732,20.308256],[73.0169049,20.3088591],[73.0169173,20.3091127],[73.0169511,20.3098047],[73.0166943,20.3103692],[73.0162449,20.3105412],[73.015212,20.3102316],[73.0141023,20.3101465],[73.0137562,20.3099815],[73.0134772,20.3095964],[73.0132901,20.3093892],[73.0124051,20.3093312],[73.0120461,20.3095321],[73.0119638,20.3096164],[73.0117519,20.3098337],[73.0117208,20.3101585],[73.0119695,20.3106108],[73.0122057,20.3109816],[73.0123633,20.3112197],[73.0123787,20.3112606],[73.0124403,20.3114247],[73.0121708,20.3116906],[73.0121131,20.311703],[73.0114219,20.3114581],[73.0113429,20.3114302],[73.011058,20.3113116],[73.0110024,20.3115001],[73.0109493,20.3116801],[73.0109332,20.3119736],[73.0108293,20.3121252],[73.0106262,20.3119901],[73.0104785,20.3117168],[73.0103546,20.3114876],[73.0102579,20.3115264],[73.0102299,20.3118032],[73.010215,20.3119504],[73.0102731,20.3123583],[73.0099442,20.3124965],[73.0094495,20.3125501],[73.0086686,20.3125483],[73.008118,20.3125284],[73.0079535,20.3124913],[73.0078641,20.312471],[73.007789,20.3124541],[73.0075795,20.312466],[73.0069063,20.3125045],[73.0065377,20.3127052],[73.0064456,20.3127531],[73.0061861,20.3127887],[73.0061524,20.3127971],[73.0061146,20.3127737],[73.0060545,20.312673],[73.0060431,20.3125372],[73.0060598,20.3124336],[73.0061535,20.3123134],[73.0062473,20.3121886],[73.0063163,20.3120997],[73.006429,20.3119889],[73.0065271,20.3118868],[73.0066017,20.3117618],[73.0066526,20.3116271],[73.0067909,20.31144],[73.0071977,20.3112446],[73.0082441,20.3108555],[73.0082944,20.3108368],[73.0089521,20.3103436],[73.0094239,20.3098104],[73.0095586,20.309352],[73.0096605,20.3084274],[73.0095466,20.3070781],[73.0095335,20.3065852],[73.0095583,20.3050309],[73.0100079,20.303765],[73.0102165,20.3027837],[73.0104824,20.3018036],[73.0106734,20.3014006],[73.0114326,20.30109],[73.0115678,20.3003876],[73.0113654,20.2997914],[73.0110212,20.2993236],[73.010681,20.2988921],[73.0105039,20.2984501],[73.0104306,20.2978656],[73.0104104,20.297047],[73.010602,20.295966],[73.0106985,20.2954978],[73.0107199,20.2949648],[73.0106772,20.294512],[73.0109487,20.2939342],[73.0109786,20.2935878],[73.0109938,20.2934108],[73.0109655,20.2933578],[73.0102807,20.2920769],[73.0100863,20.2915532],[73.010046,20.2912089],[73.0093381,20.2907249],[73.0080053,20.2901201],[73.0072545,20.2898387],[73.0062267,20.2895246],[73.0060274,20.2894617],[73.0052144,20.2892053],[73.0051563,20.289187],[73.0048261,20.2891715],[73.0042972,20.2896899],[73.003416,20.2903235],[73.0025182,20.2908436],[73.002219,20.2911587],[73.0021918,20.2912023],[73.0020799,20.291382],[73.0017229,20.2917094],[73.0010225,20.2919668],[73.000437,20.292014],[72.9999999,20.2918763],[72.99932,20.2915528],[72.9979421,20.2908973],[72.996817,20.2907581],[72.9962958,20.2913321],[72.9953485,20.2920554],[72.9944058,20.2923136],[72.9933238,20.292224],[72.9921651,20.2919674],[72.991586,20.2919678],[72.9898145,20.2915943],[72.9885026,20.2912203],[72.9882245,20.2911604],[72.9881053,20.2911348],[72.9872817,20.2908734],[72.9867308,20.2902686],[72.9867027,20.290227],[72.9858154,20.2889143],[72.9853552,20.2880791],[72.9850411,20.2883277],[72.9844415,20.2888023],[72.9827331,20.2894674],[72.9825309,20.2894412],[72.9812255,20.2892721],[72.9811724,20.2892652],[72.9811977,20.2889459],[72.9813574,20.2869301],[72.9810204,20.2843063],[72.9807129,20.2827799],[72.9807405,20.281163],[72.9809824,20.2783988],[72.981189,20.2777662],[72.9814179,20.2770654],[72.9816387,20.2763892],[72.981928,20.2755032],[72.9801898,20.2743797],[72.9791835,20.2728538],[72.9775319,20.2724484],[72.9747266,20.2715876],[72.973635,20.2711321],[72.973175,20.2704685],[72.9730263,20.2699537],[72.9711925,20.2690605],[72.9699099,20.2691155],[72.9668566,20.2694921],[72.9660477,20.2694927],[72.9652247,20.2698364],[72.9644306,20.2705278],[72.9638517,20.2708759],[72.9627846,20.2711339],[72.9622342,20.2713375],[72.9620193,20.2719699],[72.9619625,20.2730945],[72.9618386,20.2739572],[72.9618393,20.2750231],[72.9617936,20.275067],[72.9615666,20.2752852],[72.9609274,20.2753546],[72.9607721,20.2753714],[72.9603748,20.2753988],[72.9601932,20.2758054],[72.9597627,20.2761804],[72.959672,20.2765825],[72.959222,20.2764563],[72.9589156,20.2762577],[72.9587001,20.2762849],[72.9586715,20.2764295],[72.9587004,20.2765739],[72.9588536,20.2767184],[72.9592509,20.2768311],[72.9592797,20.2769485],[72.9590357,20.2769757],[72.9587006,20.2770031],[72.95849,20.2770031],[72.9584566,20.2771206],[72.958945,20.2774636],[72.9590696,20.2777254],[72.9589787,20.2778971],[72.9588256,20.277983],[72.9585481,20.2780419],[72.9582753,20.2780149],[72.9579687,20.277726],[72.9577866,20.2774641],[72.9575426,20.2774643],[72.9573273,20.2775818],[72.9568727,20.2779298],[72.9563845,20.2778985],[72.956107,20.2782464],[72.9556814,20.278906],[72.9553133,20.2796288],[72.9551658,20.2812729],[72.9553766,20.2827773],[72.9554398,20.2832283],[72.9554403,20.2839375],[72.9552872,20.2841995],[72.9551371,20.2841885],[72.9544926,20.2841412],[72.953947,20.2841686],[72.9531524,20.2841419],[72.9522955,20.2840248],[72.9520514,20.2840836],[72.951932,20.2843999],[72.9515637,20.2850052],[72.9508315,20.2853805],[72.9503148,20.2856698],[72.9501473,20.285864],[72.9498411,20.2862075],[72.9491998,20.2863839],[72.9490449,20.2865474],[72.9489558,20.2866415],[72.9488364,20.2871022],[72.948812,20.2871181],[72.9483483,20.2874186],[72.9481953,20.2877664],[72.947798,20.2878254],[72.9472187,20.2874779],[72.9468836,20.2874509],[72.9465774,20.2877942],[72.9460607,20.288341],[72.9454194,20.2885175],[72.9450508,20.288486],[72.9448404,20.2888339],[72.9445964,20.2892947],[72.9443621,20.2897419],[72.9437399,20.2899002],[72.9435246,20.2901894],[72.942917,20.2907091],[72.9426108,20.2911112],[72.9423429,20.2914184],[72.9418262,20.2921096],[72.9417309,20.2928006],[72.94164,20.2930898],[72.9409988,20.2934062],[72.940209,20.2934969],[72.939424,20.2936643],[72.9387444,20.2939582],[72.9379499,20.2943876],[72.9364565,20.2945372],[72.9362506,20.2945554],[72.9357002,20.2946233],[72.9354752,20.2946053],[72.9353461,20.2945202],[72.9352358,20.2944474],[72.9350346,20.2942397],[72.9348143,20.294014],[72.9346085,20.293996],[72.9342925,20.2938832],[72.9339622,20.2938562],[72.9336702,20.2938563],[72.9333734,20.2937706],[72.9332442,20.2938746],[72.9328804,20.2939289],[72.9325835,20.2938251],[72.9322675,20.2936672],[72.9320089,20.2934911],[72.9317503,20.2932474],[72.9313289,20.2928817],[72.9311804,20.2926379],[72.9310511,20.2923263],[72.9309217,20.2920282],[72.9308114,20.2915947],[72.9307203,20.2911928],[72.9305335,20.2908451],[72.9305142,20.2904748],[72.9303129,20.289987],[72.9301068,20.2893593],[72.9297762,20.2886639],[72.9295558,20.2880362],[72.9293353,20.2873724],[72.9288516,20.2867132],[72.9285786,20.2863113],[72.9279513,20.2859186],[72.9275801,20.2856838],[72.9271419,20.2854066],[72.9268454,20.285219],[72.9266778,20.2851693],[72.9265869,20.2853094],[72.9263668,20.2854811],[72.9263285,20.2854314],[72.9262374,20.2851695],[72.9261464,20.2849573],[72.9258352,20.2847857],[72.9241932,20.284163],[72.923657,20.2840594],[72.9230682,20.2839376],[72.9227331,20.2838654],[72.9226468,20.283608],[72.9224266,20.2834997],[72.9221681,20.283414],[72.9219623,20.2834321],[72.9218523,20.2835541],[72.9215556,20.2838342],[72.9214263,20.2838659],[72.9211679,20.2838162],[72.9207992,20.2836764],[72.9205982,20.2835364],[72.9204497,20.2833784],[72.9204305,20.2832429],[72.9204113,20.2829087],[72.9204301,20.2822493],[72.9203772,20.2813234],[72.9201952,20.2811744],[72.9197883,20.2809849],[72.9192521,20.280845],[72.9186634,20.2807956],[72.9179981,20.2807958],[72.9175003,20.2808095],[72.917371,20.2808028],[72.9172418,20.280796],[72.9172417,20.2804319],[72.9172413,20.2794365],[72.9172325,20.2788797],[72.9172217,20.278199],[72.9171117,20.278172],[72.9168818,20.27812],[72.9168723,20.2781178],[72.916633,20.278014],[72.9165563,20.2778243],[72.9165036,20.2775082],[72.9164844,20.2772643],[72.9163683,20.2769309],[72.9162784,20.2766727],[72.9162448,20.2764289],[72.9160101,20.2760135],[72.9156031,20.2757877],[72.9152154,20.2755937],[72.9146602,20.275648],[72.914239,20.27563],[72.9138657,20.275594],[72.9133678,20.2754406],[72.9131285,20.2753865],[72.9127408,20.2754046],[72.9125206,20.2753866],[72.9123914,20.2753505],[72.9123196,20.2752286],[72.9121328,20.2750029],[72.912061,20.2748493],[72.9119747,20.2745829],[72.9119938,20.2744112],[72.912123,20.2742531],[72.9123096,20.2739234],[72.912343,20.2737653],[72.912252,20.2735214],[72.91207,20.2732776],[72.9118813,20.272983],[72.9117923,20.2728441],[72.9115673,20.2725822],[72.9114571,20.2722842],[72.9115528,20.2721802],[72.9117346,20.2721124],[72.9118112,20.2718866],[72.9116961,20.2711505],[72.9116433,20.2705227],[72.9117149,20.2702607],[72.9119159,20.2701387],[72.9120835,20.2701206],[72.9126003,20.2697907],[72.9132271,20.2692848],[72.913337,20.2687788],[72.9132077,20.2684853],[72.9132076,20.2680653],[72.9132076,20.2678576],[72.9135233,20.2675775],[72.9139827,20.2670263],[72.9142409,20.2664887],[72.9142982,20.2660507],[72.914389,20.2657391],[72.9145374,20.2657028],[72.9147385,20.265879],[72.9147002,20.2661725],[72.9147578,20.2663125],[72.9148104,20.2663305],[72.9150879,20.2661227],[72.9153846,20.2658426],[72.9155329,20.2656167],[72.9156046,20.2652148],[72.9156044,20.2647631],[72.9157144,20.2643972],[72.9158292,20.2641714],[72.9160828,20.2640991],[72.9165088,20.2640673],[72.9170926,20.2637961],[72.9173318,20.2635703],[72.9175184,20.263394],[72.9175374,20.2631502],[72.9175373,20.2628882],[72.9176664,20.2624004],[72.9179439,20.2619983],[72.9180039,20.2618633],[72.9181065,20.2616325],[72.9181637,20.2609911],[72.9180812,20.2607477],[72.917905,20.2602279],[72.9179049,20.2600202],[72.9179766,20.2596905],[72.9181249,20.2594285],[72.918273,20.2589226],[72.918383,20.2586787],[72.9184786,20.2585567],[72.9188663,20.2583849],[72.919029,20.2582449],[72.9209097,20.2580365],[72.9211155,20.2580365],[72.9213356,20.2579867],[72.9213548,20.2578648],[72.9214839,20.2574266],[72.9216274,20.2573589],[72.9218283,20.2573588],[72.9222735,20.2574987],[72.9228622,20.25753],[72.923197,20.2572003],[72.9236563,20.2566084],[72.9240055,20.2561206],[72.9245363,20.2551855],[72.9246278,20.254809],[72.9246845,20.2545757],[72.9248079,20.2540075],[72.9248326,20.2538936],[72.92522,20.2533606],[72.9256888,20.2528686],[72.9257366,20.2528184],[72.9259567,20.2526603],[72.9260092,20.2524345],[72.92606,20.2522035],[72.9260857,20.2520866],[72.926253,20.251495],[72.9263437,20.250971],[72.9265829,20.2507631],[72.9276604,20.2500009],[72.9283361,20.249485],[72.9287685,20.2473059],[72.928908,20.2466442],[72.9291797,20.246279],[72.9295433,20.2465079],[72.9304719,20.2457723],[72.9304894,20.2457584],[72.9304889,20.2457571],[72.9301674,20.2449564],[72.9306528,20.2448847],[72.9306443,20.2444099],[72.9315516,20.2444236],[72.932459,20.2444374],[72.934935,20.244442],[72.9350325,20.2447919],[72.9376087,20.2448166],[72.9407001,20.2436581],[72.9454871,20.2416386],[72.9467515,20.2411508],[72.9470096,20.2410513],[72.9490187,20.2402763],[72.9539779,20.2382555],[72.9548993,20.2371031],[72.9553439,20.2365018],[72.9582854,20.2353943],[72.9591057,20.2327663],[72.9605875,20.2303277],[72.9626721,20.2285567],[72.9640188,20.2274399],[72.964906,20.2267434],[72.9655751,20.2257351],[72.9659536,20.2248747],[72.9657005,20.2228975],[72.9655255,20.2215303],[72.9652789,20.2203501],[72.9648321,20.2184878],[72.9645327,20.2173156],[72.9645849,20.2143377],[72.9645409,20.2140208],[72.9645107,20.2138028],[72.9636791,20.2120188],[72.9632661,20.211111],[72.9628813,20.2103823],[72.9624965,20.2096537],[72.9619842,20.2100464],[72.9617762,20.2096773],[72.9616433,20.2094417],[72.962113,20.2085363],[72.9613762,20.2071952],[72.9611236,20.206732],[72.9608374,20.2062071],[72.9610456,20.2051109],[72.9609877,20.2049897],[72.9609216,20.2048513],[72.9609299,20.2048495],[72.9609428,20.2048466],[72.960611,20.2041444],[72.9605466,20.2038595],[72.9604414,20.2033937],[72.960323,20.202072],[72.9598459,20.2012205],[72.9598631,20.2011405],[72.9598765,20.2010769],[72.9598836,20.2009878],[72.9598997,20.2007871],[72.9598571,20.2004662],[72.9599184,20.1999013],[72.959938,20.1997198],[72.9599749,20.1996809],[72.9600259,20.1996265],[72.9601194,20.1995268],[72.9601081,20.1994842],[72.9599018,20.1987139],[72.9600323,20.1975945],[72.9600525,20.1975451],[72.9600728,20.1974957],[72.9601657,20.1971228],[72.9603513,20.1963771],[72.9603977,20.1962311],[72.9604119,20.1961864],[72.9604509,20.1961809],[72.9605257,20.1952392],[72.9605821,20.1945301],[72.9606255,20.1944661],[72.9606689,20.1944021],[72.9608419,20.1940885],[72.9611958,20.1934475],[72.9612227,20.1934245],[72.9612495,20.1934015],[72.9614127,20.192975],[72.9614173,20.1929363],[72.961422,20.1928976],[72.9617805,20.1920338],[72.9617315,20.1903975],[72.9615526,20.1893445],[72.9613877,20.1893206],[72.9613067,20.1893089],[72.9612866,20.1892587],[72.9609537,20.1884246],[72.9610281,20.1883147],[72.9611026,20.1882049],[72.9609839,20.1875111],[72.9610707,20.1868764],[72.9608508,20.186055],[72.9619371,20.18346],[72.9625483,20.1827618],[72.9630307,20.1822107],[72.9630769,20.182303],[72.9630884,20.1823261],[72.9631421,20.1823231],[72.9632855,20.182314],[72.9633077,20.1823126],[72.9638308,20.1824776],[72.9641881,20.1825903],[72.9642318,20.1825979],[72.9642754,20.1826055],[72.9652783,20.1828662],[72.9662933,20.1831055],[72.9672153,20.1833268],[72.9672785,20.1833319],[72.9673454,20.1833377],[72.9674744,20.1833202],[72.9675697,20.1833072],[72.9681446,20.1832957],[72.9681927,20.183305],[72.9682531,20.1833162],[72.9683389,20.1833321],[72.9688921,20.1834141],[72.9689338,20.1834205],[72.9689818,20.1833812],[72.9694944,20.1830792],[72.9703144,20.182651],[72.9711596,20.1818745],[72.971967,20.1816045],[72.9729651,20.1812764],[72.9741312,20.1814823],[72.9750748,20.1816479],[72.9751097,20.1816559],[72.9751446,20.1816639],[72.9767567,20.1809026],[72.9768504,20.1791754],[72.9768789,20.17865],[72.9756657,20.1774126],[72.9756247,20.1773784],[72.9755892,20.1773257],[72.9738549,20.1747374],[72.9737978,20.1743597],[72.9737313,20.1739201],[72.9737181,20.1738321],[72.973624,20.1730262],[72.9735533,20.1724205],[72.9735336,20.1722517],[72.973535,20.1721443],[72.9735423,20.1716089],[72.9736024,20.1707328],[72.9736139,20.170565],[72.9735967,20.1694724],[72.9735885,20.1683616],[72.9735893,20.1682709],[72.9735989,20.1671729],[72.9737664,20.166076],[72.9739221,20.1650569],[72.9739315,20.1649951],[72.9741487,20.1635731],[72.9744003,20.1602812],[72.9744031,20.1602461],[72.9743937,20.1602283],[72.9731028,20.1577895],[72.9729247,20.1574349],[72.9727771,20.157141],[72.9726919,20.1569832],[72.971938,20.1555867],[72.9717786,20.1552916],[72.9714675,20.1547527],[72.9707468,20.1535045],[72.9707264,20.1534692],[72.9700215,20.1522484],[72.9697487,20.1517813],[72.9697223,20.1517261],[72.9696696,20.1516156],[72.9689877,20.150286],[72.9688711,20.1500806],[72.9687544,20.1498752],[72.9683809,20.1492927],[72.9680112,20.1487773],[72.9679093,20.1486201],[72.9678075,20.1484629],[72.9674305,20.1479018],[72.9669612,20.1472032],[72.9668931,20.1471019],[72.9665576,20.1466119],[72.9663748,20.1463448],[72.9658741,20.1456132],[72.9654024,20.1445768],[72.9653648,20.1444828],[72.9653272,20.1443888],[72.9650624,20.1438371],[72.9643974,20.142404],[72.9638327,20.141301],[72.9631512,20.1400326],[72.9628486,20.1394694],[72.962752,20.1392724],[72.9626761,20.1391174],[72.9626359,20.1390353],[72.9622061,20.1382451],[72.961772,20.1374473],[72.9616771,20.1372729],[72.9615822,20.1370985],[72.961496,20.1367501],[72.961481,20.1366719],[72.9614808,20.1366706],[72.961466,20.1365937],[72.96134,20.1359382],[72.9610239,20.1343091],[72.9608239,20.1332782],[72.9612698,20.1306721],[72.9613235,20.1306289],[72.9614107,20.1304825],[72.9614314,20.1304477],[72.9615115,20.1303136],[72.9622619,20.1291126],[72.9622739,20.1290932],[72.9622859,20.1290739],[72.9624168,20.1289867],[72.9630863,20.1285406],[72.9631,20.1284773],[72.9631137,20.128414],[72.9632954,20.12778],[72.9635312,20.1268213],[72.9635477,20.1267064],[72.9635132,20.126661],[72.9634669,20.1266003],[72.9635696,20.1265423],[72.9638597,20.1263784],[72.9637201,20.1262257],[72.9635894,20.1260827],[72.963584,20.1260372],[72.9638613,20.1257272],[72.964544,20.1252048],[72.9652061,20.124721],[72.9652066,20.1246961],[72.9652074,20.1246524],[72.9652301,20.1246455],[72.9652589,20.1246375],[72.9654143,20.124605],[72.9662845,20.1245382],[72.9673894,20.1244818],[72.9674537,20.1244025],[72.9675268,20.1242739],[72.9676162,20.1241169],[72.9681079,20.1238667],[72.9685213,20.1236563],[72.9685372,20.1235658],[72.968553,20.1234753],[72.9686898,20.1223507],[72.9687032,20.122241],[72.968712,20.1221739],[72.9687209,20.1221068],[72.9688652,20.1210082],[72.9689396,20.1202958],[72.9692663,20.1193214],[72.9700018,20.1170879],[72.9702541,20.1163192],[72.9704991,20.1156089],[72.9705812,20.115555],[72.9706632,20.115501],[72.9717452,20.1147327],[72.9728106,20.113959],[72.974659,20.113561],[72.9773555,20.11278],[72.9777118,20.113753],[72.977744,20.1138409],[72.9779129,20.1143021],[72.9781296,20.1144797],[72.9788372,20.1150594],[72.9796041,20.1156877],[72.9816494,20.1160865],[72.984071,20.1165325],[72.9877563,20.1171323],[72.9883599,20.1171701],[72.9883668,20.1171706],[72.9887691,20.1172478],[72.9894654,20.1173433],[72.9896682,20.1173714],[72.9896687,20.1173715],[72.9898721,20.1173996],[72.9908901,20.1175458],[72.9914404,20.1176373],[72.9917227,20.1176803],[72.9918183,20.117697],[72.9919066,20.1179649],[72.9920911,20.118608],[72.992103,20.1186493],[72.9922298,20.1188903],[72.9922494,20.1189275],[72.9922744,20.1189915],[72.9923282,20.1190073],[72.9924812,20.1197517],[72.9926796,20.1207745],[72.9929715,20.122279],[72.9932308,20.1235729],[72.9933645,20.1242949],[72.9935761,20.1253603],[72.9935885,20.1254384],[72.9936009,20.1255164],[72.9936253,20.1257663],[72.9937279,20.1268159],[72.9937676,20.1270341],[72.9937676,20.1270341],[72.9937676,20.1270342],[72.9938054,20.1272416],[72.9938093,20.1272633],[72.9938435,20.1278506],[72.9939414,20.1289952],[72.9940896,20.1295541],[72.9941416,20.1297659],[72.9941935,20.1299776],[72.9944001,20.1304964],[72.9944336,20.1305805],[72.9944558,20.1306539],[72.9944781,20.1307273],[72.9949167,20.1315369],[72.9952911,20.1321908],[72.9953195,20.1322516],[72.995348,20.1323123],[72.9953736,20.1336336],[72.9954131,20.1341371],[72.9951461,20.1353231],[72.9947718,20.1359383],[72.9943009,20.1369322],[72.9942345,20.1374375],[72.9942712,20.1375644],[72.9943079,20.1376912],[72.9945989,20.1388192],[72.9949322,20.1396811],[72.9957916,20.1403424],[72.9959562,20.1404916],[72.9959773,20.1405107],[72.9960851,20.1407085],[72.9961212,20.1407747],[72.9964591,20.1411941],[72.9964884,20.1412292],[72.9967458,20.1415381],[72.996851,20.1416466],[72.9968518,20.1416474],[72.9969542,20.1417528],[72.9974378,20.142251],[72.9975077,20.142462],[72.9975454,20.1425761],[72.9975043,20.1427626],[72.998257,20.1426505],[72.9988029,20.1425693],[72.9989927,20.1425679],[72.9991436,20.1425669],[72.9992216,20.1425661],[73.0006512,20.1417544],[73.0008163,20.1416515],[73.0009814,20.1415486],[73.002285,20.1407174],[73.0023332,20.1406871],[73.0023819,20.1406756],[73.0024413,20.1406618],[73.0025303,20.140641],[73.00261,20.1405938],[73.0026512,20.1405693],[73.0029172,20.1404113],[73.002979,20.140375],[73.0031197,20.1403606],[73.0032856,20.1403435],[73.0034797,20.1393817],[73.0038093,20.1384125],[73.0039079,20.1381224],[73.004064,20.1374048],[73.0041162,20.1371647],[73.0045768,20.136271],[73.0050001,20.1358818],[73.0062143,20.1356171],[73.0082201,20.1344918],[73.0089088,20.1339284],[73.0091432,20.1338892],[73.0093775,20.1338501],[73.0104125,20.134654],[73.0109364,20.1346018],[73.011649,20.1340229],[73.0119132,20.1333302],[73.0120209,20.1324135],[73.0121473,20.1320157],[73.0122027,20.1318413],[73.0124246,20.1311426],[73.0126054,20.1305735],[73.0132045,20.12956],[73.0131223,20.1294971],[73.01304,20.1294341],[73.0126198,20.1289351],[73.0125984,20.1289211],[73.012301,20.128726],[73.0120662,20.1285721],[73.011099,20.127972],[73.0109756,20.127921],[73.0109754,20.127921],[73.0109753,20.1279209],[73.0108521,20.12787],[73.0108405,20.1278659],[73.0096249,20.127433],[73.0094267,20.1272758],[73.0094192,20.1272699],[73.009419,20.1272034],[73.0094186,20.1271455],[73.0091529,20.1270897],[73.0090404,20.1270659],[73.008928,20.1270421],[73.0077295,20.1264907],[73.0074851,20.1263782],[73.0072633,20.1262861],[73.0070416,20.126194],[73.0065595,20.1261124],[73.005956,20.1257347],[73.0049235,20.1252998],[73.0044162,20.1250127],[73.0043189,20.1249682],[73.0042216,20.1249237],[73.0037302,20.1249436],[73.0033912,20.1249573],[73.0033177,20.1249263],[73.0032442,20.1248953],[73.0030111,20.124895],[73.0026302,20.1248946],[73.0025645,20.124895],[73.002504,20.1248722],[73.0023727,20.1248232],[73.0022581,20.1247805],[73.0019352,20.1247168],[73.0016279,20.1246562],[73.0015083,20.1246129],[73.0013887,20.1245697],[73.0008517,20.1240882],[73.0007911,20.1240338],[73.0006313,20.1239119],[73.0004714,20.1237901],[72.9996099,20.1230219],[72.9994239,20.1219741],[72.9991148,20.1203705],[72.9991261,20.1203594],[72.9991974,20.1202898],[72.9992503,20.1199094],[72.9992927,20.1196037],[72.9993893,20.1194597],[72.9994858,20.1193157],[72.999669,20.1187641],[72.9997893,20.1184322],[72.9998363,20.1183088],[72.9998833,20.1181854],[73.0000255,20.1177722],[73.0001681,20.117364],[73.0002658,20.1170873],[73.0002556,20.1170399],[73.0002736,20.1165022],[73.0002826,20.1163129],[73.0002843,20.1162049],[73.0002844,20.1161977],[73.0002931,20.1159867],[73.0004455,20.1158133],[73.0005094,20.1157407],[73.0005906,20.1156379],[73.0005961,20.1156011],[73.0006119,20.1153171],[73.0006464,20.1147786],[73.0006853,20.1141568],[73.000686,20.1140201],[73.0006867,20.1138833],[73.0007115,20.1134793],[73.0007171,20.1133874],[73.0007179,20.1133432],[73.0007186,20.1132989],[73.000696,20.1127032],[73.0007548,20.1126577],[73.0007962,20.1126258],[73.000786,20.1125637],[73.0007617,20.11253],[73.00075,20.1125136],[73.0007649,20.1124707],[73.0007686,20.1124601],[73.0007662,20.1124476],[73.000738,20.1123035],[73.0008602,20.1121549],[73.0011803,20.1117918],[73.0012733,20.111641],[73.0013132,20.1116191],[73.0013905,20.1116439],[73.0016465,20.1116544],[73.0018666,20.1116634],[73.0019417,20.1116084],[73.0020168,20.1115534],[73.0022742,20.1113253],[73.0023748,20.1113188],[73.0024582,20.1113135],[73.0025076,20.1112816],[73.0025726,20.1112176],[73.0025591,20.1112115],[73.0025334,20.1111998],[73.0025952,20.1111829],[73.0027065,20.1111328],[73.0031188,20.1109474],[73.0033459,20.1108838],[73.003349,20.1108343],[73.0033636,20.1105993],[73.0033942,20.1106776],[73.0035257,20.1108519],[73.0035762,20.1109189],[73.0036608,20.1110335],[73.0037445,20.1109806],[73.0038983,20.1108644],[73.0039363,20.1108357],[73.0039942,20.1107988],[73.0040174,20.1107579],[73.0043032,20.1107911],[73.0044511,20.1108083],[73.0045325,20.1107861],[73.0047683,20.1107107],[73.0049889,20.1105828],[73.0051899,20.110467],[73.0052268,20.1104115],[73.0052637,20.1103561],[73.0055725,20.1099269],[73.005673,20.109795],[73.0057611,20.1097366],[73.006352,20.109249],[73.0063973,20.1092116],[73.0064432,20.109172],[73.0064891,20.1091323],[73.0067301,20.1089089],[73.0068146,20.1088828],[73.0069051,20.1088594],[73.0069128,20.1088574],[73.0069531,20.1088667],[73.0071132,20.1087509],[73.0071211,20.1087452],[73.007216,20.1087008],[73.0075632,20.1085382],[73.007682,20.1084843],[73.0077094,20.1084355],[73.0081365,20.1080597],[73.008158,20.1080414],[73.0083027,20.107916],[73.0084296,20.1077466],[73.0084789,20.1076805],[73.0086256,20.1074837],[73.0086517,20.1074722],[73.008666,20.1074658],[73.0088003,20.1072977],[73.0088162,20.1072781],[73.0088559,20.1072287],[73.0091467,20.106867],[73.0093017,20.1066731],[73.0094337,20.1065617],[73.0095545,20.1064642],[73.009608,20.106419],[73.0098709,20.1061974],[73.010002,20.1060928],[73.0100091,20.1060455],[73.0100233,20.1059514],[73.0101252,20.1058779],[73.0101364,20.1058685],[73.0102247,20.1057941],[73.0102351,20.1057933],[73.010433,20.1057778],[73.0109712,20.1048528],[73.0114576,20.1039711],[73.0114837,20.1039117],[73.0115099,20.1038524],[73.011799,20.1032794],[73.0118133,20.1032565],[73.0118656,20.103173],[73.0119201,20.1030861],[73.0122003,20.1026886],[73.0125022,20.1022602],[73.0125243,20.1022181],[73.0125495,20.1021692],[73.0127529,20.1017784],[73.0128246,20.1016148],[73.0128246,20.1016147],[73.0128247,20.1016146],[73.0128963,20.1014511],[73.0133776,20.1003551],[73.0134471,20.0998364],[73.0134561,20.0998222],[73.0134782,20.0997871],[73.0134707,20.0996889],[73.0134167,20.0989785],[73.0133813,20.0989064],[73.0133807,20.098902],[73.0133327,20.0985687],[73.0134683,20.0980468],[73.0134702,20.0979817],[73.0135087,20.0979231],[73.0135298,20.097891],[73.0135523,20.0978563],[73.0135891,20.0974544],[73.0136054,20.0973581],[73.0136218,20.0972617],[73.0137361,20.0965871],[73.0137176,20.0965331],[73.013699,20.0964791],[73.0141109,20.0961987],[73.0142237,20.0961219],[73.0147982,20.0957428],[73.0153649,20.0953823],[73.01545,20.0953281],[73.0155352,20.0952739],[73.0162028,20.0947253],[73.016755,20.0942888],[73.016791,20.0942603],[73.0173105,20.093831],[73.0173319,20.0938115],[73.0173356,20.0938081],[73.0173599,20.0937878],[73.0173938,20.0937594],[73.0176323,20.0934771],[73.0177354,20.0933547],[73.0178385,20.0932322],[73.0180576,20.0929666],[73.0181652,20.092836],[73.0181933,20.0928365],[73.018369,20.092839],[73.0184455,20.0928401],[73.0185562,20.0928031],[73.019503,20.0924872],[73.0196019,20.0923726],[73.0196033,20.092371],[73.0197008,20.092258],[73.0200339,20.0918721],[73.0205573,20.0912659],[73.0207204,20.0910785],[73.020796,20.0909966],[73.0212965,20.0905181],[73.0217837,20.0900417],[73.021805,20.0900208],[73.0218264,20.0899999],[73.0224751,20.0881418],[73.0230775,20.0862088],[73.0233637,20.0847184],[73.024955,20.0832594],[73.0249781,20.0832304],[73.0249896,20.0832159],[73.0256594,20.082771],[73.0274026,20.0818769],[73.0274269,20.0818777],[73.0274512,20.0818785],[73.0284122,20.0813371],[73.0284483,20.0813051],[73.0284845,20.0812731],[73.0286846,20.081163],[73.0290011,20.080989],[73.0290187,20.0809622],[73.0290363,20.0809353],[73.0304772,20.079662],[73.0307721,20.0790847],[73.030774,20.0790676],[73.0307759,20.0790506],[73.0309416,20.0787314],[73.0312411,20.0781546],[73.0317292,20.0772144],[73.0322184,20.0765657],[73.0330032,20.0759524],[73.0330619,20.0759095],[73.0331206,20.0758666],[73.0337429,20.0753019],[73.0350157,20.0732378],[73.0368086,20.0702437],[73.0375361,20.069101],[73.0375669,20.0690688],[73.0375978,20.0690366],[73.0383083,20.0680033],[73.0390288,20.0674386],[73.0402039,20.0664332],[73.0409465,20.066132],[73.0417458,20.0657996],[73.0424187,20.065506],[73.0431696,20.0651917],[73.0442043,20.065311],[73.0455307,20.0654656],[73.0466248,20.0656093],[73.0473763,20.0656998],[73.0481857,20.0652102],[73.0495509,20.0643792],[73.0506232,20.0637436],[73.0510567,20.0646505],[73.0510702,20.0652989],[73.0511085,20.0671386],[73.0513303,20.0723411],[73.0518133,20.0821266],[73.0518194,20.0822496],[73.0518698,20.0829848],[73.0519875,20.0846992],[73.052059,20.0852863],[73.0525969,20.0879575],[73.0528903,20.0893429],[73.0530279,20.0899923],[73.0541988,20.0955197],[73.0544968,20.096768],[73.0545894,20.097156],[73.0549148,20.098626],[73.0551903,20.099871],[73.0552496,20.099869],[73.0552534,20.0998689],[73.055309,20.099867],[73.0555756,20.0998581],[73.0555837,20.0998578],[73.0558242,20.0998498],[73.0636929,20.0995867],[73.0639886,20.0994019],[73.0640186,20.0993831],[73.0647633,20.0989177],[73.0647958,20.0988974],[73.0666345,20.0977483],[73.0667144,20.0976984],[73.0669047,20.0975797],[73.0670202,20.0975074],[73.0671177,20.0974464],[73.0676505,20.0971137],[73.0681741,20.0967864],[73.070199,20.096535],[73.0715127,20.0963723],[73.0716596,20.0963538],[73.0718066,20.0963353],[73.0735439,20.0961448],[73.0754335,20.0960642],[73.0767835,20.0956818],[73.0770254,20.0956198],[73.0772673,20.0955577],[73.0777537,20.0952184],[73.0785602,20.0946553],[73.0793123,20.0946698],[73.0793329,20.0946841],[73.0794203,20.0947451],[73.0794686,20.0946953],[73.0795031,20.0946598],[73.0798548,20.0947262],[73.0800172,20.0947572],[73.0801796,20.0947882],[73.0805913,20.0949546],[73.0809554,20.0926259],[73.0809552,20.092331],[73.0813149,20.0922871],[73.0816403,20.0922474],[73.0817858,20.0922297],[73.0818199,20.0922093],[73.081854,20.0921889],[73.0826324,20.0917225],[73.0835481,20.0911739],[73.0837543,20.0912819],[73.0839604,20.0913898],[73.0860988,20.0913278],[73.0874009,20.0912679],[73.0883524,20.0915006],[73.0903017,20.0919772],[73.0919596,20.0914287],[73.0924273,20.0911404],[73.092574,20.09105],[73.092685,20.0910396],[73.0934633,20.0909664],[73.0962955,20.0907256],[73.0970603,20.0907722],[73.0994559,20.090918],[73.1007455,20.0911093],[73.1007815,20.091104],[73.1008175,20.0910987],[73.1022626,20.091237],[73.1030106,20.0901804],[73.103034,20.0901647],[73.1030574,20.0901489],[73.1036379,20.0896057],[73.1045679,20.088768],[73.1060356,20.0875425],[73.1064556,20.0856444],[73.1064549,20.0855843],[73.1064542,20.0855241],[73.1061624,20.082987],[73.1060443,20.0810397],[73.1059185,20.0792388],[73.105661,20.0785456],[73.105886,20.0778747],[73.1069732,20.0753896],[73.1064197,20.0744455],[73.1060611,20.0741651],[73.1060699,20.0741667],[73.1064799,20.0738855],[73.1075186,20.0746234],[73.1084617,20.0752998],[73.1108058,20.0737264],[73.1108678,20.0735716],[73.1109298,20.0734168],[73.1109556,20.0733858],[73.1111474,20.0731551],[73.1111558,20.0728521],[73.1111494,20.0727352],[73.1111274,20.0723227],[73.1112831,20.071679],[73.1114932,20.0713973],[73.1119831,20.0711748],[73.1118096,20.0714272],[73.1117933,20.0714509],[73.1119163,20.0720276],[73.112013,20.072928],[73.1117892,20.0736388],[73.1119208,20.074273],[73.1119709,20.0742452],[73.1120211,20.0742174],[73.1125059,20.0748363],[73.1136541,20.0756904],[73.1140409,20.0760151],[73.1141405,20.0760851],[73.1141745,20.076109],[73.1142633,20.0761714],[73.1143403,20.0762389],[73.1148933,20.0758449],[73.1169235,20.0751472],[73.1189312,20.0750947],[73.119068,20.0752672],[73.1192048,20.0754397],[73.1190458,20.0786616],[73.1197295,20.0789303],[73.119778,20.0789278],[73.1198095,20.0789262],[73.1208512,20.0788715],[73.124103,20.0779675],[73.1243669,20.0783962],[73.1245225,20.0788597],[73.1246976,20.079381],[73.124434,20.0804423],[73.1250596,20.0828372],[73.1255003,20.0834958],[73.1263463,20.0838517],[73.1273208,20.0835961],[73.1274782,20.0834264],[73.1284836,20.0823422],[73.1301036,20.0817258],[73.1307067,20.0817502],[73.1308883,20.0821482],[73.1311322,20.0826826],[73.1319416,20.0838439],[73.1333594,20.0861762],[73.1340327,20.0863751],[73.1342689,20.0864449],[73.1350835,20.0866855],[73.1363851,20.0863671],[73.1364247,20.086335],[73.1370478,20.0858309],[73.1373871,20.085298],[73.1374302,20.08475],[73.1369994,20.0828647],[73.1367356,20.0822314],[73.1362221,20.0815535],[73.1362645,20.0807738],[73.1370707,20.0791268],[73.137261,20.0790447],[73.1374514,20.0789626],[73.1385091,20.079047],[73.1395079,20.0787858],[73.1400852,20.0790112],[73.1401344,20.0791478],[73.1405753,20.0803733],[73.1414507,20.0805699],[73.1415913,20.0805332],[73.141657,20.0805161],[73.1424669,20.0803047],[73.1425952,20.0801444],[73.1427235,20.079984],[73.1427954,20.0778885],[73.1430863,20.076432],[73.1434088,20.0760613],[73.1436755,20.0757547],[73.1437363,20.0757156],[73.1437757,20.0756902],[73.1438413,20.0756481],[73.1438593,20.0757068],[73.143914,20.0758851],[73.1466895,20.0738558],[73.1475485,20.0740664],[73.1486854,20.074847],[73.1486843,20.074905],[73.1486173,20.0784889],[73.1491902,20.0789997],[73.1495478,20.078759],[73.1510549,20.0777444],[73.1518081,20.0776909],[73.152348,20.0770838],[73.152982,20.076371],[73.1542752,20.0760245],[73.1546437,20.0757605],[73.1546831,20.0756031],[73.1547224,20.0754456],[73.1545593,20.0751342],[73.1532405,20.0739514],[73.1518441,20.0729725],[73.1518495,20.0727666],[73.1518549,20.0725608],[73.1526728,20.0718134],[73.153676,20.0708988],[73.1539502,20.0702173],[73.154467,20.0704169],[73.1545935,20.0696169],[73.1548095,20.0682504],[73.1557919,20.0658752],[73.1569536,20.0660033],[73.1570588,20.0659382],[73.1571639,20.0658731],[73.1564444,20.064185],[73.1563236,20.0639018],[73.1563336,20.0638689],[73.1563436,20.0638361],[73.156439,20.0635216],[73.156461,20.0635073],[73.156582,20.063429],[73.1571494,20.0630616],[73.1589133,20.0628903],[73.160767,20.0622881],[73.1611736,20.062156],[73.1616332,20.0620067],[73.1617138,20.0619205],[73.1618026,20.0618256],[73.1626532,20.0609161],[73.1626977,20.0608686],[73.1627356,20.0608281],[73.1627488,20.0608139],[73.1628183,20.0607897],[73.1633756,20.0605958],[73.1635005,20.0605523],[73.1635005,20.0605504],[73.1635023,20.0604775],[73.1635029,20.060455],[73.1635154,20.0603839],[73.1635578,20.0601446],[73.1639439,20.0578681],[73.1642611,20.0569317],[73.1647097,20.0558287],[73.1647171,20.0558063],[73.1647377,20.0557441],[73.1647485,20.0557111],[73.1647778,20.0556223],[73.1648352,20.0555598],[73.1650711,20.0553029],[73.1650749,20.0552988],[73.1651273,20.0552417],[73.1652698,20.0552343],[73.1654035,20.055269],[73.165625,20.0553265],[73.1661751,20.0554503],[73.1664026,20.0555015],[73.1665468,20.0555286],[73.16657,20.055533],[73.1666764,20.055553],[73.1667687,20.0555703],[73.1668022,20.0555766],[73.1669592,20.0556061],[73.1677555,20.0557689],[73.1679682,20.0555538],[73.167972,20.0555483],[73.1681332,20.0553143],[73.1689095,20.0541876],[73.1694658,20.0535745],[73.1695541,20.0534773],[73.1696424,20.05338],[73.1699963,20.0529601],[73.1700637,20.0528667],[73.1701277,20.0527781],[73.1701344,20.0527688],[73.1705709,20.0522498],[73.1705727,20.0522477],[73.1707061,20.0520356],[73.1707599,20.0520246],[73.1708984,20.0519961],[73.1720477,20.0517598],[73.1721256,20.0517514],[73.1721994,20.0517435],[73.1722094,20.0517421],[73.1730308,20.0516324],[73.173691,20.0513955],[73.1743447,20.0511914],[73.1753262,20.0515283],[73.1764405,20.0519641],[73.1765363,20.051959],[73.1766321,20.051954],[73.1767059,20.0512686],[73.1768048,20.0501911],[73.1768055,20.0501835],[73.1768338,20.0501189],[73.1768557,20.0500689],[73.1772224,20.0490556],[73.177638,20.0479027],[73.177962,20.047085],[73.177983,20.0470321],[73.1781179,20.0470242],[73.178172,20.0470211],[73.1782219,20.0470181],[73.1783582,20.04709],[73.1786494,20.0479846],[73.1791877,20.0482053],[73.1792469,20.0482296],[73.1792517,20.0482316],[73.179371,20.0488141],[73.1796982,20.049],[73.1806654,20.0491465],[73.1808549,20.0491498],[73.1810444,20.049153],[73.1819349,20.0495235],[73.1821141,20.0495981],[73.182253,20.0496336],[73.1823919,20.0496691],[73.1826549,20.0500442],[73.183323,20.05028],[73.183761,20.0498605],[73.184929,20.0493388],[73.1850609,20.0494534],[73.1851928,20.0495681],[73.185337,20.0501274],[73.1859093,20.0503154],[73.1860973,20.0502586],[73.1862853,20.0502018],[73.1870931,20.0500706],[73.1872242,20.0501476],[73.1873552,20.0502247],[73.1877851,20.0507358],[73.1886144,20.0505838],[73.1891447,20.0499285],[73.190625,20.0499761],[73.1907728,20.0497853],[73.1909221,20.0495925],[73.1910355,20.0500234],[73.1911705,20.0505366],[73.1913616,20.051397],[73.1920964,20.0547061],[73.1899308,20.0561855],[73.1892932,20.0559231],[73.1877091,20.0569819],[73.1876909,20.0570222],[73.1876727,20.0570624],[73.1861486,20.0591707],[73.1863849,20.0598316],[73.1876982,20.0634337],[73.1877092,20.0634364],[73.1877201,20.0634391],[73.187503,20.0656703],[73.1879923,20.0677799],[73.1878522,20.0696923],[73.1880963,20.0702988],[73.188539,20.0714207],[73.1883658,20.0724316],[73.1890598,20.0728682],[73.1892466,20.0732547],[73.1892324,20.0733337],[73.1892182,20.0734127],[73.1889961,20.0746454],[73.1885643,20.0767131],[73.188529,20.0781032],[73.1887938,20.0780976],[73.1893738,20.0780854],[73.1900486,20.0780713],[73.1938995,20.0769281],[73.1968466,20.0759618],[73.1969144,20.0759395],[73.1969289,20.0759618],[73.1972395,20.0764378],[73.197464,20.0767818],[73.1981608,20.0778497],[73.1990029,20.0780269],[73.1999212,20.0782201],[73.2000993,20.0782575],[73.2018473,20.0786249],[73.2033493,20.0789597],[73.2047475,20.079959],[73.2067566,20.0819021],[73.2068468,20.0820031],[73.2095236,20.0849995],[73.2097028,20.0853294],[73.2097047,20.0853438],[73.2097258,20.0855031],[73.2099499,20.0871931],[73.2101023,20.0880023],[73.2104764,20.0908405],[73.2104726,20.090876],[73.2104689,20.0909114],[73.2108336,20.0941388],[73.2112083,20.0966396],[73.2113748,20.0976505],[73.2113768,20.0977414],[73.2113787,20.0978323],[73.2117963,20.1003135],[73.2126583,20.1048446],[73.212439,20.1061333],[73.212351,20.1066507],[73.2125569,20.1099046],[73.2125846,20.1099368],[73.2126123,20.1099691],[73.2132055,20.1117762],[73.2134657,20.1142399],[73.2138641,20.1167541],[73.213898,20.1168179],[73.2139319,20.1168818],[73.2138889,20.1175626],[73.2138988,20.1189915],[73.2101701,20.1196403],[73.2084264,20.1200615],[73.2078203,20.1198356],[73.2051605,20.1195554],[73.2041288,20.1192288],[73.2030155,20.1195967],[73.202287,20.1198814],[73.2019412,20.120342],[73.2016605,20.120716],[73.2013466,20.1211341],[73.2004032,20.1234446],[73.1999719,20.1239292],[73.1995025,20.1241736],[73.1988164,20.1242557],[73.1983874,20.1248579],[73.1974474,20.1263185],[73.1964164,20.1266427],[73.1946596,20.1273422],[73.1935005,20.1273838],[73.1925586,20.127791],[73.1911885,20.1276297],[73.1902868,20.1272647],[73.1896398,20.1273068],[73.1886988,20.1276734],[73.1877603,20.1286006],[73.1869911,20.1294495],[73.1870304,20.1298571],[73.1869484,20.1300885],[73.1868268,20.1304319],[73.1867358,20.1307519],[73.1866769,20.1309589],[73.1865736,20.1313222],[73.1866164,20.1320147],[73.1869191,20.1326405],[73.1870842,20.1329818],[73.187072,20.1330986],[73.1870183,20.1336134],[73.1867055,20.1346065],[73.1861437,20.1353735],[73.1854645,20.1373995],[73.1850877,20.1402933],[73.1849049,20.1416969],[73.1846456,20.1446892],[73.1846094,20.1454261],[73.1845666,20.1462981],[73.18452,20.1472453],[73.1850385,20.1508127],[73.1850403,20.1518614],[73.185299,20.154583],[73.1853826,20.1558367],[73.1856635,20.1561515],[73.1862852,20.1568481],[73.1878271,20.157736],[73.1882973,20.1585901],[73.1883493,20.1589082],[73.1888147,20.161755],[73.1896716,20.1642618],[73.1897147,20.1642648],[73.1897872,20.1642699],[73.1931467,20.1645032],[73.1980756,20.1652736],[73.201038,20.1653109],[73.2034818,20.1647418],[73.2055378,20.1641745],[73.2077223,20.166159],[73.209055,20.16721],[73.2103859,20.1685864],[73.2141599,20.171708],[73.2146359,20.1727565],[73.215658,20.1747102],[73.2173313,20.1787192],[73.2173374,20.178775],[73.2174198,20.1795255],[73.2175463,20.1803415],[73.217636,20.180863],[73.2178591,20.1811246],[73.2181921,20.1815152],[73.2181487,20.1818903],[73.217935,20.1837389],[73.2177218,20.1859274],[73.2151482,20.1874254],[73.2136062,20.1876725],[73.2115903,20.1879151],[73.2082488,20.1894982],[73.2072654,20.1884448],[73.2067024,20.1881223],[73.2064031,20.188282],[73.2043444,20.1893801],[73.2031453,20.1899454],[73.2013606,20.1921722],[73.2009759,20.1924814],[73.200731,20.1927436],[73.200246,20.1932633],[73.199778,20.1936659],[73.1996762,20.1937228],[73.1993798,20.1939342],[73.1989305,20.1943507],[73.1988134,20.194457],[73.1980794,20.1947552],[73.1972328,20.1951688],[73.1954629,20.1960036],[73.1952011,20.1959308],[73.1943546,20.1958834],[73.1933852,20.1964439],[73.1925537,20.1969368],[73.1917222,20.1974297],[73.1912048,20.1963036],[73.1909269,20.1958599],[73.1904443,20.1953581],[73.1900332,20.1950972],[73.1886356,20.1948496],[73.1876002,20.1949024],[73.1863004,20.1947831],[73.1852171,20.1946181],[73.184371,20.194408],[73.1843645,20.1944033],[73.1835181,20.1938992],[73.1825359,20.194387],[73.181765,20.1943861],[73.1813326,20.1937768],[73.1803913,20.1923216],[73.1797867,20.1921611],[73.1790588,20.192161],[73.1781702,20.1925455],[73.1779475,20.1926418],[73.178347,20.1934007],[73.178546,20.1937786],[73.1792783,20.1956005],[73.1792791,20.1956214],[73.1793206,20.1967766],[73.1788021,20.1977523],[73.1773017,20.1989671],[73.1767483,20.1993273],[73.174214,20.1991666],[73.172288,20.1987642],[73.1714713,20.1984415],[73.1711931,20.1987788],[73.1702674,20.1999014],[73.1702363,20.2000138],[73.1700792,20.2006482],[73.170043,20.2007741],[73.1698131,20.2012308],[73.1694948,20.2015683],[73.1693111,20.2018768],[73.1692762,20.2019394],[73.1690414,20.2021746],[73.1687267,20.2030184],[73.1688978,20.2055711],[73.1687259,20.2073534],[73.1686329,20.2079076],[73.1684619,20.2080693],[73.1682908,20.2082311],[73.1655002,20.2059229],[73.160654,20.2014286],[73.157181,20.1983479],[73.1567474,20.1984707],[73.1527632,20.2034535],[73.1522461,20.2039003],[73.1516132,20.2035648],[73.1511953,20.2033432],[73.1511761,20.203333],[73.1475731,20.2007379],[73.1471008,20.2011042],[73.1449546,20.2022794],[73.1431931,20.202481],[73.1419499,20.2028506],[73.1385197,20.2045076],[73.1379648,20.2056046],[73.1375346,20.2075853],[73.1363334,20.2071059],[73.1332277,20.2058624],[73.132991,20.2057676],[73.1326492,20.2024929],[73.1323481,20.1997795],[73.1324336,20.1973492],[73.1326055,20.193786],[73.1326062,20.1919597],[73.1338962,20.1878302],[73.134924,20.1849928],[73.1368133,20.1846265],[73.1370948,20.1846058],[73.1387423,20.1844842],[73.1389568,20.1844684],[73.1392129,20.1836867],[73.1394729,20.1822678],[73.1401574,20.1809292],[73.1411852,20.1789824],[73.1416903,20.1777896],[73.1418708,20.1773635],[73.1397692,20.1757867],[73.138567,20.1746879],[73.137636,20.1728948],[73.1374956,20.1726243],[73.137213,20.1717534],[73.1369835,20.171046],[73.1364973,20.1705253],[73.1361791,20.1701846],[73.1360381,20.1700336],[73.1345827,20.1695854],[73.1338102,20.169418],[73.1334629,20.1693427],[73.1332956,20.1693564],[73.1332953,20.1693564],[73.1324798,20.1694234],[73.1311028,20.1702379],[73.1284062,20.1734366],[73.1270792,20.1725841],[73.1245844,20.1705972],[73.1236852,20.1701145],[73.1233405,20.1701169],[73.1223565,20.1706813],[73.1209386,20.1698314],[73.119178,20.1682111],[73.1191523,20.1681588],[73.1188386,20.1675221],[73.1188821,20.1659407],[73.1190517,20.1651755],[73.1194826,20.1647272],[73.1194826,20.1646721],[73.119483,20.1640401],[73.1190947,20.1638383],[73.1176778,20.1638384],[73.117341,20.1634703],[73.1168234,20.1628275],[73.1158118,20.1622956],[73.1156636,20.1622176],[73.1152354,20.1603154],[73.1148102,20.1589376],[73.1150982,20.1583375],[73.1154917,20.1575176],[73.1155176,20.1574749],[73.1165239,20.1558196],[73.1163906,20.1544429],[73.1159045,20.1529344],[73.1156591,20.1521732],[73.115062,20.1518905],[73.1136456,20.152094],[73.1124898,20.1533104],[73.1109884,20.1554559],[73.1105146,20.1563419],[73.1081128,20.1578418],[73.106698,20.1579638],[73.1058403,20.1575631],[73.1038677,20.1569105],[73.102154,20.1564662],[73.1021525,20.1564659],[73.1014881,20.1563332],[73.1009528,20.1562262],[73.0994067,20.1562236],[73.098674,20.1564626],[73.097649,20.1571571],[73.0967477,20.1574381],[73.0950314,20.1588923],[73.0937871,20.1590989],[73.0931467,20.1593719],[73.0930306,20.1594213],[73.0929931,20.1594373],[73.0927724,20.1595314],[73.092771,20.159532],[73.092763,20.1595267],[73.09249,20.1595305],[73.0919394,20.159755],[73.0918971,20.1597691],[73.0911728,20.1600114],[73.0902984,20.1603171],[73.0902644,20.1604007],[73.0897904,20.1612911],[73.0897041,20.16218],[73.0900926,20.1634758],[73.0897512,20.1642106],[73.0884191,20.1673672],[73.0876046,20.1689472],[73.0870434,20.1703242],[73.086535,20.1708116],[73.0834443,20.1722663],[73.0792822,20.1732391],[73.0787895,20.1726325],[73.0787227,20.1725502],[73.0781729,20.1709222],[73.0780389,20.1705255],[73.077953,20.1703286],[73.0776512,20.1696365],[73.0775629,20.1679713],[73.0775639,20.1674497],[73.0775648,20.1670039],[73.0766996,20.1660271],[73.0764526,20.1657483],[73.0762347,20.1638817],[73.0760341,20.1628422],[73.0759764,20.1625431],[73.075467,20.1615343],[73.074798,20.1608146],[73.0745642,20.160563],[73.0742631,20.1583331],[73.0741648,20.1568329],[73.0741409,20.1564683],[73.07358,20.1556212],[73.0733457,20.1554847],[73.0725084,20.1549969],[73.0724644,20.1549712],[73.0706609,20.1555782],[73.0676148,20.1571962],[73.0658146,20.158088],[73.0652126,20.1582526],[73.0643137,20.158651],[73.0639067,20.1589271],[73.0637112,20.1590598],[73.0634201,20.1592713],[73.0623784,20.1600284],[73.0611822,20.1608821],[73.0602362,20.1618943],[73.0603655,20.1634338],[73.0602806,20.1651319],[73.060338,20.1659345],[73.0604004,20.1668055],[73.0604054,20.1668746],[73.0606818,20.1672525],[73.0615629,20.1684567],[73.0626357,20.1697522],[73.0625639,20.1700894],[73.0621611,20.1719807],[73.0620747,20.1728695],[73.0620831,20.1729335],[73.0623307,20.1747414],[73.0627996,20.1776119],[73.0622015,20.1808957],[73.0621982,20.1832417],[73.0620708,20.1842563],[73.0615071,20.1859585],[73.061205,20.1872953],[73.0604774,20.1903685],[73.0595766,20.1932486],[73.0595329,20.1939348],[73.0576443,20.1938167],[73.0550277,20.194584],[73.0532233,20.1954304],[73.0522391,20.1962023],[73.0505654,20.1978603],[73.0490088,20.1999889],[73.0488478,20.200209],[73.0488264,20.200533],[73.0488264,20.2005334],[73.0488141,20.2007191],[73.0488049,20.2008592],[73.04908,20.2011553],[73.0491394,20.2012193],[73.0494036,20.2015037],[73.0497908,20.2010999],[73.0498769,20.2011016],[73.0510333,20.2025209],[73.0523192,20.2039336],[73.0533983,20.2053921],[73.0544649,20.2074199],[73.054619,20.2079302],[73.0549784,20.2091204],[73.0549329,20.2098926],[73.0550683,20.2122413],[73.055361,20.2128113],[73.0556287,20.2133325],[73.0573002,20.2161722],[73.0581133,20.2177519],[73.0582155,20.2181561],[73.0582995,20.2184883],[73.0583172,20.2185584],[73.0585136,20.2193355],[73.0588803,20.2207865],[73.0599596,20.2233388],[73.0614161,20.2237467],[73.0625735,20.2240314],[73.0627897,20.2248809],[73.0630861,20.2266631],[73.0636465,20.2277588],[73.0641541,20.2281981],[73.0661737,20.2286983],[73.0671663,20.2293052],[73.0705103,20.2321048],[73.0706632,20.2320752],[73.0707453,20.2320593],[73.0724004,20.2317391],[73.0755756,20.2317373],[73.0788369,20.2312941],[73.0813317,20.2310892],[73.0824423,20.2308936],[73.0842525,20.230011],[73.0848597,20.2285039],[73.0854867,20.227639],[73.0859821,20.2275356],[73.0864199,20.2274491],[73.0866861,20.2273186],[73.0868328,20.2271769],[73.0871415,20.2270743],[73.087176,20.2270298],[73.087627,20.2269887],[73.0877974,20.2269971],[73.0882346,20.2270185],[73.0882684,20.2270167],[73.0886661,20.2269952],[73.0890654,20.2269125],[73.0892697,20.2267627],[73.0893443,20.2268151],[73.0916284,20.2284174],[73.0940768,20.2290296],[73.0966931,20.2291508],[73.0977178,20.2292902],[73.0977447,20.2292976],[73.0977286,20.2293484],[73.0977034,20.2298542],[73.0977855,20.2302626],[73.0981053,20.2305355],[73.0989215,20.2313241],[73.0990137,20.2319406],[73.0985889,20.2325337],[73.0976389,20.2335053],[73.097662,20.2339895],[73.0979064,20.234202],[73.0982226,20.2344161],[73.098268,20.2345345],[73.0982164,20.2349313],[73.0977814,20.2351127],[73.0973175,20.2355287],[73.0970751,20.2361071],[73.0971444,20.2380025],[73.0972977,20.2386654],[73.0978433,20.2393494],[73.098371,20.2395268],[73.0985247,20.2395965],[73.0985303,20.239599],[73.0987457,20.2396968],[73.0998466,20.2399484],[73.1003402,20.2401523],[73.1006499,20.240452],[73.1012907,20.2413864],[73.1018529,20.2424098],[73.1026715,20.243759],[73.1033319,20.2444542],[73.1042648,20.2449422],[73.1055117,20.2453142],[73.1062687,20.2461875],[73.1069487,20.2470821],[73.1074762,20.2486109],[73.1073254,20.2498284],[73.1072758,20.2499984],[73.1070451,20.2506857],[73.1070003,20.2507661],[73.107358,20.2508408],[73.1074816,20.2509239],[73.1080992,20.2513387],[73.1083266,20.2516776],[73.1084031,20.2521265],[73.1090769,20.2524242],[73.1101656,20.2532452],[73.1115078,20.2547534],[73.1123101,20.2559757],[73.1136697,20.2580132],[73.113989,20.2583131],[73.1144213,20.2584751],[73.1170124,20.2584885],[73.118548,20.2585766],[73.11963,20.2586018],[73.1205277,20.258949],[73.1220841,20.2598601],[73.1229894,20.2603068],[73.1243226,20.2604543],[73.1251879,20.2605296],[73.1260021,20.2607576],[73.1270194,20.2617894],[73.1275478,20.2628392],[73.1276931,20.2632126],[73.1287183,20.2658855],[73.1290603,20.2664706],[73.1290895,20.267122],[73.1291655,20.2675936],[73.1301047,20.2684793],[73.1305285,20.2694863],[73.1306025,20.2705092],[73.1305369,20.2715567],[73.1305503,20.2720542],[73.1309361,20.2728299],[73.1313013,20.274342],[73.1312409,20.2749571],[73.1312339,20.2750278],[73.1321191,20.2748504],[73.1341443,20.274229],[73.1343141,20.2741649],[73.1358877,20.2735706],[73.1361815,20.2734947],[73.1372813,20.273136],[73.1373845,20.2731339],[73.1375351,20.2731309],[73.1385513,20.2731104],[73.1392776,20.2731966],[73.1399737,20.2737928],[73.1416562,20.2755379],[73.1422745,20.276422],[73.1421629,20.2800812],[73.1422177,20.2811038],[73.1433919,20.2826493],[73.1439731,20.2850515],[73.1441061,20.2862248],[73.144565,20.2871691],[73.1458476,20.2885811],[73.1475227,20.289779],[73.149982,20.2912766],[73.1502359,20.2915183],[73.150292,20.2915717],[73.1513513,20.2919941],[73.1517338,20.292033],[73.1523408,20.2911947],[73.1525925,20.2899474],[73.1528283,20.2887676],[73.1530275,20.2872888],[73.1533051,20.2861776],[73.1536701,20.2852307],[73.1544282,20.2844948],[73.1548348,20.2836256],[73.1550963,20.2830384],[73.1555455,20.2826401],[73.1562989,20.282356],[73.1570499,20.2819544],[73.1576504,20.2814278],[73.1582277,20.2813077],[73.1589171,20.2817818],[73.1600733,20.2819018],[73.1600882,20.2819033],[73.1601719,20.2819341],[73.1616805,20.2824894],[73.1634576,20.2831783],[73.1643395,20.2836615],[73.1649445,20.2839929],[73.1659332,20.2863936],[73.1663042,20.2878742],[73.166448,20.2908104],[73.166369,20.2915999],[73.1657896,20.2940705],[73.1654215,20.2951664],[73.164205,20.2969559],[73.1636519,20.2979625],[73.1634935,20.2982036],[73.1636511,20.2989027],[73.1653303,20.3026362],[73.1656777,20.3036463],[73.1662277,20.3052748],[73.1663479,20.3075189],[73.1660447,20.3091631],[73.1657304,20.3104318],[73.1648594,20.3103837],[73.1631016,20.3103596],[73.1618695,20.3097125],[73.1599084,20.3086539],[73.159406,20.3088524],[73.1586804,20.3093991],[73.1576168,20.3103011],[73.1557666,20.312594],[73.154396,20.3139602],[73.1537903,20.3147262],[73.1530447,20.3148657],[73.1523657,20.3152506],[73.151546,20.3163967],[73.1514127,20.3168922],[73.1511505,20.3178672],[73.1509658,20.3181033],[73.1507811,20.3183394],[73.1469474,20.3181402],[73.1436444,20.3182177],[73.1406615,20.3183418],[73.1401115,20.3178432],[73.1388705,20.3176208],[73.1359083,20.3176729],[73.134663,20.3176447],[73.132609,20.318469],[73.1306585,20.3182691],[73.1301796,20.3182884],[73.1301794,20.3182885],[73.1294404,20.3183182],[73.129183,20.3174092],[73.1286207,20.3154234],[73.1278046,20.3132563],[73.1278839,20.3120193],[73.1274601,20.3109988],[73.1270919,20.3100697],[73.1264531,20.3088009],[73.1269338,20.3078338],[73.1271139,20.3072586],[73.1269548,20.3055109],[73.1263314,20.3054324],[73.1255596,20.3053351],[73.1247952,20.3045612],[73.1237364,20.3043376],[73.1227297,20.3045895],[73.1220833,20.3043467],[73.1218949,20.304194],[73.1211607,20.3049167],[73.1206586,20.304871],[73.1198389,20.3048914],[73.1182236,20.3055928],[73.1166111,20.3061632],[73.115027,20.3054142],[73.1127024,20.3043436],[73.111535,20.3040456],[73.1095541,20.3048167],[73.1097162,20.3052944],[73.1085238,20.3052671],[73.107736,20.3049175],[73.1035204,20.3020026],[73.1028066,20.3017765],[73.1009264,20.3040998],[73.1005634,20.3045741],[73.1003741,20.3048215],[73.1012452,20.3066417],[73.1014302,20.308286],[73.102514,20.3106843],[73.1029609,20.311954],[73.1029139,20.3141317],[73.1034679,20.3153266],[73.104158,20.3168767],[73.1053672,20.3187983],[73.1070086,20.3215643],[73.1077213,20.3230673],[73.108434,20.3245702],[73.1083545,20.3258162],[73.1078009,20.327713],[73.1075096,20.3285572],[73.1080362,20.3310262],[73.1084774,20.3330144],[73.1094095,20.3342345],[73.1106987,20.3360039],[73.1111445,20.3374216],[73.1112549,20.3377728],[73.1104619,20.3383271],[73.1096441,20.3389217],[73.1089074,20.3389632],[73.1082671,20.3389992],[73.1080317,20.3390219],[73.1080891,20.3405824],[73.1074544,20.3422425],[73.1072434,20.3429165],[73.1073257,20.3435385],[73.1073752,20.3439134],[73.1070458,20.3445263],[73.1058636,20.3451228],[73.1046551,20.3462749],[73.1046141,20.3463519],[73.1039758,20.34755],[73.1040195,20.3477452],[73.1046421,20.3479922],[73.1049299,20.3484181],[73.105036,20.3490619],[73.1047822,20.3499385],[73.1037357,20.3509082],[73.1027499,20.3523945],[73.1020853,20.3534349],[73.1019778,20.3538009],[73.1018887,20.3541046],[73.1016929,20.3547426],[73.100799,20.3548565],[73.0993455,20.3546975],[73.0992682,20.3546975],[73.0986362,20.3546975],[73.0986034,20.3557725],[73.0984211,20.3575544],[73.0982978,20.3583837],[73.0978452,20.358922],[73.0969862,20.3599348]],[[72.9820532,20.2139347],[72.9800816,20.2149533],[72.9790477,20.2155792],[72.9758607,20.2182688],[72.9747753,20.2192688],[72.9747498,20.220412],[72.9747001,20.2226395],[72.9746169,20.2257252],[72.974926,20.226263],[72.9749939,20.2263813],[72.9751793,20.2267038],[72.9754559,20.2272177],[72.97666,20.2294544],[72.9792254,20.2340346],[72.9834017,20.2359664],[72.9884703,20.2383166],[72.9885399,20.2383489],[72.989512,20.2387996],[72.9900126,20.238692],[72.9920388,20.2382439],[72.9932185,20.2379553],[72.9950045,20.2375431],[72.9966696,20.2371827],[72.9984033,20.2367514],[72.9989954,20.2364015],[72.9993049,20.236263],[72.9999997,20.2358019],[73.0004958,20.2354728],[73.0010945,20.2350371],[73.0021196,20.2343793],[73.0038922,20.2330537],[73.0054775,20.2319684],[73.0068707,20.2304725],[73.0082309,20.2290496],[73.0083169,20.2289596],[73.0076817,20.227799],[73.007163,20.2265638],[73.006161,20.2244511],[73.0056193,20.2233962],[73.0041514,20.2219931],[73.0030346,20.2209585],[73.0027447,20.2207613],[73.0025487,20.220628],[73.0023761,20.2195533],[73.0018018,20.2175937],[73.0014005,20.2158229],[73.0012819,20.2152176],[73.0011294,20.2144388],[73.000084,20.2142916],[73,20.2142992],[72.9993067,20.2143621],[72.9983754,20.2144613],[72.9955002,20.2147751],[72.9930847,20.2149797],[72.9929478,20.2149913],[72.9929415,20.2149319],[72.9928646,20.2142076],[72.9902883,20.2133476],[72.9898659,20.2133285],[72.9898009,20.2133256],[72.9865187,20.2131779],[72.9837726,20.2130602],[72.9820532,20.2139347]]]]}},{"type":"Feature","id":"in-dnh-dd-t-3948","properties":{"id":"in-dnh-dd-t-3948","name":"Daman","region":"in-dnh-dd","level":"tehsil","parent":"in-dnh-dd-d-463","district":"Daman","source":"LGD via Bharatlas · 2024 snapshot","state_lgd":38,"district_lgd":463,"subdistrict_lgd":3948,"center":[72.85271268291493,20.414234944491337],"bbox":[72.8046029,20.366417,72.9041172,20.47803]},"geometry":{"type":"Polygon","coordinates":[[[72.8666018,20.4633921],[72.8648718,20.4637127],[72.8629022,20.4638708],[72.8613065,20.464223],[72.8603666,20.4644785],[72.860202,20.4645232],[72.8597777,20.4646385],[72.8589965,20.4649907],[72.8581757,20.4655985],[72.8581243,20.4656366],[72.857717,20.4664992],[72.8572089,20.4677005],[72.8568494,20.4690915],[72.8562886,20.4705276],[72.8558333,20.4711554],[72.8549179,20.4718735],[72.8539978,20.4721128],[72.8534898,20.4723521],[72.8531351,20.4728353],[72.8527755,20.4731198],[72.8517787,20.4736708],[72.8509639,20.4742217],[72.8502163,20.4745558],[72.8497274,20.4750164],[72.8491282,20.4761952],[72.8483943,20.4780187],[72.8462686,20.47803],[72.8465131,20.4772034],[72.8465145,20.476313],[72.8466909,20.4753178],[72.8464122,20.4747201],[72.846162,20.473716],[72.8461276,20.4735481],[72.8464747,20.4722219],[72.8464746,20.4713949],[72.8456008,20.4704006],[72.845111,20.4689759],[72.8441966,20.4668284],[72.8421505,20.4654606],[72.8420391,20.4653861],[72.8419296,20.4653129],[72.8392261,20.4633952],[72.8371168,20.4619056],[72.8354365,20.4599139],[72.8338529,20.457269],[72.8330827,20.4551198],[72.8329117,20.4549766],[72.8328962,20.4549637],[72.8322077,20.4543876],[72.829794,20.4517662],[72.8280395,20.4498815],[72.8256459,20.4464016],[72.8246347,20.443488],[72.8233387,20.4408579],[72.8213383,20.4370872],[72.8212738,20.4369656],[72.8211981,20.4368228],[72.8201438,20.4339083],[72.8200757,20.432917],[72.8200777,20.4316575],[72.8200788,20.4309284],[72.8202511,20.4288799],[72.820548,20.4283796],[72.8206353,20.4282325],[72.8204628,20.4265792],[72.8205297,20.4253557],[72.8208875,20.4233699],[72.8190211,20.4217765],[72.8186711,20.4209512],[72.8185322,20.4201212],[72.81855,20.4191994],[72.8185558,20.4189013],[72.8182039,20.4187765],[72.8170779,20.4175102],[72.8170301,20.4172893],[72.8166018,20.4153082],[72.8170003,20.4140464],[72.8168629,20.4125294],[72.8164917,20.410768],[72.8164927,20.4088697],[72.8166253,20.4066713],[72.8160373,20.4049551],[72.8151644,20.4031155],[72.8146279,20.4000083],[72.814594,20.3996753],[72.8144055,20.3978251],[72.8142076,20.3964379],[72.8139775,20.3947924],[72.8139081,20.3936888],[72.8138343,20.3925164],[72.8138201,20.3922897],[72.8133198,20.3901006],[72.8119501,20.3867502],[72.8109081,20.3847715],[72.8096512,20.3823453],[72.8089494,20.3813659],[72.8074878,20.3793263],[72.8061919,20.3775547],[72.8052441,20.3760615],[72.8052825,20.3748238],[72.8054016,20.3740353],[72.8051248,20.3734241],[72.8046723,20.3724251],[72.8046456,20.3723661],[72.8046039,20.3722741],[72.8046029,20.372272],[72.8046074,20.372273],[72.8053449,20.3724449],[72.8064656,20.3725853],[72.8083813,20.3725634],[72.8089513,20.3724145],[72.8099093,20.3722432],[72.8119737,20.3715844],[72.8132957,20.3712687],[72.8156043,20.3705964],[72.8173,20.3699059],[72.8179227,20.3695402],[72.8203799,20.3684163],[72.8205947,20.3683495],[72.8226167,20.3677213],[72.823019,20.3674911],[72.8237902,20.3672225],[72.8245613,20.366954],[72.8251361,20.3666787],[72.8252376,20.3666527],[72.826161,20.366417],[72.8269991,20.3664848],[72.8276121,20.3666069],[72.8283228,20.3668963],[72.8284733,20.3669576],[72.8292547,20.3672757],[72.8303943,20.3679354],[72.831802,20.3695615],[72.8323814,20.3700358],[72.834881,20.3724616],[72.835944,20.3733154],[72.8368827,20.3735052],[72.8394401,20.3733559],[72.8394861,20.3733532],[72.8398139,20.3733341],[72.8408675,20.3734561],[72.8414327,20.3736008],[72.8425772,20.3740435],[72.8438511,20.374843],[72.8442342,20.3749379],[72.844311,20.3749354],[72.8457669,20.3748884],[72.8472363,20.3745005],[72.8474035,20.3744563],[72.847836,20.3743421],[72.8508726,20.3736018],[72.8542971,20.3726084],[72.8548431,20.3724097],[72.8549573,20.3723681],[72.8553891,20.372211],[72.8561362,20.3720304],[72.8561985,20.3720936],[72.8564619,20.3726537],[72.8571659,20.3733853],[72.8577981,20.3738505],[72.8581285,20.3740403],[72.85889,20.37423],[72.8594503,20.3743248],[72.8607148,20.374352],[72.8609399,20.3744198],[72.8612081,20.3748172],[72.8613757,20.3749165],[72.8617061,20.3749979],[72.8630137,20.3750431],[72.8632676,20.3751243],[72.8639381,20.3752147],[72.8641919,20.3751921],[72.8643547,20.3751289],[72.8649534,20.3746456],[72.8649649,20.3746369],[72.8650349,20.3744514],[72.8649486,20.3741579],[72.8649869,20.3737739],[72.8651402,20.3731281],[72.8656335,20.3723197],[72.8656862,20.372261],[72.8667303,20.3719448],[72.8675875,20.3716739],[72.8695225,20.3714299],[72.8713424,20.3712853],[72.8734593,20.3705355],[72.8755138,20.3701018],[72.8758107,20.3699799],[72.876055,20.3699483],[72.8766728,20.3697721],[72.8769601,20.3698082],[72.8779946,20.3701333],[72.8788472,20.3705261],[72.8798387,20.3711132],[72.8805727,20.3714323],[72.8806074,20.3714473],[72.8813761,20.3717815],[72.8829662,20.3723143],[72.8844174,20.3725264],[72.8854902,20.372603],[72.8863189,20.3727429],[72.8869535,20.3727722],[72.8875881,20.3728015],[72.8892643,20.3727335],[72.8902652,20.372643],[72.8906676,20.3726475],[72.8909457,20.3742598],[72.8911325,20.3748921],[72.8914918,20.3756508],[72.8924547,20.3766533],[72.8933313,20.3772267],[72.894342,20.3775969],[72.894888,20.3777323],[72.8952425,20.37794],[72.8954724,20.3781296],[72.8961527,20.3790689],[72.8963731,20.3794799],[72.8964498,20.3797102],[72.8965887,20.3798682],[72.8966031,20.3799947],[72.8964882,20.3801257],[72.8961913,20.3803516],[72.894745,20.381088],[72.8921013,20.3823214],[72.8912823,20.3828816],[72.8907746,20.3830894],[72.8898407,20.3833244],[72.8878724,20.384788],[72.8869001,20.3854519],[72.8868666,20.3856552],[72.8869433,20.3857771],[72.8870679,20.3865133],[72.8871016,20.3881798],[72.8869771,20.3883334],[72.8861582,20.3890652],[72.8854829,20.3897518],[72.8840413,20.3905874],[72.8837539,20.3909533],[72.8836247,20.3912243],[72.883323,20.392796],[72.8831006,20.3946388],[72.8830838,20.3947787],[72.8830073,20.3958672],[72.8828589,20.3967478],[72.8828158,20.3974163],[72.8827679,20.3976466],[72.8827583,20.3978498],[72.8828446,20.3979447],[72.883405,20.3978769],[72.8834386,20.3978769],[72.8836542,20.3977595],[72.8838889,20.3978723],[72.8841188,20.397922],[72.8843727,20.3978814],[72.8843727,20.3978813],[72.8850768,20.3978767],[72.8853068,20.3980122],[72.8858242,20.398414],[72.8859057,20.3988522],[72.8860063,20.3990961],[72.8863464,20.3993941],[72.8867344,20.3995838],[72.8871512,20.3998591],[72.8877021,20.4000262],[72.8880805,20.3997822],[72.8883104,20.3997009],[72.888411,20.3997009],[72.8886027,20.3998455],[72.8887128,20.399859],[72.8894217,20.3993305],[72.8899917,20.3989826],[72.8901545,20.3989916],[72.8903558,20.3991768],[72.8904804,20.3992264],[72.891012,20.3992038],[72.8915534,20.3990772],[72.8918742,20.399163],[72.8920228,20.3992985],[72.8923054,20.3994068],[72.8927845,20.3996822],[72.8932012,20.3998673],[72.8938864,20.4003776],[72.8940302,20.4005853],[72.8944757,20.401064],[72.8947009,20.4014253],[72.8948495,20.4015788],[72.8951416,20.4016645],[72.8953189,20.4016509],[72.8956637,20.4013528],[72.8957643,20.4011721],[72.8958984,20.4011631],[72.8969572,20.4017274],[72.8979346,20.4023505],[72.8990413,20.40324],[72.8994726,20.4038044],[72.8998224,20.4045316],[72.9001818,20.4050599],[72.9004118,20.4052586],[72.9012118,20.405403],[72.9019113,20.4056241],[72.9023089,20.4056285],[72.9025867,20.4057956],[72.9028505,20.4068523],[72.9031623,20.4086407],[72.9032871,20.4097834],[72.9032249,20.4099369],[72.9025542,20.4100139],[72.9017686,20.4100546],[72.9017686,20.4102127],[72.9019412,20.4106824],[72.9024492,20.4116443],[72.9034508,20.4133061],[72.903784,20.4140715],[72.9041172,20.414837],[72.9040454,20.414977],[72.9037388,20.4150764],[72.9029245,20.4155011],[72.9013724,20.4160705],[72.9004145,20.4168701],[72.9002421,20.4173715],[72.9002277,20.4176199],[72.9002996,20.4178547],[72.8989825,20.4192686],[72.8978953,20.4206102],[72.8971761,20.4207476],[72.8967359,20.4208317],[72.8966066,20.4209988],[72.8963862,20.4211253],[72.896094,20.4211705],[72.8951885,20.4210804],[72.8939239,20.4213922],[72.8936268,20.4216136],[72.8931956,20.421731],[72.8930184,20.421713],[72.8926734,20.4216769],[72.8924099,20.4215957],[72.892156,20.4215641],[72.8917153,20.42137],[72.8915283,20.4211306],[72.8912311,20.4200919],[72.8912311,20.4198932],[72.8911065,20.4196087],[72.8904357,20.4193378],[72.88919,20.4190354],[72.8887062,20.4189903],[72.887657,20.4189905],[72.8864066,20.4191397],[72.8849885,20.4191578],[72.8845478,20.4193792],[72.88427,20.4197586],[72.8839921,20.4198489],[72.8832304,20.4199213],[72.8827274,20.4198491],[72.8822578,20.4195872],[72.8816734,20.4194834],[72.8814625,20.419366],[72.8809833,20.4185847],[72.8806,20.4176995],[72.8801976,20.4170175],[72.879958,20.4169318],[72.8794837,20.4168505],[72.8792298,20.4167557],[72.8784968,20.416679],[72.8774045,20.4166926],[72.8767481,20.4168055],[72.8762404,20.4168191],[72.8760296,20.4168779],[72.8753253,20.4168146],[72.8751145,20.4166792],[72.8749995,20.4165482],[72.8748222,20.4157127],[72.8747149,20.4154093],[72.8746833,20.4153198],[72.8745012,20.4150534],[72.8742952,20.4148727],[72.8737874,20.414665],[72.8728628,20.4146153],[72.8725657,20.4144347],[72.8720627,20.4139695],[72.8717513,20.4138882],[72.8714016,20.4138973],[72.8704866,20.413807],[72.8702614,20.413816],[72.8702106,20.4138386],[72.87018,20.4138521],[72.8699596,20.4141096],[72.8696674,20.4146335],[72.8689392,20.4155413],[72.8688482,20.415731],[72.8688434,20.416011],[72.8686278,20.4163001],[72.8684218,20.4163995],[72.8678038,20.4163904],[72.8672673,20.4166975],[72.8664673,20.4167473],[72.8656624,20.4169685],[72.865375,20.4171402],[72.8649007,20.4173072],[72.8645988,20.417235],[72.8642444,20.4169234],[72.863909,20.4167518],[72.8632287,20.4168646],[72.8627448,20.4167517],[72.862534,20.4167969],[72.8617436,20.4173027],[72.8610681,20.4173931],[72.8604308,20.4174111],[72.8583134,20.4183007],[72.8580594,20.4183504],[72.8576666,20.4185265],[72.8573337,20.4188476],[72.8572546,20.418924],[72.8572497,20.4197821],[72.8574126,20.4209563],[72.8577,20.4212589],[72.857858,20.4217286],[72.8580832,20.4221306],[72.8582653,20.4223519],[72.8583707,20.4229255],[72.8583754,20.4231378],[72.8584521,20.4232507],[72.8589551,20.4232281],[72.8591132,20.4233004],[72.8591755,20.4235036],[72.8592425,20.4240817],[72.8593048,20.4242579],[72.8594581,20.4243798],[72.8599947,20.4246418],[72.8602342,20.4248901],[72.8604259,20.4253553],[72.8607468,20.4259063],[72.8607517,20.4264347],[72.8609001,20.4272252],[72.861087,20.4276],[72.86159,20.42788],[72.8649437,20.428973],[72.8650731,20.4290814],[72.8679958,20.4338145],[72.86836,20.4345914],[72.8685037,20.4350069],[72.8688967,20.4367095],[72.8689839,20.4370336],[72.8693998,20.4385792],[72.8694029,20.4385866],[72.8698023,20.4395186],[72.8701281,20.4399793],[72.8720496,20.4415419],[72.8725431,20.4421109],[72.8728019,20.4424993],[72.8738321,20.4436736],[72.8742394,20.4445768],[72.8747426,20.44548],[72.8748433,20.4455749],[72.8749577,20.445562],[72.8750445,20.4455523],[72.8763909,20.4449877],[72.876846,20.4446443],[72.8771815,20.4438856],[72.8775456,20.4436914],[72.8781253,20.4432623],[72.878705,20.4425712],[72.8788057,20.4423454],[72.878796,20.4419525],[72.8789014,20.4416589],[72.8791481,20.441564],[72.8793949,20.4414691],[72.8805353,20.4412387],[72.8813498,20.4409225],[72.8815414,20.4407012],[72.8819774,20.4400599],[72.8821786,20.439965],[72.8826674,20.4398385],[72.8830698,20.4397888],[72.8856044,20.438822],[72.8863422,20.4385057],[72.8869938,20.4383025],[72.8877077,20.4382482],[72.8881198,20.4382843],[72.8885366,20.4384016],[72.8893224,20.4387222],[72.890161,20.4386543],[72.8902521,20.4389298],[72.8902713,20.439133],[72.8904294,20.4393543],[72.8905492,20.4396342],[72.8912441,20.4401716],[72.8913544,20.4404335],[72.8914407,20.4409032],[72.8922936,20.441436],[72.8929741,20.442005],[72.8935204,20.4425966],[72.8939158,20.442924],[72.8943112,20.4432513],[72.8949678,20.4440099],[72.8953224,20.4443079],[72.8939954,20.4455592],[72.8930132,20.446422],[72.891461,20.4476597],[72.8901721,20.4483012],[72.8894247,20.4488749],[72.8887108,20.4494531],[72.8883371,20.4499318],[72.8879683,20.4506048],[72.8876617,20.4515894],[72.8873552,20.4524566],[72.8872499,20.453238],[72.8871638,20.4539606],[72.8871303,20.4549225],[72.8872502,20.4557219],[72.887725,20.4577949],[72.8879983,20.4593304],[72.8879985,20.4607079],[72.8875912,20.4612544],[72.8871265,20.4617919],[72.8865467,20.462334],[72.8859382,20.4624966],[72.8852912,20.4626231],[72.8848168,20.4625599],[72.8842394,20.4625284],[72.8842394,20.4625284],[72.8842393,20.4625283],[72.8836619,20.4624968],[72.881999,20.462208],[72.8802307,20.4618559],[72.8791279,20.4617409],[72.8790814,20.461736],[72.8787163,20.461698],[72.8772547,20.4617613],[72.8758267,20.462082],[72.8749449,20.4623034],[72.8727454,20.4629765],[72.8716624,20.4632294],[72.8704739,20.4634868],[72.8694196,20.4634237],[72.867958,20.4633604],[72.8666018,20.4633921]]]}},{"type":"Feature","id":"in-dnh-dd-t-3947","properties":{"id":"in-dnh-dd-t-3947","name":"Diu","region":"in-dnh-dd","level":"tehsil","parent":"in-dnh-dd-d-464","district":"Diu","source":"LGD via Bharatlas · 2024 snapshot","state_lgd":38,"district_lgd":464,"subdistrict_lgd":3947,"center":[70.93410311093781,20.720649090418533],"bbox":[70.870788,20.6995065,71.1554387,20.7714368]},"geometry":{"type":"MultiPolygon","coordinates":[[[[70.9276665,20.7368922],[70.9270809,20.7369601],[70.926596,20.7370597],[70.9262505,20.737272],[70.9258617,20.7375024],[70.9253626,20.7379903],[70.9250171,20.7384873],[70.9247917,20.738957],[70.9245806,20.7395081],[70.9244416,20.7402307],[70.9242929,20.7406643],[70.9238273,20.740976],[70.9236161,20.7409761],[70.9230448,20.741044],[70.9226704,20.7411028],[70.9223535,20.7412609],[70.9219311,20.7415547],[70.9217057,20.7418257],[70.9213264,20.7422097],[70.9206353,20.7427834],[70.9202219,20.7429888],[70.9200784,20.7430601],[70.9199441,20.7431268],[70.9194928,20.7430953],[70.9190079,20.7429554],[70.9184077,20.7427976],[70.9176539,20.7426171],[70.9171257,20.7424727],[70.9165543,20.7422967],[70.9163143,20.7421523],[70.915863,20.742026],[70.9152771,20.7416151],[70.9148978,20.7413623],[70.9144032,20.7409785],[70.9138894,20.7405677],[70.9133901,20.7401433],[70.913121,20.7397233],[70.9128378,20.7393712],[70.9127543,20.7392303],[70.9126264,20.7390144],[70.9123815,20.7386351],[70.9121269,20.7382513],[70.9117811,20.7377817],[70.9114209,20.7373572],[70.9111329,20.7372082],[70.9107824,20.7370819],[70.9103599,20.7369962],[70.9101055,20.7368381],[70.9096608,20.7368171],[70.9095342,20.7368111],[70.9087036,20.7367255],[70.907681,20.7366625],[70.9066009,20.7366356],[70.9053478,20.7365636],[70.904911,20.7364102],[70.9044453,20.736225],[70.9036002,20.7358278],[70.9032545,20.735593],[70.9026784,20.735295],[70.9019582,20.7348526],[70.9013869,20.7346268],[70.9010601,20.73452],[70.900614,20.7343741],[70.899577,20.734153],[70.8983864,20.7337421],[70.8973589,20.7333584],[70.8958995,20.7329341],[70.8950257,20.7326858],[70.8946369,20.7326],[70.8938687,20.7323879],[70.8927838,20.7322751],[70.8914877,20.7321533],[70.8905659,20.732054],[70.8892409,20.732027],[70.8887268,20.7319959],[70.8878248,20.7319414],[70.8875124,20.7319005],[70.8872391,20.7318647],[70.8860632,20.7317767],[70.8857317,20.7317518],[70.8848868,20.7316525],[70.8840467,20.7314404],[70.8828561,20.731061],[70.8824481,20.7309527],[70.8813775,20.7304424],[70.880475,20.7301038],[70.8798413,20.729747],[70.8792268,20.7293947],[70.8785451,20.7289251],[70.8780651,20.7285367],[70.877585,20.728067],[70.8771289,20.727629],[70.8767689,20.7271863],[70.8764473,20.7267484],[70.8759672,20.7257548],[70.8758184,20.7247612],[70.8758184,20.7241379],[70.8758175,20.7241268],[70.8757398,20.7231613],[70.875306,20.7229189],[70.8752901,20.7225145],[70.8749111,20.7221012],[70.8746423,20.7216857],[70.8741959,20.7213379],[70.873207,20.7204257],[70.8727366,20.7197753],[70.8724582,20.7193057],[70.8721318,20.7183527],[70.8719302,20.7168895],[70.8718534,20.7160539],[70.8715079,20.7138229],[70.8714694,20.7128565],[70.8712103,20.7117139],[70.8709703,20.7109461],[70.8708455,20.7102642],[70.870788,20.7088732],[70.8708092,20.708682],[70.8708028,20.7086722],[70.8708125,20.7086522],[70.8709271,20.7076177],[70.8711479,20.7073196],[70.8713928,20.7071074],[70.8715911,20.7070402],[70.8721799,20.7068409],[70.8734663,20.7065383],[70.8738886,20.7064796],[70.8740278,20.7064525],[70.8742192,20.7064145],[70.874385,20.7065873],[70.8748645,20.707516],[70.8748218,20.7085657],[70.8746662,20.7088957],[70.8746998,20.7089093],[70.8747334,20.7089138],[70.8749974,20.7089951],[70.8752806,20.7090357],[70.8757222,20.7091802],[70.8759621,20.7092615],[70.8762262,20.7094061],[70.8765526,20.7095326],[70.8767733,20.709677],[70.8774309,20.7097176],[70.8780453,20.7097808],[70.8784629,20.7097583],[70.8797349,20.7096137],[70.8803828,20.7095414],[70.8820292,20.7094149],[70.8829194,20.709474],[70.8833204,20.7095007],[70.88453,20.709478],[70.8858451,20.709356],[70.8868435,20.7092611],[70.8874578,20.7092836],[70.887741,20.7092836],[70.888557,20.7091164],[70.8893873,20.7088905],[70.8898049,20.7088046],[70.8906593,20.7085788],[70.8931503,20.7076391],[70.8943166,20.707079],[70.895214,20.7066273],[70.895982,20.7061936],[70.8964427,20.7059452],[70.896817,20.7055522],[70.8972105,20.7051999],[70.8975369,20.7048476],[70.8976808,20.7047573],[70.8979976,20.7045585],[70.8983719,20.7041881],[70.8986023,20.7038267],[70.8987558,20.7034339],[70.8989525,20.7030454],[70.8989525,20.7028557],[70.8988612,20.7026119],[70.8987076,20.7025261],[70.8984917,20.7024674],[70.8982517,20.7024042],[70.8979877,20.702323],[70.8977428,20.7021333],[70.89757,20.7019481],[70.8974596,20.7016591],[70.897306,20.701474],[70.8970419,20.7012483],[70.8969123,20.7010179],[70.8969123,20.7007741],[70.8969987,20.7005256],[70.8976561,20.7000694],[70.8978769,20.7000513],[70.8982945,20.7000512],[70.8985344,20.6999654],[70.8989711,20.6997621],[70.8992351,20.6996582],[70.899739,20.6996355],[70.8999599,20.6996355],[70.9004206,20.6996761],[70.9011213,20.6997167],[70.9016685,20.6997616],[70.9025373,20.6999557],[70.9028444,20.6999331],[70.9029548,20.699915],[70.9032429,20.7001001],[70.9044044,20.7003031],[70.9049755,20.7003889],[70.9054123,20.7004475],[70.9059163,20.7005738],[70.9063147,20.7007183],[70.9066411,20.7008808],[70.9069915,20.7008808],[70.9073226,20.7009033],[70.9080234,20.7009438],[70.9088681,20.7008307],[70.9094584,20.7007899],[70.9097464,20.7008305],[70.9100537,20.700975],[70.9100969,20.7011827],[70.9102074,20.7013272],[70.9100538,20.7014898],[70.9096602,20.7017203],[70.9095499,20.7019055],[70.9096603,20.7020274],[70.9099196,20.7021311],[70.9101836,20.7021943],[70.910534,20.7022575],[70.9109755,20.7022122],[70.911393,20.7019683],[70.9115897,20.7017198],[70.9118296,20.7013856],[70.9118296,20.7011598],[70.9116999,20.7008707],[70.9115462,20.7007082],[70.9114119,20.7005185],[70.9113494,20.7002295],[70.9113685,20.7000037],[70.9116996,20.6998817],[70.9121124,20.6997552],[70.9127939,20.6995518],[70.9133218,20.6995065],[70.9138498,20.6997141],[70.9143539,20.6999398],[70.9146611,20.700292],[70.9149875,20.7006848],[70.9153188,20.7008518],[70.9162596,20.7011994],[70.9167877,20.7016553],[70.9170086,20.7020663],[70.9169175,20.702274],[70.916831,20.7023373],[70.9166343,20.7022967],[70.9161975,20.7021929],[70.9154487,20.7021705],[70.9151655,20.70213],[70.9150311,20.7020668],[70.9148583,20.7019855],[70.9146807,20.7020669],[70.9146808,20.7022114],[70.9148584,20.7023558],[70.9151656,20.7025454],[70.9155353,20.7027305],[70.9156362,20.7030286],[70.9155499,20.7033402],[70.9154156,20.7036293],[70.9150893,20.7043113],[70.9150464,20.7053004],[70.9155604,20.7068809],[70.9161942,20.7078111],[70.9164151,20.7079963],[70.9167656,20.7082852],[70.9173129,20.7087999],[70.9176874,20.7092152],[70.9182155,20.7096667],[70.9191373,20.7102445],[70.9197709,20.7105154],[70.9204094,20.7107004],[70.9210238,20.7108673],[70.9216478,20.7109168],[70.922171,20.7109754],[70.9228959,20.7111829],[70.9236639,20.7113272],[70.9237744,20.7114085],[70.9240383,20.7114084],[70.924936,20.7115933],[70.9258817,20.7118821],[70.9269762,20.7121121],[70.9280418,20.7122652],[70.9289442,20.7123056],[70.930125,20.7122826],[70.9308305,20.7121604],[70.9315745,20.7120564],[70.9323425,20.7119116],[70.9332399,20.7116855],[70.9347661,20.7112604],[70.9359468,20.7109077],[70.9368058,20.7106184],[70.9376793,20.7103696],[70.9381401,20.710121],[70.9384279,20.7098139],[70.938447,20.7095022],[70.9382308,20.7091094],[70.9379859,20.7088656],[70.9378131,20.7086986],[70.9378129,20.7084728],[70.9379424,20.7082424],[70.9382063,20.7079533],[70.9386238,20.707768],[70.9389742,20.7076865],[70.9395693,20.7076638],[70.9399821,20.7076635],[70.940246,20.7076454],[70.940534,20.7074602],[70.941201,20.7072205],[70.9417051,20.7071345],[70.9419882,20.7070757],[70.9422761,20.7069491],[70.94254,20.7067458],[70.9431303,20.7064746],[70.9434374,20.7064564],[70.943615,20.7063705],[70.9437684,20.7061446],[70.9439844,20.7060407],[70.9443348,20.7058779],[70.9445363,20.7059365],[70.944642,20.7060404],[70.9449061,20.7062661],[70.9453237,20.7064104],[70.9455012,20.7063291],[70.9459187,20.7061437],[70.9463986,20.7059358],[70.946773,20.7059176],[70.9470562,20.7059174],[70.9472338,20.7059986],[70.9474978,20.7059172],[70.9476945,20.7056688],[70.9478576,20.7056371],[70.9481216,20.7056776],[70.9482514,20.7059079],[70.9483186,20.7060524],[70.9487364,20.7065671],[70.9488662,20.7068153],[70.9489334,20.7068741],[70.9490437,20.7068334],[70.9491541,20.7066888],[70.9492163,20.7064223],[70.9492642,20.7061965],[70.9494177,20.7059887],[70.9498112,20.7058034],[70.9500752,20.7058845],[70.9505794,20.7061508],[70.9507521,20.70611],[70.9507976,20.7059136],[70.9508431,20.7057171],[70.9508189,20.7052835],[70.9508764,20.70513],[70.9509483,20.7049537],[70.9512793,20.7045427],[70.9519366,20.7041901],[70.952311,20.7040228],[70.9527045,20.7040046],[70.9533189,20.7039411],[70.9538229,20.7040673],[70.9543173,20.7042613],[70.9550519,20.7045093],[70.9555608,20.70478],[70.9560985,20.7050462],[70.9565786,20.705326],[70.9570155,20.7055832],[70.9578461,20.7060118],[70.958451,20.7061109],[70.9588447,20.7062688],[70.9590223,20.7064313],[70.959176,20.7067022],[70.9594834,20.7070498],[70.9596803,20.7071445],[70.9600499,20.7071759],[70.9603378,20.7071352],[70.9605346,20.7071215],[70.9607219,20.7072253],[70.9609955,20.7072793],[70.9612258,20.7071347],[70.9613216,20.706832],[70.9613839,20.7065295],[70.961499,20.706394],[70.9615709,20.7062855],[70.9616717,20.7062086],[70.961806,20.7061273],[70.9619595,20.706073],[70.9624827,20.7061134],[70.9627035,20.7060726],[70.9627667,20.7060375],[70.9628906,20.7059687],[70.9630538,20.7058602],[70.9630874,20.7058376],[70.9633177,20.7058374],[70.9635961,20.7058599],[70.964129,20.7059725],[70.9646331,20.7061123],[70.9650315,20.7062656],[70.9651564,20.7063559],[70.9654205,20.7065454],[70.965656,20.7069924],[70.9660401,20.7072406],[70.9671535,20.7071722],[70.9674191,20.7072887],[70.9676577,20.7073932],[70.9684599,20.7079232],[70.9689129,20.7080219],[70.9693337,20.7079509],[70.969863,20.7077465],[70.9701631,20.7072112],[70.9701878,20.7071977],[70.9705181,20.7070168],[70.9706139,20.7065606],[70.9706378,20.7064568],[70.9708726,20.7059553],[70.9709158,20.705883],[70.97105,20.7056752],[70.9712562,20.7053951],[70.9712272,20.7049525],[70.9711069,20.7045597],[70.9711844,20.7044501],[70.9712183,20.7043768],[70.9712556,20.7043496],[70.9717485,20.704542],[70.9723048,20.7049465],[70.9726603,20.7051088],[70.9730351,20.7051436],[70.9732404,20.7049358],[70.9733815,20.7045918],[70.9733727,20.7039071],[70.9734785,20.7032504],[70.9735488,20.7030539],[70.9736938,20.7030131],[70.973987,20.703176],[70.9741369,20.7035167],[70.9740727,20.704173],[70.9741814,20.7045435],[70.9747672,20.7048107],[70.9752459,20.7048443],[70.9757518,20.7045646],[70.9761068,20.7038757],[70.9766017,20.7032147],[70.976813,20.7028343],[70.9769568,20.7028036],[70.9772279,20.7029235],[70.9773168,20.7031741],[70.9773418,20.7031859],[70.9776721,20.7033409],[70.9777106,20.7033996],[70.9779653,20.7038737],[70.9780087,20.704104],[70.9782296,20.7043703],[70.9784939,20.7047224],[70.9786716,20.7049256],[70.978734,20.7049932],[70.9789549,20.7051376],[70.9791757,20.7052007],[70.9793294,20.7052819],[70.979411,20.705309],[70.9795214,20.7054038],[70.9796319,20.7055166],[70.9797424,20.7056926],[70.9798434,20.7058687],[70.9798962,20.70595],[70.979973,20.7060041],[70.9801603,20.7060853],[70.9803379,20.7061077],[70.9804675,20.7061799],[70.9806981,20.7063334],[70.9808949,20.7064462],[70.9811733,20.7065498],[70.9813798,20.7066761],[70.9815671,20.706798],[70.9819417,20.7070551],[70.9821338,20.7072267],[70.9823979,20.707371],[70.9827293,20.7075786],[70.983123,20.7077815],[70.9833103,20.7079169],[70.9835407,20.7080297],[70.9837952,20.7081469],[70.9839921,20.7082777],[70.9841794,20.7083499],[70.984261,20.7084492],[70.9842898,20.7084853],[70.9844099,20.7085395],[70.9846068,20.7087652],[70.9847749,20.7089502],[70.9850247,20.7091622],[70.9851976,20.709266],[70.9853608,20.7092976],[70.9854856,20.7093065],[70.9856584,20.7092251],[70.9857927,20.7091844],[70.9858551,20.7091075],[70.9859653,20.7089855],[70.986119,20.7089854],[70.986287,20.7091072],[70.9864167,20.7092427],[70.9865513,20.7094006],[70.986681,20.7096038],[70.9867147,20.7097934],[70.9867389,20.7100192],[70.9868254,20.7101547],[70.9869263,20.7102449],[70.9870031,20.7103171],[70.9870896,20.7103622],[70.9871999,20.7103621],[70.9873727,20.7103169],[70.9875934,20.7102038],[70.9877901,20.7100818],[70.9880109,20.7099552],[70.9883371,20.7097833],[70.9885193,20.7096387],[70.9887065,20.7095347],[70.9888744,20.7094126],[70.9889944,20.7093494],[70.9891719,20.7093266],[70.9893111,20.7093491],[70.9894552,20.7094619],[70.989729,20.7096785],[70.9899162,20.7097732],[70.9901803,20.7099672],[70.9903917,20.7101342],[70.9906415,20.7103734],[70.9908192,20.7104771],[70.9909969,20.7106396],[70.9911601,20.7107028],[70.9912754,20.7107298],[70.9913857,20.7107387],[70.9914721,20.7106754],[70.9915488,20.7105308],[70.9916064,20.7104495],[70.9916591,20.7103547],[70.9917454,20.7103049],[70.9918894,20.7102957],[70.9921006,20.7103363],[70.9922639,20.7104491],[70.9924176,20.7105709],[70.9925281,20.7106567],[70.9927682,20.7107604],[70.993013,20.7108505],[70.9932194,20.7109361],[70.9936371,20.7109358],[70.9937907,20.711017],[70.9940788,20.7111298],[70.9944197,20.711274],[70.9947656,20.7116802],[70.9950204,20.7121452],[70.9952704,20.7125831],[70.9954481,20.7127998],[70.9956355,20.7129306],[70.9958227,20.7130479],[70.9960196,20.7130658],[70.9963509,20.7132237],[70.9963605,20.7132507],[70.9965286,20.7134223],[70.9966856,20.7134799],[70.9968264,20.7136479],[70.996961,20.7139097],[70.9970934,20.7138364],[70.9972996,20.7138439],[70.99738,20.7139276],[70.997313,20.7140528],[70.9971663,20.7141539],[70.997259,20.714343],[70.997336,20.7146411],[70.9973122,20.7148894],[70.9972739,20.7150114],[70.9974085,20.71521],[70.9975819,20.7153725],[70.9977255,20.7155349],[70.997812,20.7156297],[70.9978792,20.7156387],[70.9980088,20.7156071],[70.9980568,20.7155573],[70.9981672,20.7155663],[70.9983497,20.7157603],[70.9984075,20.7159996],[70.9984173,20.716248],[70.998307,20.7163745],[70.9981439,20.7165057],[70.9983936,20.7168383],[70.9984529,20.7171493],[70.9982123,20.717743],[70.9977437,20.7183264],[70.9969411,20.7187058],[70.9963988,20.7190721],[70.996418,20.7191127],[70.9964277,20.7192121],[70.9964182,20.7193295],[70.9962262,20.7193702],[70.9959238,20.7193841],[70.9956262,20.7193888],[70.9955399,20.7194702],[70.99554,20.7196643],[70.9955116,20.7200482],[70.9952766,20.7204639],[70.994514,20.7212638],[70.993315,20.722615],[70.9929032,20.7238301],[70.992731,20.7246025],[70.9927602,20.7251535],[70.9930781,20.7265668],[70.9937225,20.7279754],[70.9947221,20.7294063],[70.9955438,20.7304264],[70.9963653,20.7311168],[70.9967737,20.7316133],[70.997038,20.7320015],[70.9975667,20.7326334],[70.9984744,20.7332108],[70.9993821,20.7336256],[70.9999999,20.7339355],[70.9999999,20.7352041],[71.0007984,20.7354029],[71.0021101,20.7360885],[71.0040075,20.7368453],[71.0053171,20.7371423],[71.0063348,20.7372567],[71.0070691,20.7373694],[71.007381,20.7375226],[71.0056107,20.739029],[71.005443,20.7391695],[71.0050468,20.7394997],[71.0028537,20.7413082],[71.0027499,20.7414055],[71.0023075,20.7418202],[71.0022261,20.741864],[71.0021963,20.74188],[71.002158,20.7419006],[71.0019917,20.7419374],[71.0012824,20.7420943],[71.0005584,20.7422104],[71.0004119,20.7422339],[71.0000229,20.7422777],[70.9999999,20.7422802],[70.9999996,20.7422802],[70.999486,20.7422287],[70.9993035,20.7420775],[70.9992738,20.741913],[70.9992447,20.7416013],[70.9990905,20.7408924],[70.9987012,20.740441],[70.998096,20.7400441],[70.9976672,20.7396967],[70.9971803,20.7394274],[70.9967415,20.7392638],[70.9961124,20.7390926],[70.9955986,20.7388401],[70.9955471,20.738784],[70.995416,20.7386415],[70.9953581,20.7382982],[70.9949352,20.7377024],[70.9945123,20.7371924],[70.9940894,20.7366282],[70.9937578,20.7362581],[70.9930662,20.7357753],[70.9924948,20.7356086],[70.9917122,20.7356092],[70.9909873,20.7355509],[70.9905071,20.7354113],[70.9899932,20.7351],[70.9895703,20.7345178],[70.9893875,20.7340933],[70.9890848,20.7337548],[70.9886957,20.7334163],[70.9883308,20.7333308],[70.9872794,20.7332186],[70.9864632,20.7331062],[70.985623,20.7329351],[70.9850179,20.732651],[70.9844752,20.7322539],[70.9839947,20.7316581],[70.9836293,20.7310352],[70.9834802,20.7304707],[70.9831482,20.7294909],[70.9829076,20.7287549],[70.9827872,20.7281904],[70.9823009,20.7261178],[70.9821225,20.7249844],[70.981819,20.7235394],[70.9816073,20.7229433],[70.981276,20.7226861],[70.9810072,20.7226863],[70.9805512,20.7227182],[70.9801337,20.7230301],[70.9798603,20.7232561],[70.9792268,20.7235952],[70.9782049,20.7243771],[70.9775716,20.7249149],[70.9768808,20.7254844],[70.9760366,20.7263927],[70.9752545,20.7271022],[70.9748324,20.7275269],[70.9740214,20.7278661],[70.9735077,20.7279838],[70.9727255,20.7282643],[70.9711897,20.7287349],[70.9698072,20.7289885],[70.9688712,20.7291877],[70.9677864,20.7293013],[70.9668216,20.7293018],[70.9658278,20.7292752],[70.9651366,20.7293027],[70.9647142,20.7294474],[70.9643543,20.7296148],[70.9641144,20.7299265],[70.9638122,20.7303828],[70.9635103,20.7311055],[70.9634484,20.7320675],[70.9634486,20.7324649],[70.9633578,20.7330928],[70.9633005,20.7335715],[70.9628785,20.7343123],[70.9622164,20.7351346],[70.9614057,20.7360699],[70.9609499,20.7364676],[70.9604123,20.7367207],[70.9598699,20.7367797],[70.9592649,20.7366084],[70.9586023,20.7363965],[70.9574883,20.7360854],[70.9566143,20.7356568],[70.9551355,20.7353188],[70.9541416,20.7349219],[70.952999,20.7347824],[70.952154,20.7346382],[70.9507089,20.7345983],[70.9492063,20.7345402],[70.9477278,20.7345996],[70.9469452,20.7345999],[70.9461626,20.7344015],[70.9454088,20.7342031],[70.944655,20.7340318],[70.9435411,20.7337071],[70.9427297,20.7335088],[70.9421248,20.7332831],[70.9415822,20.7330576],[70.9409484,20.7327733],[70.940137,20.7325749],[70.9395033,20.7324035],[70.9385096,20.732431],[70.9377271,20.7327429],[70.9372137,20.7331134],[70.9363114,20.7336105],[70.9351067,20.7342929],[70.9342667,20.7348622],[70.9333309,20.7357387],[70.9332628,20.7357993],[70.9328175,20.736195],[70.9321807,20.7366708],[70.9317154,20.7368927],[70.9310113,20.7370082],[70.9302231,20.7369707],[70.929054,20.736946],[70.9283435,20.7368604],[70.9276665,20.7368922]]],[[[71.1552444,20.7599086],[71.1553587,20.7600945],[71.1554387,20.7603886],[71.1554373,20.7606507],[71.1553591,20.7608673],[71.155262,20.7610521],[71.155074,20.7611596],[71.1547083,20.7612527],[71.1541745,20.7613359],[71.1539342,20.7613528],[71.1533812,20.7614314],[71.1529044,20.7616233],[71.1525664,20.7619199],[71.1522995,20.7623841],[71.1520859,20.7627672],[71.1520843,20.7630519],[71.1520873,20.7633682],[71.1520133,20.7637203],[71.1518733,20.7638236],[71.1517672,20.7639089],[71.1515941,20.7639262],[71.1514212,20.7639072],[71.1513205,20.763875],[71.1512441,20.7637888],[71.1511726,20.763689],[71.1511686,20.7635535],[71.151194,20.7633051],[71.1512385,20.7630883],[71.1513116,20.7629034],[71.1513312,20.7628447],[71.1514744,20.7621404],[71.1515006,20.76177],[71.1514538,20.7615483],[71.1512966,20.761299],[71.1509862,20.7609495],[71.1505028,20.7606352],[71.1502017,20.7603399],[71.1499919,20.7600722],[71.1498735,20.7597508],[71.1498929,20.7597102],[71.1499138,20.7594256],[71.1502035,20.7591875],[71.1507087,20.7590634],[71.1510834,20.7590653],[71.1515203,20.7591217],[71.152551,20.7595382],[71.1531643,20.759844],[71.1534188,20.7598769],[71.1535389,20.7598821],[71.1536784,20.759842],[71.1540737,20.7596045],[71.154425,20.7595113],[71.1546411,20.7595214],[71.1548233,20.7595947],[71.1551059,20.7597678],[71.1552444,20.7599086]]],[[[71.1497605,20.7714368],[71.1496345,20.771432],[71.1485343,20.7713903],[71.1479148,20.7713465],[71.147338,20.7713572],[71.1463915,20.7713434],[71.1465613,20.7710505],[71.1466484,20.7709425],[71.1467165,20.7707937],[71.1467459,20.7707035],[71.1467419,20.7705679],[71.1466517,20.770364],[71.1465516,20.770228],[71.1464226,20.7700826],[71.1464233,20.7699742],[71.1464339,20.7697935],[71.1464581,20.7697665],[71.1466182,20.7695007],[71.1466619,20.7694331],[71.146677,20.7693112],[71.1466729,20.7691801],[71.1466634,20.7691575],[71.1465875,20.7689853],[71.1465495,20.7689128],[71.1464636,20.7687994],[71.1464544,20.768718],[71.1464502,20.768623],[71.1465773,20.7682441],[71.1467722,20.767766],[71.146752,20.7676474],[71.1466734,20.7671715],[71.1466628,20.767107],[71.1465685,20.7664801],[71.1464797,20.7658228],[71.1464446,20.7655385],[71.1464,20.765168],[71.1463296,20.7645857],[71.1461624,20.7632329],[71.1461499,20.7631306],[71.1460499,20.7622556],[71.1459256,20.7611681],[71.1459188,20.7606619],[71.1459497,20.7603005],[71.1460268,20.7594242],[71.1460738,20.7589756],[71.1461734,20.758991],[71.1471164,20.7587563],[71.1473294,20.7584817],[71.1478394,20.7583486],[71.1478687,20.7582764],[71.1479312,20.7582677],[71.1480177,20.7582546],[71.1480755,20.7582504],[71.1481473,20.7582914],[71.1484338,20.7586092],[71.1484561,20.7589166],[71.1484526,20.7595267],[71.1484567,20.7596487],[71.1483347,20.7599825],[71.148356,20.7604527],[71.1484554,20.7607244],[71.1487093,20.7608612],[71.1493698,20.7612983],[71.1495318,20.7615658],[71.1497172,20.7619011],[71.1496619,20.7623393],[71.1495829,20.762705],[71.1492433,20.7632907],[71.1488283,20.7661584],[71.1491298,20.7663678],[71.1492248,20.7674167],[71.1494921,20.7702834],[71.1496743,20.7711971],[71.1497605,20.7714368]]]]}}]}
