{"type":"FeatureCollection","features":[{"type":"Feature","id":"in-delhi","properties":{"id":"in-delhi","name":"Delhi (National Capital Territory)","region":"in-delhi","level":"region","parent":"","source":"LGD via Bharatlas · 2024 snapshot","state_lgd":7,"center":[77.11543563333808,28.643368977484577],"bbox":[76.8389109,28.4046676,77.3475705,28.8834996]},"geometry":{"type":"Polygon","coordinates":[[[77.1011712,28.8705982],[77.0977245,28.8707286],[77.0974481,28.8707464],[77.097172,28.8707778],[77.0964112,28.8709205],[77.094926,28.8712323],[77.0942838,28.8714092],[77.0938455,28.8715333],[77.0934978,28.871832],[77.0929143,28.8721252],[77.092096,28.8724718],[77.0915537,28.8727735],[77.0908153,28.8732676],[77.0902559,28.8737455],[77.0894421,28.874313],[77.0885401,28.8748323],[77.0880166,28.8750525],[77.0875609,28.8753302],[77.0873963,28.8755583],[77.087604,28.8759476],[77.0878828,28.8763042],[77.08808,28.8769373],[77.0879989,28.8772408],[77.0877398,28.8778674],[77.0873512,28.8784283],[77.0872063,28.8791298],[77.08714,28.8796587],[77.0870709,28.8800478],[77.0868315,28.8808906],[77.0864209,28.8813797],[77.0859619,28.8817522],[77.0854938,28.8819264],[77.0848778,28.8821344],[77.0836706,28.8827757],[77.0831861,28.8831531],[77.0826599,28.8834996],[77.0823537,28.8830532],[77.0822562,28.8825359],[77.0821907,28.8820767],[77.0818319,28.8815635],[77.0808841,28.8803014],[77.0805471,28.8798554],[77.0802532,28.8795081],[77.0798287,28.8790409],[77.0794568,28.8786406],[77.0791124,28.8783347],[77.0780859,28.8774933],[77.077649,28.8771752],[77.0780753,28.8764468],[77.0787079,28.8750114],[77.0789379,28.8744665],[77.0790097,28.8742082],[77.0791589,28.8734661],[77.0792322,28.8730273],[77.0792766,28.8726838],[77.0792416,28.8719534],[77.0790197,28.8718802],[77.0786878,28.8716868],[77.0784643,28.8715278],[77.0778141,28.8710506],[77.0764253,28.8697682],[77.0759912,28.8693328],[77.0755603,28.868798],[77.0754434,28.8685878],[77.0749625,28.8678598],[77.0746124,28.8675178],[77.0745503,28.8674917],[77.0744327,28.8675025],[77.072647,28.8684278],[77.071887,28.8688726],[77.0717498,28.8689288],[77.0716464,28.8688853],[77.0714174,28.8687084],[77.0706075,28.8679268],[77.0692449,28.8671853],[77.068138,28.8677121],[77.0675695,28.8679915],[77.0661611,28.868559],[77.0659066,28.8686486],[77.0652947,28.8688069],[77.0646035,28.8691017],[77.062658,28.8702458],[77.0614121,28.8710003],[77.061159,28.8710241],[77.0611256,28.8710272],[77.0609772,28.8710385],[77.0609085,28.8709358],[77.0602309,28.8701025],[77.0594739,28.8694012],[77.0580738,28.8680556],[77.0578115,28.8677484],[77.057598,28.8673185],[77.0568932,28.8661427],[77.0560743,28.8648965],[77.0552221,28.8637816],[77.054545,28.8629709],[77.0543479,28.8625904],[77.0536815,28.8612787],[77.0531336,28.8599967],[77.0523571,28.8585604],[77.0516677,28.8571181],[77.0512948,28.8561358],[77.051149,28.8554929],[77.05102,28.8546692],[77.0503056,28.8537778],[77.0475515,28.8500029],[77.0466038,28.8487089],[77.0456927,28.847455],[77.0451045,28.8462007],[77.0450476,28.8459083],[77.0450339,28.8457326],[77.0450578,28.8448615],[77.0452263,28.8448274],[77.0452907,28.8444519],[77.0453439,28.8437699],[77.0453067,28.8426516],[77.0452403,28.8416149],[77.0451295,28.8409309],[77.0449447,28.8406494],[77.0444941,28.8401419],[77.0438349,28.8397098],[77.0435088,28.8395388],[77.0423561,28.838496],[77.0420895,28.8382294],[77.0418415,28.8378587],[77.0418916,28.8375376],[77.0419814,28.8371528],[77.0420979,28.8368217],[77.0422797,28.8364219],[77.0425652,28.8360882],[77.0426584,28.8358748],[77.0427114,28.8357025],[77.0427448,28.8355757],[77.0425835,28.8344006],[77.0424133,28.8340829],[77.041586,28.8334322],[77.0407939,28.8327494],[77.0404116,28.8323266],[77.0402323,28.8320631],[77.0396659,28.8321845],[77.0386283,28.8325746],[77.0377724,28.8330838],[77.0375652,28.8332313],[77.0364893,28.8337574],[77.0348886,28.8344403],[77.0341475,28.8347943],[77.033361,28.8351897],[77.0332455,28.8353087],[77.0330781,28.8353969],[77.0319006,28.8357079],[77.0313294,28.8358429],[77.0287701,28.836504],[77.0281467,28.8367969],[77.0265659,28.8377733],[77.0260802,28.8380919],[77.0258024,28.8382991],[77.025521,28.838583],[77.0253184,28.8387079],[77.0245653,28.8389764],[77.0241377,28.8391181],[77.0233329,28.8393648],[77.0227238,28.839401],[77.0216371,28.8393767],[77.0208927,28.8393022],[77.0202377,28.8393435],[77.0180911,28.8396283],[77.0168761,28.8398586],[77.0156999,28.8399799],[77.0150147,28.8400488],[77.0127205,28.8401192],[77.0110338,28.8400676],[77.0107169,28.8406408],[77.0099832,28.8405931],[77.0088769,28.8406186],[77.007869,28.8406968],[77.0074439,28.8407076],[77.007079,28.8406499],[77.0059169,28.8404326],[77.0049837,28.8401352],[77.0042622,28.8399158],[77.0030586,28.8396765],[77.0020602,28.8394477],[77.0003756,28.8387058],[77.0000358,28.8383513],[76.9992755,28.8378768],[76.9970937,28.838808],[76.9963772,28.8391451],[76.9957929,28.8393314],[76.9948142,28.8395095],[76.9930588,28.8387596],[76.9913684,28.8377615],[76.9900202,28.8367188],[76.9894626,28.8362964],[76.9888077,28.8358764],[76.9880211,28.8355846],[76.9877761,28.8355478],[76.9872395,28.8352973],[76.9872126,28.8352342],[76.9870888,28.8349442],[76.9869408,28.8345548],[76.9868571,28.8341579],[76.9867831,28.8334017],[76.9866771,28.8327073],[76.9865383,28.8319794],[76.986298,28.8312613],[76.9861112,28.8307989],[76.9859133,28.829393],[76.9851403,28.8280362],[76.9844335,28.8270735],[76.9837626,28.8262966],[76.9832082,28.8250076],[76.9828216,28.8241464],[76.9818508,28.8230924],[76.9805568,28.8218646],[76.9796873,28.8212324],[76.9789648,28.8214157],[76.9783972,28.8217468],[76.9773874,28.8226734],[76.9773827,28.8226777],[76.9766828,28.8222161],[76.9760909,28.8228697],[76.9760171,28.8229513],[76.9753706,28.8239171],[76.9752463,28.8247179],[76.9747937,28.8253402],[76.9730818,28.8268476],[76.973078,28.8268493],[76.9722623,28.8272049],[76.9705996,28.8274677],[76.9696222,28.8276004],[76.9670113,28.8280507],[76.9669272,28.8271869],[76.9657626,28.8272299],[76.9656394,28.8264871],[76.9654405,28.8255125],[76.9643196,28.8254571],[76.9642644,28.8246616],[76.9646928,28.8241787],[76.9636926,28.8227042],[76.9634741,28.8222617],[76.9636232,28.8218677],[76.9642897,28.82111],[76.9647863,28.8205654],[76.964873,28.8203957],[76.9639759,28.8185262],[76.963323,28.8172892],[76.9624782,28.8159488],[76.961756,28.8148096],[76.9604397,28.8153414],[76.9597386,28.8154935],[76.9589781,28.8155676],[76.9583668,28.8158074],[76.9583616,28.8158101],[76.9580358,28.8159806],[76.9570409,28.8165014],[76.9557263,28.8169699],[76.9548797,28.8170061],[76.9534685,28.81745],[76.9525356,28.8178274],[76.951014,28.8181831],[76.9508301,28.8179761],[76.9504248,28.8174304],[76.9499096,28.816783],[76.9489672,28.8158286],[76.9485154,28.815485],[76.9480709,28.8145006],[76.9464073,28.8120053],[76.9461423,28.8115799],[76.9459141,28.8111192],[76.9457568,28.810687],[76.9457248,28.8101763],[76.945737,28.8101044],[76.9459575,28.8095404],[76.9462665,28.8089241],[76.9463426,28.8085782],[76.946407,28.8075414],[76.9463583,28.8068904],[76.9462838,28.806618],[76.9461357,28.8062267],[76.9452296,28.8043297],[76.9448749,28.8036226],[76.944525,28.8031186],[76.9442488,28.8027246],[76.9437158,28.8017969],[76.943115,28.8007234],[76.9425137,28.7996725],[76.9418923,28.7986642],[76.9418907,28.7986617],[76.943406,28.798342],[76.9447508,28.7982578],[76.9449048,28.7982476],[76.9452748,28.7982103],[76.9455277,28.7981435],[76.9458582,28.7980512],[76.9460398,28.7979694],[76.9462124,28.7978421],[76.946374,28.7977046],[76.9465849,28.7975251],[76.9475321,28.79662],[76.9495506,28.7945778],[76.9504375,28.7942725],[76.9526681,28.7921993],[76.953336,28.7916297],[76.9537446,28.7911194],[76.9538477,28.7909094],[76.9539155,28.7906761],[76.9535859,28.7899921],[76.9527928,28.7890183],[76.9521227,28.7882323],[76.9516477,28.7874278],[76.9511711,28.7863118],[76.9506833,28.784857],[76.9502358,28.7838003],[76.9500661,28.7832641],[76.9500635,28.7826141],[76.9501954,28.7815382],[76.950014,28.7804962],[76.9498813,28.7797305],[76.9497963,28.7787222],[76.9498111,28.7770615],[76.9503051,28.7754877],[76.9503291,28.7754291],[76.9503381,28.7754072],[76.950742,28.7746891],[76.9519178,28.7730982],[76.9531738,28.7717573],[76.9536317,28.7712897],[76.9536587,28.7712621],[76.9548329,28.7697254],[76.9553976,28.768934],[76.9554628,28.7687999],[76.9555415,28.7685443],[76.9555727,28.7677777],[76.9552923,28.7673565],[76.955019,28.7670482],[76.9545528,28.7666727],[76.9538403,28.7661295],[76.953037,28.7653496],[76.9522651,28.7645432],[76.9517459,28.7640492],[76.9513906,28.7637437],[76.9502706,28.7631151],[76.9486802,28.7613389],[76.9469728,28.7593481],[76.9465064,28.7587965],[76.9462143,28.7584291],[76.9460069,28.7581494],[76.9456849,28.7575648],[76.9455585,28.7573183],[76.9453981,28.7570035],[76.945046,28.7562106],[76.944864,28.7555612],[76.9445169,28.7542132],[76.9444901,28.7540727],[76.9445025,28.7539918],[76.9445553,28.7539342],[76.9466254,28.7526017],[76.9469113,28.7524498],[76.9483451,28.7517131],[76.9487308,28.751473],[76.9506969,28.7500028],[76.9519249,28.7488793],[76.9543282,28.7467962],[76.9568958,28.7444761],[76.9582803,28.7432289],[76.9584645,28.7429465],[76.9585023,28.742779],[76.9584328,28.7426221],[76.957535,28.7411417],[76.956764,28.7398761],[76.9565093,28.739397],[76.9559347,28.7382278],[76.955988,28.7380691],[76.9564914,28.7373354],[76.9566863,28.7370799],[76.9574827,28.7364187],[76.9580387,28.7360362],[76.9582956,28.7358159],[76.9589068,28.734828],[76.9594815,28.7338045],[76.9600605,28.7327359],[76.9600487,28.7326548],[76.9599695,28.7325251],[76.9596962,28.7321411],[76.9595679,28.7318497],[76.9595108,28.7315347],[76.9595155,28.7309616],[76.9596424,28.7303552],[76.959611,28.7300444],[76.9594017,28.7292533],[76.958785,28.7282968],[76.9581851,28.7274167],[76.9570109,28.7256605],[76.9561674,28.7243373],[76.955972,28.7240153],[76.9545598,28.7221137],[76.9539094,28.7212658],[76.9520325,28.7194206],[76.9518171,28.7191214],[76.951574,28.7187053],[76.9507559,28.7173726],[76.9494766,28.7153951],[76.9494766,28.715395],[76.9494228,28.7153119],[76.948337,28.7136086],[76.9483296,28.7135756],[76.9481975,28.712988],[76.9487231,28.71242],[76.9488999,28.7122289],[76.9509586,28.7106472],[76.953196,28.7090448],[76.9542242,28.708475],[76.9544611,28.7083559],[76.9552129,28.7079779],[76.955941,28.7075027],[76.9560463,28.7073884],[76.9568005,28.7066646],[76.9572341,28.7063154],[76.9595313,28.7051903],[76.960784,28.7043104],[76.9620844,28.7035156],[76.9636959,28.7023958],[76.9652281,28.7011419],[76.9666769,28.7000831],[76.9668644,28.6999856],[76.96783,28.6996287],[76.9677439,28.6995378],[76.9672819,28.6990501],[76.9660412,28.697832],[76.965717,28.6974577],[76.9648252,28.6962841],[76.9639482,28.6949551],[76.9639405,28.6949434],[76.9639199,28.6949096],[76.9633651,28.6939997],[76.9632938,28.6937436],[76.963285,28.6929993],[76.9633398,28.6923669],[76.9631645,28.692022],[76.9624338,28.6909814],[76.9608181,28.6891234],[76.9603764,28.6884846],[76.9599969,28.6878855],[76.959065,28.6864778],[76.9585493,28.6857093],[76.9580329,28.6846294],[76.9574663,28.6833247],[76.9568248,28.6812901],[76.9566593,28.6806473],[76.9566395,28.6804085],[76.9566302,28.680183],[76.9567144,28.6797577],[76.9567885,28.6793416],[76.9567388,28.6788685],[76.9566654,28.6784996],[76.9560855,28.6770237],[76.9560148,28.6765239],[76.9559627,28.6756493],[76.9560786,28.6750025],[76.9560919,28.6746143],[76.9560066,28.6733296],[76.9559458,28.6728117],[76.9558621,28.6724384],[76.9554447,28.6711721],[76.9551302,28.6704909],[76.9548634,28.6701744],[76.9544779,28.669801],[76.9540889,28.6692381],[76.9538768,28.6688351],[76.953812,28.6686511],[76.9537999,28.6677218],[76.9532439,28.6680817],[76.9528675,28.6684752],[76.9526798,28.6688388],[76.952565,28.6692646],[76.9524127,28.6696052],[76.9516148,28.6696122],[76.950915,28.6696719],[76.9502589,28.6698754],[76.9497608,28.6700495],[76.9491745,28.6701617],[76.9488528,28.6701889],[76.9484528,28.670136],[76.9476404,28.6699176],[76.9467365,28.669723],[76.9455558,28.6695054],[76.9450262,28.6693596],[76.9447066,28.6692243],[76.9444532,28.6690791],[76.9440545,28.6688186],[76.9430544,28.6684044],[76.9426003,28.6684695],[76.9422987,28.6684784],[76.9409063,28.6684307],[76.9404095,28.6683972],[76.9397771,28.6682258],[76.9365762,28.668028],[76.9359976,28.6679956],[76.9353352,28.6678607],[76.935074,28.6675667],[76.9346012,28.6668922],[76.933755,28.6659387],[76.9334844,28.6654102],[76.933373,28.6649155],[76.9330973,28.6635523],[76.9329118,28.6626436],[76.9326901,28.6619926],[76.9308402,28.6584636],[76.9306883,28.6582718],[76.9302498,28.6577908],[76.9298955,28.6574349],[76.9295625,28.6571283],[76.9293071,28.6568703],[76.9291702,28.6566556],[76.9289144,28.6560953],[76.9285992,28.6553599],[76.9282979,28.6548272],[76.9277467,28.6540591],[76.9269452,28.6530237],[76.9261647,28.6517399],[76.9254617,28.6507754],[76.9251264,28.650338],[76.9249643,28.6501463],[76.9253457,28.6497438],[76.9255019,28.6496153],[76.9258704,28.6493483],[76.9261992,28.6491451],[76.9268143,28.6486626],[76.9274015,28.6480452],[76.9283182,28.6469944],[76.9293946,28.6454451],[76.9297485,28.6449392],[76.930337,28.6441187],[76.9310113,28.6432383],[76.931159,28.6431008],[76.9317052,28.6425922],[76.9331628,28.6411953],[76.9345128,28.6397909],[76.9364969,28.6378315],[76.9381784,28.6363817],[76.9401922,28.6349317],[76.9422695,28.6338732],[76.9439273,28.6333712],[76.9444577,28.6332914],[76.9443495,28.6324131],[76.9436883,28.6306675],[76.9432174,28.6292576],[76.9429948,28.6279975],[76.9410115,28.6252646],[76.940568,28.6250589],[76.9401672,28.6246767],[76.9397069,28.6241193],[76.9389992,28.6234481],[76.938066,28.6227531],[76.9372444,28.6220069],[76.9368288,28.6213721],[76.9363666,28.6204313],[76.9360218,28.6197549],[76.9352631,28.6188092],[76.9347588,28.6183562],[76.9345696,28.6183544],[76.9340564,28.6188129],[76.9339207,28.6189289],[76.9336166,28.6191887],[76.9333315,28.6194324],[76.9317972,28.6205326],[76.9302465,28.6215789],[76.9287255,28.6225706],[76.9274602,28.6235631],[76.9266365,28.6243779],[76.9262044,28.6250789],[76.9260626,28.6257126],[76.925646,28.6264224],[76.9250813,28.6271433],[76.9242608,28.6281385],[76.9240046,28.6283903],[76.9232997,28.6289959],[76.9221225,28.6300593],[76.9214232,28.6306919],[76.9209087,28.6310827],[76.9205757,28.631331],[76.9202004,28.6315033],[76.9197782,28.6316266],[76.9191725,28.6317841],[76.9185709,28.6318828],[76.9170308,28.6321212],[76.9165766,28.6321727],[76.9149223,28.6323134],[76.9145188,28.6323417],[76.9142888,28.6323495],[76.9142236,28.6322992],[76.9138065,28.6319773],[76.9127396,28.6309591],[76.9115114,28.6297808],[76.9101142,28.6285868],[76.9085614,28.626989],[76.9075734,28.6258027],[76.9072119,28.625325],[76.9069116,28.6248329],[76.9066702,28.6242092],[76.9064684,28.6237969],[76.9060315,28.6239565],[76.9053145,28.6244584],[76.9044407,28.6250617],[76.9041612,28.6251559],[76.9036899,28.6253926],[76.903255,28.6256604],[76.9027553,28.6260239],[76.9022994,28.6262649],[76.9011597,28.6268674],[76.9007488,28.6270537],[76.9003727,28.6271808],[76.9001085,28.6272747],[76.8994207,28.6276994],[76.8987533,28.6281239],[76.898184,28.6286011],[76.8974583,28.6291933],[76.8960488,28.6301515],[76.8945658,28.6310069],[76.893269,28.6316928],[76.8928928,28.6318199],[76.8924057,28.63175],[76.8920566,28.6316737],[76.8918312,28.6316498],[76.8915857,28.6316487],[76.8912853,28.6317251],[76.890595,28.6320144],[76.8899424,28.6321228],[76.8893851,28.6321306],[76.888827,28.6320932],[76.8883336,28.6319557],[76.8878477,28.6316647],[76.8871582,28.6311419],[76.8866527,28.6306166],[76.8861981,28.6300724],[76.8858363,28.6295721],[76.8855028,28.6289406],[76.8850046,28.6279594],[76.8845645,28.6270857],[76.8842764,28.6264129],[76.8841639,28.6261303],[76.8841078,28.6258513],[76.8841244,28.6256345],[76.8841566,28.6254355],[76.8839868,28.625086],[76.8830453,28.6239079],[76.8823964,28.6227935],[76.8822443,28.6222902],[76.8817452,28.6203977],[76.8807226,28.616676],[76.8802474,28.6149726],[76.879539,28.6133807],[76.8790808,28.612629],[76.8778411,28.610485],[76.8775873,28.609726],[76.8773413,28.6088315],[76.8770015,28.6084076],[76.8753778,28.6068058],[76.8740817,28.6055062],[76.8740709,28.6054748],[76.8735209,28.6044491],[76.8721341,28.6032185],[76.8717647,28.6028581],[76.8714077,28.6020419],[76.8711937,28.6012192],[76.8710254,28.6006665],[76.870588,28.5993505],[76.8705095,28.5986703],[76.8703572,28.597576],[76.870004,28.5966875],[76.8689934,28.593886],[76.8686822,28.5930601],[76.8685769,28.5928206],[76.8682561,28.5920914],[76.8678826,28.5906256],[76.8670811,28.589238],[76.8660667,28.587957],[76.8645766,28.586651],[76.8640369,28.5859049],[76.8634481,28.5855611],[76.8631487,28.5853982],[76.8616071,28.5852299],[76.858921,28.5850863],[76.8581871,28.5852136],[76.8578877,28.5853396],[76.8573827,28.5854006],[76.8562237,28.5854752],[76.8554413,28.5854588],[76.8518715,28.5853542],[76.8509855,28.5852625],[76.8492325,28.5849886],[76.8485102,28.5848992],[76.8482185,28.5848806],[76.8461111,28.584801],[76.8449153,28.5845285],[76.8425606,28.5837529],[76.8416018,28.5832922],[76.840838,28.5828739],[76.8406741,28.5828581],[76.8395331,28.5827923],[76.8395209,28.5826389],[76.839108,28.5774559],[76.8389109,28.5734745],[76.8393896,28.5726884],[76.8405833,28.5717688],[76.8406887,28.5716591],[76.8408271,28.5710932],[76.8405963,28.5695803],[76.8406586,28.5693449],[76.8411636,28.5681107],[76.8415014,28.5672579],[76.8418116,28.5659948],[76.8417925,28.5657493],[76.8420311,28.5648097],[76.8422824,28.5639806],[76.8424282,28.5632522],[76.8421442,28.5619115],[76.8420254,28.5609566],[76.8421219,28.5600438],[76.8422861,28.5571494],[76.8423819,28.5564848],[76.8424094,28.556304],[76.8433109,28.5549562],[76.8451022,28.552184],[76.8452475,28.5514285],[76.8452189,28.5506709],[76.8452722,28.5505032],[76.8453574,28.5504073],[76.8464599,28.5497471],[76.8467134,28.5496354],[76.8477092,28.549306],[76.8504375,28.5486913],[76.8518748,28.5481889],[76.8545254,28.547521],[76.8562054,28.5471687],[76.857074,28.5468726],[76.8587756,28.5462898],[76.8602759,28.5458857],[76.8618345,28.5453094],[76.863549,28.5443022],[76.8647152,28.5435011],[76.8650965,28.5430988],[76.8654,28.5426344],[76.8660759,28.5412671],[76.8663938,28.5404641],[76.8665668,28.5395503],[76.8670775,28.5380859],[76.867302,28.5374917],[76.8677522,28.5360733],[76.8677398,28.5359516],[76.8676698,28.5357495],[76.8675826,28.5356909],[76.8673803,28.535555],[76.8693797,28.5342055],[76.8714198,28.5331351],[76.8720091,28.533524],[76.8732064,28.532754],[76.8733165,28.5326216],[76.8734452,28.5323898],[76.8734109,28.5318939],[76.8730738,28.531321],[76.8730686,28.5313166],[76.8729006,28.5310617],[76.8730538,28.5307709],[76.8736177,28.5297208],[76.8738503,28.5287204],[76.8745814,28.5270139],[76.87565,28.5259117],[76.8770282,28.5244037],[76.8777248,28.5239294],[76.8790134,28.5234197],[76.8810946,28.5229533],[76.8828645,28.5225091],[76.8840188,28.5219664],[76.8871264,28.520573],[76.8871575,28.5203109],[76.8857091,28.5178629],[76.8852209,28.5170436],[76.8848805,28.5160832],[76.8839946,28.5136635],[76.8824622,28.5113656],[76.8814552,28.5098861],[76.8811343,28.5090739],[76.8807297,28.507577],[76.8804995,28.5066958],[76.880409,28.5062008],[76.880409,28.505912],[76.880738,28.5054517],[76.8834917,28.5034734],[76.8849314,28.5028579],[76.8856851,28.5024459],[76.8857132,28.5023011],[76.8853106,28.5014945],[76.8853111,28.5012328],[76.8854405,28.501141],[76.8854473,28.5011362],[76.8885103,28.5010485],[76.8899751,28.5009291],[76.8918458,28.5007765],[76.8922297,28.5008253],[76.8927246,28.5013644],[76.8954909,28.504967],[76.8967451,28.5065467],[76.8980885,28.508265],[76.8986181,28.5087449],[76.899273,28.5090877],[76.9000439,28.5093521],[76.9007386,28.5093514],[76.9016429,28.5090771],[76.902303,28.5088558],[76.9026138,28.5088153],[76.9030246,28.5089314],[76.9046075,28.5106102],[76.9055517,28.5117024],[76.906718,28.5126426],[76.907667,28.5134324],[76.9079291,28.5138077],[76.9084387,28.5134531],[76.9098147,28.5124231],[76.9109546,28.512186],[76.9122244,28.5123531],[76.9143984,28.5116728],[76.9155294,28.5109394],[76.9167702,28.5103489],[76.917778,28.5095902],[76.9188528,28.5091419],[76.9189789,28.5090544],[76.9203213,28.5073074],[76.9206073,28.5070236],[76.9207853,28.5069805],[76.9215319,28.5072062],[76.9216122,28.5072305],[76.9238819,28.5081729],[76.9259671,28.5093616],[76.9269991,28.5102177],[76.9278766,28.5101557],[76.9282876,28.51001],[76.9312825,28.509814],[76.9330538,28.5097527],[76.933487,28.5096969],[76.9340641,28.5094135],[76.9351827,28.5088516],[76.935906,28.5083575],[76.9370443,28.5075798],[76.939106,28.506084],[76.9409038,28.504962],[76.9416623,28.5045405],[76.9436769,28.5041057],[76.9456776,28.5040229],[76.9487883,28.5040279],[76.9516726,28.5042211],[76.9538201,28.5049032],[76.9560239,28.5061393],[76.9585919,28.5080063],[76.9604551,28.5093285],[76.9626738,28.5109455],[76.9648925,28.5125625],[76.9656845,28.512981],[76.9657901,28.5130368],[76.9659459,28.5130939],[76.9672456,28.5135707],[76.9690309,28.5142577],[76.9707494,28.5151983],[76.9730175,28.5168483],[76.9759026,28.5187104],[76.9770216,28.5200927],[76.9780554,28.5212693],[76.978102,28.5213223],[76.9782661,28.5212693],[76.9783508,28.5212419],[76.9798076,28.5199213],[76.9812256,28.5187185],[76.9822157,28.5175761],[76.9827589,28.5171215],[76.9834674,28.5167683],[76.9855993,28.5157716],[76.9878528,28.5147235],[76.9899275,28.5136779],[76.9903569,28.5135181],[76.9903941,28.5135042],[76.9906804,28.513518],[76.9922561,28.5150019],[76.9939426,28.5169488],[76.9941245,28.517113],[76.9949965,28.5167619],[76.9951899,28.5167229],[76.9963325,28.5193455],[76.9965558,28.5197326],[76.9965648,28.5197482],[76.9966702,28.5196913],[76.9971919,28.5194096],[76.9980376,28.5190892],[76.9988811,28.5190012],[76.9998274,28.5186139],[76.9998491,28.5183827],[76.9999919,28.5180502],[77.0003991,28.5178843],[77.0006258,28.5178169],[77.002762,28.5172657],[77.0028949,28.5172685],[77.0029823,28.5172478],[77.0033223,28.517151],[77.0036573,28.5170497],[77.004348,28.5168384],[77.0045089,28.516747],[77.004589,28.5166177],[77.0047818,28.5164818],[77.0051387,28.5163268],[77.0060737,28.5159626],[77.0076699,28.5153414],[77.010181,28.514342],[77.0102218,28.5143473],[77.0109452,28.5150081],[77.0118831,28.515872],[77.0142666,28.5181071],[77.0145157,28.5183471],[77.0147499,28.5185732],[77.0168736,28.5205906],[77.0171073,28.5208348],[77.0170392,28.5209291],[77.0165233,28.5216443],[77.0156803,28.5229631],[77.0155159,28.5231854],[77.0145496,28.5239508],[77.0142951,28.5241035],[77.0127637,28.5247804],[77.0119526,28.5250975],[77.0114883,28.5252548],[77.0111381,28.5253514],[77.010808,28.5254618],[77.0105597,28.5255695],[77.010011,28.526014],[77.0097193,28.5262156],[77.0085718,28.5268779],[77.0082561,28.5270203],[77.0077083,28.527239],[77.0053241,28.5286429],[77.005033,28.5288219],[77.0042207,28.5293738],[77.0014762,28.5312441],[77.0002263,28.5320937],[77.0003629,28.5329093],[77.0008424,28.5337095],[77.0013356,28.5338101],[77.0019136,28.5337997],[77.0031428,28.5358075],[77.0037488,28.5368496],[77.0045766,28.5381988],[77.0047736,28.5384783],[77.0049611,28.5387306],[77.0049178,28.5395784],[77.0048384,28.5398702],[77.0047846,28.5401626],[77.0056299,28.5406679],[77.0059165,28.54085],[77.0061922,28.5410544],[77.0066531,28.5414072],[77.0076912,28.5410181],[77.0080374,28.5408808],[77.0088444,28.5403424],[77.0094692,28.539922],[77.0103828,28.5405506],[77.0120573,28.5402651],[77.0126212,28.5402643],[77.0130645,28.5402636],[77.013396,28.5402543],[77.0134329,28.5402532],[77.0141565,28.540151],[77.0151204,28.5398596],[77.0154355,28.5397397],[77.0177421,28.5385644],[77.0179255,28.538207],[77.0178937,28.5378677],[77.0180045,28.5373554],[77.0183181,28.5371],[77.0190792,28.5365516],[77.0197326,28.5362085],[77.0203396,28.5358781],[77.0214483,28.5351382],[77.0228832,28.5342471],[77.0230296,28.5341237],[77.0237673,28.5333038],[77.0240389,28.5330882],[77.0243534,28.532991],[77.0263318,28.5324181],[77.0270093,28.5323194],[77.0277169,28.5322393],[77.0294419,28.5319682],[77.031401,28.5315439],[77.0324166,28.5308426],[77.0325378,28.5307052],[77.032918,28.5304422],[77.0331989,28.5302629],[77.0346129,28.5293803],[77.0354342,28.5288691],[77.036057,28.5285208],[77.0363785,28.5283469],[77.0373377,28.5278431],[77.0393351,28.5267423],[77.0425728,28.5249448],[77.0433694,28.5244014],[77.0438771,28.5239559],[77.044911,28.5231376],[77.0465611,28.5220205],[77.0473575,28.5214816],[77.047654,28.5212891],[77.0479762,28.5210881],[77.048512,28.520738],[77.048009,28.5198517],[77.0472177,28.5184628],[77.0466559,28.5174805],[77.0464508,28.5171196],[77.046242,28.5167044],[77.0469885,28.5165077],[77.047328,28.5164244],[77.0477189,28.5163332],[77.0483143,28.5162416],[77.0486889,28.5161862],[77.0490328,28.5161346],[77.0492792,28.5160945],[77.0498141,28.5159702],[77.0516152,28.5153211],[77.052312,28.5150691],[77.0548307,28.5141505],[77.0580257,28.5129793],[77.0583716,28.512851],[77.0589496,28.5126417],[77.0600147,28.5123747],[77.0603637,28.5123187],[77.0611011,28.5122707],[77.0613745,28.5122943],[77.0613764,28.5122944],[77.0617282,28.5123288],[77.0620799,28.5123676],[77.0630824,28.5125373],[77.0634435,28.5126034],[77.0642711,28.5126204],[77.0651737,28.5125081],[77.0655182,28.5124294],[77.066462,28.5121102],[77.0668173,28.5120137],[77.0678348,28.5131633],[77.0685487,28.5141983],[77.0687407,28.5144777],[77.0688186,28.5145987],[77.0689174,28.5147522],[77.0695219,28.5154779],[77.0697352,28.5157261],[77.0699743,28.5159613],[77.0702635,28.5162381],[77.0705685,28.5166914],[77.0707404,28.5169567],[77.0708967,28.5172354],[77.0711845,28.517756],[77.0713245,28.5180703],[77.0714344,28.5183615],[77.0717712,28.5195468],[77.0718145,28.5198457],[77.0717626,28.5200704],[77.0717952,28.5201884],[77.0732098,28.5194635],[77.0740854,28.5190164],[77.0750072,28.5185658],[77.0763713,28.5183951],[77.0773916,28.5182806],[77.078422,28.5181663],[77.0791294,28.5180905],[77.0808084,28.5178043],[77.0811434,28.5176983],[77.0824369,28.5173004],[77.0840805,28.5168013],[77.0847658,28.5165941],[77.0857394,28.516307],[77.0890162,28.5153175],[77.0896861,28.51511],[77.0922878,28.5143278],[77.093132,28.5141013],[77.0934478,28.5139497],[77.0944808,28.5133432],[77.0959392,28.5124971],[77.0967643,28.5120218],[77.0970704,28.5118474],[77.0973713,28.5116775],[77.0982527,28.5111988],[77.0985277,28.5110419],[77.0983421,28.5107131],[77.0977358,28.5096578],[77.0970998,28.5085703],[77.0969432,28.5083053],[77.096679,28.5078529],[77.0959215,28.5065237],[77.0961882,28.5062899],[77.0965484,28.5060037],[77.0968092,28.5058014],[77.0974731,28.5054312],[77.0982921,28.5049918],[77.0986338,28.5048227],[77.0994829,28.5044066],[77.1001712,28.5040775],[77.1010198,28.5036794],[77.1013505,28.5035417],[77.1016804,28.5034355],[77.1021853,28.5032788],[77.1029493,28.5029873],[77.1045049,28.5023282],[77.1082992,28.5002017],[77.1091892,28.4997608],[77.1121805,28.4984084],[77.1146508,28.4973388],[77.1169706,28.4963564],[77.117942,28.4963399],[77.1207321,28.4959402],[77.1196932,28.4924432],[77.1191897,28.4899773],[77.1185366,28.4879643],[77.1174699,28.4855501],[77.1162239,28.4841391],[77.1155428,28.4832089],[77.1146862,28.4809705],[77.1146526,28.4807444],[77.1138595,28.4754057],[77.1129663,28.4712299],[77.1109848,28.4713974],[77.1107776,28.471312],[77.1116109,28.4700583],[77.1117132,28.4699044],[77.1137512,28.4673543],[77.1143924,28.4662658],[77.1162599,28.463789],[77.1168357,28.4628355],[77.1168363,28.4628346],[77.1189646,28.4609189],[77.1189702,28.4609139],[77.1195099,28.4604623],[77.121847,28.458507],[77.1225845,28.454477],[77.1226749,28.4537732],[77.1229453,28.4516697],[77.1231533,28.4500508],[77.1236294,28.4454557],[77.1285931,28.4409328],[77.1289054,28.4407043],[77.1305725,28.440625],[77.1314129,28.4406104],[77.1316841,28.4399025],[77.1320144,28.4393719],[77.1323267,28.4391434],[77.1353891,28.4384284],[77.138452,28.4374922],[77.1410771,28.4366961],[77.1419948,28.4371569],[77.1424446,28.4373419],[77.1431605,28.4373066],[77.1480489,28.4373953],[77.1483093,28.4374],[77.1490841,28.4367356],[77.1516384,28.4345454],[77.1526678,28.4336626],[77.1526767,28.433655],[77.155066,28.4320865],[77.1584019,28.4306451],[77.1592199,28.4303388],[77.1607376,28.4297706],[77.1618552,28.4292015],[77.1622958,28.4289395],[77.1623572,28.4288838],[77.1628445,28.4284413],[77.1628501,28.4284357],[77.1647859,28.4264025],[77.1647863,28.4264021],[77.1650926,28.426205],[77.1658962,28.4257127],[77.1659278,28.4256934],[77.1656946,28.4234135],[77.1655335,28.4201102],[77.1649797,28.4177878],[77.1648632,28.4163454],[77.1648425,28.41495],[77.1651672,28.4142296],[77.1662975,28.4135523],[77.1680971,28.4125736],[77.1680994,28.4125723],[77.168962,28.4117813],[77.1698108,28.4104515],[77.1709241,28.409431],[77.1711353,28.4092376],[77.1712265,28.4086616],[77.1713161,28.4079456],[77.1714454,28.4062669],[77.1714456,28.4062642],[77.1720469,28.405906],[77.1737978,28.4049159],[77.1744832,28.4046676],[77.1747557,28.404761],[77.1752138,28.4051545],[77.1753744,28.4054626],[77.1767149,28.4066953],[77.1775094,28.4073609],[77.1779383,28.4076713],[77.1791328,28.4080871],[77.1805944,28.4086268],[77.1811924,28.4088026],[77.1820286,28.4090009],[77.1831031,28.4096806],[77.1839327,28.4101725],[77.1843732,28.410428],[77.185548,28.4098798],[77.1867973,28.4092503],[77.1879753,28.4085645],[77.1891107,28.4079238],[77.1905068,28.4072235],[77.1907309,28.407411],[77.1909653,28.4076194],[77.1910362,28.4076825],[77.1915784,28.4080316],[77.191816,28.4080816],[77.1925186,28.4082225],[77.1938337,28.4083558],[77.1948498,28.4084012],[77.1960325,28.408422],[77.1964983,28.4084152],[77.1966036,28.4084137],[77.1972546,28.4083322],[77.1993092,28.4082043],[77.2000119,28.408235],[77.2011297,28.4083739],[77.2027017,28.4086218],[77.2040461,28.4088381],[77.2054603,28.4091841],[77.2060573,28.4094056],[77.2060977,28.4094207],[77.2067263,28.4096559],[77.2071484,28.4098101],[77.2082073,28.4098012],[77.2093701,28.4097848],[77.2102922,28.409856],[77.2114397,28.4100596],[77.2130903,28.4105106],[77.2141727,28.4108416],[77.2149355,28.4110751],[77.2153271,28.4112013],[77.215749,28.4113647],[77.2160063,28.4114609],[77.2161665,28.4112618],[77.2163802,28.4105595],[77.2165025,28.4101573],[77.2166055,28.4097278],[77.2167589,28.4098314],[77.2175666,28.4103778],[77.2178251,28.4105605],[77.218006,28.4106883],[77.218343,28.4109328],[77.2198425,28.4116472],[77.2206344,28.411973],[77.2214375,28.4122623],[77.2219524,28.4124456],[77.2224921,28.4124459],[77.2226493,28.4124608],[77.2233207,28.4125245],[77.2245838,28.4126658],[77.225296,28.4128434],[77.2259771,28.4130204],[77.2273275,28.4134385],[77.2275954,28.4135258],[77.228521,28.4139089],[77.2285388,28.4139196],[77.2298116,28.4146839],[77.2309264,28.4154282],[77.2325874,28.4168152],[77.2335727,28.4177866],[77.2338894,28.4180123],[77.2339612,28.4180503],[77.2340536,28.4180978],[77.2348399,28.4182124],[77.2355813,28.4184822],[77.2362567,28.418916],[77.2363078,28.4189536],[77.2368994,28.4194227],[77.2374806,28.4198916],[77.2378167,28.4201819],[77.2378692,28.420257],[77.2380179,28.4204698],[77.2384149,28.4208254],[77.2387235,28.4209501],[77.2389682,28.4210153],[77.2394714,28.4211496],[77.2395697,28.4211758],[77.2406341,28.4213869],[77.2423319,28.4219823],[77.2438417,28.4226131],[77.2438865,28.4226361],[77.2443576,28.4227937],[77.2454541,28.4231606],[77.2455352,28.4231877],[77.2459783,28.4232381],[77.2471504,28.4233716],[77.2479813,28.4236233],[77.2479856,28.4236246],[77.2491801,28.4240581],[77.249302,28.4241795],[77.2493238,28.4242078],[77.249524,28.4244678],[77.2499658,28.4256133],[77.2505617,28.4273029],[77.2509531,28.4283833],[77.2518348,28.430766],[77.2526387,28.4329087],[77.2519221,28.4329239],[77.250521,28.4329089],[77.2490585,28.4328561],[77.2488288,28.4329164],[77.2491565,28.4340599],[77.2495665,28.4361775],[77.2497071,28.436859],[77.2498592,28.4377499],[77.2497504,28.4381903],[77.2496723,28.4384367],[77.2494968,28.4398009],[77.2495,28.4405993],[77.2494618,28.4418558],[77.2493887,28.442818],[77.2492015,28.4451822],[77.249088,28.4460887],[77.2489339,28.4469578],[77.2481799,28.4486607],[77.2478045,28.4496728],[77.24714,28.4510836],[77.2467518,28.4522055],[77.2466375,28.4525199],[77.246586,28.4526615],[77.2465673,28.4527006],[77.2465642,28.452707],[77.2461947,28.453453],[77.245753,28.4541795],[77.2453395,28.4545669],[77.2443884,28.4553212],[77.2433802,28.455836],[77.2425115,28.4561513],[77.2418464,28.4561765],[77.2409986,28.456015],[77.2403064,28.4558562],[77.2390795,28.455468],[77.2386662,28.4553782],[77.2382423,28.4552975],[77.23733,28.4552358],[77.2354372,28.4549093],[77.2344135,28.4547173],[77.2335726,28.4565837],[77.2329201,28.4579121],[77.2329158,28.4581047],[77.2333412,28.460053],[77.2345368,28.4655286],[77.2348445,28.467103],[77.2355827,28.4710978],[77.2355861,28.4711165],[77.2356161,28.4711721],[77.2368356,28.4723677],[77.2395646,28.4750993],[77.2408598,28.4763371],[77.2421904,28.4776814],[77.2432971,28.47882],[77.2435239,28.4788973],[77.2435949,28.4789078],[77.244153,28.4790917],[77.2471344,28.4802855],[77.2474469,28.4804148],[77.2480631,28.4806522],[77.2488679,28.4809623],[77.2491291,28.4808934],[77.2494315,28.4808344],[77.2496707,28.4808202],[77.2504428,28.4811271],[77.2516999,28.4815709],[77.2557813,28.4829808],[77.2579568,28.4836972],[77.2593286,28.4841245],[77.2610609,28.4846864],[77.2614414,28.4848581],[77.2619774,28.4850417],[77.2635043,28.4854991],[77.2657853,28.4861438],[77.2663132,28.4862263],[77.2670802,28.4862945],[77.2678568,28.4863995],[77.269275,28.4866073],[77.2694509,28.4866379],[77.2697148,28.4878627],[77.2699749,28.4883168],[77.2710189,28.4894907],[77.2715444,28.4901512],[77.2720598,28.4908023],[77.2725621,28.4911045],[77.2752253,28.4922728],[77.2760748,28.4928987],[77.2762371,28.4930758],[77.2765337,28.4932827],[77.2767709,28.4933602],[77.2770494,28.4934475],[77.2788984,28.4939103],[77.2796333,28.4940238],[77.2805345,28.4941309],[77.2817979,28.4942992],[77.2829981,28.4945123],[77.2838538,28.4948022],[77.2845462,28.4949608],[77.2853316,28.4951393],[77.2858573,28.4953226],[77.2870155,28.4960304],[77.2879567,28.4962116],[77.2886974,28.496059],[77.2900182,28.4964577],[77.2902658,28.4965353],[77.2906507,28.4965051],[77.2912351,28.4963774],[77.292091,28.4961809],[77.2929344,28.4960851],[77.2943801,28.4959904],[77.2948996,28.4959808],[77.2953055,28.4959418],[77.2955156,28.4958353],[77.2965238,28.4953202],[77.297554,28.4947505],[77.2979958,28.4944919],[77.2983742,28.4942872],[77.2992287,28.4941549],[77.2993641,28.4941388],[77.2996224,28.4941983],[77.3004121,28.4941841],[77.3005993,28.4941689],[77.3006842,28.4940878],[77.3007073,28.4939781],[77.3006706,28.4934956],[77.3006346,28.4930226],[77.300563,28.491535],[77.3005997,28.4908016],[77.3007094,28.490051],[77.3007864,28.4898505],[77.301352,28.4896307],[77.3022586,28.48949],[77.3030584,28.4894852],[77.3050317,28.4894819],[77.3056654,28.4894742],[77.306154,28.4894549],[77.3065293,28.4893879],[77.3070477,28.488947],[77.3072388,28.4887576],[77.3076939,28.4883615],[77.307863,28.4882268],[77.3090186,28.4876132],[77.3097948,28.4872592],[77.3099413,28.4872067],[77.3105861,28.4866853],[77.3130649,28.4844333],[77.3138709,28.4836578],[77.3141004,28.4836066],[77.3144467,28.4839244],[77.3149478,28.4842815],[77.3151325,28.4843855],[77.3155238,28.4845389],[77.3158435,28.4846452],[77.3165937,28.4854928],[77.3165868,28.4858138],[77.3166572,28.4864022],[77.3167788,28.4865419],[77.3183708,28.487367],[77.3186996,28.4875285],[77.3189672,28.4876431],[77.3196161,28.4878925],[77.3213435,28.4882152],[77.3226037,28.4885299],[77.3232938,28.4887984],[77.3244257,28.4892854],[77.3256999,28.4899215],[77.3267614,28.4900947],[77.3268279,28.4901056],[77.3269225,28.4905384],[77.3271211,28.4909638],[77.3275022,28.4915941],[77.3275346,28.4916419],[77.3276696,28.4918412],[77.3286901,28.4933481],[77.3295039,28.494628],[77.3301263,28.4956293],[77.331157,28.4969678],[77.3315517,28.4974515],[77.3327871,28.498931],[77.333667,28.5000376],[77.3349497,28.5017381],[77.3353028,28.5022211],[77.3356697,28.5030347],[77.3357557,28.503871],[77.3356618,28.5043741],[77.3357696,28.5046787],[77.3361118,28.505189],[77.3367749,28.5057506],[77.3373789,28.5061644],[77.3386129,28.507231],[77.3392956,28.5078479],[77.340334,28.5088378],[77.3413958,28.5101859],[77.3423327,28.5105777],[77.3424665,28.5106349],[77.3432676,28.5110612],[77.3437041,28.5115364],[77.3442063,28.5123429],[77.3444876,28.512788],[77.3445482,28.5128716],[77.3447929,28.5130867],[77.3451118,28.5132296],[77.3454335,28.5132442],[77.3454269,28.5136293],[77.3454298,28.5136447],[77.3457355,28.514986],[77.3460048,28.515752],[77.3464362,28.5164657],[77.3474081,28.5183856],[77.3475705,28.5190535],[77.347569,28.5196086],[77.3475124,28.520071],[77.3473725,28.5205457],[77.3470443,28.5208339],[77.3466408,28.5210015],[77.3435023,28.5215973],[77.3433397,28.5216209],[77.3415853,28.5219612],[77.3391796,28.5225792],[77.3383379,28.5228312],[77.3376206,28.5230991],[77.3371684,28.5233576],[77.3359531,28.5240759],[77.3350367,28.5246661],[77.3345517,28.5250021],[77.3339922,28.5254148],[77.3336526,28.5257485],[77.3331311,28.5265747],[77.3328443,28.5271113],[77.3326485,28.527764],[77.3319984,28.5292578],[77.3313163,28.5303015],[77.3310289,28.5311086],[77.3306702,28.5316027],[77.3301674,28.5322824],[77.3294836,28.5326792],[77.3283911,28.5332389],[77.3277078,28.5333604],[77.3277068,28.5333606],[77.3272595,28.5334402],[77.3268469,28.5335479],[77.3265583,28.5336807],[77.3254798,28.534314],[77.325274,28.5344779],[77.324724,28.5349161],[77.3239481,28.5357288],[77.3231342,28.5366453],[77.3223226,28.5377719],[77.3213439,28.5396669],[77.3211354,28.5404249],[77.3208967,28.540898],[77.3206719,28.5410554],[77.3188692,28.5424098],[77.3179524,28.5430091],[77.3148782,28.5443907],[77.3141163,28.5445548],[77.3136471,28.5448726],[77.3132977,28.5454126],[77.3130898,28.5458999],[77.3123645,28.5465299],[77.3108296,28.5476004],[77.309448,28.548545],[77.3060321,28.5508269],[77.3044036,28.5518958],[77.3037945,28.5524314],[77.3035247,28.5528947],[77.3031296,28.5538651],[77.3030263,28.5541775],[77.3026823,28.5550869],[77.3024619,28.5556658],[77.3021061,28.5564992],[77.3011988,28.5580894],[77.3008939,28.5584925],[77.2999728,28.5597568],[77.3000851,28.5603275],[77.3000877,28.560328],[77.3006024,28.5604326],[77.3014452,28.5608597],[77.3014467,28.5608654],[77.3015795,28.5613757],[77.3015429,28.5616274],[77.3012339,28.5626955],[77.3012305,28.5626972],[77.3005828,28.5630102],[77.2991572,28.5638164],[77.2985453,28.5642418],[77.2979536,28.5646905],[77.2975501,28.5650873],[77.2972742,28.5655873],[77.2970945,28.5659695],[77.2971061,28.566097],[77.2971332,28.5663937],[77.2971448,28.5665209],[77.2971457,28.5665234],[77.2976505,28.5683597],[77.2978293,28.5692741],[77.2982289,28.5704944],[77.2984888,28.5711667],[77.29849,28.5711686],[77.2985078,28.5711942],[77.2987018,28.5714969],[77.299463,28.5735998],[77.2999702,28.5750664],[77.3000525,28.5757958],[77.3000732,28.5762782],[77.2999686,28.5771055],[77.2997866,28.5783718],[77.2997302,28.5785983],[77.299522,28.5788951],[77.2990726,28.5793809],[77.2985183,28.5799767],[77.298379,28.5801505],[77.2989751,28.5805374],[77.3000934,28.5811952],[77.3007865,28.5815759],[77.3007926,28.5815791],[77.3013397,28.5818687],[77.3015213,28.581992],[77.3019085,28.582405],[77.3037037,28.5844045],[77.3048148,28.5856714],[77.3053429,28.5862173],[77.3056649,28.5865252],[77.3058806,28.5867314],[77.3066456,28.587359],[77.3072128,28.5878186],[77.3085806,28.5891351],[77.3101684,28.5904569],[77.3105075,28.5908679],[77.3105097,28.5908707],[77.3110575,28.5920794],[77.3123034,28.5945889],[77.3126078,28.5951882],[77.3131896,28.5963106],[77.3132931,28.5964529],[77.3133979,28.596588],[77.3159982,28.5969925],[77.3174903,28.5969352],[77.3183264,28.5972397],[77.3193737,28.5974769],[77.32049,28.5976691],[77.3215793,28.5977484],[77.3221462,28.5976141],[77.3222846,28.5975813],[77.3233217,28.5976905],[77.3251693,28.5980517],[77.3262728,28.5984555],[77.3269187,28.5988745],[77.3274273,28.5993559],[77.3277031,28.599617],[77.3283568,28.6001554],[77.3284849,28.6000752],[77.3286993,28.599941],[77.3292143,28.6001606],[77.3296564,28.6004175],[77.3297995,28.6005006],[77.3310784,28.6007238],[77.3323398,28.6010385],[77.3325721,28.6011157],[77.3340888,28.601641],[77.3345678,28.6018463],[77.3351159,28.6017924],[77.3357527,28.6017298],[77.3358439,28.6017208],[77.336767,28.6018142],[77.3376514,28.6022601],[77.3382693,28.6027749],[77.3391254,28.6033305],[77.3396623,28.6037431],[77.3401101,28.6041909],[77.3404511,28.6046974],[77.3412139,28.6055578],[77.3413892,28.6057467],[77.3416762,28.6060563],[77.3418069,28.6065079],[77.3419608,28.6070885],[77.3420457,28.6074935],[77.3422712,28.6085738],[77.342209,28.609469],[77.3421297,28.610326],[77.3419715,28.6114507],[77.3417613,28.6122299],[77.3417288,28.6123502],[77.3417846,28.6131447],[77.3418215,28.6138471],[77.3417838,28.61464],[77.3416836,28.6154364],[77.3415135,28.6160987],[77.3414739,28.6169787],[77.3414901,28.6174376],[77.3417321,28.6190011],[77.341802,28.6193784],[77.3420394,28.6204327],[77.3421846,28.620692],[77.3424861,28.6214217],[77.3425288,28.6217292],[77.3425627,28.6219734],[77.3425166,28.6219849],[77.3404005,28.6225151],[77.3403675,28.6230644],[77.3403583,28.6231371],[77.3400442,28.6237937],[77.3398336,28.6240226],[77.3397036,28.6241641],[77.3393389,28.6243665],[77.3392143,28.6244357],[77.3391545,28.6244728],[77.3382713,28.6250209],[77.3375729,28.6255872],[77.3369389,28.6260628],[77.3356272,28.6268711],[77.3349924,28.6273834],[77.3342351,28.6282743],[77.3329327,28.6296148],[77.3321428,28.6303059],[77.3318678,28.6305465],[77.330628,28.6313926],[77.3305452,28.6314398],[77.3297196,28.6319106],[77.3295964,28.6319808],[77.3294922,28.6320164],[77.3282505,28.6324399],[77.327512,28.632676],[77.3269418,28.6328583],[77.3259947,28.6333837],[77.3250101,28.6344451],[77.3246522,28.6346501],[77.3236976,28.6343176],[77.3216545,28.6364849],[77.3215239,28.6366049],[77.3198147,28.6381751],[77.3186047,28.6392867],[77.3169066,28.6406433],[77.3162804,28.6412014],[77.3162652,28.641215],[77.3165837,28.6421148],[77.3171137,28.643573],[77.3173559,28.6445055],[77.3175025,28.6450702],[77.3177109,28.6455538],[77.318265,28.6468396],[77.3196049,28.6502883],[77.3198788,28.6510863],[77.3198898,28.6534715],[77.3199775,28.6554314],[77.3202284,28.6577839],[77.3202501,28.6579043],[77.3204003,28.6587362],[77.3205751,28.6612388],[77.3206509,28.6623747],[77.3206852,28.6628871],[77.3207554,28.6634891],[77.3210361,28.6642284],[77.3213951,28.6651739],[77.3216364,28.6662833],[77.3219173,28.6667604],[77.3220632,28.6668096],[77.3224903,28.6669535],[77.3230007,28.6671592],[77.3234331,28.6680883],[77.3236908,28.6688681],[77.3237212,28.66896],[77.3237677,28.6696992],[77.3235124,28.670204],[77.3233366,28.6711229],[77.3233042,28.671659],[77.3233484,28.6718773],[77.3233628,28.6719484],[77.323511,28.6726806],[77.3236687,28.6735143],[77.3237538,28.6739643],[77.3238645,28.6748605],[77.3237303,28.6753862],[77.3236885,28.6755501],[77.3235294,28.6761757],[77.323601,28.6767135],[77.3239026,28.6771956],[77.324084,28.6773008],[77.3244317,28.6775025],[77.3254714,28.677763],[77.326624,28.6778511],[77.32865,28.6779584],[77.3300953,28.678221],[77.3301635,28.6783288],[77.3306234,28.6790554],[77.3327197,28.6817],[77.3329222,28.6819602],[77.3327617,28.6821685],[77.3323614,28.6826434],[77.3322454,28.6829625],[77.3322314,28.6836135],[77.3319436,28.6849139],[77.3321033,28.6859657],[77.3317646,28.6864584],[77.3313187,28.6871205],[77.3311436,28.6877688],[77.3310648,28.6885288],[77.3308182,28.6893594],[77.330302,28.6903873],[77.3296894,28.6910604],[77.3291793,28.6915609],[77.3283979,28.6928274],[77.3274269,28.6937193],[77.326495,28.6944833],[77.3253791,28.6955837],[77.3242039,28.6970178],[77.3235913,28.6979294],[77.3232705,28.6985753],[77.3240544,28.6996111],[77.3243545,28.699928],[77.3247462,28.7003335],[77.3252758,28.7011037],[77.3252879,28.7012817],[77.3253114,28.7016271],[77.3254423,28.7023127],[77.3257375,28.7028542],[77.3258357,28.7036079],[77.3257917,28.7042034],[77.3257737,28.7042784],[77.3256317,28.7048703],[77.325413,28.7051189],[77.3249233,28.7056381],[77.3246421,28.7061508],[77.3244523,28.706497],[77.3244557,28.7070611],[77.3254258,28.7088751],[77.3259976,28.7098615],[77.326386,28.7103329],[77.3264843,28.7104521],[77.32734,28.7105189],[77.328431,28.7113652],[77.3287953,28.7115975],[77.3296216,28.7121245],[77.3298268,28.7122553],[77.330491,28.7126261],[77.3310779,28.7131017],[77.3296302,28.7131738],[77.3284828,28.7133105],[77.3271799,28.7134848],[77.3263525,28.7128078],[77.3252432,28.7130396],[77.324268,28.7130664],[77.3240293,28.7127588],[77.3239502,28.7126569],[77.3231453,28.713029],[77.3230885,28.7130552],[77.3230694,28.7130374],[77.3221995,28.712229],[77.3220634,28.7121025],[77.3203606,28.7129086],[77.3201541,28.713005],[77.3188145,28.7135724],[77.3179636,28.7138994],[77.3177591,28.7139746],[77.3177344,28.7139837],[77.3167264,28.7129888],[77.3166564,28.7129198],[77.3161887,28.7128982],[77.3155861,28.7129847],[77.3141021,28.7130089],[77.312496,28.7131022],[77.3114174,28.7131849],[77.3103562,28.7131911],[77.3098493,28.713188],[77.3095617,28.713183],[77.30906,28.7131097],[77.30874,28.7130622],[77.3084071,28.7129491],[77.3071059,28.7129264],[77.306484,28.7131348],[77.3060911,28.7131904],[77.3051438,28.7128686],[77.3046399,28.712632],[77.3042523,28.7122184],[77.3038853,28.7118588],[77.3032909,28.7113724],[77.3029867,28.7112393],[77.3017671,28.7107852],[77.3009056,28.710365],[77.3004806,28.7101887],[77.3003157,28.7101258],[77.2999378,28.7099963],[77.2995069,28.7099291],[77.2991704,28.7094559],[77.2992347,28.709399],[77.2992408,28.7093259],[77.2992404,28.7091021],[77.2991867,28.7087693],[77.2991331,28.7086186],[77.2991044,28.708551],[77.2983148,28.7069983],[77.2977439,28.705827],[77.2974029,28.7051046],[77.2967817,28.70444],[77.2957102,28.7049171],[77.2952516,28.7051937],[77.2944733,28.7055795],[77.2938873,28.7057393],[77.2933401,28.7057851],[77.2927935,28.7058033],[77.2922288,28.7059359],[77.2915166,28.7061532],[77.2910406,28.706512],[77.2894517,28.7075766],[77.2888881,28.7081357],[77.2887459,28.7089267],[77.2884729,28.7095182],[77.2881773,28.709715],[77.2873642,28.7102653],[77.2874063,28.7106068],[77.2875012,28.7113775],[77.2874605,28.7114439],[77.2872146,28.711846],[77.2869347,28.7123034],[77.2870964,28.7132563],[77.2868599,28.7137969],[77.286241,28.7145342],[77.2890887,28.7168206],[77.288831,28.7195678],[77.2907673,28.7223844],[77.2892085,28.7230092],[77.2874473,28.7240891],[77.2863386,28.7245523],[77.2862403,28.7246857],[77.2857256,28.7262153],[77.2851671,28.7267745],[77.2824291,28.729452],[77.278019,28.734069],[77.2775195,28.7345919],[77.2764393,28.7354494],[77.2755835,28.7357081],[77.2744686,28.7360452],[77.2739408,28.7362048],[77.2729092,28.7362697],[77.2727866,28.736132],[77.2724696,28.7357758],[77.2723465,28.7356375],[77.2723455,28.7356364],[77.2723409,28.7356345],[77.2720034,28.7354916],[77.271928,28.7354596],[77.2717327,28.7354382],[77.2707294,28.7353279],[77.2694573,28.7351881],[77.2676311,28.7348523],[77.2665709,28.7346573],[77.2617555,28.7340658],[77.260822,28.7341645],[77.2597302,28.735306],[77.2577655,28.7368637],[77.2556294,28.7388723],[77.255194,28.7397408],[77.2545579,28.7435637],[77.2546438,28.7437228],[77.2547129,28.7438506],[77.2548706,28.7438534],[77.2553198,28.7438611],[77.2561953,28.7438761],[77.2562073,28.7439007],[77.2591821,28.7500036],[77.2591329,28.7502829],[77.2591119,28.7512362],[77.2591119,28.7512365],[77.2591214,28.7522441],[77.2591214,28.7522444],[77.2591212,28.752246],[77.2591207,28.7522475],[77.2591202,28.7522484],[77.2588583,28.7526885],[77.258858,28.7526889],[77.2588569,28.7526902],[77.2588556,28.7526913],[77.2588545,28.752692],[77.2587396,28.7527537],[77.258706,28.7527718],[77.2574396,28.7534518],[77.2574394,28.7534519],[77.257227,28.7535715],[77.2563776,28.7540498],[77.2563767,28.7540503],[77.2563754,28.7540515],[77.2563745,28.7540524],[77.2561483,28.7543527],[77.256148,28.754353],[77.2561472,28.7543544],[77.2561467,28.754356],[77.2561465,28.7543576],[77.2561466,28.7543587],[77.2563609,28.7561152],[77.2563705,28.7561938],[77.2563706,28.756195],[77.2563704,28.7561966],[77.2563699,28.7561981],[77.2563691,28.7561995],[77.256368,28.7562008],[77.2563667,28.7562019],[77.2563652,28.7562028],[77.2563635,28.7562035],[77.2563618,28.7562039],[77.25636,28.756204],[77.2563598,28.756204],[77.2563584,28.7562038],[77.2559853,28.7561458],[77.2545835,28.7559276],[77.2545833,28.7559276],[77.2520782,28.7554918],[77.2502719,28.7551805],[77.2502693,28.7551803],[77.2502691,28.7551803],[77.2487825,28.7552791],[77.247931,28.7555624],[77.2449234,28.7567295],[77.2432128,28.7575452],[77.2425933,28.7578406],[77.2402653,28.7588568],[77.2370163,28.7602782],[77.2366813,28.760366],[77.2355625,28.7609155],[77.2354965,28.7618082],[77.2357408,28.7625709],[77.2361487,28.7635802],[77.2359688,28.7654461],[77.2360824,28.7665586],[77.2361842,28.7681991],[77.2361729,28.7683301],[77.2360601,28.7696326],[77.2358818,28.7707333],[77.2356496,28.7707368],[77.2344365,28.7707553],[77.233982,28.7707622],[77.2331756,28.7707745],[77.2317918,28.7707912],[77.2318658,28.771049],[77.2319587,28.7713729],[77.2321008,28.771868],[77.2321199,28.7719345],[77.2321316,28.7721871],[77.2321614,28.7728291],[77.2318655,28.7736908],[77.2314497,28.7744149],[77.2285193,28.7755424],[77.2277817,28.7755296],[77.2267257,28.7760124],[77.2253538,28.7768689],[77.2240266,28.7771032],[77.2218681,28.7773908],[77.2225381,28.7777624],[77.2226881,28.7778455],[77.2232042,28.7781318],[77.2293773,28.7811777],[77.232356,28.782719],[77.2341477,28.7837184],[77.2332025,28.7841571],[77.2328495,28.7843211],[77.2317122,28.7849028],[77.2285353,28.786533],[77.2269276,28.786241],[77.2216989,28.7856356],[77.2173407,28.785289],[77.2152072,28.7851435],[77.2142981,28.7852361],[77.2133386,28.7855173],[77.2118521,28.7863316],[77.2101605,28.7869473],[77.209498,28.7871543],[77.2092256,28.7872673],[77.2086503,28.7875862],[77.2082408,28.78783],[77.2079245,28.7880251],[77.2076778,28.7882473],[77.2050256,28.7901824],[77.2044523,28.7905508],[77.2038485,28.791134],[77.2033521,28.7916387],[77.2030174,28.7919872],[77.2026255,28.792462],[77.2023053,28.7928827],[77.2015716,28.7938521],[77.2012288,28.7943278],[77.2001688,28.7958568],[77.1999211,28.7962188],[77.1996613,28.79668],[77.1994742,28.797142],[77.1994069,28.7973358],[77.199282,28.7976952],[77.1992493,28.7978549],[77.1991913,28.7983666],[77.1991295,28.7992265],[77.1991421,28.7997633],[77.1991508,28.799856],[77.1991711,28.8000728],[77.1992254,28.8002974],[77.1993384,28.8006213],[77.1993461,28.8006429],[77.1995128,28.801112],[77.199671,28.8015206],[77.1998186,28.8018706],[77.1998998,28.8020907],[77.2000097,28.8025571],[77.2001174,28.8042605],[77.2001542,28.8054569],[77.2001681,28.8063591],[77.2002466,28.8085868],[77.2002954,28.8093862],[77.2003421,28.8096603],[77.2005741,28.8110191],[77.2008649,28.8122478],[77.2013018,28.8129414],[77.2017211,28.8127723],[77.2055964,28.8112084],[77.2076842,28.8106761],[77.213439,28.8091242],[77.2156026,28.8086337],[77.2156189,28.808632],[77.2177605,28.8084004],[77.2189634,28.8082385],[77.2189947,28.8086907],[77.2190081,28.8088838],[77.2190099,28.8089097],[77.2190165,28.8089992],[77.2191043,28.8101843],[77.2194321,28.812025],[77.2195413,28.8132595],[77.2196389,28.8143632],[77.2197265,28.8153548],[77.2199217,28.8162333],[77.2200058,28.8166117],[77.2201788,28.817893],[77.2202568,28.8191424],[77.2217887,28.8203771],[77.2218881,28.8204572],[77.2223193,28.8211148],[77.2225992,28.8220653],[77.222648,28.8222309],[77.2231793,28.823102],[77.2236829,28.8236447],[77.2238891,28.823978],[77.2238891,28.823978],[77.2241337,28.8244912],[77.2243934,28.8253218],[77.2242833,28.8261188],[77.2242384,28.8261997],[77.2237545,28.8270712],[77.2228712,28.8287486],[77.2225645,28.830084],[77.2226961,28.8310748],[77.2230152,28.8319335],[77.2230582,28.8327603],[77.2229982,28.8333822],[77.2220326,28.8339207],[77.2212554,28.834977],[77.2205818,28.8362112],[77.2195618,28.8378049],[77.219344,28.8380952],[77.218857,28.8387443],[77.2185789,28.839115],[77.2175354,28.8403833],[77.216649,28.8415054],[77.2166898,28.842427],[77.2167012,28.8438773],[77.2167057,28.8444585],[77.2168038,28.8458067],[77.2168468,28.8463974],[77.2170621,28.8471537],[77.2172032,28.8476495],[77.2172913,28.8484132],[77.2172992,28.8487863],[77.2173158,28.8495739],[77.2173327,28.8507922],[77.2173205,28.8513348],[77.2169238,28.8521853],[77.2167065,28.8526512],[77.2165062,28.8529934],[77.2158748,28.8540722],[77.2148013,28.8552993],[77.2142359,28.8558176],[77.213787,28.8559452],[77.2135535,28.8559959],[77.2131565,28.856082],[77.2126895,28.8561834],[77.2115432,28.8565426],[77.2109648,28.8569523],[77.2101655,28.8576463],[77.2099144,28.8577158],[77.2094132,28.8577015],[77.2085886,28.857724],[77.207672,28.8577571],[77.2063623,28.8578597],[77.2058819,28.8579172],[77.2054789,28.858005],[77.2049744,28.8581396],[77.2045007,28.8582737],[77.2030312,28.858645],[77.2022796,28.8586573],[77.2015732,28.8586914],[77.2009949,28.8587325],[77.1998856,28.8588588],[77.1990234,28.8590398],[77.1982476,28.8591878],[77.1977052,28.8592282],[77.1977044,28.8592282],[77.1971361,28.859215],[77.1955294,28.8590833],[77.1951593,28.8590306],[77.194794,28.8589599],[77.1938865,28.858695],[77.1933248,28.8585462],[77.1927077,28.8584435],[77.1925586,28.8584188],[77.1925574,28.8584189],[77.1921542,28.8584389],[77.1920539,28.8584348],[77.1912874,28.8584034],[77.1904244,28.8583047],[77.1891448,28.8581315],[77.1878454,28.8579947],[77.186187,28.8578411],[77.1861209,28.8578647],[77.1846826,28.8579467],[77.1843736,28.857875],[77.183417,28.8577101],[77.1820353,28.857552],[77.1814245,28.8575078],[77.180729,28.8575731],[77.1797636,28.8577241],[77.1793397,28.8577941],[77.1790851,28.8578704],[77.1787762,28.8580468],[77.1785026,28.8582001],[77.1782935,28.8582486],[77.1782923,28.8582486],[77.178109,28.8582471],[77.1778209,28.8581931],[77.1775875,28.858057],[77.1769763,28.8577466],[77.1767338,28.8576648],[77.1764102,28.8576294],[77.176166,28.8577146],[77.1759589,28.8578578],[77.175607,28.8581883],[77.1754049,28.8583223],[77.175404,28.858322],[77.1750792,28.8581877],[77.174004,28.8577404],[77.1736054,28.8575484],[77.1730608,28.8572323],[77.1730171,28.8571022],[77.1729222,28.8567293],[77.1725513,28.8536766],[77.1723653,28.8521277],[77.172255,28.8507625],[77.1721041,28.8499123],[77.1721026,28.8499126],[77.1718641,28.8499568],[77.1711036,28.8500999],[77.1708998,28.8501528],[77.1706404,28.8502472],[77.17032,28.8503651],[77.170162,28.8504037],[77.1696396,28.8504167],[77.1694546,28.8503926],[77.1692328,28.8503195],[77.1686527,28.850022],[77.1681684,28.8496509],[77.1674762,28.8491342],[77.1673047,28.8490196],[77.1671965,28.8489898],[77.1671954,28.8489899],[77.1669614,28.8490161],[77.1664772,28.8491412],[77.1661709,28.8491957],[77.1660472,28.8491616],[77.165948,28.849073],[77.1658219,28.8489262],[77.1642253,28.847048],[77.1638993,28.8466427],[77.162195,28.8445091],[77.1618157,28.8440099],[77.1614784,28.8435552],[77.1599521,28.8416036],[77.1596891,28.8412695],[77.1593221,28.8408694],[77.1588674,28.8404345],[77.1585754,28.8401911],[77.1579361,28.8397502],[77.1577286,28.8396227],[77.157308,28.8393542],[77.1569284,28.8390851],[77.1567827,28.8389746],[77.1567186,28.8388493],[77.1566581,28.8386473],[77.1566353,28.8382867],[77.1567235,28.8378432],[77.1568575,28.8376336],[77.1570216,28.8373918],[77.15775,28.8366899],[77.1570995,28.8367003],[77.1564899,28.8369537],[77.1549849,28.837262],[77.1538056,28.8374703],[77.1510846,28.8376987],[77.1493752,28.8377891],[77.1483977,28.8378408],[77.147461,28.8378873],[77.1472816,28.8378856],[77.1471023,28.837884],[77.1464108,28.837895],[77.1459706,28.8379155],[77.1455465,28.8379719],[77.1438314,28.8382834],[77.1438308,28.8382836],[77.1437142,28.8383168],[77.1424138,28.8388608],[77.142496,28.8396219],[77.142566,28.8400404],[77.1425756,28.8402568],[77.142437,28.841247],[77.1423241,28.8419886],[77.142227,28.8425],[77.1419198,28.8432583],[77.1418164,28.8439637],[77.1418222,28.8444959],[77.1418561,28.8451541],[77.1419597,28.8467088],[77.141989,28.8468843],[77.142018,28.8470508],[77.1420851,28.8473249],[77.1421952,28.8476976],[77.1422497,28.8478546],[77.142614,28.8486293],[77.1427901,28.8489694],[77.1430563,28.8494569],[77.1430581,28.8494587],[77.1436997,28.8501008],[77.1441667,28.8506302],[77.1445663,28.8511292],[77.1446669,28.8512855],[77.1451923,28.8521658],[77.145299,28.8523717],[77.1453421,28.8527229],[77.1453197,28.8533819],[77.1453096,28.8536392],[77.1452412,28.8537982],[77.1451669,28.8539257],[77.1450618,28.8540492],[77.1446535,28.854376],[77.1444109,28.8545422],[77.1442735,28.8545895],[77.1439674,28.8546531],[77.1436556,28.8546941],[77.1434509,28.8547064],[77.1432989,28.85479],[77.1430824,28.8549784],[77.1424299,28.8556429],[77.1421698,28.8559538],[77.1419912,28.8562409],[77.1419488,28.856422],[77.1419249,28.8567563],[77.1419598,28.8569587],[77.1420563,28.8574173],[77.1421549,28.8577271],[77.1423477,28.8581345],[77.1424755,28.8583671],[77.1424999,28.8585607],[77.1425538,28.859435],[77.1425491,28.8597058],[77.1424681,28.8597174],[77.1418439,28.8598072],[77.1412674,28.8599292],[77.1409934,28.8600644],[77.140903,28.860156],[77.1408645,28.8602784],[77.1407536,28.8608667],[77.1406937,28.8611925],[77.1404765,28.8618501],[77.1403168,28.8620601],[77.1400781,28.8621632],[77.1399604,28.8621741],[77.1395792,28.8620763],[77.1386822,28.862068],[77.137517,28.8622264],[77.136612,28.8623309],[77.1343007,28.8625796],[77.133365,28.8626846],[77.1330894,28.8627386],[77.1328567,28.8628867],[77.1326103,28.8631207],[77.1321457,28.8632047],[77.1308522,28.8620973],[77.1306892,28.8618969],[77.1303709,28.8616177],[77.1301006,28.8614325],[77.1298112,28.8613107],[77.1281184,28.8607284],[77.1269837,28.8603719],[77.1264021,28.8602502],[77.1259798,28.8601486],[77.1255547,28.8599072],[77.125482,28.8598632],[77.1253665,28.8597252],[77.1251191,28.8594043],[77.125019,28.8592705],[77.1247097,28.8586754],[77.1246983,28.8586214],[77.1247946,28.858065],[77.1248986,28.8576348],[77.1242988,28.8576217],[77.123366,28.8576183],[77.1225398,28.8580644],[77.1219363,28.8581236],[77.1212469,28.8582427],[77.1209305,28.8583108],[77.120865,28.8583615],[77.1208466,28.8584655],[77.1209292,28.8587485],[77.1208857,28.8596379],[77.1208642,28.8598367],[77.1208354,28.8599364],[77.1207193,28.860024],[77.1206429,28.8600432],[77.1203764,28.8600429],[77.1199546,28.860221],[77.1193578,28.860862],[77.1183244,28.8617083],[77.1164427,28.8631815],[77.1163637,28.8633271],[77.1160299,28.8640542],[77.1159321,28.8642858],[77.1157829,28.8647619],[77.115739,28.8648708],[77.1156945,28.8649527],[77.115583,28.8650131],[77.1154249,28.8650517],[77.115011,28.8651123],[77.1146895,28.8651805],[77.1145371,28.8652461],[77.11434,28.8653845],[77.1142395,28.8654854],[77.1141215,28.8657308],[77.1137995,28.8660246],[77.1126551,28.8664576],[77.1122697,28.8669148],[77.1118177,28.8676257],[77.1111807,28.8683124],[77.1108264,28.8687871],[77.1105524,28.8691749],[77.1103242,28.8695484],[77.1102204,28.8697395],[77.11008,28.8698905],[77.1098273,28.8700704],[77.1096168,28.8700512],[77.1087775,28.8698568],[77.1066965,28.8698487],[77.1059256,28.8700006],[77.1050329,28.8702086],[77.1045495,28.8703831],[77.1043309,28.8704722],[77.1039983,28.8704954],[77.1032099,28.8705393],[77.1024366,28.8705694],[77.1011712,28.8705982]]]}}]}
