{"type":"FeatureCollection","features":[{"type":"Feature","id":"in-delhi-d-77","properties":{"id":"in-delhi-d-77","name":"Central","region":"in-delhi","level":"district","parent":"","source":"LGD via Bharatlas · 2024 snapshot","state_lgd":7,"district_lgd":77,"center":[77.22416214329975,28.68158336315258],"bbox":[77.1679007,28.5711667,77.3031962,28.788141]},"geometry":{"type":"Point","coordinates":[77.22416214329975,28.68158336315258]}},{"type":"Feature","id":"in-delhi-d-78","properties":{"id":"in-delhi-d-78","name":"East","region":"in-delhi","level":"district","parent":"","source":"LGD via Bharatlas · 2024 snapshot","state_lgd":7,"district_lgd":78,"center":[77.30458820104822,28.622091325408885],"bbox":[77.2696007,28.583839,77.3425627,28.6579209]},"geometry":{"type":"Point","coordinates":[77.30458820104822,28.622091325408885]}},{"type":"Feature","id":"in-delhi-d-79","properties":{"id":"in-delhi-d-79","name":"New Delhi","region":"in-delhi","level":"district","parent":"","source":"LGD via Bharatlas · 2024 snapshot","state_lgd":7,"district_lgd":79,"center":[77.1485864652509,28.57715163517801],"bbox":[77.0507026,28.4839322,77.256066,28.645605]},"geometry":{"type":"Point","coordinates":[77.1485864652509,28.57715163517801]}},{"type":"Feature","id":"in-delhi-d-80","properties":{"id":"in-delhi-d-80","name":"North","region":"in-delhi","level":"district","parent":"","source":"LGD via Bharatlas · 2024 snapshot","state_lgd":7,"district_lgd":80,"center":[77.1077410178284,28.79350210727545],"bbox":[76.9617966,28.6844008,77.2243934,28.8834996]},"geometry":{"type":"Point","coordinates":[77.1077410178284,28.79350210727545]}},{"type":"Feature","id":"in-delhi-d-81","properties":{"id":"in-delhi-d-81","name":"North East","region":"in-delhi","level":"district","parent":"","source":"LGD via Bharatlas · 2024 snapshot","state_lgd":7,"district_lgd":81,"center":[77.2565515548315,28.722606555905465],"bbox":[77.2160271,28.6701777,77.2982734,28.786533]},"geometry":{"type":"Point","coordinates":[77.2565515548315,28.722606555905465]}},{"type":"Feature","id":"in-delhi-d-82","properties":{"id":"in-delhi-d-82","name":"North West","region":"in-delhi","level":"district","parent":"","source":"LGD via Bharatlas · 2024 snapshot","state_lgd":7,"district_lgd":82,"center":[77.04312161277795,28.72525150489666],"bbox":[76.9418907,28.6561224,77.1858312,28.8181831]},"geometry":{"type":"Point","coordinates":[77.04312161277795,28.72525150489666]}},{"type":"Feature","id":"in-delhi-d-671","properties":{"id":"in-delhi-d-671","name":"Shahdara","region":"in-delhi","level":"district","parent":"","source":"LGD via Bharatlas · 2024 snapshot","state_lgd":7,"district_lgd":671,"center":[77.29871911367758,28.677163263889103],"bbox":[77.2499394,28.6400105,77.3329222,28.7139837]},"geometry":{"type":"Point","coordinates":[77.29871911367758,28.677163263889103]}},{"type":"Feature","id":"in-delhi-d-83","properties":{"id":"in-delhi-d-83","name":"South","region":"in-delhi","level":"district","parent":"","source":"LGD via Bharatlas · 2024 snapshot","state_lgd":7,"district_lgd":83,"center":[77.19053127863674,28.481173682188242],"bbox":[77.1107776,28.4046676,77.2526387,28.5692426]},"geometry":{"type":"Point","coordinates":[77.19053127863674,28.481173682188242]}},{"type":"Feature","id":"in-delhi-d-670","properties":{"id":"in-delhi-d-670","name":"South East","region":"in-delhi","level":"district","parent":"","source":"LGD via Bharatlas · 2024 snapshot","state_lgd":7,"district_lgd":670,"center":[77.27274331546657,28.542314253646357],"bbox":[77.2001596,28.4806522,77.3475705,28.6086682]},"geometry":{"type":"Point","coordinates":[77.27274331546657,28.542314253646357]}},{"type":"Feature","id":"in-delhi-d-84","properties":{"id":"in-delhi-d-84","name":"South West","region":"in-delhi","level":"district","parent":"","source":"LGD via Bharatlas · 2024 snapshot","state_lgd":7,"district_lgd":84,"center":[76.96773315673097,28.57624178394918],"bbox":[76.8389109,28.5007765,77.1061509,28.6701889]},"geometry":{"type":"Point","coordinates":[76.96773315673097,28.57624178394918]}},{"type":"Feature","id":"in-delhi-d-85","properties":{"id":"in-delhi-d-85","name":"West","region":"in-delhi","level":"district","parent":"","source":"LGD via Bharatlas · 2024 snapshot","state_lgd":7,"district_lgd":85,"center":[77.06396990973114,28.655426415751332],"bbox":[76.9537999,28.5962173,77.1811925,28.7020509]},"geometry":{"type":"Point","coordinates":[77.06396990973114,28.655426415751332]}}]}
