{"type":"FeatureCollection","features":[{"type":"Feature","id":"in-dnh-dd-t-3949","properties":{"id":"in-dnh-dd-t-3949","name":"Dadra & Nagar Haveli","region":"in-dnh-dd","level":"tehsil","parent":"in-dnh-dd-d-465","district":"Dadra And Nagar Haveli","source":"LGD via Bharatlas · 2024 snapshot","state_lgd":38,"district_lgd":465,"subdistrict_lgd":3949,"center":[73.0215305402925,20.26703496],"bbox":[72.9114571,20.0470181,73.2181921,20.3613279]},"geometry":{"type":"Point","coordinates":[73.0215305402925,20.26703496]}},{"type":"Feature","id":"in-dnh-dd-t-3948","properties":{"id":"in-dnh-dd-t-3948","name":"Daman","region":"in-dnh-dd","level":"tehsil","parent":"in-dnh-dd-d-463","district":"Daman","source":"LGD via Bharatlas · 2024 snapshot","state_lgd":38,"district_lgd":463,"subdistrict_lgd":3948,"center":[72.85271268291493,20.414234944491337],"bbox":[72.8046029,20.366417,72.9041172,20.47803]},"geometry":{"type":"Point","coordinates":[72.85271268291493,20.414234944491337]}},{"type":"Feature","id":"in-dnh-dd-t-3947","properties":{"id":"in-dnh-dd-t-3947","name":"Diu","region":"in-dnh-dd","level":"tehsil","parent":"in-dnh-dd-d-464","district":"Diu","source":"LGD via Bharatlas · 2024 snapshot","state_lgd":38,"district_lgd":464,"subdistrict_lgd":3947,"center":[70.93410311093781,20.720649090418533],"bbox":[70.870788,20.6995065,71.1554387,20.7714368]},"geometry":{"type":"Point","coordinates":[70.93410311093781,20.720649090418533]}}]}
