{"type":"FeatureCollection","features":[{"type":"Feature","id":"in-dnh-dd-d-465","properties":{"id":"in-dnh-dd-d-465","name":"Dadra And Nagar Haveli","region":"in-dnh-dd","level":"district","parent":"","source":"LGD via Bharatlas · 2024 snapshot","state_lgd":38,"district_lgd":465,"center":[73.02147212226195,20.26703496],"bbox":[72.9115528,20.0470181,73.2181921,20.3613279]},"geometry":{"type":"Point","coordinates":[73.02147212226195,20.26703496]}},{"type":"Feature","id":"in-dnh-dd-d-463","properties":{"id":"in-dnh-dd-d-463","name":"Daman","region":"in-dnh-dd","level":"district","parent":"","source":"LGD via Bharatlas · 2024 snapshot","state_lgd":38,"district_lgd":463,"center":[72.85271242606463,20.414232975157166],"bbox":[72.8046039,20.366417,72.9041172,20.47803]},"geometry":{"type":"Point","coordinates":[72.85271242606463,20.414232975157166]}},{"type":"Feature","id":"in-dnh-dd-d-464","properties":{"id":"in-dnh-dd-d-464","name":"Diu","region":"in-dnh-dd","level":"district","parent":"","source":"LGD via Bharatlas · 2024 snapshot","state_lgd":38,"district_lgd":464,"center":[70.93410390978592,20.720646416017836],"bbox":[70.870788,20.6995065,71.1554387,20.771432]},"geometry":{"type":"Point","coordinates":[70.93410390978592,20.720646416017836]}}]}
