{"type":"FeatureCollection","features":[{"type":"Feature","id":"in-gujarat-d-438","properties":{"id":"in-gujarat-d-438","name":"Ahmadabad","region":"in-gujarat","level":"district","parent":"","source":"LGD via Bharatlas · 2024 snapshot","state_lgd":24,"district_lgd":438,"center":[72.24363677749669,22.75691615877086],"bbox":[71.8399849,21.970603,72.8426219,23.508784]},"geometry":{"type":"Point","coordinates":[72.24363677749669,22.75691615877086]}},{"type":"Feature","id":"in-gujarat-d-439","properties":{"id":"in-gujarat-d-439","name":"Amreli","region":"in-gujarat","level":"district","parent":"","source":"LGD via Bharatlas · 2024 snapshot","state_lgd":24,"district_lgd":439,"center":[71.24396579144958,21.424297633707518],"bbox":[70.7358037,20.7947741,71.6773697,22.0412692]},"geometry":{"type":"Point","coordinates":[71.24396579144958,21.424297633707518]}},{"type":"Feature","id":"in-gujarat-d-440","properties":{"id":"in-gujarat-d-440","name":"Anand","region":"in-gujarat","level":"district","parent":"","source":"LGD via Bharatlas · 2024 snapshot","state_lgd":24,"district_lgd":440,"center":[72.75085916994061,22.426812247546177],"bbox":[72.3340894,22.1052843,73.2197962,22.7350347]},"geometry":{"type":"Point","coordinates":[72.75085916994061,22.426812247546177]}},{"type":"Feature","id":"in-gujarat-d-672","properties":{"id":"in-gujarat-d-672","name":"Arvalli","region":"in-gujarat","level":"district","parent":"","source":"LGD via Bharatlas · 2024 snapshot","state_lgd":24,"district_lgd":672,"center":[73.3330874934352,23.460720734136977],"bbox":[72.9711881,23.0584347,73.6563648,23.9103468]},"geometry":{"type":"Point","coordinates":[73.3330874934352,23.460720734136977]}},{"type":"Feature","id":"in-gujarat-d-441","properties":{"id":"in-gujarat-d-441","name":"Banas Kantha","region":"in-gujarat","level":"district","parent":"","source":"LGD via Bharatlas · 2024 snapshot","state_lgd":24,"district_lgd":441,"center":[72.02622398772144,24.287442825679246],"bbox":[71.128825,23.8268316,73.0280819,24.7125363]},"geometry":{"type":"Point","coordinates":[72.02622398772144,24.287442825679246]}},{"type":"Feature","id":"in-gujarat-d-442","properties":{"id":"in-gujarat-d-442","name":"Bharuch","region":"in-gujarat","level":"district","parent":"","source":"LGD via Bharatlas · 2024 snapshot","state_lgd":24,"district_lgd":442,"center":[72.9495565012828,21.78779976777713],"bbox":[72.5258942,21.4001097,73.4998944,22.2406219]},"geometry":{"type":"Point","coordinates":[72.9495565012828,21.78779976777713]}},{"type":"Feature","id":"in-gujarat-d-443","properties":{"id":"in-gujarat-d-443","name":"Bhavnagar","region":"in-gujarat","level":"district","parent":"","source":"LGD via Bharatlas · 2024 snapshot","state_lgd":24,"district_lgd":443,"center":[71.89033379963335,21.567564136443927],"bbox":[71.4779306,20.9958493,72.3611936,22.1303196]},"geometry":{"type":"Point","coordinates":[71.89033379963335,21.567564136443927]}},{"type":"Feature","id":"in-gujarat-d-676","properties":{"id":"in-gujarat-d-676","name":"Botad","region":"in-gujarat","level":"district","parent":"","source":"LGD via Bharatlas · 2024 snapshot","state_lgd":24,"district_lgd":676,"center":[71.67500675046657,22.112282798623323],"bbox":[71.3907061,21.6909534,72.0413664,22.4025048]},"geometry":{"type":"Point","coordinates":[71.67500675046657,22.112282798623323]}},{"type":"Feature","id":"in-gujarat-d-668","properties":{"id":"in-gujarat-d-668","name":"Chhotaudepur","region":"in-gujarat","level":"district","parent":"","source":"LGD via Bharatlas · 2024 snapshot","state_lgd":24,"district_lgd":668,"center":[73.87364888489961,22.219566060461947],"bbox":[73.4760895,21.8709085,74.2911784,22.5740587]},"geometry":{"type":"Point","coordinates":[73.87364888489961,22.219566060461947]}},{"type":"Feature","id":"in-gujarat-d-444","properties":{"id":"in-gujarat-d-444","name":"Dang","region":"in-gujarat","level":"district","parent":"","source":"LGD via Bharatlas · 2024 snapshot","state_lgd":24,"district_lgd":444,"center":[73.69837192685151,20.7985050232527],"bbox":[73.4652784,20.5624727,73.9440434,21.0848931]},"geometry":{"type":"Point","coordinates":[73.69837192685151,20.7985050232527]}},{"type":"Feature","id":"in-gujarat-d-674","properties":{"id":"in-gujarat-d-674","name":"Devbhumi Dwarka","region":"in-gujarat","level":"district","parent":"","source":"LGD via Bharatlas · 2024 snapshot","state_lgd":24,"district_lgd":674,"center":[69.46026788829923,22.12123622547924],"bbox":[68.9357578,21.7937901,69.9360187,22.4847367]},"geometry":{"type":"Point","coordinates":[69.46026788829923,22.12123622547924]}},{"type":"Feature","id":"in-gujarat-d-445","properties":{"id":"in-gujarat-d-445","name":"Dohad","region":"in-gujarat","level":"district","parent":"","source":"LGD via Bharatlas · 2024 snapshot","state_lgd":24,"district_lgd":445,"center":[74.11266938190828,22.860326765446093],"bbox":[73.7753306,22.5027768,74.4764325,23.3359176]},"geometry":{"type":"Point","coordinates":[74.11266938190828,22.860326765446093]}},{"type":"Feature","id":"in-gujarat-d-446","properties":{"id":"in-gujarat-d-446","name":"Gandhinagar","region":"in-gujarat","level":"district","parent":"","source":"LGD via Bharatlas · 2024 snapshot","state_lgd":24,"district_lgd":446,"center":[72.69182606471247,23.255060061951433],"bbox":[72.3362133,22.9963339,73.0294494,23.5675802]},"geometry":{"type":"Point","coordinates":[72.69182606471247,23.255060061951433]}},{"type":"Feature","id":"in-gujarat-d-675","properties":{"id":"in-gujarat-d-675","name":"Gir Somnath","region":"in-gujarat","level":"district","parent":"","source":"LGD via Bharatlas · 2024 snapshot","state_lgd":24,"district_lgd":675,"center":[70.75489596091288,20.90430519724072],"bbox":[70.2379949,20.6900095,71.2237617,21.1695505]},"geometry":{"type":"Point","coordinates":[70.75489596091288,20.90430519724072]}},{"type":"Feature","id":"in-gujarat-d-447","properties":{"id":"in-gujarat-d-447","name":"Jamnagar","region":"in-gujarat","level":"district","parent":"","source":"LGD via Bharatlas · 2024 snapshot","state_lgd":24,"district_lgd":447,"center":[70.19571283768416,22.285004267799174],"bbox":[69.7253528,21.6980043,70.6163679,22.8604817]},"geometry":{"type":"Point","coordinates":[70.19571283768416,22.285004267799174]}},{"type":"Feature","id":"in-gujarat-d-448","properties":{"id":"in-gujarat-d-448","name":"Junagadh","region":"in-gujarat","level":"district","parent":"","source":"LGD via Bharatlas · 2024 snapshot","state_lgd":24,"district_lgd":448,"center":[70.48514002512744,21.32227847932552],"bbox":[69.9417013,20.9329332,71.1485079,21.6805186]},"geometry":{"type":"Point","coordinates":[70.48514002512744,21.32227847932552]}},{"type":"Feature","id":"in-gujarat-d-449","properties":{"id":"in-gujarat-d-449","name":"Kachchh","region":"in-gujarat","level":"district","parent":"","source":"LGD via Bharatlas · 2024 snapshot","state_lgd":24,"district_lgd":449,"center":[69.9409656975599,23.65018218733226],"bbox":[68.1775119,22.7736794,71.7627195,24.6887247]},"geometry":{"type":"Point","coordinates":[69.9409656975599,23.65018218733226]}},{"type":"Feature","id":"in-gujarat-d-450","properties":{"id":"in-gujarat-d-450","name":"Kheda","region":"in-gujarat","level":"district","parent":"","source":"LGD via Bharatlas · 2024 snapshot","state_lgd":24,"district_lgd":450,"center":[72.95052173470201,22.837492823872925],"bbox":[72.5047801,22.50007,73.4193504,23.2057245]},"geometry":{"type":"Point","coordinates":[72.95052173470201,22.837492823872925]}},{"type":"Feature","id":"in-gujarat-d-451","properties":{"id":"in-gujarat-d-451","name":"Mahesana","region":"in-gujarat","level":"district","parent":"","source":"LGD via Bharatlas · 2024 snapshot","state_lgd":24,"district_lgd":451,"center":[72.46673274543393,23.609491647664164],"bbox":[71.9403856,23.038803,72.8666533,24.1022534]},"geometry":{"type":"Point","coordinates":[72.46673274543393,23.609491647664164]}},{"type":"Feature","id":"in-gujarat-d-669","properties":{"id":"in-gujarat-d-669","name":"Mahisagar","region":"in-gujarat","level":"district","parent":"","source":"LGD via Bharatlas · 2024 snapshot","state_lgd":24,"district_lgd":669,"center":[73.64712140432341,23.18759782577625],"bbox":[73.2421529,22.9241347,74.0193643,23.45843]},"geometry":{"type":"Point","coordinates":[73.64712140432341,23.18759782577625]}},{"type":"Feature","id":"in-gujarat-d-673","properties":{"id":"in-gujarat-d-673","name":"Morbi","region":"in-gujarat","level":"district","parent":"","source":"LGD via Bharatlas · 2024 snapshot","state_lgd":24,"district_lgd":673,"center":[70.90350480868476,22.834966812033638],"bbox":[70.4326601,22.3972486,71.3596076,23.2222864]},"geometry":{"type":"Point","coordinates":[70.90350480868476,22.834966812033638]}},{"type":"Feature","id":"in-gujarat-d-452","properties":{"id":"in-gujarat-d-452","name":"Narmada","region":"in-gujarat","level":"district","parent":"","source":"LGD via Bharatlas · 2024 snapshot","state_lgd":24,"district_lgd":452,"center":[73.6449599246645,21.736944871217965],"bbox":[73.2967378,21.3963526,73.9892111,22.0820919]},"geometry":{"type":"Point","coordinates":[73.6449599246645,21.736944871217965]}},{"type":"Feature","id":"in-gujarat-d-453","properties":{"id":"in-gujarat-d-453","name":"Navsari","region":"in-gujarat","level":"district","parent":"","source":"LGD via Bharatlas · 2024 snapshot","state_lgd":24,"district_lgd":453,"center":[73.09255667190008,20.815303538239405],"bbox":[72.7221097,20.5797846,73.4961784,21.0794297]},"geometry":{"type":"Point","coordinates":[73.09255667190008,20.815303538239405]}},{"type":"Feature","id":"in-gujarat-d-454","properties":{"id":"in-gujarat-d-454","name":"Panch Mahals","region":"in-gujarat","level":"district","parent":"","source":"LGD via Bharatlas · 2024 snapshot","state_lgd":24,"district_lgd":454,"center":[73.62572562146899,22.72002551690398],"bbox":[73.3502208,22.2865249,73.9282392,23.1090587]},"geometry":{"type":"Point","coordinates":[73.62572562146899,22.72002551690398]}},{"type":"Feature","id":"in-gujarat-d-455","properties":{"id":"in-gujarat-d-455","name":"Patan","region":"in-gujarat","level":"district","parent":"","source":"LGD via Bharatlas · 2024 snapshot","state_lgd":24,"district_lgd":455,"center":[71.75866092960942,23.77037709336602],"bbox":[71.0343936,23.3920261,72.4824875,24.1553103]},"geometry":{"type":"Point","coordinates":[71.75866092960942,23.77037709336602]}},{"type":"Feature","id":"in-gujarat-d-456","properties":{"id":"in-gujarat-d-456","name":"Porbandar","region":"in-gujarat","level":"district","parent":"","source":"LGD via Bharatlas · 2024 snapshot","state_lgd":24,"district_lgd":456,"center":[69.77711781597905,21.654829746784404],"bbox":[69.3713611,21.2278549,70.1484022,21.9793961]},"geometry":{"type":"Point","coordinates":[69.77711781597905,21.654829746784404]}},{"type":"Feature","id":"in-gujarat-d-457","properties":{"id":"in-gujarat-d-457","name":"Rajkot","region":"in-gujarat","level":"district","parent":"","source":"LGD via Bharatlas · 2024 snapshot","state_lgd":24,"district_lgd":457,"center":[70.74526772017968,22.024359459017713],"bbox":[70.0296588,21.5258358,71.5091846,22.6133217]},"geometry":{"type":"Point","coordinates":[70.74526772017968,22.024359459017713]}},{"type":"Feature","id":"in-gujarat-d-458","properties":{"id":"in-gujarat-d-458","name":"Sabar Kantha","region":"in-gujarat","level":"district","parent":"","source":"LGD via Bharatlas · 2024 snapshot","state_lgd":24,"district_lgd":458,"center":[73.03624813442796,23.804315650216623],"bbox":[72.7234383,23.23906,73.4208262,24.4980216]},"geometry":{"type":"Point","coordinates":[73.03624813442796,23.804315650216623]}},{"type":"Feature","id":"in-gujarat-d-459","properties":{"id":"in-gujarat-d-459","name":"Surat","region":"in-gujarat","level":"district","parent":"","source":"LGD via Bharatlas · 2024 snapshot","state_lgd":24,"district_lgd":459,"center":[73.07111398106078,21.26892274682053],"bbox":[72.5975029,20.8155902,73.6991286,21.5692623]},"geometry":{"type":"Point","coordinates":[73.07111398106078,21.26892274682053]}},{"type":"Feature","id":"in-gujarat-d-460","properties":{"id":"in-gujarat-d-460","name":"Surendranagar","region":"in-gujarat","level":"district","parent":"","source":"LGD via Bharatlas · 2024 snapshot","state_lgd":24,"district_lgd":460,"center":[71.5930755597138,22.76583194403457],"bbox":[70.9808143,22.1236496,72.1894081,23.526721]},"geometry":{"type":"Point","coordinates":[71.5930755597138,22.76583194403457]}},{"type":"Feature","id":"in-gujarat-d-641","properties":{"id":"in-gujarat-d-641","name":"Tapi","region":"in-gujarat","level":"district","parent":"","source":"LGD via Bharatlas · 2024 snapshot","state_lgd":24,"district_lgd":641,"center":[73.62669475888383,21.191623335484095],"bbox":[73.1980081,20.8085885,74.3323317,21.5690738]},"geometry":{"type":"Point","coordinates":[73.62669475888383,21.191623335484095]}},{"type":"Feature","id":"in-gujarat-d-461","properties":{"id":"in-gujarat-d-461","name":"Vadodara","region":"in-gujarat","level":"district","parent":"","source":"LGD via Bharatlas · 2024 snapshot","state_lgd":24,"district_lgd":461,"center":[73.23908955464246,22.248056827139862],"bbox":[72.8486361,21.8221519,73.5662088,22.8145536]},"geometry":{"type":"Point","coordinates":[73.23908955464246,22.248056827139862]}},{"type":"Feature","id":"in-gujarat-d-462","properties":{"id":"in-gujarat-d-462","name":"Valsad","region":"in-gujarat","level":"district","parent":"","source":"LGD via Bharatlas · 2024 snapshot","state_lgd":24,"district_lgd":462,"center":[73.12007731697545,20.418384421782477],"bbox":[72.7400024,20.1192288,73.4936242,20.7517]},"geometry":{"type":"Point","coordinates":[73.12007731697545,20.418384421782477]}}]}
