{"type":"FeatureCollection","features":[{"type":"Feature","id":"in-goa","properties":{"id":"in-goa","name":"Goa","region":"in-goa","level":"region","parent":"","source":"LGD via Bharatlas · 2024 snapshot","state_lgd":30,"center":[74.0496095218286,15.365163487411321],"bbox":[73.6769659,14.8984404,74.3364371,15.8010166]},"geometry":{"type":"MultiPolygon","coordinates":[[[[74.0855503,14.8984404],[74.0865367,14.8996122],[74.0860752,14.8998289],[74.0853568,14.8998442],[74.0851108,14.8995593],[74.0850642,14.8991435],[74.0851852,14.8987819],[74.0852783,14.8986328],[74.0855503,14.8984404]]],[[[73.6894251,15.7295609],[73.6879359,15.7298323],[73.6875542,15.7298849],[73.6867809,15.7298953],[73.6860332,15.7298621],[73.685209,15.7298053],[73.6838091,15.7296191],[73.6835413,15.7295993],[73.6821793,15.7295214],[73.6814971,15.7294581],[73.6809292,15.7293524],[73.6794215,15.7290805],[73.6787312,15.7289826],[73.6782832,15.7282616],[73.6783732,15.7280214],[73.6783592,15.7275837],[73.6783379,15.7272725],[73.6781745,15.7270916],[73.677737,15.7266325],[73.6773993,15.7264015],[73.6771709,15.7265115],[73.6769659,15.7262486],[73.6769938,15.7259403],[73.6777668,15.7257589],[73.6792879,15.7257772],[73.6806379,15.7251733],[73.6810753,15.7246425],[73.6809802,15.7242764],[73.680647,15.7238787],[73.6800295,15.7227207],[73.6798013,15.7221533],[73.6799344,15.7211466],[73.6800178,15.7211513],[73.6802577,15.7211649],[73.6808091,15.7218421],[73.6827866,15.722318],[73.683319,15.7220618],[73.683376,15.7211649],[73.6833167,15.7209001],[73.6828626,15.7207623],[73.6830338,15.7203779],[73.6832239,15.7203413],[73.6837373,15.7206341],[73.6843648,15.7209087],[73.6845169,15.7208355],[73.6844598,15.7204694],[73.6847451,15.7202498],[73.6851634,15.7204145],[73.6862092,15.7208721],[73.6870268,15.7212381],[73.687274,15.7220252],[73.687369,15.7227939],[73.6878634,15.7235809],[73.688662,15.7235077],[73.6888902,15.7226841],[73.6895177,15.7225743],[73.6910198,15.7225743],[73.6917233,15.7217689],[73.6928262,15.7214578],[73.6932825,15.7218421],[73.6948987,15.7217872],[73.6957544,15.7216957],[73.6960197,15.7218065],[73.6963842,15.722241],[73.6966694,15.7227901],[73.6966694,15.723211],[73.6964413,15.7233758],[73.6959849,15.7235954],[73.6958014,15.724138],[73.6954923,15.7240204],[73.6952121,15.7239623],[73.694525,15.7240163],[73.6936237,15.7241545],[73.6933969,15.7250052],[73.69321,15.725899],[73.6931023,15.7263952],[73.6927672,15.7275504],[73.6925315,15.7282214],[73.6922133,15.7281534],[73.6920055,15.7283064],[73.690901,15.7291381],[73.6894251,15.7295609]]],[[[73.8676761,15.7843784],[73.8676277,15.7843849],[73.8675797,15.7843947],[73.8675326,15.7844077],[73.8674865,15.784424],[73.8674417,15.7844433],[73.8673984,15.7844656],[73.8667616,15.7848063],[73.8661681,15.7852196],[73.8660663,15.7853418],[73.8659594,15.7855632],[73.8658146,15.7864881],[73.8657856,15.7870184],[73.8655928,15.7879444],[73.8654024,15.7886779],[73.8651073,15.7897601],[73.8650448,15.7899218],[73.8649072,15.7899709],[73.8648089,15.7908243],[73.8651537,15.7917635],[73.8657246,15.7934127],[73.8658185,15.7940267],[73.8662369,15.7955539],[73.8667595,15.7961085],[73.8669287,15.7962881],[73.8675035,15.7970295],[73.8671178,15.7971771],[73.8659592,15.7975719],[73.8646111,15.7982066],[73.8640486,15.7984919],[73.8633959,15.7987898],[73.8623091,15.7988803],[73.8612116,15.7991075],[73.8592452,15.7996418],[73.8592837,15.7997475],[73.8593448,15.7998972],[73.8589191,15.8000762],[73.8587872,15.8001317],[73.857266,15.8006845],[73.8562669,15.8009784],[73.8557081,15.8010166],[73.8538205,15.7986073],[73.8527722,15.7970839],[73.8525983,15.7961948],[73.8521336,15.7943632],[73.8512908,15.7916789],[73.8508018,15.7903126],[73.8504742,15.7896411],[73.8503148,15.7893745],[73.8497973,15.7885986],[73.8494854,15.7881436],[73.8487875,15.7876605],[73.8474318,15.7871],[73.8470654,15.7857989],[73.84743,15.7854584],[73.8478019,15.7851112],[73.8490142,15.7845209],[73.8498607,15.7840829],[73.8508458,15.7834891],[73.8514423,15.7830698],[73.8526364,15.7821413],[73.8526213,15.7811695],[73.8522388,15.780712],[73.850054,15.7796334],[73.8498459,15.7795369],[73.8479043,15.7802185],[73.8465424,15.780691],[73.8447591,15.7810332],[73.8439091,15.7811278],[73.8424402,15.7791884],[73.8419821,15.7784591],[73.8415832,15.7777998],[73.8408044,15.7761235],[73.840412,15.7747192],[73.8401601,15.7738139],[73.8397588,15.7724126],[73.8391988,15.7706205],[73.8388298,15.7689536],[73.8384866,15.7675632],[73.8372733,15.7662616],[73.8368829,15.7662102],[73.8353338,15.7660372],[73.8334833,15.7658372],[73.8325561,15.7656364],[73.8315167,15.7654068],[73.8304943,15.7645556],[73.8298446,15.764296],[73.8297483,15.7643288],[73.8296365,15.7639802],[73.8296268,15.763946],[73.8296183,15.7639115],[73.8296113,15.7638768],[73.8296053,15.7638419],[73.8296008,15.7638068],[73.8295975,15.7637716],[73.8295955,15.7637364],[73.8295949,15.7637011],[73.8295954,15.7636659],[73.8295975,15.7636306],[73.8296006,15.7635956],[73.8296051,15.7635607],[73.8296111,15.7635259],[73.8296746,15.7631806],[73.8297228,15.7629222],[73.8297757,15.7626647],[73.8298333,15.7624082],[73.8299561,15.7619232],[73.8300111,15.7617281],[73.8300696,15.761534],[73.8301318,15.7613409],[73.8301977,15.7611489],[73.8302779,15.760929],[73.8303088,15.7608427],[73.830324,15.760796],[73.8303384,15.7607492],[73.830352,15.7607022],[73.8303645,15.7606549],[73.8303764,15.7606073],[73.8303873,15.7605596],[73.8303973,15.7605117],[73.8304855,15.7600652],[73.8305718,15.7596229],[73.8305943,15.7594937],[73.830604,15.7594284],[73.8306123,15.7593629],[73.8306194,15.7592973],[73.8307118,15.7583123],[73.8307284,15.7581254],[73.8307416,15.7579382],[73.8308817,15.7556474],[73.8308323,15.7541738],[73.8307782,15.7538096],[73.8305582,15.7532912],[73.8303948,15.7529645],[73.8293814,15.7511901],[73.8287831,15.7502792],[73.8281672,15.7493393],[73.8279997,15.7490557],[73.8272437,15.7475919],[73.8272255,15.7475534],[73.8272086,15.7475145],[73.8270934,15.7472222],[73.827028,15.7469675],[73.8267898,15.7460074],[73.8266449,15.7453991],[73.8266376,15.7453647],[73.8266318,15.7453301],[73.826627,15.7452954],[73.8266236,15.7452607],[73.8266214,15.7452257],[73.8266206,15.7451907],[73.8266211,15.7451558],[73.8266234,15.7451141],[73.8266281,15.7450645],[73.8266345,15.7450152],[73.8266428,15.7449661],[73.826653,15.7449173],[73.826665,15.744869],[73.8266787,15.7448211],[73.8266942,15.7447737],[73.8267116,15.7447268],[73.8267234,15.7446975],[73.8267893,15.7445315],[73.8268244,15.7444363],[73.8268578,15.7443403],[73.8268894,15.7442439],[73.826897,15.7442027],[73.8268964,15.7441744],[73.8268613,15.7437372],[73.8266595,15.743417],[73.8266355,15.7433827],[73.8266153,15.7433611],[73.8265795,15.7433307],[73.8263727,15.7431611],[73.8262001,15.7430612],[73.8259371,15.7429305],[73.8257752,15.7428496],[73.8253894,15.7426558],[73.8251965,15.7425416],[73.8244433,15.7420431],[73.8236428,15.741493],[73.8234552,15.7413613],[73.823266,15.7412279],[73.8231884,15.741172],[73.8231119,15.7411149],[73.8230364,15.7410566],[73.8229619,15.7409971],[73.8228885,15.7409364],[73.8228163,15.7408744],[73.8227452,15.7408113],[73.8226754,15.7407471],[73.8225808,15.7406567],[73.8225536,15.7406325],[73.8225326,15.7406166],[73.8224178,15.740536],[73.8223603,15.7405031],[73.8210005,15.7398761],[73.8209549,15.7398552],[73.8209282,15.739845],[73.8209011,15.7398362],[73.8208737,15.7398288],[73.8208458,15.7398227],[73.8203272,15.7397304],[73.8202904,15.7397239],[73.8202535,15.7397179],[73.8202166,15.7397125],[73.8201796,15.7397079],[73.8201425,15.7397037],[73.818484,15.739521],[73.8181606,15.7395002],[73.8167275,15.7398688],[73.8159572,15.7401435],[73.8133367,15.7416989],[73.8125763,15.7424526],[73.8112955,15.7423127],[73.8094283,15.7420308],[73.8066381,15.7376819],[73.7972284,15.7342193],[73.7942984,15.7366366],[73.7931579,15.7372291],[73.7907018,15.7359379],[73.7889312,15.7348444],[73.78855,15.7331675],[73.7886202,15.7307446],[73.7875424,15.7282596],[73.7864597,15.7271333],[73.784974,15.7261252],[73.7839876,15.726078],[73.7809156,15.7277734],[73.7785951,15.7287655],[73.7769103,15.7284366],[73.7753701,15.7288486],[73.7703475,15.7303136],[73.7702184,15.7304023],[73.7697452,15.7307274],[73.7679985,15.7319275],[73.7670696,15.7325657],[73.7655209,15.7336296],[73.7651654,15.7338737],[73.7644399,15.733286],[73.7614789,15.7338817],[73.7611947,15.7339752],[73.7586972,15.7347965],[73.7556527,15.7355889],[73.7527456,15.7350602],[73.7484865,15.7359488],[73.7462627,15.7363073],[73.7457288,15.7363933],[73.7453556,15.7364352],[73.7449874,15.7364608],[73.7428362,15.7365749],[73.7413239,15.7357889],[73.7399652,15.7348471],[73.7394215,15.7344788],[73.7363526,15.7312722],[73.7348467,15.7295152],[73.7345577,15.7285749],[73.7338884,15.7263965],[73.7331446,15.7253302],[73.7329913,15.7238897],[73.7325563,15.7220706],[73.7318513,15.7204957],[73.7310097,15.7197952],[73.7301625,15.7191534],[73.728961,15.7187678],[73.7288145,15.7187865],[73.7277334,15.7181162],[73.7263073,15.7170455],[73.7249383,15.7167709],[73.7235122,15.7172651],[73.723284,15.7178142],[73.7241682,15.7186379],[73.724596,15.7196811],[73.7240541,15.7200106],[73.7230844,15.7202852],[73.7221432,15.7209166],[73.7214301,15.7225364],[73.719947,15.7237719],[73.7166956,15.7244033],[73.7159971,15.7240725],[73.7148987,15.7235522],[73.7133015,15.7234424],[73.7125314,15.7238268],[73.7112471,15.7238383],[73.7104778,15.7240739],[73.7085731,15.7230925],[73.7068727,15.7221301],[73.7039521,15.7209001],[73.7024918,15.7205487],[73.7018986,15.7206366],[73.701214,15.7204609],[73.7007121,15.7196702],[73.7007577,15.718572],[73.6991605,15.7180009],[73.6981565,15.7180888],[73.697472,15.7180888],[73.6965137,15.717957],[73.6959204,15.7179131],[73.6946883,15.7178252],[73.6936843,15.717957],[73.6933649,15.7183963],[73.6929086,15.7192309],[73.6917721,15.7199811],[73.6912445,15.7192194],[73.6908126,15.7193749],[73.6906947,15.7194452],[73.690526,15.7194921],[73.6900962,15.7195257],[73.6897331,15.7194791],[73.6895577,15.7193722],[73.6894829,15.719118],[73.6893877,15.718163],[73.6893733,15.7180056],[73.692224,15.710533],[73.6937756,15.706755],[73.6938406,15.7053091],[73.6938732,15.7039857],[73.6937837,15.7037674],[73.6936445,15.7031913],[73.6936356,15.7029019],[73.6936354,15.7027747],[73.6936352,15.7026625],[73.6938767,15.7016679],[73.694268,15.6998398],[73.6952028,15.6986715],[73.69651,15.6975498],[73.6972927,15.6968037],[73.6977534,15.6960703],[73.6977962,15.6957736],[73.6978172,15.6956285],[73.6977867,15.6949728],[73.6979466,15.6943655],[73.6982432,15.6939456],[73.6984952,15.693141],[73.6985599,15.6929116],[73.69859,15.6927901],[73.6985439,15.6927622],[73.6982595,15.692491],[73.6981109,15.6919192],[73.6980811,15.6917606],[73.6983837,15.6909929],[73.6986167,15.6907437],[73.6988098,15.6906339],[73.6990963,15.6905257],[73.6995298,15.6905419],[73.700009,15.6906039],[73.7004231,15.690665],[73.7005595,15.690604],[73.7008094,15.69045],[73.7010343,15.6901284],[73.7013339,15.6895324],[73.7018596,15.6882849],[73.7026405,15.6863097],[73.7031944,15.684516],[73.7036411,15.6832446],[73.704071,15.6813404],[73.7043288,15.6799394],[73.7046759,15.677695],[73.7047228,15.6768824],[73.7047624,15.6762189],[73.7048549,15.6754659],[73.704945,15.6748529],[73.7054004,15.6738799],[73.7057276,15.6733023],[73.7065531,15.6711788],[73.7069829,15.6703364],[73.7079548,15.668902],[73.7082893,15.6684376],[73.7086172,15.668095],[73.7088451,15.6678683],[73.7092874,15.666841],[73.7094168,15.6663776],[73.7096882,15.6657948],[73.7105092,15.6641862],[73.7108805,15.6637585],[73.7113792,15.6629715],[73.7114015,15.6624974],[73.7114384,15.6619875],[73.7116675,15.6606222],[73.711769,15.6601494],[73.7119267,15.6596641],[73.7122552,15.6590143],[73.7125398,15.6582102],[73.7126523,15.6576428],[73.7128204,15.6568277],[73.712976,15.6561977],[73.7130892,15.6558561],[73.7132289,15.6556009],[73.7133437,15.6554356],[73.7134281,15.6554099],[73.713616,15.655065],[73.713615,15.6548527],[73.7136454,15.6539134],[73.7137045,15.6532004],[73.7139013,15.6523497],[73.7141985,15.6513561],[73.7148755,15.6494379],[73.715128,15.6491348],[73.7151306,15.6487192],[73.7149796,15.6482829],[73.7151103,15.647743],[73.7163974,15.6450712],[73.7167442,15.6444398],[73.717338,15.6430081],[73.7177453,15.6417159],[73.7179466,15.641003],[73.7180275,15.6406429],[73.7180705,15.6403182],[73.7184162,15.639479],[73.7186365,15.6391437],[73.719241,15.6381732],[73.7196164,15.6375016],[73.7204174,15.6359605],[73.7208164,15.6350047],[73.7209268,15.6345546],[73.7205542,15.6345305],[73.720526,15.6340104],[73.7210111,15.6340002],[73.7212444,15.6339905],[73.7214017,15.6337943],[73.721894,15.63284],[73.7221422,15.6322386],[73.7224285,15.6310596],[73.7228479,15.6294714],[73.7228779,15.6293545],[73.7227498,15.6292169],[73.7226346,15.6291381],[73.7223619,15.6289936],[73.7221793,15.6285027],[73.722486,15.6282954],[73.7229285,15.6277876],[73.7229964,15.6276395],[73.7230419,15.6274324],[73.7230255,15.6273012],[73.7229439,15.6271733],[73.7227837,15.626999],[73.7227624,15.6268857],[73.7228208,15.6267466],[73.7229246,15.6266759],[73.7230315,15.6266958],[73.7235255,15.6272416],[73.7236687,15.6275872],[73.7239448,15.6277951],[73.724459,15.6277222],[73.7248151,15.6276241],[73.7255975,15.6271399],[73.7263631,15.626556],[73.7269629,15.6258474],[73.7276303,15.6247333],[73.7284026,15.6229567],[73.7295841,15.6207034],[73.7309311,15.6177796],[73.7315473,15.61666],[73.7326598,15.6148845],[73.7334033,15.6139523],[73.7338885,15.6134],[73.7352697,15.6119903],[73.7354828,15.6117994],[73.7357751,15.6116145],[73.7360196,15.611492],[73.7365007,15.6114455],[73.7369282,15.6115248],[73.7372897,15.6116527],[73.740224,15.6120154],[73.7412893,15.6095288],[73.7425985,15.6069989],[73.7446697,15.6056905],[73.7442747,15.6053958],[73.7433106,15.6050729],[73.7424164,15.6050132],[73.7417244,15.6051375],[73.7412375,15.6052516],[73.7409049,15.6058877],[73.7398123,15.606516],[73.739039,15.6072895],[73.7388219,15.6077107],[73.7385311,15.6078099],[73.7368037,15.6079489],[73.7364967,15.6079078],[73.7360139,15.6077915],[73.7353613,15.6075144],[73.7349947,15.6074135],[73.7345097,15.6074282],[73.7339451,15.6074506],[73.7332728,15.6075074],[73.732881,15.6075146],[73.7326119,15.6074379],[73.7324595,15.6073586],[73.7320704,15.6069457],[73.7319212,15.6066766],[73.7316548,15.6061799],[73.7316525,15.6060397],[73.7317058,15.6059231],[73.7318312,15.6056856],[73.7319079,15.605565],[73.7321283,15.6054917],[73.7322831,15.6054355],[73.7327935,15.6047706],[73.7328765,15.6045552],[73.7330118,15.6040107],[73.7338351,15.6022394],[73.7339704,15.6019616],[73.7341,15.6014757],[73.7341544,15.6010293],[73.7341476,15.600618],[73.7341133,15.6004503],[73.7339581,15.6002536],[73.7335409,15.5998492],[73.7331275,15.5994945],[73.7327929,15.5991638],[73.7324818,15.5988244],[73.7321132,15.5983032],[73.7319722,15.5981022],[73.7319275,15.597993],[73.7319394,15.597844],[73.7319453,15.5977719],[73.7322041,15.597636],[73.732405,15.5976122],[73.7326961,15.5974949],[73.7329748,15.5972826],[73.7331186,15.5970591],[73.733166,15.5967436],[73.7331694,15.5965404],[73.7331564,15.596486],[73.7331346,15.5963997],[73.7330765,15.5962587],[73.7330225,15.5961449],[73.7329312,15.596035],[73.7330879,15.5953328],[73.733393,15.5949402],[73.73356,15.5947215],[73.733651,15.5945829],[73.7337232,15.594453],[73.7339256,15.5940723],[73.7341577,15.5935926],[73.7342694,15.5927902],[73.7343155,15.5922849],[73.7343171,15.5920591],[73.733773,15.5918514],[73.7331838,15.5914172],[73.7330054,15.5912244],[73.7327136,15.5908447],[73.7324271,15.590429],[73.7322199,15.5900099],[73.7321797,15.5899098],[73.7321196,15.5896107],[73.7321119,15.5895156],[73.7321917,15.5889522],[73.732388,15.5883862],[73.7328022,15.5876203],[73.7329318,15.5874056],[73.7330172,15.5873166],[73.7340611,15.5870716],[73.7342107,15.5870469],[73.7346677,15.5870363],[73.7348044,15.5869436],[73.7350373,15.5866854],[73.7352324,15.5864581],[73.735492,15.585735],[73.7357905,15.5849221],[73.7364158,15.5832696],[73.7365543,15.5828065],[73.7367413,15.5819737],[73.7369041,15.5811812],[73.7371677,15.5802323],[73.7376098,15.5794624],[73.7380179,15.5787823],[73.7383712,15.5777624],[73.738557,15.5769884],[73.7387867,15.57584],[73.7388494,15.5751813],[73.7387803,15.574864],[73.7388869,15.5743597],[73.7391093,15.5739025],[73.7394021,15.5734148],[73.7397125,15.5729862],[73.7401828,15.5722077],[73.7406313,15.5710674],[73.7407978,15.5706093],[73.7411285,15.5692729],[73.741277,15.5685073],[73.7412366,15.5681451],[73.7410959,15.567926],[73.7408994,15.5676969],[73.7408468,15.5672352],[73.7411017,15.5667876],[73.7412839,15.5659501],[73.7412867,15.5657921],[73.7412822,15.5652409],[73.7412376,15.5651272],[73.7411932,15.5649954],[73.7412011,15.5648104],[73.7412255,15.5644809],[73.7412909,15.5636597],[73.7417129,15.5627088],[73.7418527,15.5624444],[73.7420146,15.5622438],[73.7430526,15.5615108],[73.7437927,15.5610303],[73.744843,15.5601302],[73.7451268,15.5598908],[73.7453241,15.5598082],[73.7455629,15.5597398],[73.7462853,15.5597425],[73.7464714,15.5597591],[73.7469576,15.5599433],[73.7475647,15.5604184],[73.7483029,15.5611261],[73.7486391,15.561624],[73.7499009,15.562602],[73.7498802,15.5620342],[73.7493927,15.5611708],[73.749213,15.5607795],[73.749226,15.5605719],[73.7495687,15.5598907],[73.7497015,15.5597573],[73.7502952,15.5588453],[73.7509819,15.5571306],[73.7514595,15.556194],[73.7515873,15.5558076],[73.7521169,15.5540136],[73.7522756,15.5534604],[73.7526204,15.551573],[73.7528071,15.5510203],[73.753135,15.5503797],[73.7537728,15.5493418],[73.7542146,15.5483144],[73.7546609,15.547034],[73.7554497,15.545068],[73.7559097,15.5435257],[73.7559967,15.5427999],[73.75606,15.541563],[73.7563066,15.5402343],[73.7569324,15.538261],[73.7570412,15.5376257],[73.7573112,15.5365594],[73.7577427,15.535315],[73.7580478,15.5343757],[73.7581807,15.5336957],[73.7584505,15.5323672],[73.7591705,15.5303413],[73.7595825,15.5286042],[73.7598912,15.5276125],[73.760569,15.5254351],[73.7623696,15.5185475],[73.7624927,15.5178899],[73.7629881,15.5159101],[73.7634831,15.5142149],[73.7648514,15.5091546],[73.7654683,15.5068786],[73.7657232,15.5058707],[73.766393,15.5034962],[73.7671386,15.5010461],[73.7674785,15.5002429],[73.7677447,15.4996644],[73.7679167,15.4991437],[73.7679228,15.4985258],[73.7678124,15.4978143],[73.7675195,15.4969944],[73.7673235,15.4964736],[73.7671824,15.4963149],[73.7663975,15.496369],[73.7660631,15.4964492],[73.765881,15.496328],[73.7656745,15.4961416],[73.7655769,15.4958683],[73.7655757,15.4954819],[73.7657185,15.4951642],[73.7664753,15.4934658],[73.7669826,15.4929528],[73.7674427,15.4930952],[73.7678141,15.4931061],[73.7680138,15.4930863],[73.7683627,15.4929678],[73.7686054,15.4928462],[73.7688793,15.4924977],[73.7690899,15.4921305],[73.7693589,15.4911727],[73.7695089,15.4906234],[73.771067,15.4904633],[73.7723591,15.4903211],[73.7728631,15.490336],[73.7730194,15.4904307],[73.7737227,15.4904386],[73.7742311,15.4903119],[73.7747682,15.4891971],[73.7751665,15.489196],[73.7755274,15.4891165],[73.7756886,15.4890568],[73.775931,15.4884991],[73.7815265,15.4756256],[73.7897117,15.4638041],[73.7896088,15.4632829],[73.7888671,15.4627967],[73.7888208,15.4627779],[73.7886261,15.4627205],[73.7882496,15.4629495],[73.7881057,15.4629155],[73.7879734,15.4627553],[73.7879061,15.4626006],[73.7878577,15.4624327],[73.7878059,15.4621924],[73.7877942,15.4620658],[73.7877596,15.461627],[73.787758,15.4614508],[73.7878075,15.4612799],[73.7878752,15.4611319],[73.7879766,15.4609257],[73.7880724,15.4607691],[73.7882022,15.4594384],[73.7882013,15.459217],[73.7859993,15.4372735],[73.791901,15.4191706],[73.7918385,15.419041],[73.7918155,15.418993],[73.7916722,15.4181142],[73.7917716,15.4174697],[73.7904027,15.4133453],[73.7903577,15.4129832],[73.7902174,15.412746],[73.7900901,15.4125587],[73.7900493,15.4124994],[73.7899582,15.4123759],[73.7896926,15.4121096],[73.7896006,15.4120448],[73.789401,15.4120055],[73.7892894,15.4119901],[73.7891963,15.4119887],[73.788803,15.4121178],[73.7869989,15.4127708],[73.7870109,15.4128885],[73.7871256,15.4129898],[73.7869079,15.413194],[73.7866147,15.4131849],[73.7860244,15.4131165],[73.784628,15.4128003],[73.7844379,15.4127566],[73.7842901,15.4126819],[73.7841563,15.4126075],[73.7840845,15.4124527],[73.7833378,15.4109091],[73.7832,15.4107939],[73.7831553,15.4098669],[73.7831797,15.4095286],[73.7833944,15.4089492],[73.7838396,15.407967],[73.7846275,15.4065521],[73.7855203,15.4058075],[73.7858558,15.4057949],[73.7859477,15.4058642],[73.7858326,15.4060611],[73.7858135,15.4060924],[73.7858498,15.4061471],[73.7861741,15.4059717],[73.7869013,15.4045649],[73.7873428,15.4035194],[73.7874511,15.4031732],[73.7877841,15.4022117],[73.7878952,15.4019786],[73.7879239,15.4019384],[73.7886576,15.4009654],[73.7893503,15.4002086],[73.7894567,15.3991531],[73.7904041,15.3987572],[73.7914134,15.3982811],[73.7917399,15.3987968],[73.7917462,15.3989732],[73.7919046,15.3989667],[73.7919467,15.3989584],[73.7919798,15.3989318],[73.7919991,15.398887],[73.7920099,15.3988013],[73.7919967,15.3987513],[73.7919565,15.3986603],[73.791757,15.3983409],[73.7914613,15.397934],[73.7909193,15.3972115],[73.7900425,15.39675],[73.7897871,15.3953409],[73.7905899,15.3938585],[73.7918097,15.3930513],[73.7928202,15.392774],[73.7945844,15.3925314],[73.7954635,15.3928618],[73.7956995,15.3932271],[73.7957997,15.3933551],[73.7958414,15.3933694],[73.7963581,15.3933822],[73.7965304,15.3933759],[73.7965677,15.393372],[73.7976987,15.3931282],[73.7983083,15.3931515],[73.7989206,15.3930169],[73.7996653,15.3927622],[73.8005142,15.3926811],[73.8015065,15.3926519],[73.8015996,15.3926533],[73.8017337,15.3927097],[73.8023298,15.3929768],[73.8030582,15.3934086],[73.8035278,15.3937279],[73.8039655,15.3937259],[73.8043049,15.3934783],[73.8050953,15.392723],[73.8059627,15.3918244],[73.8065329,15.3906001],[73.8071618,15.388654],[73.8073724,15.3874873],[73.8074391,15.3868514],[73.8074178,15.3864581],[73.8074394,15.3860066],[73.8075558,15.3854483],[73.8077521,15.384584],[73.8081617,15.3840439],[73.8081996,15.3837328],[73.8082162,15.3835704],[73.8081973,15.3824904],[73.8081103,15.3813053],[73.8080142,15.3803731],[73.8079699,15.3799658],[73.8079496,15.3797938],[73.8079287,15.3790978],[73.8086717,15.378938],[73.8088299,15.378945],[73.8091592,15.379018],[73.809366,15.3791796],[73.8094111,15.3792706],[73.8093809,15.3794057],[73.8094014,15.3801243],[73.8095513,15.3808902],[73.8095859,15.3810489],[73.8097641,15.3812506],[73.8101584,15.3816137],[73.810296,15.3817334],[73.8104304,15.3817672],[73.8105656,15.3817558],[73.8105668,15.3816881],[73.8104251,15.3815323],[73.8097417,15.3809204],[73.8095108,15.3799815],[73.8096933,15.3793745],[73.8097334,15.3792035],[73.8097343,15.3791584],[73.809709,15.3789953],[73.8096868,15.3789362],[73.8096592,15.3789132],[73.8094654,15.3788107],[73.8093774,15.3787777],[73.8092522,15.378753],[73.8089688,15.3787169],[73.8086398,15.3786258],[73.8085378,15.378597],[73.8084501,15.378555],[73.8083813,15.3784906],[73.8082673,15.3783488],[73.8081267,15.3781341],[73.8080681,15.3780158],[73.8078218,15.3774336],[73.8077868,15.3773019],[73.8077706,15.3771571],[73.8077728,15.3770307],[73.807789,15.3769045],[73.807813,15.3768551],[73.8088816,15.3756073],[73.8089194,15.3755763],[73.8091973,15.3753865],[73.8095207,15.3752607],[73.809619,15.3752396],[73.809754,15.3752327],[73.8099634,15.3752406],[73.8106055,15.3752691],[73.811239,15.3755231],[73.8118114,15.3758169],[73.8129431,15.3752432],[73.8135021,15.374954],[73.8141982,15.374536],[73.8155221,15.3736084],[73.8154665,15.3733229],[73.8159881,15.3724864],[73.8160643,15.3723838],[73.8161968,15.3722593],[73.8162721,15.3722109],[73.8165303,15.3720886],[73.8166707,15.372041],[73.816914,15.3719682],[73.8170401,15.371943],[73.8174508,15.3718909],[73.8176513,15.3718715],[73.8190745,15.3719621],[73.8195116,15.3719916],[73.8202181,15.3720617],[73.8203252,15.3720633],[73.8205535,15.3720579],[73.8208517,15.3720401],[73.8211363,15.372004],[73.8211877,15.3719958],[73.821665,15.3718544],[73.8217368,15.3717312],[73.8218692,15.3713381],[73.8217111,15.3710419],[73.8218039,15.3707904],[73.8225493,15.3699349],[73.8226483,15.3698551],[73.822785,15.369758],[73.8229496,15.3696612],[73.8230484,15.3696175],[73.8231466,15.369574],[73.8232285,15.3695459],[73.8233104,15.3695178],[73.8235768,15.3694634],[73.8243812,15.3692504],[73.826519,15.3686474],[73.8274369,15.3683278],[73.8285694,15.3679844],[73.8288919,15.3679037],[73.8298635,15.367996],[73.829975,15.3680068],[73.8301837,15.3680598],[73.8302947,15.3680977],[73.8303917,15.3681444],[73.8304512,15.3682041],[73.8305192,15.3683181],[73.8309227,15.3692417],[73.8318416,15.3694144],[73.8322953,15.369015],[73.8331024,15.3683592],[73.8340201,15.367773],[73.8347469,15.3671882],[73.8348731,15.3668785],[73.8352746,15.3662569],[73.8358471,15.365986],[73.8359497,15.3654228],[73.8355106,15.3652307],[73.8356944,15.3648225],[73.835838,15.3645854],[73.8359521,15.3644426],[73.8361417,15.3642423],[73.8369796,15.3623039],[73.8370103,15.3621418],[73.837088,15.3619488],[73.8372943,15.3615817],[73.837447,15.3613582],[73.8375469,15.3612378],[73.8377596,15.3610469],[73.8379572,15.3609146],[73.8381733,15.360805],[73.8391636,15.3603238],[73.8406447,15.3597238],[73.8411895,15.3594479],[73.8420652,15.3588564],[73.8424264,15.3584149],[73.842669,15.3583871],[73.8429158,15.358382],[73.8435302,15.3583873],[73.8436762,15.3585703],[73.8443422,15.3588338],[73.8449226,15.3586442],[73.8452086,15.3585268],[73.8454782,15.3585446],[73.8472128,15.3586624],[73.8480439,15.358793],[73.8494054,15.3592302],[73.850513,15.3592523],[73.8513321,15.3589897],[73.8523711,15.3594984],[73.8530213,15.3601547],[73.8532967,15.3609452],[73.8529551,15.3613328],[73.8528408,15.3614891],[73.8529034,15.3619193],[73.8531023,15.3631196],[73.8532754,15.3633527],[73.8537944,15.3639121],[73.8539119,15.3639863],[73.8548244,15.364405],[73.8549008,15.3644266],[73.8560906,15.3645537],[73.8562813,15.3645612],[73.8570403,15.3645552],[73.8589755,15.3646445],[73.8594586,15.3647199],[73.8595422,15.3647301],[73.859598,15.3647355],[73.8603427,15.3647427],[73.8605383,15.3647368],[73.8608787,15.3647016],[73.8610796,15.3646595],[73.8612247,15.3646166],[73.861519,15.364558],[73.8629778,15.3647436],[73.8632785,15.3648568],[73.8634193,15.3650713],[73.8637928,15.3658542],[73.8638636,15.3666324],[73.863755,15.3667255],[73.8633073,15.3670484],[73.8633527,15.3674013],[73.863403,15.3677365],[73.8636554,15.3679574],[73.8638543,15.3680327],[73.8655156,15.368366],[73.8661712,15.368417],[73.8672233,15.3684201],[73.8678396,15.3683214],[73.868401,15.3684296],[73.8685634,15.3684682],[73.8691071,15.3688156],[73.869365,15.3689823],[73.8694341,15.3690285],[73.8704206,15.3693377],[73.8712698,15.3692245],[73.8726258,15.3685953],[73.8736896,15.3678891],[73.874046,15.3674521],[73.8753991,15.3661496],[73.8763801,15.3651033],[73.8769002,15.3643389],[73.8772343,15.3638382],[73.8782593,15.3626661],[73.8789668,15.3621124],[73.879047,15.3620415],[73.8791798,15.3618989],[73.8796916,15.3610712],[73.8799917,15.3603802],[73.8804254,15.3594879],[73.8807092,15.3589322],[73.8812094,15.3579597],[73.8813825,15.3576237],[73.881612,15.3572567],[73.881937,15.3567469],[73.8831405,15.3549043],[73.8837716,15.3538978],[73.8841545,15.3532624],[73.8842652,15.3530472],[73.8843952,15.3527781],[73.8847024,15.3519382],[73.8848774,15.3514801],[73.8851052,15.3509415],[73.8853035,15.3504929],[73.8855593,15.3499412],[73.8866476,15.3477356],[73.8878325,15.3453237],[73.8879961,15.3450009],[73.8884494,15.3440412],[73.889354,15.3419637],[73.8896929,15.3411785],[73.889959,15.3405591],[73.8902657,15.3397418],[73.8903589,15.3394541],[73.8904905,15.3390902],[73.8907571,15.3384484],[73.8908829,15.3381612],[73.8918839,15.3358819],[73.8923425,15.3348862],[73.8927859,15.3339625],[73.8936308,15.3323945],[73.8944896,15.3308358],[73.8947589,15.3297423],[73.8949339,15.3290041],[73.8949326,15.3285162],[73.8948848,15.3280276],[73.8949595,15.327446],[73.895292,15.3264754],[73.8955837,15.3257119],[73.89659,15.3238179],[73.8966692,15.3236689],[73.8969198,15.3225751],[73.8973076,15.321637],[73.8974532,15.3212733],[73.8975212,15.3210936],[73.8975706,15.3209227],[73.8977834,15.320149],[73.8979357,15.319659],[73.8982467,15.3188643],[73.8985213,15.3182948],[73.8987021,15.3180537],[73.8987785,15.3179329],[73.8991476,15.3172836],[73.8993403,15.3168846],[73.8994417,15.3166648],[73.8995775,15.3163281],[73.8998061,15.3157263],[73.8999334,15.3153398],[73.9000767,15.3148316],[73.9001165,15.3146741],[73.9002215,15.3142329],[73.9003121,15.3138188],[73.9003529,15.3135981],[73.9004281,15.3132694],[73.9005272,15.3129006],[73.9007726,15.3121318],[73.9008596,15.3119255],[73.901019,15.3115756],[73.9011825,15.3112528],[73.9013548,15.3109619],[73.9015357,15.3107163],[73.901741,15.3103987],[73.9019619,15.3099866],[73.902126,15.3096277],[73.9023515,15.3089265],[73.9027599,15.3070084],[73.9034831,15.3037671],[73.9036894,15.3032354],[73.9037358,15.303116],[73.9044506,15.3018126],[73.9050015,15.3005607],[73.9053496,15.2996423],[73.9060271,15.2976043],[73.9068843,15.294993],[73.9074343,15.2932262],[73.9077523,15.2925626],[73.9080066,15.2920967],[73.908427,15.2908519],[73.9084519,15.2907574],[73.9084542,15.2906175],[73.9083681,15.2901915],[73.9083316,15.2895674],[73.9083323,15.2889622],[73.9085238,15.2886309],[73.9086755,15.2884661],[73.9088564,15.2882159],[73.909026,15.287803],[73.909076,15.287596],[73.9091212,15.2873889],[73.9092137,15.2868527],[73.9090784,15.2863085],[73.909208,15.2854883],[73.9096849,15.2842129],[73.9099328,15.2835662],[73.9101996,15.2828973],[73.9104849,15.2822376],[73.9107458,15.2813699],[73.9113217,15.2794363],[73.911396,15.2791619],[73.911545,15.2785816],[73.9116701,15.2780414],[73.9117254,15.2777893],[73.9120329,15.2766286],[73.912631,15.2750478],[73.9131819,15.2738006],[73.9135067,15.2724232],[73.9136083,15.2719053],[73.9139532,15.2712872],[73.9143167,15.2706921],[73.9144033,15.2705763],[73.914663,15.2702819],[73.9148151,15.27009],[73.9149777,15.269817],[73.9150785,15.2696243],[73.9151706,15.2693998],[73.9152202,15.2692154],[73.915246,15.2690577],[73.9152124,15.2685467],[73.915309,15.2674731],[73.9153551,15.2672073],[73.9154288,15.2669691],[73.9155107,15.2667986],[73.915663,15.2665933],[73.9161508,15.2655031],[73.9165612,15.2642987],[73.9169463,15.2635052],[73.9171882,15.2629353],[73.9172466,15.2627781],[73.917284,15.2621959],[73.9174875,15.261133],[73.9175517,15.2608992],[73.9176404,15.2605978],[73.9177181,15.2604003],[73.9183095,15.2589323],[73.9187417,15.257254],[73.9190587,15.2560709],[73.9190438,15.2552712],[73.9192038,15.254587],[73.9195289,15.2537609],[73.919637,15.2534057],[73.9197664,15.252319],[73.9198084,15.2520261],[73.9200111,15.2512929],[73.9202484,15.2509984],[73.9206952,15.2504181],[73.9211502,15.2494098],[73.9220067,15.2480598],[73.9226556,15.2456554],[73.9234963,15.2432564],[73.9240322,15.2414079],[73.9244469,15.2403947],[73.9245797,15.2391869],[73.9250986,15.2378971],[73.9256731,15.2363097],[73.9256358,15.2353967],[73.9260079,15.2334261],[73.9260869,15.2331005],[73.9267569,15.2311118],[73.9269104,15.2307411],[73.9272408,15.2300946],[73.9276223,15.2298233],[73.9276595,15.2297872],[73.9280505,15.2291726],[73.9281623,15.2289736],[73.928325,15.2285578],[73.9283529,15.2283725],[73.9283389,15.2281103],[73.9281666,15.2277623],[73.927822,15.2272064],[73.9277708,15.2270663],[73.9277614,15.2268313],[73.9278127,15.2265601],[73.9282825,15.2248516],[73.928543,15.2242006],[73.9286361,15.2240063],[73.9298597,15.2218229],[73.9300645,15.2214207],[73.930232,15.2209777],[73.9302831,15.2208014],[73.9304969,15.2193098],[73.9305293,15.2180352],[73.9305386,15.217746],[73.9306967,15.2169821],[73.9308175,15.216503],[73.9308966,15.2162951],[73.9310361,15.2158341],[73.9313013,15.2147809],[73.9315431,15.2137278],[73.93185,15.2127378],[73.9321291,15.2119152],[73.9330081,15.2083174],[73.9331475,15.2076619],[73.933594,15.2063918],[73.9340081,15.2052934],[73.9342453,15.2047103],[73.9343243,15.2043713],[73.9348171,15.2018944],[73.9348635,15.2016006],[73.9350587,15.2001724],[73.9351144,15.1997295],[73.9351191,15.1994628],[73.9351561,15.1990469],[73.9352166,15.1986763],[73.9354026,15.1978717],[73.9355281,15.1974061],[73.9359093,15.1955169],[73.9360348,15.19497],[73.9361511,15.194509],[73.9362534,15.1942151],[73.9365232,15.1935009],[73.9366348,15.1931891],[73.936751,15.1926965],[73.9368765,15.1920863],[73.936895,15.1919009],[73.9369416,15.1916252],[73.9370671,15.1910331],[73.9373599,15.1898399],[73.9378064,15.1881991],[73.9382761,15.1872183],[73.938597,15.1865493],[73.9384294,15.1861471],[73.9384153,15.1860341],[73.9384433,15.1856905],[73.9386943,15.1845968],[73.9392383,15.1829831],[73.9396616,15.1819706],[73.9399358,15.1811797],[73.9400103,15.1808497],[73.9400799,15.1804339],[73.9402008,15.1798599],[73.9403588,15.1791638],[73.9404611,15.1788023],[73.9406889,15.1780655],[73.9411586,15.1767819],[73.9416653,15.174653],[73.9418418,15.1736541],[73.9421533,15.172384],[73.942553,15.170784],[73.9428133,15.1698438],[73.9430783,15.1688675],[73.9433385,15.1675252],[73.943529,15.1667659],[73.9439799,15.1649986],[73.9444123,15.1633579],[73.9446865,15.1625397],[73.9449097,15.1618527],[73.9450491,15.1613736],[73.945235,15.1604741],[73.9454347,15.1595295],[73.945551,15.1590097],[73.9457787,15.1580832],[73.9464061,15.1555386],[73.9471357,15.1527814],[73.9476517,15.1510323],[73.9480653,15.1496356],[73.9482698,15.1489848],[73.9484604,15.1484604],[73.9487207,15.1475338],[73.9487672,15.1472853],[73.9488833,15.1465937],[73.9490596,15.1453056],[73.9491758,15.1447724],[73.9494082,15.1441306],[73.9495895,15.1437508],[73.9499151,15.1432356],[73.9531988,15.1403646],[73.9533801,15.1401206],[73.9536962,15.1394607],[73.9540495,15.1386335],[73.954296,15.1380685],[73.9549236,15.1368616],[73.9552863,15.1363056],[73.9555978,15.135962],[73.9560397,15.1356591],[73.9563513,15.1355325],[73.9565002,15.1354962],[73.9563094,15.1352702],[73.9561419,15.1352795],[73.9560768,15.1352975],[73.9556908,15.135483],[73.9555651,15.1355733],[73.9545745,15.1363645],[73.9538257,15.1370382],[73.9537513,15.1371331],[73.9527886,15.1381684],[73.9513096,15.1395608],[73.950905,15.1398818],[73.950598,15.1400898],[73.9502724,15.1402798],[73.9496119,15.1404923],[73.9492675,15.1405963],[73.948486,15.1406824],[73.9483046,15.1406825],[73.9481929,15.1406599],[73.9470391,15.1405337],[73.9463552,15.1406017],[73.9456106,15.139567],[73.9448847,15.1390248],[73.945187,15.1388846],[73.945494,15.1386631],[73.9456567,15.1383782],[73.945666,15.1382563],[73.9456101,15.1379716],[73.9455775,15.1378721],[73.9454472,15.1377005],[73.9436555,15.1352784],[73.9427898,15.1340991],[73.9427015,15.1340087],[73.9425433,15.1339049],[73.9417197,15.1334757],[73.9406635,15.1329472],[73.9396352,15.1324412],[73.9392491,15.1322922],[73.9388583,15.1322426],[73.9383652,15.1322518],[73.9381838,15.1322789],[73.9378348,15.1323965],[73.9376581,15.1324326],[73.9374813,15.1324463],[73.9372301,15.1324283],[73.9370162,15.1323605],[73.9367881,15.1321618],[73.9367556,15.132103],[73.9363413,15.1312625],[73.936332,15.1311269],[73.9363598,15.1310184],[73.9364621,15.1309415],[73.9365273,15.1309235],[73.9368064,15.1309098],[73.9371134,15.1308781],[73.9374204,15.1308374],[73.937667,15.1307153],[73.9379182,15.1305209],[73.9380158,15.1304215],[73.938081,15.1303174],[73.9381135,15.1301729],[73.9381228,15.1300418],[73.9380622,15.1297255],[73.937997,15.1295176],[73.9379737,15.1291244],[73.9380666,15.1289888],[73.9381411,15.128921],[73.9382155,15.1288893],[73.9383457,15.1288351],[73.9387318,15.1288034],[73.9390575,15.1288259],[73.9393784,15.1287445],[73.9401832,15.1282652],[73.9404529,15.1280618],[73.9406063,15.1277499],[73.9406667,15.1274562],[73.9407411,15.1271082],[73.9410201,15.1264346],[73.9413409,15.1257748],[73.9414153,15.1255442],[73.9414384,15.1253997],[73.9414012,15.1252324],[73.9410615,15.1246857],[73.940745,15.1241796],[73.9406565,15.124035],[73.9406147,15.1239311],[73.9405682,15.1237142],[73.9405821,15.1235108],[73.9406378,15.1233526],[73.9407122,15.1232124],[73.9409958,15.1227966],[73.9410842,15.1225977],[73.9410934,15.122313],[73.9411257,15.1212328],[73.9414696,15.1201211],[73.9415716,15.1188285],[73.9413714,15.1177755],[73.941092,15.1169395],[73.9402687,15.1170165],[73.9386685,15.1169265],[73.9382171,15.11633],[73.9377609,15.1147077],[73.9369976,15.1126426],[73.9365413,15.1111648],[73.9360853,15.1102792],[73.933811,15.1120512],[73.9322898,15.1111657],[73.9303174,15.1102803],[73.9291034,15.1101359],[73.9281914,15.1092503],[73.9270238,15.1083511],[73.9267353,15.1081885],[73.9265911,15.1081297],[73.9264888,15.1081026],[73.9264051,15.1080891],[73.9259074,15.1081209],[73.9239352,15.107963],[73.9232746,15.1073258],[73.9230838,15.107136],[73.9229303,15.1070728],[73.9228094,15.1070548],[73.9193114,15.1065581],[73.9186277,15.1063142],[73.9185858,15.106287],[73.9184787,15.1062102],[73.9184696,15.1061424],[73.9184927,15.1060881],[73.9185718,15.1060204],[73.9187392,15.1059255],[73.9189905,15.1059254],[73.9197719,15.1059524],[73.922386,15.1062323],[73.9227673,15.1063362],[73.9228232,15.1063316],[73.922921,15.1062864],[73.9229581,15.1061915],[73.9230091,15.1056357],[73.9229906,15.1055452],[73.922851,15.1052561],[73.9226323,15.1050031],[73.9225858,15.1048403],[73.9225951,15.1047273],[73.9226509,15.1044788],[73.9226927,15.1044019],[73.9228136,15.1042663],[73.9230787,15.1041894],[73.9235206,15.1040991],[73.9241718,15.1040311],[73.9248275,15.1039994],[73.9256834,15.1038953],[73.9257113,15.1038727],[73.9260366,15.1022322],[73.9261761,15.1020243],[73.9263156,15.1017576],[73.9263714,15.1015542],[73.9263714,15.1014367],[73.9263202,15.1011113],[73.9261434,15.1006413],[73.9261154,15.1005103],[73.9261294,15.1003431],[73.9262456,15.1000358],[73.9264456,15.099647],[73.9265757,15.0994392],[73.9267896,15.0989962],[73.926864,15.0987567],[73.9271987,15.097663],[73.9272358,15.0975003],[73.9272358,15.0974099],[73.9271893,15.0971026],[73.9270961,15.0967727],[73.9270542,15.0964835],[73.9270636,15.0963073],[73.9271844,15.0960225],[73.9272448,15.0959366],[73.9276262,15.0955434],[73.9276448,15.0954982],[73.927668,15.095322],[73.927547,15.0951411],[73.9273749,15.0949785],[73.9270308,15.0947435],[73.9264865,15.0945223],[73.9262679,15.0944047],[73.9255747,15.093971],[73.9250863,15.0936321],[73.9248304,15.093248],[73.9247281,15.0930582],[73.9244489,15.0918833],[73.9243652,15.091332],[73.9244302,15.0910473],[73.9244674,15.0907987],[73.9244627,15.0907083],[73.9243743,15.0904779],[73.9243091,15.0904101],[73.924058,15.0902881],[73.923965,15.0902655],[73.9234812,15.0902655],[73.9231882,15.0902114],[73.922937,15.0901255],[73.9227556,15.0900126],[73.9226766,15.0899222],[73.9226021,15.089737],[73.9225183,15.0893121],[73.9225136,15.08905],[73.922481,15.0888015],[73.9224066,15.0886297],[73.9223136,15.0885258],[73.9222066,15.0884807],[73.9220904,15.0884581],[73.9217926,15.0885304],[73.9206578,15.0887475],[73.9205556,15.0887565],[73.9203695,15.0887295],[73.9186997,15.0881241],[73.9176067,15.0876542],[73.9173044,15.0875006],[73.917123,15.0873786],[73.9168997,15.0871933],[73.9167695,15.0868906],[73.9166997,15.0865516],[73.9166065,15.0859822],[73.9165554,15.0855665],[73.9164343,15.0848886],[73.9163739,15.0847214],[73.9162856,15.0846355],[73.9153414,15.0845046],[73.9147971,15.0845408],[73.9145414,15.0845409],[73.9133876,15.0843694],[73.9131736,15.0843242],[73.9130527,15.0842836],[73.9129131,15.0841932],[73.9128479,15.0840985],[73.912792,15.0839854],[73.9127781,15.0839132],[73.9128384,15.0836511],[73.9128756,15.0835742],[73.91295,15.0834838],[73.9131175,15.0833979],[73.9132197,15.0833573],[73.9132942,15.0833527],[73.9137966,15.0833481],[73.9140897,15.0833842],[73.915383,15.0836504],[73.9162575,15.0840751],[73.9168435,15.0836775],[73.9176898,15.0826289],[73.9176898,15.0822085],[73.9177409,15.0820775],[73.9178153,15.0820233],[73.9178757,15.0820052],[73.9179968,15.0820503],[73.9185641,15.0826423],[73.9188014,15.0828457],[73.9190804,15.0830355],[73.9192571,15.0831348],[73.9198014,15.0833562],[73.920299,15.0835324],[73.9208339,15.0837537],[73.9210618,15.0838712],[73.921271,15.0840656],[73.9213363,15.084165],[73.9217269,15.0845762],[73.9222712,15.0851048],[73.9230851,15.0854707],[73.9232015,15.0854481],[73.9235548,15.0851634],[73.9238664,15.0849961],[73.9240664,15.0849555],[73.9256987,15.0847021],[73.9261127,15.0848014],[73.9263267,15.0847743],[73.9265918,15.0846838],[73.9269685,15.0844217],[73.9270521,15.0842409],[73.9271962,15.0838568],[73.9273171,15.0835991],[73.9277356,15.0832601],[73.9279448,15.0831607],[73.92821,15.0830974],[73.928675,15.0830611],[73.928996,15.0830656],[73.9299818,15.0826948],[73.9312886,15.0824958],[73.9316467,15.0824234],[73.93167,15.0824053],[73.9317444,15.0822652],[73.931763,15.0820437],[73.9315674,15.0810811],[73.9314975,15.0805796],[73.9314649,15.080331],[73.931423,15.0795944],[73.9314229,15.0793458],[73.9314369,15.0792284],[73.9315019,15.0789618],[73.931632,15.078573],[73.9317948,15.078207],[73.9320271,15.0777821],[73.9321434,15.0776375],[73.9325247,15.0772939],[73.9327386,15.0771899],[73.9328968,15.0771312],[73.9331292,15.0770814],[73.9337059,15.0770452],[73.9347197,15.0770675],[73.9351894,15.0771262],[73.9357383,15.0771487],[73.936501,15.0770626],[73.9367241,15.0769767],[73.9373333,15.0766648],[73.9375472,15.0765381],[73.9377797,15.0763754],[73.9380168,15.0761223],[73.9386956,15.0753358],[73.9399696,15.0742871],[73.9406065,15.0737808],[73.9411925,15.0734644],[73.9421969,15.0731161],[73.9425457,15.0730708],[73.9432898,15.0730706],[73.9435967,15.0731113],[73.944299,15.0732556],[73.9450756,15.0733865],[73.9454244,15.0734271],[73.9456849,15.0734315],[73.9472102,15.0734221],[73.9480846,15.0734579],[73.9483031,15.0734353],[73.9485868,15.0733811],[73.9488705,15.0732996],[73.949103,15.0732047],[73.9496051,15.0729288],[73.9501166,15.0726891],[73.9506932,15.072454],[73.951135,15.0723138],[73.9517395,15.0722006],[73.9524789,15.0720964],[73.9527951,15.0720692],[73.9531114,15.0720646],[73.9536694,15.0721006],[73.9542554,15.0721186],[73.9547576,15.0720415],[73.9549901,15.0719285],[73.9551435,15.0718155],[73.9552085,15.0717431],[73.9553805,15.0714222],[73.9554502,15.0711871],[73.9554874,15.0709521],[73.9554361,15.0706945],[73.9553663,15.0705093],[73.955343,15.0704642],[73.9552453,15.0703558],[73.9548313,15.069791],[73.9545893,15.0694068],[73.9545614,15.0693119],[73.9545846,15.0692307],[73.9546171,15.0691854],[73.9546868,15.0691628],[73.9549055,15.0691356],[73.9558727,15.0692709],[73.9571796,15.0692299],[73.9574492,15.0691167],[73.9585,15.0685742],[73.9590254,15.068244],[73.9592485,15.0680768],[73.9594298,15.0678281],[73.9595274,15.0675841],[73.9597644,15.0672224],[73.9598946,15.0671411],[73.9602016,15.067037],[73.9602945,15.0670189],[73.9613083,15.0669914],[73.9615873,15.0669506],[73.9616803,15.0669235],[73.9617825,15.0668602],[73.9623265,15.0664669],[73.962438,15.0663673],[73.9630191,15.0656984],[73.9633491,15.0650837],[73.9633629,15.0647718],[73.9633954,15.0647131],[73.9634745,15.0646543],[73.9638186,15.0645502],[73.9640324,15.0645275],[73.9643486,15.0645274],[73.9647858,15.064577],[73.9652183,15.064726],[73.9655951,15.064902],[73.9660834,15.0650012],[73.9663578,15.0650238],[73.9665716,15.0650011],[73.96686,15.0649468],[73.9671342,15.0648698],[73.9672506,15.064811],[73.9674644,15.0646212],[73.9675852,15.0644584],[73.9676874,15.0642279],[73.967771,15.0639929],[73.9678128,15.0637669],[73.9678823,15.0630212],[73.9678682,15.062723],[73.9678123,15.06247],[73.967775,15.062366],[73.9674028,15.0619595],[73.9672306,15.0616702],[73.967212,15.0615754],[73.9672584,15.0614173],[73.9673654,15.0612725],[73.9676257,15.0611549],[73.9680116,15.0610282],[73.9683463,15.0609559],[73.9685418,15.0609332],[73.9688857,15.0608292],[73.9690206,15.060689],[73.9694063,15.060264],[73.9696666,15.0599295],[73.9700338,15.0594142],[73.9703544,15.0588356],[73.9704426,15.0585372],[73.9704843,15.0582706],[73.9705074,15.0579905],[73.9706282,15.0575294],[73.9708744,15.0567883],[73.9711438,15.0562367],[73.9715155,15.0555407],[73.9717246,15.0551972],[73.971943,15.0548989],[73.97218,15.0542345],[73.9723376,15.0534435],[73.9723606,15.0529012],[73.9723046,15.0521692],[73.9721509,15.0514643],[73.9721228,15.0512157],[73.9721273,15.0510801],[73.9722017,15.0509717],[73.9724435,15.0507321],[73.972727,15.0505059],[73.9729036,15.050429],[73.973336,15.0502843],[73.9736289,15.0501621],[73.9738845,15.0500264],[73.9741821,15.0498049],[73.9747352,15.0492081],[73.974921,15.0490273],[73.9750465,15.0489415],[73.9752278,15.0489232],[73.9753535,15.0489277],[73.9757209,15.0491128],[73.975879,15.0492212],[73.9761629,15.0495194],[73.9764094,15.0498355],[73.9768652,15.050328],[73.9771304,15.0505448],[73.9780699,15.0509963],[73.9788512,15.0512807],[73.9794232,15.0514294],[73.9796372,15.0515017],[73.9798511,15.0515965],[73.9800279,15.051714],[73.980121,15.0517952],[73.9802652,15.0519759],[73.9804049,15.0522244],[73.9804468,15.0524684],[73.9804003,15.0526989],[73.980354,15.0528254],[73.9801775,15.0532412],[73.9800566,15.0534628],[73.9799452,15.053743],[73.9799127,15.0539373],[73.9799128,15.0541181],[73.9799362,15.0542537],[73.9800338,15.0544434],[73.9801502,15.054588],[73.9802944,15.0546827],[73.9803966,15.0546917],[73.9807129,15.054642],[73.9811637,15.0543209],[73.9814054,15.0540768],[73.9815494,15.0539004],[73.9816146,15.0537874],[73.981768,15.0535975],[73.9821816,15.0532042],[73.9830231,15.0529056],[73.9832788,15.0528964],[73.9836043,15.0529234],[73.9836833,15.0529595],[73.9839904,15.0531672],[73.9841997,15.053375],[73.9845161,15.0537996],[73.9847953,15.0541204],[73.9849488,15.0542106],[73.9850419,15.0542558],[73.9866371,15.0548199],[73.9869673,15.0549056],[73.988009,15.0550633],[73.9878323,15.0549504],[73.9872788,15.0547337],[73.9861347,15.0544225],[73.9849023,15.0540435],[73.9845533,15.053664],[73.9843857,15.053271],[73.9842181,15.0530135],[73.983967,15.0529052],[73.9833253,15.052824],[73.9827394,15.0527701],[73.9819582,15.0528653],[73.9817491,15.0531502],[73.9814842,15.053557],[73.9811915,15.0538282],[73.9809777,15.0539639],[73.9807405,15.0540319],[73.9809774,15.0533946],[73.9820274,15.0518757],[73.9821622,15.0515684],[73.9821016,15.0513831],[73.9821061,15.0512701],[73.9821991,15.0511254],[73.9826918,15.0506236],[73.9830218,15.0503614],[73.9833657,15.0500087],[73.9835516,15.04976],[73.9839604,15.0491181],[73.9850382,15.0470298],[73.986306,15.0441099],[73.9864871,15.0435405],[73.9871743,15.0415969],[73.9877919,15.0400647],[73.9882377,15.03912],[73.9889993,15.0373888],[73.9895705,15.0360058],[73.9896819,15.0356171],[73.9897329,15.0353594],[73.9897513,15.0351425],[73.9898024,15.0349302],[73.9899881,15.0344871],[73.9905408,15.0331764],[73.9907405,15.0327606],[73.9909215,15.0323311],[73.9910143,15.0320509],[73.9911212,15.0316351],[73.9911856,15.0307313],[73.9910784,15.0301078],[73.9909759,15.0298005],[73.9907478,15.0292268],[73.9906268,15.0290189],[73.9904267,15.0287705],[73.9888409,15.0280121],[73.988534,15.0278902],[73.9884596,15.0278857],[73.9875669,15.02785],[73.9866975,15.027864],[73.986572,15.0278641],[73.9864139,15.0278009],[73.9862975,15.0276879],[73.9862742,15.0275118],[73.9862834,15.0273626],[73.9865948,15.0270054],[73.98679,15.0268066],[73.9868876,15.0267342],[73.9871618,15.026603],[73.9874501,15.0264853],[73.9876452,15.0264265],[73.9878405,15.0263315],[73.9879381,15.0262636],[73.988017,15.0261146],[73.9881099,15.0258795],[73.9881423,15.0256626],[73.9881236,15.0255631],[73.9880446,15.0254232],[73.987905,15.0254006],[73.9876773,15.0254008],[73.9871752,15.0254461],[73.9869333,15.0253875],[73.9867985,15.0253378],[73.9861939,15.0249179],[73.9860869,15.024823],[73.9860636,15.0247688],[73.9860542,15.0246649],[73.9860821,15.0245022],[73.9861193,15.0244163],[73.9862679,15.0242897],[73.9864864,15.0241676],[73.9865887,15.0241269],[73.986849,15.0241133],[73.9870442,15.0241628],[73.9872954,15.0242576],[73.9874675,15.0243479],[73.9879325,15.0245013],[73.9881928,15.0245147],[73.988416,15.0244649],[73.9886715,15.0242705],[73.9890061,15.0238139],[73.9894473,15.0229324],[73.989647,15.0224759],[73.9898279,15.0217664],[73.9898601,15.0211202],[73.9897574,15.0204604],[73.9894827,15.0194122],[73.9894685,15.0189829],[73.9894823,15.0189151],[73.989552,15.0188428],[73.9898262,15.0186574],[73.9900726,15.0185714],[73.9907048,15.0184897],[73.990914,15.0183948],[73.991058,15.0182682],[73.9917223,15.0173866],[73.9918664,15.0172194],[73.9919826,15.0171108],[73.9922614,15.0168983],[73.992661,15.0166766],[73.9928191,15.0166088],[73.9932607,15.0165092],[73.9934885,15.0165001],[73.9938605,15.0165405],[73.9940836,15.0166308],[73.9948045,15.0170597],[73.9950324,15.0172222],[73.9952882,15.017457],[73.9959999,15.0181887],[73.996107,15.0183333],[73.9962559,15.0187444],[73.9962979,15.0189477],[73.9963074,15.0192098],[73.9963632,15.0193906],[73.9964191,15.019508],[73.9964935,15.0195802],[73.99674,15.0197519],[73.997191,15.0198826],[73.9974282,15.0199368],[73.9977211,15.0199502],[73.9978465,15.019905],[73.9982694,15.0195748],[73.9984506,15.019394],[73.9986318,15.0191362],[73.9987897,15.0188379],[73.998878,15.0185847],[73.9989011,15.0184086],[73.9990078,15.0181464],[73.9991565,15.0179068],[73.9995002,15.0174773],[73.9996164,15.0173959],[73.999747,15.0173892],[74.0003156,15.0174587],[74.0004503,15.017495],[74.0006269,15.0175989],[74.0007059,15.0177888],[74.0007475,15.0180193],[74.0007893,15.0181369],[74.0009334,15.018259],[74.0011098,15.0183766],[74.0012307,15.0184083],[74.0013655,15.0184173],[74.001519,15.018386],[74.0017236,15.0182279],[74.0018492,15.0181195],[74.0024679,15.0172567],[74.0026122,15.0170398],[74.0027332,15.0168366],[74.0028588,15.0166062],[74.0029194,15.0163395],[74.0029614,15.0160052],[74.003064,15.0155082],[74.0031385,15.0152957],[74.0032315,15.0151286],[74.0033618,15.0150383],[74.0045565,15.0149758],[74.0047005,15.0149894],[74.0048028,15.0150257],[74.0049701,15.0151387],[74.005351,15.0155683],[74.0054532,15.0156995],[74.0055322,15.0157989],[74.005667,15.0158804],[74.0064106,15.0161474],[74.0066151,15.0161702],[74.0068236,15.0161282],[74.0069824,15.016071],[74.0071266,15.0159988],[74.0072428,15.0158406],[74.0073637,15.015669],[74.0074384,15.0153979],[74.0075734,15.0148873],[74.0076108,15.0144986],[74.0076667,15.0142818],[74.0077319,15.0141326],[74.0078342,15.01397],[74.0079692,15.01383],[74.0081738,15.013672],[74.0085969,15.0134328],[74.0089363,15.0132702],[74.0093362,15.013144],[74.0096244,15.0130311],[74.0098802,15.0129228],[74.0111169,15.0122005],[74.0114519,15.0119613],[74.0123356,15.0112341],[74.012545,15.0110219],[74.0126568,15.0108321],[74.0128198,15.0103622],[74.0128525,15.0101001],[74.0129038,15.0098425],[74.012997,15.0095715],[74.0131227,15.0093591],[74.0133183,15.0091198],[74.0136855,15.0090025],[74.0138808,15.0089936],[74.0140668,15.0090524],[74.0142526,15.0091926],[74.0149728,15.0098754],[74.0154883,15.0106666],[74.0155901,15.0115162],[74.0165744,15.0133788],[74.0166859,15.0133969],[74.0167604,15.0134195],[74.0168719,15.0134603],[74.0169648,15.0135101],[74.0171181,15.0137496],[74.0172016,15.0140389],[74.0173592,15.0146853],[74.0174055,15.0149113],[74.0174378,15.0152412],[74.0179812,15.0161001],[74.0182416,15.0161002],[74.0185438,15.0161049],[74.0187019,15.0161502],[74.0187948,15.0162814],[74.0188458,15.0164214],[74.0188132,15.0165752],[74.0187666,15.0167468],[74.018706,15.0169185],[74.0187105,15.0170314],[74.0187384,15.0171626],[74.0187848,15.017244],[74.0189335,15.0173118],[74.0191521,15.0173255],[74.0193194,15.0173211],[74.0207376,15.0172405],[74.0208074,15.017227],[74.0209143,15.0172045],[74.0210399,15.0171684],[74.0211143,15.0170736],[74.0212308,15.0168476],[74.021296,15.0167076],[74.0214449,15.0163507],[74.0215009,15.0161518],[74.0215243,15.015935],[74.0214966,15.0157225],[74.0214548,15.0155237],[74.0209211,15.0141857],[74.0208606,15.0141178],[74.020763,15.0141088],[74.0206096,15.0141087],[74.0198238,15.0141399],[74.0197866,15.0141624],[74.01974,15.0142437],[74.0197167,15.0143024],[74.0195674,15.0150119],[74.0189304,15.0150974],[74.0187214,15.0148758],[74.0187221,15.0137731],[74.0178673,15.012783],[74.0173243,15.0115219],[74.017292,15.0111015],[74.0176639,15.0110927],[74.0187426,15.0109939],[74.0198029,15.0107821],[74.0208446,15.0104347],[74.0219422,15.0099156],[74.0232259,15.0091842],[74.0237608,15.0088229],[74.0241422,15.0085159],[74.0257891,15.0070616],[74.0264775,15.0064157],[74.0269244,15.0058104],[74.0274273,15.0044821],[74.0275299,15.004098],[74.0275438,15.0038992],[74.0273258,15.003158],[74.02747,15.0030811],[74.0275817,15.0029184],[74.0275632,15.0027197],[74.0274891,15.0024801],[74.0271312,15.0021365],[74.0267828,15.0018743],[74.0264342,15.0017294],[74.0256949,15.0016838],[74.0249929,15.0017106],[74.0250444,15.0011322],[74.0259234,15.0006807],[74.0267321,15.0010969],[74.0269273,15.0012641],[74.027141,15.001409],[74.0273223,15.0014858],[74.0274618,15.0015356],[74.0275825,15.0015718],[74.0277266,15.00159],[74.0278197,15.001599],[74.0279266,15.0015947],[74.0279917,15.0015765],[74.0281034,15.0014908],[74.0290846,15.0010439],[74.0292334,15.0010169],[74.0294705,15.0009447],[74.0295682,15.0008408],[74.0296613,15.0006962],[74.0300252,14.9997038],[74.0299042,14.9992084],[74.0296997,14.9988694],[74.0292071,14.9984443],[74.028719,14.9980463],[74.0280126,14.9974496],[74.0277894,14.9971828],[74.0278081,14.996993],[74.0279339,14.9967942],[74.0281244,14.9967626],[74.0285057,14.996912],[74.0290262,14.9974817],[74.0292817,14.9979653],[74.0294583,14.9980602],[74.0301929,14.9983453],[74.030416,14.9984087],[74.0307275,14.998445],[74.031769,14.9985222],[74.0319737,14.9985087],[74.0325038,14.9983823],[74.0327689,14.9983102],[74.0328945,14.9980527],[74.0330667,14.9977183],[74.0332667,14.9974924],[74.0335737,14.9972937],[74.033876,14.9971401],[74.0341784,14.9968058],[74.0344388,14.9964806],[74.0346668,14.9961643],[74.0349553,14.9957395],[74.0356254,14.9942846],[74.0357418,14.9938824],[74.0357652,14.9935751],[74.0357421,14.9933943],[74.0355098,14.9928971],[74.0360679,14.9925267],[74.0374674,14.9925724],[74.0381972,14.9930111],[74.0390898,14.9932645],[74.039778,14.9932693],[74.0397452,14.9937076],[74.0398891,14.9943043],[74.0400657,14.9946253],[74.0406514,14.9952446],[74.0407816,14.9953305],[74.0410419,14.9954346],[74.0410651,14.9953804],[74.0408189,14.9948696],[74.0406004,14.9946661],[74.0404052,14.9944355],[74.0402984,14.9941869],[74.0402102,14.9935678],[74.0402384,14.993256],[74.0402199,14.9929441],[74.0401316,14.9926367],[74.0400201,14.9924469],[74.0397412,14.9923654],[74.0395319,14.9923744],[74.0393552,14.9924015],[74.0390157,14.9926001],[74.0387739,14.9927086],[74.0385229,14.9926768],[74.0382718,14.9925277],[74.0381231,14.9922925],[74.037928,14.9920529],[74.0377931,14.9919534],[74.0375886,14.9918675],[74.0373143,14.9918313],[74.0371515,14.9918357],[74.0369469,14.9919125],[74.0368074,14.9919983],[74.0365842,14.9920659],[74.0364772,14.9920795],[74.0363285,14.9920478],[74.0362216,14.9919845],[74.0361286,14.9918352],[74.0361705,14.9916681],[74.0363055,14.9914241],[74.03678,14.9908097],[74.0372313,14.9901003],[74.0382456,14.988162],[74.0385855,14.9871678],[74.0388556,14.9858618],[74.0392004,14.9839548],[74.0387218,14.9832541],[74.0385453,14.9830461],[74.0377269,14.9832853],[74.0368901,14.9830455],[74.0360301,14.9827876],[74.0354584,14.982349],[74.0353563,14.9820099],[74.0355423,14.9817931],[74.0366442,14.9818523],[74.0379508,14.9815365],[74.0387924,14.9813379],[74.0393828,14.9815369],[74.0400384,14.9814966],[74.0406291,14.9809002],[74.0412853,14.9792915],[74.0422066,14.9772266],[74.042523,14.976716],[74.0428302,14.9759071],[74.0430349,14.9752383],[74.043184,14.974565],[74.043426,14.9739098],[74.0437052,14.9733811],[74.0437843,14.9731372],[74.0438634,14.9728388],[74.0439054,14.9725722],[74.043859,14.9723462],[74.0437846,14.9722829],[74.0435057,14.9721608],[74.043264,14.9720387],[74.0431664,14.9719573],[74.0431664,14.9718941],[74.0435849,14.9716004],[74.0442778,14.9713024],[74.0445521,14.9711805],[74.044701,14.970941],[74.0451291,14.9697074],[74.0456876,14.9680987],[74.0463158,14.9666618],[74.0467578,14.9657987],[74.0470369,14.9651481],[74.0473395,14.9641358],[74.0474792,14.9636387],[74.0479212,14.9625632],[74.0495078,14.9588534],[74.0498987,14.958031],[74.0500197,14.9575204],[74.0500569,14.9572582],[74.0492486,14.9558435],[74.0494253,14.9554457],[74.0494583,14.9544109],[74.0493654,14.9540764],[74.0491423,14.9538278],[74.048673,14.9533079],[74.048264,14.9530456],[74.0479573,14.9528151],[74.0477435,14.952589],[74.047725,14.9524082],[74.0478552,14.9521597],[74.0479482,14.9519789],[74.0480087,14.951753],[74.04793,14.9510254],[74.0478372,14.9504107],[74.0478885,14.9500762],[74.0480838,14.949751],[74.0483769,14.9493715],[74.0484187,14.9492223],[74.0483909,14.9490958],[74.0472568,14.9486389],[74.0462527,14.948616],[74.0454995,14.9486744],[74.0449882,14.9485748],[74.0447744,14.9484483],[74.044649,14.9483171],[74.0447002,14.9481183],[74.0453883,14.9476937],[74.0455744,14.9475085],[74.0456628,14.9473007],[74.0455001,14.9471243],[74.0440732,14.9466854],[74.0436827,14.9465859],[74.0435294,14.9464277],[74.0435201,14.9462378],[74.0437666,14.9460074],[74.0445942,14.9458585],[74.0447849,14.945574],[74.045408,14.9445527],[74.04545,14.9443359],[74.0455433,14.9437484],[74.0455433,14.9435721],[74.0455202,14.9433913],[74.0452181,14.943102],[74.0445628,14.9425956],[74.0443165,14.9424012],[74.0443166,14.942252],[74.0443492,14.9419944],[74.0444282,14.9419131],[74.0449628,14.9418365],[74.0454511,14.9415384],[74.0458,14.9408832],[74.04587,14.9401466],[74.0458796,14.939315],[74.0459309,14.9385919],[74.0459822,14.9383434],[74.0463728,14.9379141],[74.046689,14.9374895],[74.0467728,14.9371777],[74.0469966,14.9353474],[74.0470479,14.9349226],[74.0469459,14.9342899],[74.0470483,14.9339645],[74.0476388,14.9335851],[74.0478573,14.9333366],[74.047825,14.9327535],[74.047653,14.9326902],[74.0470301,14.9327397],[74.0467745,14.9327215],[74.0465096,14.9325407],[74.0464074,14.932274],[74.0463564,14.9319622],[74.0464402,14.9316232],[74.0466542,14.9313431],[74.0471005,14.9309094],[74.0474585,14.9305886],[74.0476352,14.9303898],[74.047612,14.9302136],[74.047287,14.9292328],[74.0471849,14.9290248],[74.0469014,14.9289434],[74.0459112,14.9291916],[74.0456555,14.9292548],[74.0451117,14.9291145],[74.0448375,14.928884],[74.0447028,14.9285946],[74.0447448,14.9281789],[74.0449913,14.9277722],[74.0456099,14.9267058],[74.0451638,14.9263758],[74.0447038,14.925978],[74.0447039,14.9257611],[74.0448155,14.9255939],[74.0449365,14.9254945],[74.0453875,14.925115],[74.0461361,14.9243062],[74.0461641,14.9240261],[74.0461641,14.9237865],[74.0461363,14.92366],[74.046062,14.9234882],[74.0458901,14.9234475],[74.0453881,14.9233388],[74.0435012,14.9228817],[74.0431339,14.9227144],[74.0428877,14.9224838],[74.0427949,14.922086],[74.0427022,14.9212545],[74.0427024,14.920798],[74.0428886,14.9202015],[74.043284,14.9192978],[74.0439491,14.9181591],[74.0440003,14.9178699],[74.0441308,14.9171288],[74.044196,14.9166],[74.0445448,14.9160669],[74.0454002,14.9156831],[74.0459208,14.9154346],[74.0467996,14.9148294],[74.04772,14.9142015],[74.0479757,14.9141021],[74.0486682,14.9141973],[74.0489564,14.9143149],[74.0494165,14.9142879],[74.0503044,14.9138679],[74.0512341,14.9135835],[74.0524612,14.9133624],[74.0546969,14.9131281],[74.0553708,14.9131916],[74.0563328,14.9134585],[74.0569046,14.9134632],[74.0570905,14.9134452],[74.0574578,14.9129572],[74.0577648,14.9123924],[74.058132,14.9120446],[74.0586109,14.9117373],[74.0594384,14.9114392],[74.0597034,14.9111682],[74.060001,14.9106215],[74.060308,14.9098713],[74.0605405,14.9094918],[74.0608705,14.9091438],[74.0614841,14.9089768],[74.061921,14.908986],[74.0624647,14.9090585],[74.0628831,14.9090585],[74.063241,14.9089366],[74.0644031,14.9083494],[74.0653933,14.9076356],[74.06623,14.907089],[74.0665695,14.9065694],[74.066602,14.9063615],[74.0670903,14.9058283],[74.0672342,14.9058917],[74.0676014,14.9061674],[74.0677036,14.906407],[74.0677127,14.9070126],[74.06801,14.9078668],[74.0685722,14.908233],[74.0698271,14.908274],[74.0701339,14.9081656],[74.0701571,14.9079486],[74.0701667,14.9076097],[74.070176,14.9072436],[74.0701946,14.9069227],[74.0703202,14.9067058],[74.0705433,14.9064755],[74.070892,14.9062089],[74.0713289,14.906114],[74.0716496,14.9062723],[74.0720957,14.9066204],[74.0725138,14.9070499],[74.0729879,14.9073392],[74.0734944,14.9074252],[74.0739127,14.9074253],[74.0741823,14.9075248],[74.0746097,14.9079542],[74.0749861,14.9083882],[74.0753765,14.9085374],[74.0758274,14.9085555],[74.0761109,14.9084155],[74.0764595,14.9083477],[74.0766547,14.9084246],[74.0771751,14.9088541],[74.0776213,14.9089853],[74.0782581,14.9091119],[74.0785741,14.9091662],[74.078746,14.9090488],[74.0788902,14.9088002],[74.0790947,14.9086918],[74.0794248,14.9086286],[74.0798709,14.9088094],[74.0803635,14.9091259],[74.0807725,14.9091757],[74.0811072,14.9090763],[74.0817626,14.9084302],[74.0825483,14.9074902],[74.0837245,14.9058364],[74.0840175,14.9050592],[74.0842128,14.9044084],[74.0840688,14.9042592],[74.083762,14.9040106],[74.0834553,14.9037619],[74.0834042,14.9035631],[74.0833765,14.9031383],[74.0834463,14.9028175],[74.0835578,14.9025689],[74.0837298,14.9023746],[74.0838135,14.9018006],[74.0837113,14.901561],[74.0835256,14.9009916],[74.0835256,14.900865],[74.0836604,14.9006753],[74.0840973,14.9005263],[74.0847851,14.9005264],[74.0852453,14.9004586],[74.0853668,14.9003174],[74.0857822,14.9009044],[74.0865674,14.9012751],[74.0881888,14.9034309],[74.0902845,14.9034086],[74.0908095,14.9042989],[74.092835,14.9077336],[74.0945241,14.9109839],[74.0960269,14.9119638],[74.1016309,14.9157875],[74.1033923,14.9145225],[74.104796,14.9129003],[74.1073239,14.9141749],[74.1085126,14.9139447],[74.1096179,14.9169686],[74.1096193,14.9169723],[74.1127562,14.9177317],[74.1135927,14.9172889],[74.114615,14.9183554],[74.116381,14.9181025],[74.119978,14.9168961],[74.1215964,14.9179693],[74.1211374,14.918709],[74.1204309,14.9198475],[74.1204333,14.9198515],[74.1239327,14.9249015],[74.1242228,14.9253202],[74.1242254,14.925324],[74.1248668,14.9252607],[74.126893,14.9251659],[74.1284407,14.9254912],[74.1298255,14.9254686],[74.1350445,14.9220929],[74.1401474,14.923227],[74.1437211,14.9214509],[74.1457239,14.9189472],[74.1534196,14.917139],[74.1534195,14.9162895],[74.156612,14.9149425],[74.1621185,14.91214],[74.1630481,14.9131205],[74.1661948,14.9165498],[74.1659477,14.9181038],[74.1655749,14.9191899],[74.1650684,14.9202143],[74.165029,14.9208249],[74.1648386,14.9213129],[74.1641928,14.9223569],[74.1635516,14.9234913],[74.1636448,14.9243272],[74.1636265,14.9244638],[74.1635983,14.9246752],[74.1631941,14.9257507],[74.1625762,14.9268851],[74.1615491,14.927301],[74.1612658,14.9276264],[74.1609777,14.9280195],[74.1604525,14.9282772],[74.1594998,14.9284174],[74.1593791,14.9289732],[74.1587843,14.9298997],[74.1585473,14.9302251],[74.1581896,14.9315085],[74.1578962,14.933002],[74.157688,14.9340346],[74.1575208,14.93436],[74.1573412,14.9344105],[74.1567818,14.934568],[74.1567587,14.9349611],[74.1569306,14.9354218],[74.1562337,14.9372342],[74.1561982,14.937649],[74.1561873,14.9377764],[74.1562386,14.9388655],[74.1547936,14.9393328],[74.1544493,14.9394441],[74.1542588,14.9398373],[74.1541891,14.9403027],[74.1542353,14.9407155],[74.1542356,14.9407184],[74.1550202,14.9411336],[74.1554698,14.9421964],[74.1549491,14.9424767],[74.1543264,14.9428022],[74.1541591,14.9432405],[74.1541592,14.9434258],[74.1541616,14.9434298],[74.1550193,14.9440877],[74.1550423,14.944596],[74.1550425,14.945292],[74.1550704,14.9459879],[74.1553308,14.9464759],[74.1553332,14.9464799],[74.155812,14.9468504],[74.1568346,14.9474061],[74.1574522,14.9481012],[74.1583337,14.9493062],[74.1583107,14.9502849],[74.1578134,14.9512836],[74.1578158,14.9512877],[74.1587191,14.9521161],[74.1580972,14.9530686],[74.1580996,14.9530726],[74.158769,14.9535786],[74.1589571,14.9538775],[74.1594593,14.9548266],[74.1594593,14.9551064],[74.1591248,14.9556398],[74.1591481,14.9558476],[74.1591505,14.9558516],[74.1596292,14.9560594],[74.1603682,14.955526],[74.1607726,14.9555532],[74.1610083,14.9558136],[74.1613142,14.9565974],[74.1613166,14.9566014],[74.1622927,14.9568588],[74.162725,14.9572022],[74.1636083,14.9584809],[74.165133,14.9585711],[74.1662764,14.9583857],[74.1668946,14.9585256],[74.167801,14.9582453],[74.168828,14.9576893],[74.1696369,14.957653],[74.1703528,14.9579556],[74.1713751,14.9571918],[74.1723049,14.9580728],[74.1731417,14.9581178],[74.1738807,14.9585831],[74.1747639,14.9585332],[74.1762141,14.9580946],[74.1770506,14.9576064],[74.1776688,14.9574435],[74.1794581,14.95705],[74.179069,14.9558536],[74.1783604,14.9536747],[74.1790493,14.9527523],[74.1798659,14.9516589],[74.1797719,14.9510995],[74.1800329,14.9507501],[74.1814599,14.9505197],[74.1821753,14.9491097],[74.183486,14.9488067],[74.1835835,14.9483186],[74.1841319,14.9478802],[74.185275,14.9472969],[74.1859908,14.9471341],[74.1881101,14.9465189],[74.1912563,14.9450088],[74.1917348,14.9445478],[74.1933053,14.9427398],[74.1947592,14.9399422],[74.194814,14.9394664],[74.1949493,14.9382927],[74.1946607,14.9370908],[74.1946583,14.9370868],[74.1916575,14.9330424],[74.1999974,14.9264111],[74.2015448,14.9257237],[74.2042165,14.9283379],[74.2042179,14.9283393],[74.2048359,14.9301217],[74.2058642,14.9312128],[74.2061713,14.9322791],[74.2062924,14.9330292],[74.2074812,14.9351812],[74.2074829,14.9351843],[74.2088433,14.936921],[74.2088453,14.9369236],[74.2091285,14.9380592],[74.2126315,14.9402688],[74.2116365,14.9435427],[74.2136625,14.9476862],[74.2136646,14.9476904],[74.2175495,14.9459536],[74.2200044,14.9480223],[74.2239648,14.9488793],[74.2240648,14.9489581],[74.2259642,14.9504555],[74.2272978,14.9498042],[74.2296526,14.9504572],[74.2298034,14.9504991],[74.2309238,14.9518537],[74.2309242,14.9518542],[74.2317476,14.9533676],[74.2314507,14.9546828],[74.2313818,14.956165],[74.2314524,14.9580991],[74.2317408,14.9587225],[74.2320479,14.9593731],[74.2322156,14.9599288],[74.2323601,14.9609726],[74.2324303,14.9617363],[74.2327659,14.9637515],[74.2328626,14.964118],[74.2328637,14.964122],[74.2338398,14.9640629],[74.234221,14.9641576],[74.2349603,14.9645956],[74.2353417,14.9650111],[74.2360329,14.966286],[74.2360349,14.9662896],[74.2366998,14.9668451],[74.2373926,14.9671205],[74.2381547,14.9666094],[74.2387265,14.966817],[74.2391355,14.9667265],[74.2398976,14.9663104],[74.2405156,14.9657542],[74.241398,14.9643168],[74.2421834,14.9641041],[74.2431361,14.9638279],[74.2442794,14.9633393],[74.2450923,14.9623177],[74.2455941,14.9618791],[74.2459473,14.9617885],[74.2465238,14.9620187],[74.2475463,14.9619232],[74.248048,14.961322],[74.2492344,14.9590412],[74.2494156,14.9591724],[74.2495278,14.9595416],[74.2495288,14.959545],[74.2502061,14.9598636],[74.2509976,14.9597849],[74.2517225,14.9596376],[74.2525958,14.9590939],[74.2525959,14.9590938],[74.2537453,14.9611187],[74.2534609,14.9636557],[74.2545508,14.9687577],[74.2552702,14.9704163],[74.255272,14.9704203],[74.2590977,14.9700614],[74.2590988,14.9700613],[74.2593541,14.9708884],[74.2609878,14.9764701],[74.2609887,14.9764733],[74.2640415,14.9783529],[74.2643169,14.9785225],[74.2643205,14.9785247],[74.2581825,14.9876364],[74.2577032,14.9882326],[74.2574195,14.9884629],[74.2569405,14.9885937],[74.2560196,14.9888281],[74.2554568,14.9890401],[74.2549916,14.9893923],[74.2542752,14.9900878],[74.2531305,14.9913163],[74.2524977,14.992048],[74.2521206,14.9926805],[74.2519343,14.9931278],[74.2518644,14.993426],[74.2518643,14.9936248],[74.2519338,14.9939413],[74.2521707,14.9946239],[74.252649,14.9956681],[74.2534232,14.997674],[74.2536038,14.998142],[74.2536052,14.9981455],[74.2564633,14.9992592],[74.2589032,15.0002776],[74.2595028,15.0005085],[74.2609535,15.0001297],[74.2619111,15.0002434],[74.2628687,15.0004292],[74.2644212,15.0007602],[74.2648627,15.0010045],[74.2678101,15.0019281],[74.2680673,15.0020087],[74.2680701,15.0020095],[74.2680234,15.002407],[74.2671398,15.003471],[74.2669208,15.0037348],[74.2666371,15.0041187],[74.2664683,15.006891],[74.2664682,15.0068929],[74.2691027,15.009117],[74.269961,15.0107237],[74.2699625,15.0107265],[74.2708499,15.0120102],[74.2724528,15.0142477],[74.2727922,15.0145054],[74.2740238,15.0155092],[74.2834123,15.0235299],[74.2836214,15.0239728],[74.2832602,15.031567],[74.2832601,15.0315681],[74.2852214,15.0338961],[74.2876666,15.0357363],[74.287978,15.0360166],[74.2882414,15.0367362],[74.2882427,15.0367397],[74.2935615,15.0390963],[74.2938823,15.0392953],[74.2964922,15.0412057],[74.296495,15.0412077],[74.2964344,15.0415195],[74.2958569,15.0440632],[74.2954694,15.0450663],[74.2953263,15.0454366],[74.2950933,15.0469592],[74.2948822,15.0479331],[74.2946135,15.049173],[74.2929111,15.0500805],[74.2902544,15.0536127],[74.2899932,15.0554607],[74.2897505,15.0580045],[74.2898247,15.0584474],[74.2901351,15.0614208],[74.2897464,15.0635383],[74.2895103,15.0648241],[74.2860779,15.0659509],[74.2855988,15.0659506],[74.2845897,15.0658823],[74.2841106,15.0659725],[74.2837292,15.066135],[74.2807282,15.0688175],[74.280788,15.070503],[74.2806759,15.0716325],[74.2803772,15.0749559],[74.2804176,15.0808186],[74.2797414,15.0875814],[74.2796918,15.0880774],[74.2786719,15.0898869],[74.2752398,15.095948],[74.2730825,15.0972673],[74.2726451,15.0974976],[74.2740513,15.101804],[74.2745356,15.1032872],[74.2765521,15.1053791],[74.2826584,15.1067372],[74.2828756,15.11303],[74.2828779,15.1130339],[74.2848838,15.1139138],[74.2841684,15.1257949],[74.2841782,15.12753],[74.284489,15.129078],[74.2841944,15.1327927],[74.2851855,15.1367228],[74.2850755,15.1377731],[74.2849105,15.139349],[74.2835783,15.1428731],[74.2836238,15.1452997],[74.2836262,15.1453037],[74.284606,15.145417],[74.2851344,15.1490287],[74.2851368,15.1490327],[74.2882775,15.1494544],[74.2913451,15.1489128],[74.2956659,15.1512428],[74.2991914,15.1564839],[74.3014937,15.1589186],[74.3046426,15.1636061],[74.3103032,15.1731796],[74.310973,15.1743412],[74.3113757,15.1750264],[74.3115614,15.1753424],[74.3119487,15.1754775],[74.3131159,15.1764231],[74.3138431,15.1770307],[74.3142469,15.1775178],[74.3143108,15.177851],[74.3142439,15.1789601],[74.3141734,15.1805411],[74.3173078,15.1836421],[74.317378,15.1837501],[74.3173485,15.1838884],[74.3172418,15.1841248],[74.3170317,15.1847695],[74.3170499,15.1857231],[74.3169611,15.1862608],[74.316081,15.1878422],[74.3156014,15.1883618],[74.3144563,15.1893872],[74.3133301,15.1899969],[74.31306,15.1902047],[74.3126993,15.1907018],[74.3124175,15.1910901],[74.3119659,15.1917634],[74.3110531,15.1933086],[74.3103916,15.1946776],[74.3102842,15.1954413],[74.3101348,15.1960789],[74.3099624,15.196815],[74.309684,15.1972705],[74.3093383,15.1978361],[74.3091565,15.19841],[74.3090866,15.1988935],[74.3087831,15.2007869],[74.3086196,15.2017946],[74.3087078,15.2022828],[74.3089771,15.2031776],[74.3099393,15.2051936],[74.3099633,15.2052903],[74.3101204,15.2059258],[74.3100458,15.2062873],[74.309813,15.2065312],[74.3094546,15.2066531],[74.3087237,15.2072945],[74.3081322,15.2082163],[74.3078855,15.2084602],[74.3071221,15.2086814],[74.306424,15.2088529],[74.3062314,15.2089305],[74.3061238,15.2089787],[74.3057467,15.2093987],[74.3056023,15.2098145],[74.3056393,15.2101625],[74.3053873,15.2113781],[74.3052472,15.2122095],[74.3048885,15.2130455],[74.30453,15.2131673],[74.3043764,15.2134249],[74.304269,15.2140304],[74.3043757,15.2146044],[74.304822,15.2153683],[74.304873,15.2156801],[74.3048728,15.2160959],[74.304733,15.2164258],[74.3045188,15.216724],[74.3042302,15.2168097],[74.3036066,15.2167914],[74.3033553,15.2168636],[74.3032109,15.2170353],[74.3030664,15.2174871],[74.3029453,15.2176588],[74.302638,15.2179027],[74.3022098,15.2180065],[74.3018516,15.2179205],[74.3015307,15.2175543],[74.3015304,15.2175528],[74.3014412,15.2170552],[74.3003618,15.2190977],[74.3002872,15.2191491],[74.2998586,15.2199307],[74.2998025,15.2204865],[74.2998721,15.2207126],[74.3003354,15.2213702],[74.3006042,15.2219246],[74.3006737,15.2226388],[74.3007293,15.2230183],[74.3007316,15.2230222],[74.3011985,15.2237211],[74.3016124,15.2243407],[74.3009238,15.2248035],[74.2991729,15.2265608],[74.2987585,15.2268363],[74.2970079,15.2280874],[74.2967703,15.2284308],[74.2965002,15.2288465],[74.2960204,15.2294382],[74.2956992,15.2297138],[74.2942837,15.2307707],[74.2928727,15.2320716],[74.2919413,15.2331105],[74.2914986,15.2338154],[74.2866963,15.2328102],[74.2811392,15.2362626],[74.2686014,15.2388695],[74.2595473,15.241024],[74.2558809,15.2450666],[74.2555408,15.2465023],[74.2553018,15.2475111],[74.253068,15.2500437],[74.2522012,15.2510264],[74.2522036,15.2510303],[74.2544498,15.2537718],[74.2546946,15.2540706],[74.2520934,15.2575429],[74.2511142,15.25885],[74.2511166,15.2588538],[74.2610254,15.2601886],[74.2615497,15.2607223],[74.2625692,15.2618829],[74.2647206,15.2677132],[74.2651663,15.2689211],[74.2675944,15.2728759],[74.2700178,15.2768229],[74.2700202,15.2768268],[74.271289,15.2805429],[74.2714877,15.2811248],[74.2714968,15.281132],[74.2763267,15.2835323],[74.2817884,15.2804176],[74.2876545,15.2838853],[74.2933521,15.2845099],[74.2933536,15.2845101],[74.2941778,15.2884599],[74.2942604,15.2888553],[74.2943296,15.289187],[74.2944568,15.2891653],[74.296376,15.2888371],[74.3079576,15.2833342],[74.319629,15.2834449],[74.3205678,15.2847044],[74.3263664,15.2837375],[74.3307399,15.2875097],[74.3364371,15.2949429],[74.335947,15.2955185],[74.3337983,15.2982041],[74.3245079,15.309811],[74.3244283,15.3099104],[74.3170232,15.3291167],[74.3177037,15.3339148],[74.3176723,15.3339959],[74.3172198,15.3351652],[74.3172174,15.3351717],[74.3198008,15.3400706],[74.3198032,15.3400745],[74.3210583,15.3420105],[74.3210602,15.3420134],[74.3218422,15.343595],[74.3201695,15.3479685],[74.3177369,15.3547456],[74.3160405,15.3599731],[74.3162821,15.3625127],[74.3162588,15.3629985],[74.3162587,15.3630007],[74.3222596,15.3670445],[74.3231978,15.3676767],[74.3232021,15.3676796],[74.3224905,15.3680209],[74.3209709,15.3687499],[74.3138718,15.371992],[74.3097678,15.3738205],[74.3085985,15.3744527],[74.3081187,15.3748141],[74.3071496,15.3755412],[74.3016102,15.3795833],[74.3004594,15.3803871],[74.2987051,15.381937],[74.2869761,15.3827268],[74.2865753,15.3827537],[74.2829932,15.3829418],[74.2805232,15.3857375],[74.2758717,15.3915868],[74.2767003,15.3965872],[74.2771306,15.3991836],[74.2777114,15.4025775],[74.2782027,15.4051897],[74.278297,15.4056913],[74.2777982,15.4063643],[74.2768007,15.40748],[74.2766415,15.4077362],[74.2762366,15.4083878],[74.2754996,15.4103215],[74.2749912,15.4120712],[74.2749746,15.4121284],[74.2747342,15.4129556],[74.274324,15.4135835],[74.2721727,15.4148901],[74.270414,15.4159582],[74.2687818,15.4190978],[74.2690231,15.4209733],[74.2699152,15.4260439],[74.2699176,15.4260478],[74.2711002,15.427612],[74.2722482,15.4290843],[74.2749604,15.4325624],[74.2768902,15.4352079],[74.2768928,15.4352116],[74.2762641,15.4356392],[74.2750648,15.4364549],[74.2750636,15.4364557],[74.27686,15.4379468],[74.2768619,15.4379485],[74.2773657,15.4404945],[74.2768342,15.4416994],[74.2762975,15.442916],[74.2761059,15.4440728],[74.2756246,15.4470415],[74.2754799,15.448832],[74.2754512,15.4491879],[74.2748216,15.450367],[74.2731471,15.4537147],[74.2720601,15.4561949],[74.2707122,15.4586164],[74.2683661,15.4625963],[74.2674752,15.4641728],[74.2670313,15.4651451],[74.266976,15.4652661],[74.2658702,15.4679634],[74.2650076,15.4701509],[74.2645448,15.4713247],[74.2639757,15.4723592],[74.2623711,15.475011],[74.2608036,15.4775994],[74.2582938,15.4820581],[74.2544738,15.4869001],[74.2509101,15.4915931],[74.25091,15.49172],[74.25091,15.4918056],[74.2522917,15.4993361],[74.2522941,15.4993399],[74.253461,15.5009386],[74.2534629,15.5009422],[74.2535879,15.5013284],[74.2535931,15.501348],[74.2538129,15.5017161],[74.2538153,15.5017199],[74.2548112,15.5027154],[74.2551677,15.5030717],[74.2551707,15.5030748],[74.2570424,15.5045297],[74.2596679,15.5061008],[74.2603025,15.506464],[74.2631365,15.5072829],[74.264826,15.5079277],[74.2680175,15.5093102],[74.2703513,15.5102776],[74.2714776,15.5108534],[74.2738675,15.5122457],[74.2749028,15.5130555],[74.2755248,15.5137166],[74.2764723,15.5148912],[74.278472,15.5174762],[74.2784319,15.5186093],[74.2781705,15.5220276],[74.2781662,15.5220836],[74.2781534,15.5228467],[74.2785299,15.5236968],[74.2785311,15.5236994],[74.2788771,15.5240326],[74.2794782,15.5244767],[74.2808367,15.5251497],[74.2813539,15.5255974],[74.2817002,15.5261304],[74.2817024,15.5261337],[74.2822531,15.527363],[74.2824815,15.5286704],[74.2826223,15.5303246],[74.2826525,15.5314177],[74.2823654,15.5329863],[74.2822397,15.5336395],[74.2821877,15.5339102],[74.2812945,15.5359197],[74.280883,15.5367482],[74.2806562,15.5372049],[74.2801669,15.5384959],[74.2796428,15.5399808],[74.279213,15.5413808],[74.2788648,15.5429804],[74.2787259,15.5442073],[74.2784371,15.5450443],[74.2779177,15.5461093],[74.2772285,15.5469107],[74.2765053,15.5474136],[74.2755241,15.5480585],[74.2746548,15.5487],[74.2737323,15.5495171],[74.2730117,15.5502142],[74.2722584,15.5513355],[74.2718823,15.5520633],[74.2716779,15.552427],[74.2709855,15.5530973],[74.2702329,15.5537173],[74.2689721,15.5547883],[74.2676731,15.5559357],[74.2660518,15.5575856],[74.2653021,15.5583682],[74.2648712,15.558987],[74.2645475,15.5596023],[74.2642609,15.5602452],[74.2640878,15.5611691],[74.2640379,15.5621882],[74.2638896,15.5626844],[74.2636404,15.563305],[74.2634748,15.5635292],[74.2631534,15.5639367],[74.26174,15.5648798],[74.2612932,15.5648119],[74.2609873,15.5646508],[74.2605823,15.564168],[74.2604037,15.5638682],[74.2601124,15.563224],[74.2597213,15.5623169],[74.2597189,15.5623131],[74.2593874,15.5619349],[74.2590256,15.5617597],[74.258579,15.5616783],[74.2583318,15.5616939],[74.2579114,15.5617709],[74.2575469,15.561853],[74.2571019,15.5620562],[74.2566843,15.5622958],[74.2551919,15.5632198],[74.254232,15.5640409],[74.2527686,15.5652813],[74.2515184,15.5662214],[74.250304,15.5672882],[74.2496661,15.5676519],[74.2492217,15.5677873],[74.2463807,15.5669518],[74.2453946,15.5666619],[74.245193,15.5666026],[74.2453056,15.5671959],[74.246165,15.5690054],[74.2482567,15.5732528],[74.249014,15.5747086],[74.2499056,15.5764734],[74.249908,15.5764772],[74.2503872,15.5771565],[74.2505344,15.5773651],[74.2494062,15.579155],[74.2492252,15.5794422],[74.2488468,15.5801745],[74.2487413,15.5803786],[74.2487437,15.5803824],[74.2492445,15.5808867],[74.2516872,15.5834675],[74.25338,15.5851465],[74.2555774,15.5875758],[74.2573234,15.5895083],[74.2596884,15.5919664],[74.2602477,15.592633],[74.2602491,15.5929302],[74.2601095,15.5937642],[74.2598442,15.5950032],[74.2595921,15.5963192],[74.2596921,15.5974085],[74.2597854,15.5978429],[74.2599289,15.5981346],[74.2604286,15.59915],[74.2606089,15.5997163],[74.2607991,15.600662],[74.2605528,15.6018743],[74.2604114,15.6033043],[74.2600742,15.6047277],[74.2599919,15.6067228],[74.2599942,15.6067266],[74.2613292,15.6078872],[74.2619098,15.608425],[74.2620224,15.6086672],[74.2624887,15.6108124],[74.2630168,15.6124072],[74.2634097,15.613161],[74.264046,15.6146757],[74.264298,15.6155091],[74.2641589,15.6158779],[74.2630718,15.617226],[74.2612074,15.6192978],[74.2604551,15.6198636],[74.2594014,15.6203807],[74.2585893,15.6207792],[74.2586155,15.6209421],[74.2588395,15.6213463],[74.2588394,15.6226422],[74.2584768,15.6233973],[74.2573622,15.6242574],[74.256554,15.6248271],[74.2549601,15.6256825],[74.2547318,15.62581],[74.2543264,15.6262123],[74.2537237,15.6267389],[74.2536398,15.6267291],[74.2521489,15.6257655],[74.2482568,15.6229024],[74.2441596,15.6261084],[74.2456436,15.6318115],[74.2476902,15.6402192],[74.2492238,15.6454687],[74.2496293,15.6467689],[74.2500469,15.6482498],[74.2505466,15.649885],[74.2516294,15.6532152],[74.2519765,15.6543114],[74.2517404,15.65458],[74.2510292,15.6552184],[74.2509222,15.655322],[74.2503598,15.6558663],[74.2501888,15.656149],[74.2503697,15.6566656],[74.2504855,15.6571635],[74.2504425,15.6572579],[74.2498579,15.6574054],[74.2492414,15.6574849],[74.2489614,15.6575001],[74.2485643,15.6574913],[74.2448525,15.6582013],[74.2429868,15.6624406],[74.239744,15.6631163],[74.2385906,15.6633567],[74.2381718,15.6636221],[74.2388006,15.6641292],[74.2393989,15.6646117],[74.2394024,15.6646146],[74.2372882,15.6661444],[74.236917,15.6668758],[74.2366433,15.6677485],[74.236356,15.6685848],[74.2353151,15.6683403],[74.2339011,15.6680997],[74.2333481,15.6679747],[74.2327615,15.6675872],[74.2314948,15.6661921],[74.2297902,15.6663811],[74.2284102,15.6644424],[74.2273411,15.6654985],[74.2265376,15.6659166],[74.2257559,15.6661273],[74.2251168,15.6661984],[74.2245976,15.6662561],[74.2245403,15.6666754],[74.2245643,15.6676298],[74.2245787,15.6681985],[74.224195,15.6689295],[74.2237793,15.6689826],[74.2215722,15.667168],[74.2180226,15.6643435],[74.2176502,15.6622989],[74.215149,15.6628741],[74.2164632,15.6603578],[74.2177186,15.6583601],[74.2189386,15.6578393],[74.2205058,15.6574767],[74.2222214,15.6568542],[74.2221644,15.6556426],[74.222162,15.6556389],[74.221002,15.6549319],[74.2174532,15.6527374],[74.2158636,15.6530409],[74.2140859,15.652488],[74.2099602,15.6518215],[74.2069322,15.651327],[74.205548,15.6511009],[74.2051275,15.6510322],[74.2032608,15.6536899],[74.2017533,15.656339],[74.2022718,15.6581713],[74.2034714,15.6618652],[74.2040608,15.6636803],[74.2033257,15.6632411],[74.2025906,15.6631405],[74.1976705,15.6644732],[74.1931203,15.6656932],[74.1868415,15.6674495],[74.186794,15.6681445],[74.1863991,15.6712021],[74.1861032,15.6745004],[74.1861057,15.6745041],[74.1898037,15.6754363],[74.1909179,15.6764049],[74.1908431,15.6789487],[74.190843,15.6789519],[74.1905525,15.6796481],[74.1902677,15.6803308],[74.1894911,15.6806326],[74.1887294,15.6809285],[74.1879594,15.6809719],[74.1870798,15.6810095],[74.1866388,15.6810237],[74.1862312,15.6809999],[74.1857973,15.6810211],[74.1852757,15.681129],[74.1850035,15.6812382],[74.1847404,15.6813746],[74.1841098,15.6817634],[74.1832852,15.682023],[74.1819301,15.682212],[74.1809704,15.682149],[74.1804839,15.6819344],[74.1794287,15.6813957],[74.1779877,15.6807748],[74.1767319,15.6802378],[74.1763523,15.6800518],[74.1750318,15.6788543],[74.1748396,15.6786076],[74.1748378,15.6786049],[74.1746619,15.6783251],[74.1743535,15.6769437],[74.173606,15.6759476],[74.1721447,15.6743334],[74.1716114,15.67382],[74.1704748,15.6734291],[74.1695137,15.6731492],[74.1687711,15.672913],[74.1679846,15.6724953],[74.167369,15.6720913],[74.1676455,15.6711534],[74.167231,15.6706076],[74.1668473,15.6698087],[74.1665188,15.6686972],[74.1656802,15.6648953],[74.1655813,15.6637057],[74.1653626,15.6611728],[74.1651921,15.6594718],[74.1650148,15.6579108],[74.1650155,15.657904],[74.1651747,15.6562595],[74.165585,15.6543769],[74.1655826,15.6543733],[74.164416,15.6534985],[74.1631035,15.6536609],[74.1606289,15.6542],[74.1574654,15.6546751],[74.1565357,15.6533546],[74.155056,15.6507057],[74.1550536,15.650702],[74.1543523,15.6499016],[74.1543523,15.6499016],[74.1528909,15.6509698],[74.1521427,15.6514336],[74.1510872,15.6518615],[74.1500871,15.6520191],[74.1490947,15.6519735],[74.1472593,15.6515183],[74.1465073,15.6513318],[74.1453536,15.6511664],[74.1438756,15.6511682],[74.1425972,15.6512224],[74.1411165,15.6510976],[74.13977,15.6507172],[74.1381255,15.6500118],[74.1376043,15.6496386],[74.1365131,15.6487196],[74.135544,15.6483716],[74.1331598,15.6491103],[74.1292867,15.6505599],[74.127292,15.6511234],[74.1250616,15.6512408],[74.1238723,15.6509529],[74.1234422,15.6513443],[74.1230888,15.6518994],[74.1196033,15.6523739],[74.1192048,15.6523819],[74.1190764,15.6523845],[74.1182645,15.6520316],[74.1175752,15.6521475],[74.1167607,15.6511526],[74.116418,15.6500707],[74.1161335,15.6491765],[74.1141108,15.6487895],[74.1139061,15.6464942],[74.1138855,15.6461274],[74.1114574,15.6467101],[74.1100781,15.6469147],[74.1087535,15.6461867],[74.1077815,15.646335],[74.1070633,15.646449],[74.1031102,15.6448361],[74.10236,15.6436444],[74.1017402,15.6426344],[74.1007384,15.6425081],[74.0987873,15.641538],[74.0977668,15.6411154],[74.0975319,15.6410193],[74.0969056,15.6413532],[74.0942937,15.6423674],[74.0934368,15.6416551],[74.092334,15.6408634],[74.0914697,15.6402623],[74.0904514,15.6398122],[74.0884609,15.638952],[74.0869247,15.6376082],[74.0860267,15.636734],[74.0855183,15.6355955],[74.0838132,15.6348782],[74.0816919,15.6335722],[74.080103,15.6327088],[74.0784946,15.6317572],[74.0775989,15.6322122],[74.0743801,15.63092],[74.0732637,15.6304487],[74.0715186,15.6297311],[74.0701061,15.6291641],[74.0695672,15.6300012],[74.0674807,15.6299962],[74.0657667,15.6296837],[74.0656432,15.6295969],[74.0656079,15.6291285],[74.0647982,15.6284228],[74.0644959,15.6286901],[74.0637174,15.6270713],[74.0634196,15.626452],[74.063169,15.6263804],[74.0618187,15.6266021],[74.0618377,15.6266812],[74.0618368,15.6281478],[74.0616144,15.6285298],[74.0610489,15.6282523],[74.0609251,15.6281401],[74.0602555,15.6275915],[74.0599,15.6273173],[74.0585477,15.6270043],[74.0574197,15.6267459],[74.0562896,15.6264875],[74.0557713,15.6263476],[74.053306,15.6256643],[74.0508583,15.6249589],[74.0503227,15.6248667],[74.0461698,15.6244982],[74.0442294,15.6243836],[74.0435674,15.62435],[74.0435404,15.6243486],[74.0420848,15.624319],[74.0418629,15.6243719],[74.0414335,15.6245092],[74.0409444,15.6244058],[74.0395598,15.6240417],[74.0388889,15.623847],[74.0373561,15.6235718],[74.0369688,15.6235294],[74.0363101,15.6234441],[74.0355779,15.6233001],[74.0343986,15.622976],[74.032812,15.6225655],[74.0325473,15.6225408],[74.0316645,15.6225657],[74.0314295,15.6225869],[74.0311561,15.6226113],[74.0301082,15.6206878],[74.0299098,15.620273],[74.0295433,15.6195423],[74.0288933,15.6182869],[74.0286305,15.6178682],[74.028428,15.6175662],[74.0281195,15.6171494],[74.0278611,15.6168695],[74.0277066,15.6167419],[74.0274831,15.6158792],[74.0272174,15.614809],[74.0269714,15.6136184],[74.0266621,15.6124517],[74.0264239,15.6116146],[74.0258979,15.6104907],[74.0253999,15.6094436],[74.0252295,15.6093669],[74.0247583,15.6092568],[74.0244188,15.6091305],[74.0241961,15.6090065],[74.0239412,15.6087548],[74.0234429,15.6082567],[74.0233044,15.6080861],[74.0220891,15.6068596],[74.0213767,15.6064299],[74.0207972,15.6060852],[74.0177025,15.6070501],[74.0158911,15.607647],[74.0147794,15.6080353],[74.0134248,15.6085615],[74.0119778,15.6090383],[74.010423,15.609582],[74.0096207,15.6098664],[74.0093116,15.6100474],[74.0088353,15.6101587],[74.0062408,15.6105146],[74.0035591,15.6108671],[74.0020727,15.6111369],[74.0006408,15.6110479],[73.9979305,15.6108358],[73.9977726,15.6108108],[73.9972533,15.6107284],[73.996701,15.6106966],[73.9956937,15.6106763],[73.9933585,15.6106381],[73.9913357,15.6117983],[73.9910715,15.6119378],[73.9905156,15.6122312],[73.9902381,15.6132922],[73.9892271,15.6147602],[73.9878523,15.6166802],[73.9870169,15.6174147],[73.9868238,15.6175845],[73.9859426,15.618446],[73.9852994,15.6193079],[73.9843226,15.620525],[73.9825303,15.6223911],[73.9811542,15.6237996],[73.9805079,15.6246493],[73.9802878,15.6250739],[73.9799888,15.6256216],[73.9793765,15.6266436],[73.9790505,15.6271255],[73.9770158,15.6270739],[73.9765814,15.6268493],[73.9765611,15.6267992],[73.9759401,15.6269542],[73.9735506,15.6275878],[73.9709541,15.6273914],[73.9707836,15.6274124],[73.9705728,15.6278407],[73.9701435,15.6287129],[73.9694447,15.6291264],[73.9693071,15.6292313],[73.9678578,15.6305772],[73.9674259,15.6318003],[73.9670715,15.632816],[73.9676171,15.6338816],[73.9676236,15.6338944],[73.9675506,15.6344551],[73.9675223,15.6346721],[73.9675155,15.6347245],[73.9674596,15.6349938],[73.9674533,15.6350238],[73.9673855,15.6353111],[73.9661679,15.6368555],[73.9656779,15.6374039],[73.9632919,15.6399304],[73.9624664,15.6408269],[73.9617652,15.6416846],[73.9617305,15.6418023],[73.9615287,15.6424863],[73.9614973,15.643041],[73.9611325,15.6452987],[73.9610891,15.6460441],[73.9610767,15.646999],[73.9611001,15.6482372],[73.961119,15.6484211],[73.961864,15.6506492],[73.9623509,15.6518205],[73.9626361,15.6524768],[73.9628233,15.6528389],[73.9635242,15.6540663],[73.9649061,15.6558498],[73.9650101,15.6559693],[73.965998,15.6570938],[73.9672773,15.6587668],[73.9678223,15.6602507],[73.9678089,15.660688],[73.9673634,15.6621061],[73.9668172,15.6635145],[73.9667174,15.6641628],[73.966902,15.6645105],[73.9667565,15.6649116],[73.9663768,15.6652677],[73.9659185,15.6660397],[73.9658544,15.6668957],[73.9658583,15.6677182],[73.965668,15.669302],[73.965568,15.6695746],[73.9649912,15.6706534],[73.964809,15.6709607],[73.9636699,15.671519],[73.9633336,15.6716839],[73.962962,15.6724806],[73.9626911,15.6732587],[73.9626594,15.67361],[73.962641,15.6738454],[73.9627346,15.6741308],[73.9627854,15.6742535],[73.9633312,15.6756647],[73.9629752,15.6763204],[73.9625779,15.6771008],[73.9628158,15.6779084],[73.9631748,15.6790903],[73.9633801,15.6794464],[73.9634407,15.6796054],[73.9636082,15.6807583],[73.9636312,15.6810215],[73.9636928,15.6817355],[73.9637138,15.6820938],[73.9637913,15.6836148],[73.9639176,15.6851791],[73.9639738,15.685885],[73.9640345,15.686668],[73.9641468,15.6883316],[73.9640518,15.6894657],[73.9638023,15.691918],[73.9637605,15.6923218],[73.9636503,15.6926672],[73.9636099,15.6927936],[73.963548,15.6928529],[73.9633271,15.6929498],[73.9626773,15.6938758],[73.9620565,15.6947164],[73.961541,15.6949582],[73.9610674,15.6958414],[73.9604679,15.6970025],[73.9599539,15.6974356],[73.959469,15.697803],[73.9590915,15.6980891],[73.9591923,15.6982376],[73.9598177,15.6990978],[73.9595264,15.6999849],[73.9592255,15.7000571],[73.9589801,15.6998281],[73.9588132,15.6996236],[73.9582658,15.6990267],[73.9576539,15.6990196],[73.9575948,15.699393],[73.957535,15.6998986],[73.9574684,15.7003111],[73.9571179,15.7005004],[73.9562433,15.7002594],[73.9562714,15.7000402],[73.9561541,15.6995298],[73.9553519,15.6993249],[73.9547237,15.699753],[73.9539157,15.6993662],[73.9529405,15.6995269],[73.9524383,15.6992694],[73.9521413,15.698229],[73.9520379,15.697209],[73.9515717,15.6965222],[73.9515227,15.69645],[73.9508575,15.6964729],[73.9504386,15.6970669],[73.9503275,15.6972245],[73.9498641,15.6973283],[73.9493784,15.6971955],[73.9489334,15.6972762],[73.9477161,15.6975872],[73.9465082,15.6978108],[73.9460682,15.6977933],[73.9453189,15.6969846],[73.9446564,15.6962696],[73.9436952,15.6969365],[73.9437585,15.6974888],[73.9441616,15.6984986],[73.9447311,15.6987764],[73.9449644,15.6986938],[73.9456325,15.6989278],[73.9458471,15.6990448],[73.9461529,15.6992825],[73.9465457,15.6997895],[73.9474601,15.7009186],[73.9477445,15.7012649],[73.9479435,15.7016129],[73.9480122,15.7017358],[73.9483438,15.7028635],[73.9485283,15.7035813],[73.9484067,15.7046708],[73.948185,15.7067494],[73.948512,15.707318],[73.9492772,15.7086486],[73.9490349,15.7087711],[73.9489739,15.7088019],[73.9487499,15.7088682],[73.9485573,15.7089068],[73.9484546,15.7089009],[73.9482945,15.7088917],[73.9482475,15.708889],[73.947458,15.7092199],[73.9473434,15.7093025],[73.9471674,15.7095991],[73.9471623,15.7096977],[73.9471655,15.7098265],[73.9473604,15.710124],[73.948022,15.7104839],[73.9485927,15.7104939],[73.9489183,15.7105106],[73.9489325,15.7105113],[73.9492312,15.710546],[73.9498038,15.7107019],[73.9498091,15.7107907],[73.9495535,15.7109874],[73.94935,15.7111439],[73.9493285,15.7111604],[73.9492725,15.7112007],[73.9492239,15.7112355],[73.9491713,15.7113906],[73.9491786,15.7115649],[73.9496763,15.7118942],[73.9500053,15.7120625],[73.9501606,15.7120593],[73.9510248,15.7125736],[73.9522045,15.713857],[73.9522777,15.7141731],[73.952321,15.7143605],[73.9523305,15.7144019],[73.9523154,15.7144387],[73.9522676,15.7145545],[73.9520384,15.7145929],[73.9518121,15.7145825],[73.9516693,15.7155051],[73.9517277,15.716074],[73.9516731,15.716474],[73.9514646,15.7167386],[73.9511105,15.7169393],[73.950097,15.7174247],[73.9495517,15.7184934],[73.9487944,15.7186624],[73.9481701,15.7198498],[73.9474068,15.720533],[73.946968,15.7203746],[73.9468059,15.7204659],[73.9459524,15.7211971],[73.9455908,15.721984],[73.945609,15.7223433],[73.9451042,15.7235537],[73.9449562,15.7238778],[73.9439374,15.7254888],[73.9432701,15.7263194],[73.9432222,15.7271296],[73.942675,15.7278298],[73.9421064,15.7284781],[73.9417411,15.7291903],[73.9416251,15.7297965],[73.941688,15.7314224],[73.9417485,15.7315843],[73.9416655,15.7320907],[73.9406619,15.7340118],[73.9405232,15.7342159],[73.9405221,15.7358915],[73.9406394,15.7369233],[73.9408671,15.7372292],[73.9408892,15.7377547],[73.9408703,15.7381101],[73.9408125,15.7383361],[73.9406175,15.7389981],[73.940433,15.7393371],[73.9402631,15.7395378],[73.9396466,15.7401842],[73.9394584,15.7403815],[73.9388987,15.7414665],[73.938607,15.7420929],[73.938679,15.7429824],[73.9377382,15.7432914],[73.9352429,15.7441144],[73.9336788,15.7445847],[73.9323755,15.7446502],[73.929543,15.7448486],[73.9288388,15.7448088],[73.9262392,15.7446467],[73.9237735,15.7446502],[73.9224382,15.7448673],[73.9212917,15.7450822],[73.9212825,15.7450845],[73.9188031,15.7455167],[73.9175438,15.745709],[73.916824,15.7456584],[73.9148019,15.7454425],[73.9131688,15.746615],[73.9125989,15.7470616],[73.9110895,15.7477624],[73.9098883,15.7484777],[73.9097618,15.7485625],[73.9087626,15.7491923],[73.9086386,15.7492533],[73.9069837,15.7499684],[73.9072853,15.7482787],[73.9069926,15.747968],[73.9062912,15.7479652],[73.9043401,15.7473792],[73.9024218,15.7469168],[73.9013587,15.7466676],[73.900255,15.746793],[73.8991814,15.7459957],[73.8971472,15.7474685],[73.8968385,15.7480481],[73.8958144,15.7483589],[73.8953377,15.7483972],[73.8944751,15.7482535],[73.8928754,15.749386],[73.8913778,15.7495878],[73.8909032,15.749611],[73.8896341,15.7498741],[73.88735,15.750517],[73.8854016,15.7510371],[73.8844077,15.7504855],[73.8810957,15.7497916],[73.877421,15.7504411],[73.8756951,15.7512831],[73.8748335,15.7524693],[73.8744044,15.7530581],[73.872989,15.7545656],[73.8729153,15.756188],[73.8728809,15.7586573],[73.8729019,15.7599445],[73.8730585,15.760877],[73.8748071,15.7614408],[73.8755693,15.7623894],[73.8764779,15.7635903],[73.8769972,15.7643951],[73.8770123,15.7644186],[73.8768783,15.7650733],[73.8763562,15.7656567],[73.8756998,15.7660022],[73.8753629,15.7662826],[73.8750285,15.7665608],[73.8750587,15.7671587],[73.8753653,15.7676892],[73.8756302,15.7680107],[73.8770875,15.7678402],[73.8773524,15.7680783],[73.8777361,15.7690899],[73.8781305,15.7700517],[73.8791908,15.7717314],[73.8800572,15.772791],[73.8798516,15.7743145],[73.8793754,15.7743346],[73.8778416,15.7750751],[73.877872,15.7756319],[73.8776074,15.7753726],[73.8778907,15.7741508],[73.8771639,15.7743668],[73.8764446,15.7747063],[73.8757534,15.7754977],[73.8746192,15.7764985],[73.873509,15.7770916],[73.8728849,15.7786024],[73.8716284,15.7803887],[73.8712973,15.7808324],[73.8705935,15.7819675],[73.8703318,15.7827405],[73.8698457,15.7835429],[73.8690486,15.7839716],[73.8688889,15.7840485],[73.868549,15.7841989],[73.8680119,15.7844254],[73.867966,15.7844089],[73.867919,15.7843955],[73.8678711,15.7843855],[73.8678227,15.7843787],[73.867774,15.7843753],[73.8677249,15.7843752],[73.8676761,15.7843784]]]]}}]}
