{"type":"FeatureCollection","features":[{"type":"Feature","id":"in-goa-t-5610","properties":{"id":"in-goa-t-5610","name":"Bardez","region":"in-goa","level":"tehsil","parent":"in-goa-d-551","district":"North Goa","source":"LGD via Bharatlas · 2024 snapshot","state_lgd":30,"district_lgd":551,"subdistrict_lgd":5610,"center":[73.82035745704492,15.58445932932784],"bbox":[73.7316525,15.4756256,73.9112807,15.6829843]},"geometry":{"type":"Point","coordinates":[73.82035745704492,15.58445932932784]}},{"type":"Feature","id":"in-goa-t-5612","properties":{"id":"in-goa-t-5612","name":"Bicholim","region":"in-goa","level":"tehsil","parent":"in-goa-d-551","district":"North Goa","source":"LGD via Bharatlas · 2024 snapshot","state_lgd":30,"district_lgd":551,"subdistrict_lgd":5612,"center":[73.98040385981471,15.56341130332445],"bbox":[73.8807476,15.4049429,74.1173479,15.7019075]},"geometry":{"type":"Point","coordinates":[73.98040385981471,15.56341130332445]}},{"type":"Feature","id":"in-goa-t-5619","properties":{"id":"in-goa-t-5619","name":"Canacona","region":"in-goa","level":"tehsil","parent":"in-goa-d-552","district":"South Goa","source":"LGD via Bharatlas · 2024 snapshot","state_lgd":30,"district_lgd":552,"subdistrict_lgd":5619,"center":[74.10900508276532,15.000813112744348],"bbox":[73.9127781,14.8984404,74.2643205,15.1169221]},"geometry":{"type":"Point","coordinates":[74.10900508276532,15.000813112744348]}},{"type":"Feature","id":"in-goa-t-5931","properties":{"id":"in-goa-t-5931","name":"Dharbandora","region":"in-goa","level":"tehsil","parent":"in-goa-d-552","district":"South Goa","source":"LGD via Bharatlas · 2024 snapshot","state_lgd":30,"district_lgd":552,"subdistrict_lgd":5931,"center":[74.20356394531856,15.375899165543006],"bbox":[74.0720649,15.2833342,74.3364371,15.4907662]},"geometry":{"type":"Point","coordinates":[74.20356394531856,15.375899165543006]}},{"type":"Feature","id":"in-goa-t-5615","properties":{"id":"in-goa-t-5615","name":"Mormugao","region":"in-goa","level":"tehsil","parent":"in-goa-d-552","district":"South Goa","source":"LGD via Bharatlas · 2024 snapshot","state_lgd":30,"district_lgd":552,"subdistrict_lgd":5615,"center":[73.86925866219728,15.38880254824778],"bbox":[73.7831553,15.3237466,73.9575332,15.4372735]},"geometry":{"type":"Point","coordinates":[73.86925866219728,15.38880254824778]}},{"type":"Feature","id":"in-goa-t-5609","properties":{"id":"in-goa-t-5609","name":"Pernem","region":"in-goa","level":"tehsil","parent":"in-goa-d-551","district":"North Goa","source":"LGD via Bharatlas · 2024 snapshot","state_lgd":30,"district_lgd":551,"subdistrict_lgd":5609,"center":[73.81305293024626,15.702271514136765],"bbox":[73.6769518,15.6114455,73.9523305,15.8010166]},"geometry":{"type":"Point","coordinates":[73.81305293024626,15.702271514136765]}},{"type":"Feature","id":"in-goa-t-5614","properties":{"id":"in-goa-t-5614","name":"Ponda","region":"in-goa","level":"tehsil","parent":"in-goa-d-551","district":"North Goa","source":"LGD via Bharatlas · 2024 snapshot","state_lgd":30,"district_lgd":551,"subdistrict_lgd":5614,"center":[74.01650079115795,15.39906988062516],"bbox":[73.9179927,15.267168,74.1065907,15.5387942]},"geometry":{"type":"Point","coordinates":[74.01650079115795,15.39906988062516]}},{"type":"Feature","id":"in-goa-t-5617","properties":{"id":"in-goa-t-5617","name":"Quepem","region":"in-goa","level":"tehsil","parent":"in-goa-d-552","district":"South Goa","source":"LGD via Bharatlas · 2024 snapshot","state_lgd":30,"district_lgd":552,"subdistrict_lgd":5617,"center":[74.07491613457267,15.14012447734823],"bbox":[73.936332,15.0393882,74.19935,15.27653]},"geometry":{"type":"Point","coordinates":[74.07491613457267,15.14012447734823]}},{"type":"Feature","id":"in-goa-t-5616","properties":{"id":"in-goa-t-5616","name":"Salcete","region":"in-goa","level":"tehsil","parent":"in-goa-d-552","district":"South Goa","source":"LGD via Bharatlas · 2024 snapshot","state_lgd":30,"district_lgd":552,"subdistrict_lgd":5616,"center":[73.97976185405665,15.25950450946195],"bbox":[73.89659,15.1354239,74.0743985,15.374141]},"geometry":{"type":"Point","coordinates":[73.97976185405665,15.25950450946195]}},{"type":"Feature","id":"in-goa-t-5618","properties":{"id":"in-goa-t-5618","name":"Sanguem","region":"in-goa","level":"tehsil","parent":"in-goa-d-552","district":"South Goa","source":"LGD via Bharatlas · 2024 snapshot","state_lgd":30,"district_lgd":552,"subdistrict_lgd":5618,"center":[74.20848227155179,15.179552997469125],"bbox":[74.0640364,14.997674,74.317378,15.3423756]},"geometry":{"type":"Point","coordinates":[74.20848227155179,15.179552997469125]}},{"type":"Feature","id":"in-goa-t-5613","properties":{"id":"in-goa-t-5613","name":"Satari","region":"in-goa","level":"tehsil","parent":"in-goa-d-551","district":"North Goa","source":"LGD via Bharatlas · 2024 snapshot","state_lgd":30,"district_lgd":551,"subdistrict_lgd":5613,"center":[74.14606735828251,15.557656876172308],"bbox":[73.9446249,15.4302717,74.2826525,15.682212]},"geometry":{"type":"Point","coordinates":[74.14606735828251,15.557656876172308]}},{"type":"Feature","id":"in-goa-t-5611","properties":{"id":"in-goa-t-5611","name":"Tiswadi","region":"in-goa","level":"tehsil","parent":"in-goa-d-551","district":"North Goa","source":"LGD via Bharatlas · 2024 snapshot","state_lgd":30,"district_lgd":551,"subdistrict_lgd":5611,"center":[73.88179049980161,15.478841213530453],"bbox":[73.7815265,15.4082437,73.9624204,15.5682015]},"geometry":{"type":"Point","coordinates":[73.88179049980161,15.478841213530453]}}]}
