{"type":"FeatureCollection","features":[{"type":"Feature","id":"in-goa-d-551","properties":{"id":"in-goa-d-551","name":"North Goa","region":"in-goa","level":"district","parent":"","source":"LGD via Bharatlas · 2024 snapshot","state_lgd":30,"district_lgd":551,"center":[73.97689046963916,15.549615237956912],"bbox":[73.6769659,15.2671754,74.2826525,15.8010166]},"geometry":{"type":"Point","coordinates":[73.97689046963916,15.549615237956912]}},{"type":"Feature","id":"in-goa-d-552","properties":{"id":"in-goa-d-552","name":"South Goa","region":"in-goa","level":"district","parent":"","source":"LGD via Bharatlas · 2024 snapshot","state_lgd":30,"district_lgd":552,"center":[74.11455495880124,15.200429504035593],"bbox":[73.7831553,14.8984404,74.3364371,15.4907662]},"geometry":{"type":"Point","coordinates":[74.11455495880124,15.200429504035593]}}]}
