{"type":"FeatureCollection","features":[{"type":"Feature","id":"in-himachal-t-148","properties":{"id":"in-himachal-t-148","name":"Amb","region":"in-himachal","level":"tehsil","parent":"in-himachal-d-26","district":"Una","source":"LGD via Bharatlas · 2024 snapshot","state_lgd":2,"district_lgd":26,"subdistrict_lgd":148,"center":[76.15904089502925,31.678819340677062],"bbox":[76.058772,31.5480265,76.2537948,31.7830179]},"geometry":{"type":"Point","coordinates":[76.15904089502925,31.678819340677062]}},{"type":"Feature","id":"in-himachal-t-121","properties":{"id":"in-himachal-t-121","name":"Ani","region":"in-himachal","level":"tehsil","parent":"in-himachal-d-20","district":"Kullu","source":"LGD via Bharatlas · 2024 snapshot","state_lgd":2,"district_lgd":20,"subdistrict_lgd":121,"center":[77.42123883193983,31.462572230715054],"bbox":[77.3135546,31.3404178,77.5256034,31.5629332]},"geometry":{"type":"Point","coordinates":[77.42123883193983,31.462572230715054]}},{"type":"Feature","id":"in-himachal-t-158","properties":{"id":"in-himachal-t-158","name":"Arki","region":"in-himachal","level":"tehsil","parent":"in-himachal-d-25","district":"Solan","source":"LGD via Bharatlas · 2024 snapshot","state_lgd":2,"district_lgd":25,"subdistrict_lgd":158,"center":[76.93274787950536,31.1535392827648],"bbox":[76.8264523,31.0530301,77.0353956,31.2495903]},"geometry":{"type":"Point","coordinates":[76.93274787950536,31.1535392827648]}},{"type":"Feature","id":"in-himachal-t-134","properties":{"id":"in-himachal-t-134","name":"Aut","region":"in-himachal","level":"tehsil","parent":"in-himachal-d-22","district":"Mandi","source":"LGD via Bharatlas · 2024 snapshot","state_lgd":2,"district_lgd":22,"subdistrict_lgd":134,"center":[77.14364762264076,31.762110721577464],"bbox":[77.0654451,31.6869934,77.2156925,31.8415972]},"geometry":{"type":"Point","coordinates":[77.14364762264076,31.762110721577464]}},{"type":"Feature","id":"in-himachal-t-162","properties":{"id":"in-himachal-t-162","name":"Baddi","region":"in-himachal","level":"tehsil","parent":"in-himachal-d-25","district":"Solan","source":"LGD via Bharatlas · 2024 snapshot","state_lgd":2,"district_lgd":25,"subdistrict_lgd":162,"center":[76.80913527970333,30.968975389638587],"bbox":[76.6516983,30.8731223,76.9275747,31.0505312]},"geometry":{"type":"Point","coordinates":[76.80913527970333,30.968975389638587]}},{"type":"Feature","id":"in-himachal-t-186","properties":{"id":"in-himachal-t-186","name":"Bagachnogi","region":"in-himachal","level":"tehsil","parent":"in-himachal-d-23","district":"Shimla","source":"LGD via Bharatlas · 2024 snapshot","state_lgd":2,"district_lgd":23,"subdistrict_lgd":186,"center":[77.58350670410177,30.8348569909425],"bbox":[77.4767731,30.7742603,77.7029048,30.8985487]},"geometry":{"type":"Point","coordinates":[77.58350670410177,30.8348569909425]}},{"type":"Feature","id":"in-himachal-t-112","properties":{"id":"in-himachal-t-112","name":"Baijnath","region":"in-himachal","level":"tehsil","parent":"in-himachal-d-18","district":"Kangra","source":"LGD via Bharatlas · 2024 snapshot","state_lgd":2,"district_lgd":18,"subdistrict_lgd":112,"center":[76.67168010739006,32.070048321925356],"bbox":[76.5848589,31.9063978,76.7756516,32.1998504]},"geometry":{"type":"Point","coordinates":[76.67168010739006,32.070048321925356]}},{"type":"Feature","id":"in-himachal-t-131","properties":{"id":"in-himachal-t-131","name":"Baldwara","region":"in-himachal","level":"tehsil","parent":"in-himachal-d-22","district":"Mandi","source":"LGD via Bharatlas · 2024 snapshot","state_lgd":2,"district_lgd":22,"subdistrict_lgd":131,"center":[76.77574955598581,31.56579823186786],"bbox":[76.7214969,31.4985017,76.8340229,31.6275257]},"geometry":{"type":"Point","coordinates":[76.77574955598581,31.56579823186786]}},{"type":"Feature","id":"in-himachal-t-6947","properties":{"id":"in-himachal-t-6947","name":"Balh","region":"in-himachal","level":"tehsil","parent":"in-himachal-d-22","district":"Mandi","source":"LGD via Bharatlas · 2024 snapshot","state_lgd":2,"district_lgd":22,"subdistrict_lgd":6947,"center":[76.90439168815413,31.595524492078713],"bbox":[76.8043528,31.5025911,77.0117863,31.7055956]},"geometry":{"type":"Point","coordinates":[76.90439168815413,31.595524492078713]}},{"type":"Feature","id":"in-himachal-t-135","properties":{"id":"in-himachal-t-135","name":"Bali Chowki","region":"in-himachal","level":"tehsil","parent":"in-himachal-d-22","district":"Mandi","source":"LGD via Bharatlas · 2024 snapshot","state_lgd":2,"district_lgd":22,"subdistrict_lgd":135,"center":[77.22635413049144,31.641912864873603],"bbox":[77.0766841,31.5072714,77.3166826,31.7248561]},"geometry":{"type":"Point","coordinates":[77.22635413049144,31.641912864873603]}},{"type":"Feature","id":"in-himachal-t-149","properties":{"id":"in-himachal-t-149","name":"Bangana","region":"in-himachal","level":"tehsil","parent":"in-himachal-d-26","district":"Una","source":"LGD via Bharatlas · 2024 snapshot","state_lgd":2,"district_lgd":26,"subdistrict_lgd":149,"center":[76.33658318979622,31.570383693613532],"bbox":[76.1766255,31.4078298,76.4793765,31.7245027]},"geometry":{"type":"Point","coordinates":[76.33658318979622,31.570383693613532]}},{"type":"Feature","id":"in-himachal-t-120","properties":{"id":"in-himachal-t-120","name":"Banjar","region":"in-himachal","level":"tehsil","parent":"in-himachal-d-20","district":"Kullu","source":"LGD via Bharatlas · 2024 snapshot","state_lgd":2,"district_lgd":20,"subdistrict_lgd":120,"center":[77.45609954264756,31.644882100619967],"bbox":[77.2867543,31.5298788,77.6786132,31.740999]},"geometry":{"type":"Point","coordinates":[77.45609954264756,31.644882100619967]}},{"type":"Feature","id":"in-himachal-t-102","properties":{"id":"in-himachal-t-102","name":"Baroh","region":"in-himachal","level":"tehsil","parent":"in-himachal-d-18","district":"Kangra","source":"LGD via Bharatlas · 2024 snapshot","state_lgd":2,"district_lgd":18,"subdistrict_lgd":102,"center":[76.32020028405168,31.99908672981423],"bbox":[76.2414668,31.935064,76.4230364,32.0728464]},"geometry":{"type":"Point","coordinates":[76.32020028405168,31.99908672981423]}},{"type":"Feature","id":"in-himachal-t-144","properties":{"id":"in-himachal-t-144","name":"Barsar","region":"in-himachal","level":"tehsil","parent":"in-himachal-d-17","district":"Hamirpur","source":"LGD via Bharatlas · 2024 snapshot","state_lgd":2,"district_lgd":17,"subdistrict_lgd":144,"center":[76.49703732513647,31.553816967376328],"bbox":[76.3956314,31.4602955,76.6005585,31.6513987]},"geometry":{"type":"Point","coordinates":[76.49703732513647,31.553816967376328]}},{"type":"Feature","id":"in-himachal-t-130","properties":{"id":"in-himachal-t-130","name":"Bhadrota","region":"in-himachal","level":"tehsil","parent":"in-himachal-d-22","district":"Mandi","source":"LGD via Bharatlas · 2024 snapshot","state_lgd":2,"district_lgd":22,"subdistrict_lgd":130,"center":[76.79604961344977,31.686283202925896],"bbox":[76.7436886,31.6140181,76.8462351,31.7431894]},"geometry":{"type":"Point","coordinates":[76.79604961344977,31.686283202925896]}},{"type":"Feature","id":"in-himachal-t-86","properties":{"id":"in-himachal-t-86","name":"Bhalai","region":"in-himachal","level":"tehsil","parent":"in-himachal-d-16","district":"Chamba","source":"LGD via Bharatlas · 2024 snapshot","state_lgd":2,"district_lgd":16,"subdistrict_lgd":86,"center":[75.96143080139771,32.6649639581514],"bbox":[75.8858335,32.5826175,76.0391784,32.7483163]},"geometry":{"type":"Point","coordinates":[75.96143080139771,32.6649639581514]}},{"type":"Feature","id":"in-himachal-t-153","properties":{"id":"in-himachal-t-153","name":"Bharari","region":"in-himachal","level":"tehsil","parent":"in-himachal-d-15","district":"Bilaspur","source":"LGD via Bharatlas · 2024 snapshot","state_lgd":2,"district_lgd":15,"subdistrict_lgd":153,"center":[76.66594758997333,31.54040209760427],"bbox":[76.6125584,31.4767747,76.7308942,31.5956743]},"geometry":{"type":"Point","coordinates":[76.66594758997333,31.54040209760427]}},{"type":"Feature","id":"in-himachal-t-92","properties":{"id":"in-himachal-t-92","name":"Bharmour","region":"in-himachal","level":"tehsil","parent":"in-himachal-d-16","district":"Chamba","source":"LGD via Bharatlas · 2024 snapshot","state_lgd":2,"district_lgd":16,"subdistrict_lgd":92,"center":[76.60055871559436,32.49443439795086],"bbox":[76.3383884,32.3213115,76.8774391,32.6671155]},"geometry":{"type":"Point","coordinates":[76.60055871559436,32.49443439795086]}},{"type":"Feature","id":"in-himachal-t-147","properties":{"id":"in-himachal-t-147","name":"Bharwain","region":"in-himachal","level":"tehsil","parent":"in-himachal-d-26","district":"Una","source":"LGD via Bharatlas · 2024 snapshot","state_lgd":2,"district_lgd":26,"subdistrict_lgd":147,"center":[76.08457197958629,31.798913796118914],"bbox":[75.9681718,31.7027103,76.1739889,31.8666677]},"geometry":{"type":"Point","coordinates":[76.08457197958629,31.798913796118914]}},{"type":"Feature","id":"in-himachal-t-88","properties":{"id":"in-himachal-t-88","name":"Bhattiyat","region":"in-himachal","level":"tehsil","parent":"in-himachal-d-16","district":"Chamba","source":"LGD via Bharatlas · 2024 snapshot","state_lgd":2,"district_lgd":16,"subdistrict_lgd":88,"center":[76.01396994496841,32.44457921562072],"bbox":[75.8748983,32.3737156,76.146162,32.5250054]},"geometry":{"type":"Point","coordinates":[76.01396994496841,32.44457921562072]}},{"type":"Feature","id":"in-himachal-t-146","properties":{"id":"in-himachal-t-146","name":"Bhoranj","region":"in-himachal","level":"tehsil","parent":"in-himachal-d-17","district":"Hamirpur","source":"LGD via Bharatlas · 2024 snapshot","state_lgd":2,"district_lgd":17,"subdistrict_lgd":146,"center":[76.65684339715486,31.63603923019361],"bbox":[76.588941,31.573556,76.7297486,31.7123039]},"geometry":{"type":"Point","coordinates":[76.65684339715486,31.63603923019361]}},{"type":"Feature","id":"in-himachal-t-6887","properties":{"id":"in-himachal-t-6887","name":"Bhuntar","region":"in-himachal","level":"tehsil","parent":"in-himachal-d-20","district":"Kullu","source":"LGD via Bharatlas · 2024 snapshot","state_lgd":2,"district_lgd":20,"subdistrict_lgd":6887,"center":[77.47458483471608,31.9815039753223],"bbox":[77.0341738,31.7802833,77.8687271,32.223425]},"geometry":{"type":"Point","coordinates":[77.47458483471608,31.9815039753223]}},{"type":"Feature","id":"in-himachal-t-156","properties":{"id":"in-himachal-t-156","name":"Bilaspur Sadar","region":"in-himachal","level":"tehsil","parent":"in-himachal-d-15","district":"Bilaspur","source":"LGD via Bharatlas · 2024 snapshot","state_lgd":2,"district_lgd":15,"subdistrict_lgd":156,"center":[76.79610509642976,31.33944789967505],"bbox":[76.7171715,31.2153281,76.8828636,31.42326]},"geometry":{"type":"Point","coordinates":[76.79610509642976,31.33944789967505]}},{"type":"Feature","id":"in-himachal-t-137","properties":{"id":"in-himachal-t-137","name":"Chachyot","region":"in-himachal","level":"tehsil","parent":"in-himachal-d-22","district":"Mandi","source":"LGD via Bharatlas · 2024 snapshot","state_lgd":2,"district_lgd":22,"subdistrict_lgd":137,"center":[77.06498970668802,31.559168224688385],"bbox":[76.9712699,31.4558396,77.1494872,31.6721847]},"geometry":{"type":"Point","coordinates":[77.06498970668802,31.559168224688385]}},{"type":"Feature","id":"in-himachal-t-90","properties":{"id":"in-himachal-t-90","name":"Chamba","region":"in-himachal","level":"tehsil","parent":"in-himachal-d-16","district":"Chamba","source":"LGD via Bharatlas · 2024 snapshot","state_lgd":2,"district_lgd":16,"subdistrict_lgd":90,"center":[76.2225801636476,32.53799996264146],"bbox":[75.9964814,32.32345,76.4290379,32.7153347]},"geometry":{"type":"Point","coordinates":[76.2225801636476,32.53799996264146]}},{"type":"Feature","id":"in-himachal-t-185","properties":{"id":"in-himachal-t-185","name":"Chaupal","region":"in-himachal","level":"tehsil","parent":"in-himachal-d-23","district":"Shimla","source":"LGD via Bharatlas · 2024 snapshot","state_lgd":2,"district_lgd":23,"subdistrict_lgd":185,"center":[77.53824072961358,30.96661066810512],"bbox":[77.4180995,30.863122,77.6665158,31.0761475]},"geometry":{"type":"Point","coordinates":[77.53824072961358,30.96661066810512]}},{"type":"Feature","id":"in-himachal-t-192","properties":{"id":"in-himachal-t-192","name":"Chirgaon","region":"in-himachal","level":"tehsil","parent":"in-himachal-d-23","district":"Shimla","source":"LGD via Bharatlas · 2024 snapshot","state_lgd":2,"district_lgd":23,"subdistrict_lgd":192,"center":[77.93784168167707,31.290451839211617],"bbox":[77.7459978,31.149598,78.1645569,31.4216304]},"geometry":{"type":"Point","coordinates":[77.93784168167707,31.290451839211617]}},{"type":"Feature","id":"in-himachal-t-84","properties":{"id":"in-himachal-t-84","name":"Churah","region":"in-himachal","level":"tehsil","parent":"in-himachal-d-16","district":"Chamba","source":"LGD via Bharatlas · 2024 snapshot","state_lgd":2,"district_lgd":16,"subdistrict_lgd":84,"center":[76.22344835963796,32.82427633282839],"bbox":[75.9526824,32.5952797,76.4462262,33.022912]},"geometry":{"type":"Point","coordinates":[76.22344835963796,32.82427633282839]}},{"type":"Feature","id":"in-himachal-t-171","properties":{"id":"in-himachal-t-171","name":"Dadahu","region":"in-himachal","level":"tehsil","parent":"in-himachal-d-24","district":"Sirmaur","source":"LGD via Bharatlas · 2024 snapshot","state_lgd":2,"district_lgd":24,"subdistrict_lgd":171,"center":[77.3752943757916,30.63643138110358],"bbox":[77.2765736,30.5511203,77.4551279,30.7196967]},"geometry":{"type":"Point","coordinates":[77.3752943757916,30.63643138110358]}},{"type":"Feature","id":"in-himachal-t-6918","properties":{"id":"in-himachal-t-6918","name":"Dadasiba","region":"in-himachal","level":"tehsil","parent":"in-himachal-d-18","district":"Kangra","source":"LGD via Bharatlas · 2024 snapshot","state_lgd":2,"district_lgd":18,"subdistrict_lgd":6918,"center":[76.08846331712724,31.89432381012517],"bbox":[76.0116384,31.8275781,76.1706492,31.953953]},"geometry":{"type":"Point","coordinates":[76.08846331712724,31.89432381012517]}},{"type":"Feature","id":"in-himachal-t-87","properties":{"id":"in-himachal-t-87","name":"Dalhousie","region":"in-himachal","level":"tehsil","parent":"in-himachal-d-16","district":"Chamba","source":"LGD via Bharatlas · 2024 snapshot","state_lgd":2,"district_lgd":16,"subdistrict_lgd":87,"center":[75.93426934901917,32.543840840662],"bbox":[75.8303296,32.4709436,76.0239981,32.6163327]},"geometry":{"type":"Point","coordinates":[75.93426934901917,32.543840840662]}},{"type":"Feature","id":"in-himachal-t-159","properties":{"id":"in-himachal-t-159","name":"Darlaghat","region":"in-himachal","level":"tehsil","parent":"in-himachal-d-25","district":"Solan","source":"LGD via Bharatlas · 2024 snapshot","state_lgd":2,"district_lgd":25,"subdistrict_lgd":159,"center":[76.94872165850768,31.276739534826856],"bbox":[76.8658767,31.1959193,77.0306806,31.3655294]},"geometry":{"type":"Point","coordinates":[76.94872165850768,31.276739534826856]}},{"type":"Feature","id":"in-himachal-t-103","properties":{"id":"in-himachal-t-103","name":"Dera Gopipur","region":"in-himachal","level":"tehsil","parent":"in-himachal-d-18","district":"Kangra","source":"LGD via Bharatlas · 2024 snapshot","state_lgd":2,"district_lgd":18,"subdistrict_lgd":103,"center":[76.12377883958685,31.96258309249953],"bbox":[75.947122,31.7880773,76.2815911,32.139765]},"geometry":{"type":"Point","coordinates":[76.12377883958685,31.96258309249953]}},{"type":"Feature","id":"in-himachal-t-127","properties":{"id":"in-himachal-t-127","name":"Dharmpur","region":"in-himachal","level":"tehsil","parent":"in-himachal-d-22","district":"Mandi","source":"LGD via Bharatlas · 2024 snapshot","state_lgd":2,"district_lgd":22,"subdistrict_lgd":127,"center":[76.72998471463853,31.78759984225464],"bbox":[76.6203913,31.7189982,76.8389978,31.8828125]},"geometry":{"type":"Point","coordinates":[76.72998471463853,31.78759984225464]}},{"type":"Feature","id":"in-himachal-t-99","properties":{"id":"in-himachal-t-99","name":"Dharmsala","region":"in-himachal","level":"tehsil","parent":"in-himachal-d-18","district":"Kangra","source":"LGD via Bharatlas · 2024 snapshot","state_lgd":2,"district_lgd":18,"subdistrict_lgd":99,"center":[76.34362350676734,32.237953292077016],"bbox":[76.2322851,32.1354615,76.4667414,32.3764928]},"geometry":{"type":"Point","coordinates":[76.34362350676734,32.237953292077016]}},{"type":"Feature","id":"in-himachal-t-145","properties":{"id":"in-himachal-t-145","name":"Dhatwal","region":"in-himachal","level":"tehsil","parent":"in-himachal-d-17","district":"Hamirpur","source":"LGD via Bharatlas · 2024 snapshot","state_lgd":2,"district_lgd":17,"subdistrict_lgd":145,"center":[76.57108660450143,31.50085366741313],"bbox":[76.5061113,31.4156898,76.6258272,31.5767728]},"geometry":{"type":"Point","coordinates":[76.57108660450143,31.50085366741313]}},{"type":"Feature","id":"in-himachal-t-109","properties":{"id":"in-himachal-t-109","name":"Dhira","region":"in-himachal","level":"tehsil","parent":"in-himachal-d-18","district":"Kangra","source":"LGD via Bharatlas · 2024 snapshot","state_lgd":2,"district_lgd":18,"subdistrict_lgd":109,"center":[76.4266369580683,32.01285021625382],"bbox":[76.3583062,31.9401149,76.4795018,32.0829015]},"geometry":{"type":"Point","coordinates":[76.4266369580683,32.01285021625382]}},{"type":"Feature","id":"in-himachal-t-193","properties":{"id":"in-himachal-t-193","name":"Dodra Kwar","region":"in-himachal","level":"tehsil","parent":"in-himachal-d-23","district":"Shimla","source":"LGD via Bharatlas · 2024 snapshot","state_lgd":2,"district_lgd":23,"subdistrict_lgd":193,"center":[78.14039650026014,31.262329069503586],"bbox":[77.9679997,31.1505997,78.3113439,31.3603166]},"geometry":{"type":"Point","coordinates":[78.14039650026014,31.262329069503586]}},{"type":"Feature","id":"in-himachal-t-95","properties":{"id":"in-himachal-t-95","name":"Fatehpur","region":"in-himachal","level":"tehsil","parent":"in-himachal-d-18","district":"Kangra","source":"LGD via Bharatlas · 2024 snapshot","state_lgd":2,"district_lgd":18,"subdistrict_lgd":95,"center":[75.88794383172477,32.05194879303126],"bbox":[75.737474,31.9529503,75.9798758,32.1615935]},"geometry":{"type":"Point","coordinates":[75.88794383172477,32.05194879303126]}},{"type":"Feature","id":"in-himachal-t-142","properties":{"id":"in-himachal-t-142","name":"Galore","region":"in-himachal","level":"tehsil","parent":"in-himachal-d-17","district":"Hamirpur","source":"LGD via Bharatlas · 2024 snapshot","state_lgd":2,"district_lgd":17,"subdistrict_lgd":142,"center":[76.44193632618924,31.627608978857896],"bbox":[76.3802707,31.57577,76.4975427,31.677022]},"geometry":{"type":"Point","coordinates":[76.44193632618924,31.627608978857896]}},{"type":"Feature","id":"in-himachal-t-6888","properties":{"id":"in-himachal-t-6888","name":"Ghanari","region":"in-himachal","level":"tehsil","parent":"in-himachal-d-26","district":"Una","source":"LGD via Bharatlas · 2024 snapshot","state_lgd":2,"district_lgd":26,"subdistrict_lgd":6888,"center":[76.042896248251,31.700771888558254],"bbox":[75.9366805,31.5564455,76.1594179,31.8569012]},"geometry":{"type":"Point","coordinates":[76.042896248251,31.700771888558254]}},{"type":"Feature","id":"in-himachal-t-152","properties":{"id":"in-himachal-t-152","name":"Ghumarwin","region":"in-himachal","level":"tehsil","parent":"in-himachal-d-15","district":"Bilaspur","source":"LGD via Bharatlas · 2024 snapshot","state_lgd":2,"district_lgd":15,"subdistrict_lgd":152,"center":[76.71703610425753,31.459593367455636],"bbox":[76.6073994,31.3625649,76.8033639,31.5713366]},"geometry":{"type":"Point","coordinates":[76.71703610425753,31.459593367455636]}},{"type":"Feature","id":"in-himachal-t-143","properties":{"id":"in-himachal-t-143","name":"Hamirpur","region":"in-himachal","level":"tehsil","parent":"in-himachal-d-17","district":"Hamirpur","source":"LGD via Bharatlas · 2024 snapshot","state_lgd":2,"district_lgd":17,"subdistrict_lgd":143,"center":[76.53127949360959,31.670762434740553],"bbox":[76.4495091,31.5436685,76.6218169,31.7548094]},"geometry":{"type":"Point","coordinates":[76.53127949360959,31.670762434740553]}},{"type":"Feature","id":"in-himachal-t-194","properties":{"id":"in-himachal-t-194","name":"Hangrang","region":"in-himachal","level":"tehsil","parent":"in-himachal-d-19","district":"Kinnaur","source":"LGD via Bharatlas · 2024 snapshot","state_lgd":2,"district_lgd":19,"subdistrict_lgd":194,"center":[78.600623793937,31.97629155079343],"bbox":[78.433195,31.8598625,78.7885524,32.0769381]},"geometry":{"type":"Point","coordinates":[78.600623793937,31.97629155079343]}},{"type":"Feature","id":"in-himachal-t-97","properties":{"id":"in-himachal-t-97","name":"Harchakian","region":"in-himachal","level":"tehsil","parent":"in-himachal-d-18","district":"Kangra","source":"LGD via Bharatlas · 2024 snapshot","state_lgd":2,"district_lgd":18,"subdistrict_lgd":97,"center":[76.13450225497371,32.12104273220006],"bbox":[76.0461343,32.058692,76.2059164,32.1779085]},"geometry":{"type":"Point","coordinates":[76.13450225497371,32.12104273220006]}},{"type":"Feature","id":"in-himachal-t-6953","properties":{"id":"in-himachal-t-6953","name":"Haripurdhar","region":"in-himachal","level":"tehsil","parent":"in-himachal-d-24","district":"Sirmaur","source":"LGD via Bharatlas · 2024 snapshot","state_lgd":2,"district_lgd":24,"subdistrict_lgd":6953,"center":[77.35298817722926,30.935230289148556],"bbox":[77.2270836,30.8548032,77.4447855,31.0209262]},"geometry":{"type":"Point","coordinates":[77.35298817722926,30.935230289148556]}},{"type":"Feature","id":"in-himachal-t-151","properties":{"id":"in-himachal-t-151","name":"Haroli","region":"in-himachal","level":"tehsil","parent":"in-himachal-d-26","district":"Una","source":"LGD via Bharatlas · 2024 snapshot","state_lgd":2,"district_lgd":26,"subdistrict_lgd":151,"center":[76.20083720861601,31.423062496171262],"bbox":[76.0767694,31.2993937,76.3223781,31.5716143]},"geometry":{"type":"Point","coordinates":[76.20083720861601,31.423062496171262]}},{"type":"Feature","id":"in-himachal-t-91","properties":{"id":"in-himachal-t-91","name":"Holi","region":"in-himachal","level":"tehsil","parent":"in-himachal-d-16","district":"Chamba","source":"LGD via Bharatlas · 2024 snapshot","state_lgd":2,"district_lgd":16,"subdistrict_lgd":91,"center":[76.58356824314173,32.30909462492261],"bbox":[76.3599035,32.1755125,76.7849891,32.473489]},"geometry":{"type":"Point","coordinates":[76.58356824314173,32.30909462492261]}},{"type":"Feature","id":"in-himachal-t-94","properties":{"id":"in-himachal-t-94","name":"Indora","region":"in-himachal","level":"tehsil","parent":"in-himachal-d-18","district":"Kangra","source":"LGD via Bharatlas · 2024 snapshot","state_lgd":2,"district_lgd":18,"subdistrict_lgd":94,"center":[75.73331192047503,32.12834139840214],"bbox":[75.5945925,32.0262498,75.8913474,32.2549189]},"geometry":{"type":"Point","coordinates":[75.73331192047503,32.12834139840214]}},{"type":"Feature","id":"in-himachal-t-110","properties":{"id":"in-himachal-t-110","name":"Jaisinghpur","region":"in-himachal","level":"tehsil","parent":"in-himachal-d-18","district":"Kangra","source":"LGD via Bharatlas · 2024 snapshot","state_lgd":2,"district_lgd":18,"subdistrict_lgd":110,"center":[76.56260717559492,31.918320223659865],"bbox":[76.4452022,31.8268257,76.6813017,32.0121007]},"geometry":{"type":"Point","coordinates":[76.56260717559492,31.918320223659865]}},{"type":"Feature","id":"in-himachal-t-105","properties":{"id":"in-himachal-t-105","name":"Jaswan","region":"in-himachal","level":"tehsil","parent":"in-himachal-d-18","district":"Kangra","source":"LGD via Bharatlas · 2024 snapshot","state_lgd":2,"district_lgd":18,"subdistrict_lgd":105,"center":[75.98016527851057,31.90655826949968],"bbox":[75.9013853,31.8191987,76.1152388,31.9674611]},"geometry":{"type":"Point","coordinates":[75.98016527851057,31.90655826949968]}},{"type":"Feature","id":"in-himachal-t-104","properties":{"id":"in-himachal-t-104","name":"Jawalamukhi","region":"in-himachal","level":"tehsil","parent":"in-himachal-d-18","district":"Kangra","source":"LGD via Bharatlas · 2024 snapshot","state_lgd":2,"district_lgd":18,"subdistrict_lgd":104,"center":[76.3136753904792,31.843540122852787],"bbox":[76.2370648,31.7725878,76.4126804,31.9376707]},"geometry":{"type":"Point","coordinates":[76.3136753904792,31.843540122852787]}},{"type":"Feature","id":"in-himachal-t-96","properties":{"id":"in-himachal-t-96","name":"Jawali","region":"in-himachal","level":"tehsil","parent":"in-himachal-d-18","district":"Kangra","source":"LGD via Bharatlas · 2024 snapshot","state_lgd":2,"district_lgd":18,"subdistrict_lgd":96,"center":[76.03878490427286,32.174826354167905],"bbox":[75.9249146,32.033929,76.1455323,32.2705475]},"geometry":{"type":"Point","coordinates":[76.03878490427286,32.174826354167905]}},{"type":"Feature","id":"in-himachal-t-154","properties":{"id":"in-himachal-t-154","name":"Jhanduta","region":"in-himachal","level":"tehsil","parent":"in-himachal-d-15","district":"Bilaspur","source":"LGD via Bharatlas · 2024 snapshot","state_lgd":2,"district_lgd":15,"subdistrict_lgd":154,"center":[76.61724467422445,31.365362816795493],"bbox":[76.45056,31.2517344,76.753291,31.485653]},"geometry":{"type":"Point","coordinates":[76.61724467422445,31.365362816795493]}},{"type":"Feature","id":"in-himachal-t-124","properties":{"id":"in-himachal-t-124","name":"Jogindarnagar","region":"in-himachal","level":"tehsil","parent":"in-himachal-d-22","district":"Mandi","source":"LGD via Bharatlas · 2024 snapshot","state_lgd":2,"district_lgd":22,"subdistrict_lgd":124,"center":[76.78929355596752,31.942585526527882],"bbox":[76.6668705,31.8175527,76.8767151,32.0674122]},"geometry":{"type":"Point","coordinates":[76.78929355596752,31.942585526527882]}},{"type":"Feature","id":"in-himachal-t-188","properties":{"id":"in-himachal-t-188","name":"Jubbal","region":"in-himachal","level":"tehsil","parent":"in-himachal-d-23","district":"Shimla","source":"LGD via Bharatlas · 2024 snapshot","state_lgd":2,"district_lgd":23,"subdistrict_lgd":188,"center":[77.76162445063974,31.088517430020346],"bbox":[77.6191385,30.9504982,77.901031,31.1698995]},"geometry":{"type":"Point","coordinates":[77.76162445063974,31.088517430020346]}},{"type":"Feature","id":"in-himachal-t-183","properties":{"id":"in-himachal-t-183","name":"Junga","region":"in-himachal","level":"tehsil","parent":"in-himachal-d-23","district":"Shimla","source":"LGD via Bharatlas · 2024 snapshot","state_lgd":2,"district_lgd":23,"subdistrict_lgd":183,"center":[77.24645941448057,30.998178078085623],"bbox":[77.1709248,30.917453,77.3173313,31.0598855]},"geometry":{"type":"Point","coordinates":[77.24645941448057,30.998178078085623]}},{"type":"Feature","id":"in-himachal-t-197","properties":{"id":"in-himachal-t-197","name":"Kalpa","region":"in-himachal","level":"tehsil","parent":"in-himachal-d-19","district":"Kinnaur","source":"LGD via Bharatlas · 2024 snapshot","state_lgd":2,"district_lgd":19,"subdistrict_lgd":197,"center":[78.24269730926022,31.572090730800465],"bbox":[78.0973789,31.445383,78.3761455,31.6955995]},"geometry":{"type":"Point","coordinates":[78.24269730926022,31.572090730800465]}},{"type":"Feature","id":"in-himachal-t-174","properties":{"id":"in-himachal-t-174","name":"Kamrau","region":"in-himachal","level":"tehsil","parent":"in-himachal-d-24","district":"Sirmaur","source":"LGD via Bharatlas · 2024 snapshot","state_lgd":2,"district_lgd":24,"subdistrict_lgd":174,"center":[77.67192493238794,30.603846401004827],"bbox":[77.5139224,30.5283428,77.7964137,30.6559422]},"geometry":{"type":"Point","coordinates":[77.67192493238794,30.603846401004827]}},{"type":"Feature","id":"in-himachal-t-166","properties":{"id":"in-himachal-t-166","name":"Kandaghat","region":"in-himachal","level":"tehsil","parent":"in-himachal-d-25","district":"Solan","source":"LGD via Bharatlas · 2024 snapshot","state_lgd":2,"district_lgd":25,"subdistrict_lgd":166,"center":[77.1139430455811,30.995191257231795],"bbox":[76.9844587,30.8895367,77.2497112,31.1143283]},"geometry":{"type":"Point","coordinates":[77.1139430455811,30.995191257231795]}},{"type":"Feature","id":"in-himachal-t-100","properties":{"id":"in-himachal-t-100","name":"Kangra","region":"in-himachal","level":"tehsil","parent":"in-himachal-d-18","district":"Kangra","source":"LGD via Bharatlas · 2024 snapshot","state_lgd":2,"district_lgd":18,"subdistrict_lgd":100,"center":[76.24799236154621,32.08406466334297],"bbox":[76.1702764,31.9707381,76.3459683,32.1635839]},"geometry":{"type":"Point","coordinates":[76.24799236154621,32.08406466334297]}},{"type":"Feature","id":"in-himachal-t-139","properties":{"id":"in-himachal-t-139","name":"Karsog","region":"in-himachal","level":"tehsil","parent":"in-himachal-d-22","district":"Mandi","source":"LGD via Bharatlas · 2024 snapshot","state_lgd":2,"district_lgd":22,"subdistrict_lgd":139,"center":[77.2080532324448,31.35039014884091],"bbox":[77.0474667,31.2302112,77.3891346,31.4848801]},"geometry":{"type":"Point","coordinates":[77.2080532324448,31.35039014884091]}},{"type":"Feature","id":"in-himachal-t-164","properties":{"id":"in-himachal-t-164","name":"Kasauli","region":"in-himachal","level":"tehsil","parent":"in-himachal-d-25","district":"Solan","source":"LGD via Bharatlas · 2024 snapshot","state_lgd":2,"district_lgd":25,"subdistrict_lgd":164,"center":[76.99327395627657,30.872898641080976],"bbox":[76.9097661,30.7414513,77.064268,30.9699454]},"geometry":{"type":"Point","coordinates":[76.99327395627657,30.872898641080976]}},{"type":"Feature","id":"in-himachal-t-107","properties":{"id":"in-himachal-t-107","name":"Khundian","region":"in-himachal","level":"tehsil","parent":"in-himachal-d-18","district":"Kangra","source":"LGD via Bharatlas · 2024 snapshot","state_lgd":2,"district_lgd":18,"subdistrict_lgd":107,"center":[76.3843535967842,31.886465884228198],"bbox":[76.2724599,31.7828129,76.475635,31.970544]},"geometry":{"type":"Point","coordinates":[76.3843535967842,31.886465884228198]}},{"type":"Feature","id":"in-himachal-t-189","properties":{"id":"in-himachal-t-189","name":"Kotkhai","region":"in-himachal","level":"tehsil","parent":"in-himachal-d-23","district":"Shimla","source":"LGD via Bharatlas · 2024 snapshot","state_lgd":2,"district_lgd":23,"subdistrict_lgd":189,"center":[77.53797792593662,31.147686009727384],"bbox":[77.438576,31.0583491,77.6265574,31.2499968]},"geometry":{"type":"Point","coordinates":[77.53797792593662,31.147686009727384]}},{"type":"Feature","id":"in-himachal-t-128","properties":{"id":"in-himachal-t-128","name":"Kotli","region":"in-himachal","level":"tehsil","parent":"in-himachal-d-22","district":"Mandi","source":"LGD via Bharatlas · 2024 snapshot","state_lgd":2,"district_lgd":22,"subdistrict_lgd":128,"center":[76.86671982475931,31.76769861636905],"bbox":[76.8138637,31.7087369,76.9326689,31.8294671]},"geometry":{"type":"Point","coordinates":[76.86671982475931,31.76769861636905]}},{"type":"Feature","id":"in-himachal-t-163","properties":{"id":"in-himachal-t-163","name":"Krishangarh","region":"in-himachal","level":"tehsil","parent":"in-himachal-d-25","district":"Solan","source":"LGD via Bharatlas · 2024 snapshot","state_lgd":2,"district_lgd":25,"subdistrict_lgd":163,"center":[76.92379955469502,31.00154817439225],"bbox":[76.8559846,30.9262107,76.9963754,31.0796577]},"geometry":{"type":"Point","coordinates":[76.92379955469502,31.00154817439225]}},{"type":"Feature","id":"in-himachal-t-118","properties":{"id":"in-himachal-t-118","name":"Kullu","region":"in-himachal","level":"tehsil","parent":"in-himachal-d-20","district":"Kullu","source":"LGD via Bharatlas · 2024 snapshot","state_lgd":2,"district_lgd":20,"subdistrict_lgd":118,"center":[77.08489191783046,32.04749442281288],"bbox":[76.9347661,31.8867469,77.2992677,32.2174702]},"geometry":{"type":"Point","coordinates":[77.08489191783046,32.04749442281288]}},{"type":"Feature","id":"in-himachal-t-179","properties":{"id":"in-himachal-t-179","name":"Kumarsain","region":"in-himachal","level":"tehsil","parent":"in-himachal-d-23","district":"Shimla","source":"LGD via Bharatlas · 2024 snapshot","state_lgd":2,"district_lgd":23,"subdistrict_lgd":179,"center":[77.43483971270697,31.292703533885323],"bbox":[77.3123718,31.1992709,77.5412579,31.3616844]},"geometry":{"type":"Point","coordinates":[77.43483971270697,31.292703533885323]}},{"type":"Feature","id":"in-himachal-t-125","properties":{"id":"in-himachal-t-125","name":"Lad Bharol","region":"in-himachal","level":"tehsil","parent":"in-himachal-d-22","district":"Mandi","source":"LGD via Bharatlas · 2024 snapshot","state_lgd":2,"district_lgd":22,"subdistrict_lgd":125,"center":[76.71078001866356,31.946866726084874],"bbox":[76.6604873,31.8772895,76.7683338,32.0363273]},"geometry":{"type":"Point","coordinates":[76.71078001866356,31.946866726084874]}},{"type":"Feature","id":"in-himachal-t-115","properties":{"id":"in-himachal-t-115","name":"Lahul","region":"in-himachal","level":"tehsil","parent":"in-himachal-d-21","district":"Lahul And Spiti","source":"LGD via Bharatlas · 2024 snapshot","state_lgd":2,"district_lgd":21,"subdistrict_lgd":115,"center":[77.30001983185537,32.57760429631606],"bbox":[76.7835528,32.0896701,77.8154135,32.9986218]},"geometry":{"type":"Point","coordinates":[77.30001983185537,32.57760429631606]}},{"type":"Feature","id":"in-himachal-t-117","properties":{"id":"in-himachal-t-117","name":"Manali","region":"in-himachal","level":"tehsil","parent":"in-himachal-d-20","district":"Kullu","source":"LGD via Bharatlas · 2024 snapshot","state_lgd":2,"district_lgd":20,"subdistrict_lgd":117,"center":[77.1911945825095,32.25425394866586],"bbox":[77.0266945,32.10429,77.3928793,32.4145959]},"geometry":{"type":"Point","coordinates":[77.1911945825095,32.25425394866586]}},{"type":"Feature","id":"in-himachal-t-133","properties":{"id":"in-himachal-t-133","name":"Mandi","region":"in-himachal","level":"tehsil","parent":"in-himachal-d-22","district":"Mandi","source":"LGD via Bharatlas · 2024 snapshot","state_lgd":2,"district_lgd":22,"subdistrict_lgd":133,"center":[76.99563079036277,31.72906211344138],"bbox":[76.8388834,31.6234796,77.1233815,31.8377543]},"geometry":{"type":"Point","coordinates":[76.99563079036277,31.72906211344138]}},{"type":"Feature","id":"in-himachal-t-196","properties":{"id":"in-himachal-t-196","name":"Morang","region":"in-himachal","level":"tehsil","parent":"in-himachal-d-19","district":"Kinnaur","source":"LGD via Bharatlas · 2024 snapshot","state_lgd":2,"district_lgd":19,"subdistrict_lgd":196,"center":[78.49668291743477,31.57395472162084],"bbox":[78.0763545,31.3264693,78.8533415,31.8675425]},"geometry":{"type":"Point","coordinates":[78.49668291743477,31.57395472162084]}},{"type":"Feature","id":"in-himachal-t-113","properties":{"id":"in-himachal-t-113","name":"Multhan","region":"in-himachal","level":"tehsil","parent":"in-himachal-d-18","district":"Kangra","source":"LGD via Bharatlas · 2024 snapshot","state_lgd":2,"district_lgd":18,"subdistrict_lgd":113,"center":[76.89357406249682,32.2555267382459],"bbox":[76.7323492,32.0389963,77.078436,32.4672592]},"geometry":{"type":"Point","coordinates":[76.89357406249682,32.2555267382459]}},{"type":"Feature","id":"in-himachal-t-141","properties":{"id":"in-himachal-t-141","name":"Nadaun","region":"in-himachal","level":"tehsil","parent":"in-himachal-d-17","district":"Hamirpur","source":"LGD via Bharatlas · 2024 snapshot","state_lgd":2,"district_lgd":17,"subdistrict_lgd":141,"center":[76.3914858168647,31.726091349803053],"bbox":[76.2995038,31.6310825,76.4790048,31.8116242]},"geometry":{"type":"Point","coordinates":[76.3914858168647,31.726091349803053]}},{"type":"Feature","id":"in-himachal-t-101","properties":{"id":"in-himachal-t-101","name":"Nagrota Bagwan","region":"in-himachal","level":"tehsil","parent":"in-himachal-d-18","district":"Kangra","source":"LGD via Bharatlas · 2024 snapshot","state_lgd":2,"district_lgd":18,"subdistrict_lgd":101,"center":[76.36926887192143,32.09714528946221],"bbox":[76.2942384,32.0220954,76.4444723,32.1678748]},"geometry":{"type":"Point","coordinates":[76.36926887192143,32.09714528946221]}},{"type":"Feature","id":"in-himachal-t-172","properties":{"id":"in-himachal-t-172","name":"Nahan","region":"in-himachal","level":"tehsil","parent":"in-himachal-d-24","district":"Sirmaur","source":"LGD via Bharatlas · 2024 snapshot","state_lgd":2,"district_lgd":24,"subdistrict_lgd":172,"center":[77.24521899414145,30.58360155260853],"bbox":[77.1217311,30.4415974,77.3945416,30.6963061]},"geometry":{"type":"Point","coordinates":[77.24521899414145,30.58360155260853]}},{"type":"Feature","id":"in-himachal-t-155","properties":{"id":"in-himachal-t-155","name":"Naina Devi","region":"in-himachal","level":"tehsil","parent":"in-himachal-d-15","district":"Bilaspur","source":"LGD via Bharatlas · 2024 snapshot","state_lgd":2,"district_lgd":15,"subdistrict_lgd":155,"center":[76.55089162801272,31.31083268301654],"bbox":[76.3927126,31.2091271,76.7663153,31.4271579]},"geometry":{"type":"Point","coordinates":[76.55089162801272,31.31083268301654]}},{"type":"Feature","id":"in-himachal-t-161","properties":{"id":"in-himachal-t-161","name":"Nalagarh","region":"in-himachal","level":"tehsil","parent":"in-himachal-d-25","district":"Solan","source":"LGD via Bharatlas · 2024 snapshot","state_lgd":2,"district_lgd":25,"subdistrict_lgd":161,"center":[76.69517826888037,31.109031960444298],"bbox":[76.5968187,30.987797,76.8208162,31.2406157]},"geometry":{"type":"Point","coordinates":[76.69517826888037,31.109031960444298]}},{"type":"Feature","id":"in-himachal-t-157","properties":{"id":"in-himachal-t-157","name":"Namhol","region":"in-himachal","level":"tehsil","parent":"in-himachal-d-15","district":"Bilaspur","source":"LGD via Bharatlas · 2024 snapshot","state_lgd":2,"district_lgd":15,"subdistrict_lgd":157,"center":[76.8498097547445,31.283444394183178],"bbox":[76.7830476,31.2185283,76.9277483,31.3571658]},"geometry":{"type":"Point","coordinates":[76.8498097547445,31.283444394183178]}},{"type":"Feature","id":"in-himachal-t-178","properties":{"id":"in-himachal-t-178","name":"Nankhari","region":"in-himachal","level":"tehsil","parent":"in-himachal-d-23","district":"Shimla","source":"LGD via Bharatlas · 2024 snapshot","state_lgd":2,"district_lgd":23,"subdistrict_lgd":178,"center":[77.58245938063756,31.302610966973884],"bbox":[77.4992,31.2426809,77.6726576,31.3736987]},"geometry":{"type":"Point","coordinates":[77.58245938063756,31.302610966973884]}},{"type":"Feature","id":"in-himachal-t-187","properties":{"id":"in-himachal-t-187","name":"Nerwa","region":"in-himachal","level":"tehsil","parent":"in-himachal-d-23","district":"Shimla","source":"LGD via Bharatlas · 2024 snapshot","state_lgd":2,"district_lgd":23,"subdistrict_lgd":187,"center":[77.69868605592578,30.926043442097704],"bbox":[77.5918155,30.764039,77.8159242,31.0522905]},"geometry":{"type":"Point","coordinates":[77.69868605592578,30.926043442097704]}},{"type":"Feature","id":"in-himachal-t-198","properties":{"id":"in-himachal-t-198","name":"Nichar","region":"in-himachal","level":"tehsil","parent":"in-himachal-d-19","district":"Kinnaur","source":"LGD via Bharatlas · 2024 snapshot","state_lgd":2,"district_lgd":19,"subdistrict_lgd":198,"center":[77.97967138464695,31.603441187092617],"bbox":[77.747886,31.3991487,78.1933903,31.7871835]},"geometry":{"type":"Point","coordinates":[77.97967138464695,31.603441187092617]}},{"type":"Feature","id":"in-himachal-t-138","properties":{"id":"in-himachal-t-138","name":"Nihri","region":"in-himachal","level":"tehsil","parent":"in-himachal-d-22","district":"Mandi","source":"LGD via Bharatlas · 2024 snapshot","state_lgd":2,"district_lgd":22,"subdistrict_lgd":138,"center":[77.0136254925311,31.38573291672965],"bbox":[76.8955285,31.2596326,77.1085829,31.486249]},"geometry":{"type":"Point","coordinates":[77.0136254925311,31.38573291672965]}},{"type":"Feature","id":"in-himachal-t-122","properties":{"id":"in-himachal-t-122","name":"Nirmand","region":"in-himachal","level":"tehsil","parent":"in-himachal-d-20","district":"Kullu","source":"LGD via Bharatlas · 2024 snapshot","state_lgd":2,"district_lgd":20,"subdistrict_lgd":122,"center":[77.58225871370657,31.501171086573805],"bbox":[77.4595459,31.3476616,77.7071149,31.6574125]},"geometry":{"type":"Point","coordinates":[77.58225871370657,31.501171086573805]}},{"type":"Feature","id":"in-himachal-t-168","properties":{"id":"in-himachal-t-168","name":"Nohra","region":"in-himachal","level":"tehsil","parent":"in-himachal-d-24","district":"Sirmaur","source":"LGD via Bharatlas · 2024 snapshot","state_lgd":2,"district_lgd":24,"subdistrict_lgd":168,"center":[77.4158351321477,30.77777603264987],"bbox":[77.3151333,30.6893047,77.532616,30.8667897]},"geometry":{"type":"Point","coordinates":[77.4158351321477,30.77777603264987]}},{"type":"Feature","id":"in-himachal-t-93","properties":{"id":"in-himachal-t-93","name":"Nurpur","region":"in-himachal","level":"tehsil","parent":"in-himachal-d-18","district":"Kangra","source":"LGD via Bharatlas · 2024 snapshot","state_lgd":2,"district_lgd":18,"subdistrict_lgd":93,"center":[75.86974423796502,32.2696274438498],"bbox":[75.6696096,32.13072,76.0316093,32.3974162]},"geometry":{"type":"Point","coordinates":[75.86974423796502,32.2696274438498]}},{"type":"Feature","id":"in-himachal-t-169","properties":{"id":"in-himachal-t-169","name":"Pachhad","region":"in-himachal","level":"tehsil","parent":"in-himachal-d-24","district":"Sirmaur","source":"LGD via Bharatlas · 2024 snapshot","state_lgd":2,"district_lgd":24,"subdistrict_lgd":169,"center":[77.1959781782443,30.76008979507303],"bbox":[77.0200872,30.6469466,77.3319148,30.8785659]},"geometry":{"type":"Point","coordinates":[77.1959781782443,30.76008979507303]}},{"type":"Feature","id":"in-himachal-t-123","properties":{"id":"in-himachal-t-123","name":"Padhar","region":"in-himachal","level":"tehsil","parent":"in-himachal-d-22","district":"Mandi","source":"LGD via Bharatlas · 2024 snapshot","state_lgd":2,"district_lgd":22,"subdistrict_lgd":123,"center":[76.92855763141256,31.920664831187242],"bbox":[76.7787995,31.784627,77.0602329,32.0730193]},"geometry":{"type":"Point","coordinates":[76.92855763141256,31.920664831187242]}},{"type":"Feature","id":"in-himachal-t-111","properties":{"id":"in-himachal-t-111","name":"Palampur","region":"in-himachal","level":"tehsil","parent":"in-himachal-d-18","district":"Kangra","source":"LGD via Bharatlas · 2024 snapshot","state_lgd":2,"district_lgd":18,"subdistrict_lgd":111,"center":[76.52398834808261,32.10918685639826],"bbox":[76.4091568,31.9348213,76.6521657,32.2508329]},"geometry":{"type":"Point","coordinates":[76.52398834808261,32.10918685639826]}},{"type":"Feature","id":"in-himachal-t-83","properties":{"id":"in-himachal-t-83","name":"Pangi","region":"in-himachal","level":"tehsil","parent":"in-himachal-d-16","district":"Chamba","source":"LGD via Bharatlas · 2024 snapshot","state_lgd":2,"district_lgd":16,"subdistrict_lgd":83,"center":[76.52919246562593,33.014737964099965],"bbox":[76.2376935,32.8019832,76.7820507,33.2095389]},"geometry":{"type":"Point","coordinates":[76.52919246562593,33.014737964099965]}},{"type":"Feature","id":"in-himachal-t-173","properties":{"id":"in-himachal-t-173","name":"Paonta Sahib","region":"in-himachal","level":"tehsil","parent":"in-himachal-d-24","district":"Sirmaur","source":"LGD via Bharatlas · 2024 snapshot","state_lgd":2,"district_lgd":24,"subdistrict_lgd":173,"center":[77.5294182565672,30.503700951849495],"bbox":[77.2131314,30.3773361,77.8277984,30.6571123]},"geometry":{"type":"Point","coordinates":[77.5294182565672,30.503700951849495]}},{"type":"Feature","id":"in-himachal-t-195","properties":{"id":"in-himachal-t-195","name":"Poo","region":"in-himachal","level":"tehsil","parent":"in-himachal-d-19","district":"Kinnaur","source":"LGD via Bharatlas · 2024 snapshot","state_lgd":2,"district_lgd":19,"subdistrict_lgd":195,"center":[78.49768724394487,31.805024496801696],"bbox":[78.1722618,31.6354473,78.7611756,31.9591637]},"geometry":{"type":"Point","coordinates":[78.49768724394487,31.805024496801696]}},{"type":"Feature","id":"in-himachal-t-167","properties":{"id":"in-himachal-t-167","name":"Rajgarh","region":"in-himachal","level":"tehsil","parent":"in-himachal-d-24","district":"Sirmaur","source":"LGD via Bharatlas · 2024 snapshot","state_lgd":2,"district_lgd":24,"subdistrict_lgd":167,"center":[77.32666253250102,30.84109591191453],"bbox":[77.2056065,30.7407209,77.4519452,30.9049389]},"geometry":{"type":"Point","coordinates":[77.32666253250102,30.84109591191453]}},{"type":"Feature","id":"in-himachal-t-106","properties":{"id":"in-himachal-t-106","name":"Rakkar","region":"in-himachal","level":"tehsil","parent":"in-himachal-d-18","district":"Kangra","source":"LGD via Bharatlas · 2024 snapshot","state_lgd":2,"district_lgd":18,"subdistrict_lgd":106,"center":[76.25649774334855,31.767475803082878],"bbox":[76.1648119,31.6847172,76.318996,31.8378533]},"geometry":{"type":"Point","coordinates":[76.25649774334855,31.767475803082878]}},{"type":"Feature","id":"in-himachal-t-177","properties":{"id":"in-himachal-t-177","name":"Rampur","region":"in-himachal","level":"tehsil","parent":"in-himachal-d-23","district":"Shimla","source":"LGD via Bharatlas · 2024 snapshot","state_lgd":2,"district_lgd":23,"subdistrict_lgd":177,"center":[77.75278422312198,31.4843449896235],"bbox":[77.5230462,31.2990886,77.962106,31.7151145]},"geometry":{"type":"Point","coordinates":[77.75278422312198,31.4843449896235]}},{"type":"Feature","id":"in-himachal-t-160","properties":{"id":"in-himachal-t-160","name":"Ramshahr","region":"in-himachal","level":"tehsil","parent":"in-himachal-d-25","district":"Solan","source":"LGD via Bharatlas · 2024 snapshot","state_lgd":2,"district_lgd":25,"subdistrict_lgd":160,"center":[76.8178210096992,31.13472544550437],"bbox":[76.7333234,31.0400766,76.9039229,31.2286771]},"geometry":{"type":"Point","coordinates":[76.8178210096992,31.13472544550437]}},{"type":"Feature","id":"in-himachal-t-170","properties":{"id":"in-himachal-t-170","name":"Renuka","region":"in-himachal","level":"tehsil","parent":"in-himachal-d-24","district":"Sirmaur","source":"LGD via Bharatlas · 2024 snapshot","state_lgd":2,"district_lgd":24,"subdistrict_lgd":170,"center":[77.5007891164718,30.68757960658898],"bbox":[77.372553,30.5840055,77.6119303,30.801247]},"geometry":{"type":"Point","coordinates":[77.5007891164718,30.68757960658898]}},{"type":"Feature","id":"in-himachal-t-191","properties":{"id":"in-himachal-t-191","name":"Rohru","region":"in-himachal","level":"tehsil","parent":"in-himachal-d-23","district":"Shimla","source":"LGD via Bharatlas · 2024 snapshot","state_lgd":2,"district_lgd":23,"subdistrict_lgd":191,"center":[77.7169319935698,31.22382633199894],"bbox":[77.6235643,31.1289562,77.826892,31.3157433]},"geometry":{"type":"Point","coordinates":[77.7169319935698,31.22382633199894]}},{"type":"Feature","id":"in-himachal-t-176","properties":{"id":"in-himachal-t-176","name":"Ronhat","region":"in-himachal","level":"tehsil","parent":"in-himachal-d-24","district":"Sirmaur","source":"LGD via Bharatlas · 2024 snapshot","state_lgd":2,"district_lgd":24,"subdistrict_lgd":176,"center":[77.64499466093437,30.755109819166726],"bbox":[77.5683772,30.7004568,77.7334952,30.8100209]},"geometry":{"type":"Point","coordinates":[77.64499466093437,30.755109819166726]}},{"type":"Feature","id":"in-himachal-t-119","properties":{"id":"in-himachal-t-119","name":"Sainj","region":"in-himachal","level":"tehsil","parent":"in-himachal-d-20","district":"Kullu","source":"LGD via Bharatlas · 2024 snapshot","state_lgd":2,"district_lgd":20,"subdistrict_lgd":119,"center":[77.49918212936895,31.781619715255808],"bbox":[77.1936289,31.6826804,77.8684431,31.8747824]},"geometry":{"type":"Point","coordinates":[77.49918212936895,31.781619715255808]}},{"type":"Feature","id":"in-himachal-t-85","properties":{"id":"in-himachal-t-85","name":"Saluni","region":"in-himachal","level":"tehsil","parent":"in-himachal-d-16","district":"Chamba","source":"LGD via Bharatlas · 2024 snapshot","state_lgd":2,"district_lgd":16,"subdistrict_lgd":85,"center":[75.96386108314891,32.800459392270064],"bbox":[75.7962528,32.66771,76.1447634,32.9284598]},"geometry":{"type":"Point","coordinates":[75.96386108314891,32.800459392270064]}},{"type":"Feature","id":"in-himachal-t-126","properties":{"id":"in-himachal-t-126","name":"Sandhol","region":"in-himachal","level":"tehsil","parent":"in-himachal-d-22","district":"Mandi","source":"LGD via Bharatlas · 2024 snapshot","state_lgd":2,"district_lgd":22,"subdistrict_lgd":126,"center":[76.66360214253483,31.83784336995167],"bbox":[76.6203726,31.792339,76.7093946,31.8882142]},"geometry":{"type":"Point","coordinates":[76.66360214253483,31.83784336995167]}},{"type":"Feature","id":"in-himachal-t-199","properties":{"id":"in-himachal-t-199","name":"Sangla","region":"in-himachal","level":"tehsil","parent":"in-himachal-d-19","district":"Kinnaur","source":"LGD via Bharatlas · 2024 snapshot","state_lgd":2,"district_lgd":19,"subdistrict_lgd":199,"center":[78.55613062343437,31.307351060727125],"bbox":[78.1012333,31.0968983,79.008917,31.5198993]},"geometry":{"type":"Point","coordinates":[78.55613062343437,31.307351060727125]}},{"type":"Feature","id":"in-himachal-t-129","properties":{"id":"in-himachal-t-129","name":"Sarkaghat","region":"in-himachal","level":"tehsil","parent":"in-himachal-d-22","district":"Mandi","source":"LGD via Bharatlas · 2024 snapshot","state_lgd":2,"district_lgd":22,"subdistrict_lgd":129,"center":[76.73423155539069,31.683883833568217],"bbox":[76.6706697,31.6028603,76.7833292,31.7619148]},"geometry":{"type":"Point","coordinates":[76.73423155539069,31.683883833568217]}},{"type":"Feature","id":"in-himachal-t-98","properties":{"id":"in-himachal-t-98","name":"Shahpur","region":"in-himachal","level":"tehsil","parent":"in-himachal-d-18","district":"Kangra","source":"LGD via Bharatlas · 2024 snapshot","state_lgd":2,"district_lgd":18,"subdistrict_lgd":98,"center":[76.20895905863027,32.25020651775066],"bbox":[76.1264033,32.1244284,76.2911038,32.3957991]},"geometry":{"type":"Point","coordinates":[76.20895905863027,32.25020651775066]}},{"type":"Feature","id":"in-himachal-t-175","properties":{"id":"in-himachal-t-175","name":"Shalai","region":"in-himachal","level":"tehsil","parent":"in-himachal-d-24","district":"Sirmaur","source":"LGD via Bharatlas · 2024 snapshot","state_lgd":2,"district_lgd":24,"subdistrict_lgd":175,"center":[77.66967642513451,30.679868894849935],"bbox":[77.5455203,30.6348201,77.7925708,30.7350914]},"geometry":{"type":"Point","coordinates":[77.66967642513451,30.679868894849935]}},{"type":"Feature","id":"in-himachal-t-181","properties":{"id":"in-himachal-t-181","name":"Shimla ( Rural )","region":"in-himachal","level":"tehsil","parent":"in-himachal-d-23","district":"Shimla","source":"LGD via Bharatlas · 2024 snapshot","state_lgd":2,"district_lgd":23,"subdistrict_lgd":181,"center":[77.14364202706832,31.13411204],"bbox":[76.9888719,30.9998231,77.3056713,31.223638]},"geometry":{"type":"Point","coordinates":[77.14364202706832,31.13411204]}},{"type":"Feature","id":"in-himachal-t-182","properties":{"id":"in-himachal-t-182","name":"Shimla (urban)","region":"in-himachal","level":"tehsil","parent":"in-himachal-d-23","district":"Shimla","source":"LGD via Bharatlas · 2024 snapshot","state_lgd":2,"district_lgd":23,"subdistrict_lgd":182,"center":[77.16516156375069,31.102318189427166],"bbox":[77.1275433,31.0749695,77.2145201,31.1207725]},"geometry":{"type":"Point","coordinates":[77.16516156375069,31.102318189427166]}},{"type":"Feature","id":"in-himachal-t-89","properties":{"id":"in-himachal-t-89","name":"Sihunta","region":"in-himachal","level":"tehsil","parent":"in-himachal-d-16","district":"Chamba","source":"LGD via Bharatlas · 2024 snapshot","state_lgd":2,"district_lgd":16,"subdistrict_lgd":89,"center":[76.10902601533338,32.328138705288204],"bbox":[75.9883009,32.2222987,76.2216494,32.422955]},"geometry":{"type":"Point","coordinates":[76.10902601533338,32.328138705288204]}},{"type":"Feature","id":"in-himachal-t-165","properties":{"id":"in-himachal-t-165","name":"Solan","region":"in-himachal","level":"tehsil","parent":"in-himachal-d-25","district":"Solan","source":"LGD via Bharatlas · 2024 snapshot","state_lgd":2,"district_lgd":25,"subdistrict_lgd":165,"center":[77.07413685739469,30.91662304309057],"bbox":[76.9395179,30.7697186,77.2136526,31.0826047]},"geometry":{"type":"Point","coordinates":[77.07413685739469,30.91662304309057]}},{"type":"Feature","id":"in-himachal-t-116","properties":{"id":"in-himachal-t-116","name":"Spiti","region":"in-himachal","level":"tehsil","parent":"in-himachal-d-21","district":"Lahul And Spiti","source":"LGD via Bharatlas · 2024 snapshot","state_lgd":2,"district_lgd":21,"subdistrict_lgd":116,"center":[78.05502005562667,32.32642616028585],"bbox":[77.5484672,31.747512,78.6802698,32.988802]},"geometry":{"type":"Point","coordinates":[78.05502005562667,32.32642616028585]}},{"type":"Feature","id":"in-himachal-t-132","properties":{"id":"in-himachal-t-132","name":"Sundarnagar","region":"in-himachal","level":"tehsil","parent":"in-himachal-d-22","district":"Mandi","source":"LGD via Bharatlas · 2024 snapshot","state_lgd":2,"district_lgd":22,"subdistrict_lgd":132,"center":[76.89166692139115,31.47529125551586],"bbox":[76.7819664,31.3506466,77.0124549,31.5909202]},"geometry":{"type":"Point","coordinates":[76.89166692139115,31.47529125551586]}},{"type":"Feature","id":"in-himachal-t-180","properties":{"id":"in-himachal-t-180","name":"Sunni","region":"in-himachal","level":"tehsil","parent":"in-himachal-d-23","district":"Shimla","source":"LGD via Bharatlas · 2024 snapshot","state_lgd":2,"district_lgd":23,"subdistrict_lgd":180,"center":[77.19667100215587,31.219258421717342],"bbox":[77.0033127,31.1333726,77.3658039,31.2807333]},"geometry":{"type":"Point","coordinates":[77.19667100215587,31.219258421717342]}},{"type":"Feature","id":"in-himachal-t-6883","properties":{"id":"in-himachal-t-6883","name":"Tauni Devi Bamson","region":"in-himachal","level":"tehsil","parent":"in-himachal-d-17","district":"Hamirpur","source":"LGD via Bharatlas · 2024 snapshot","state_lgd":2,"district_lgd":17,"subdistrict_lgd":6883,"center":[76.61133163841599,31.748885674544837],"bbox":[76.5507888,31.6685067,76.6758691,31.847933]},"geometry":{"type":"Point","coordinates":[76.61133163841599,31.748885674544837]}},{"type":"Feature","id":"in-himachal-t-184","properties":{"id":"in-himachal-t-184","name":"Theog","region":"in-himachal","level":"tehsil","parent":"in-himachal-d-23","district":"Shimla","source":"LGD via Bharatlas · 2024 snapshot","state_lgd":2,"district_lgd":23,"subdistrict_lgd":184,"center":[77.38955201813015,31.10894019729127],"bbox":[77.2633361,30.9723919,77.5406189,31.2682995]},"geometry":{"type":"Point","coordinates":[77.38955201813015,31.10894019729127]}},{"type":"Feature","id":"in-himachal-t-136","properties":{"id":"in-himachal-t-136","name":"Thunag","region":"in-himachal","level":"tehsil","parent":"in-himachal-d-22","district":"Mandi","source":"LGD via Bharatlas · 2024 snapshot","state_lgd":2,"district_lgd":22,"subdistrict_lgd":136,"center":[77.20944166846661,31.530718570856965],"bbox":[77.0948859,31.4242073,77.332922,31.6549952]},"geometry":{"type":"Point","coordinates":[77.20944166846661,31.530718570856965]}},{"type":"Feature","id":"in-himachal-t-108","properties":{"id":"in-himachal-t-108","name":"Thural","region":"in-himachal","level":"tehsil","parent":"in-himachal-d-18","district":"Kangra","source":"LGD via Bharatlas · 2024 snapshot","state_lgd":2,"district_lgd":18,"subdistrict_lgd":108,"center":[76.46241834122957,31.920571253168813],"bbox":[76.4145756,31.8614491,76.5022876,31.9739087]},"geometry":{"type":"Point","coordinates":[76.46241834122957,31.920571253168813]}},{"type":"Feature","id":"in-himachal-t-190","properties":{"id":"in-himachal-t-190","name":"Tikar","region":"in-himachal","level":"tehsil","parent":"in-himachal-d-23","district":"Shimla","source":"LGD via Bharatlas · 2024 snapshot","state_lgd":2,"district_lgd":23,"subdistrict_lgd":190,"center":[77.6282622296122,31.202502114554225],"bbox":[77.5734272,31.1466476,77.6953088,31.2632959]},"geometry":{"type":"Point","coordinates":[77.6282622296122,31.202502114554225]}},{"type":"Feature","id":"in-himachal-t-140","properties":{"id":"in-himachal-t-140","name":"Tira Sujanpur","region":"in-himachal","level":"tehsil","parent":"in-himachal-d-17","district":"Hamirpur","source":"LGD via Bharatlas · 2024 snapshot","state_lgd":2,"district_lgd":17,"subdistrict_lgd":140,"center":[76.54173806659153,31.809999019500253],"bbox":[76.446429,31.727852,76.6391669,31.8930363]},"geometry":{"type":"Point","coordinates":[76.54173806659153,31.809999019500253]}},{"type":"Feature","id":"in-himachal-t-114","properties":{"id":"in-himachal-t-114","name":"Udaipur","region":"in-himachal","level":"tehsil","parent":"in-himachal-d-21","district":"Lahul And Spiti","source":"LGD via Bharatlas · 2024 snapshot","state_lgd":2,"district_lgd":21,"subdistrict_lgd":114,"center":[76.7290137757613,32.827453758395635],"bbox":[76.372916,32.5382697,77.0109245,33.256426]},"geometry":{"type":"Point","coordinates":[76.7290137757613,32.827453758395635]}},{"type":"Feature","id":"in-himachal-t-150","properties":{"id":"in-himachal-t-150","name":"Una","region":"in-himachal","level":"tehsil","parent":"in-himachal-d-26","district":"Una","source":"LGD via Bharatlas · 2024 snapshot","state_lgd":2,"district_lgd":26,"subdistrict_lgd":150,"center":[76.28603624118728,31.471174416430582],"bbox":[76.1886329,31.339826,76.3738825,31.5879832]},"geometry":{"type":"Point","coordinates":[76.28603624118728,31.471174416430582]}}]}
