{"type":"FeatureCollection","features":[{"type":"Feature","id":"in-haryana-d-58","properties":{"id":"in-haryana-d-58","name":"Ambala","region":"in-haryana","level":"district","parent":"","source":"LGD via Bharatlas · 2024 snapshot","state_lgd":6,"district_lgd":58,"center":[76.94507271779258,30.332625199581038],"bbox":[76.5431102,30.066239,77.2124782,30.5629531]},"geometry":{"type":"Point","coordinates":[76.94507271779258,30.332625199581038]}},{"type":"Feature","id":"in-haryana-d-59","properties":{"id":"in-haryana-d-59","name":"Bhiwani","region":"in-haryana","level":"district","parent":"","source":"LGD via Bharatlas · 2024 snapshot","state_lgd":6,"district_lgd":59,"center":[75.89036218389106,28.7799846814047],"bbox":[75.4733962,28.3830454,76.3653487,29.0813444]},"geometry":{"type":"Point","coordinates":[75.89036218389106,28.7799846814047]}},{"type":"Feature","id":"in-haryana-d-701","properties":{"id":"in-haryana-d-701","name":"Charki Dadri","region":"in-haryana","level":"district","parent":"","source":"LGD via Bharatlas · 2024 snapshot","state_lgd":6,"district_lgd":701,"center":[76.15347296204338,28.576820672014883],"bbox":[75.8159348,28.3856216,76.4657204,28.8145277]},"geometry":{"type":"Point","coordinates":[76.15347296204338,28.576820672014883]}},{"type":"Feature","id":"in-haryana-d-60","properties":{"id":"in-haryana-d-60","name":"Faridabad","region":"in-haryana","level":"district","parent":"","source":"LGD via Bharatlas · 2024 snapshot","state_lgd":6,"district_lgd":60,"center":[77.34275611338101,28.35217155427527],"bbox":[77.1492497,28.2004279,77.5069726,28.5132442]},"geometry":{"type":"Point","coordinates":[77.34275611338101,28.35217155427527]}},{"type":"Feature","id":"in-haryana-d-61","properties":{"id":"in-haryana-d-61","name":"Fatehabad","region":"in-haryana","level":"district","parent":"","source":"LGD via Bharatlas · 2024 snapshot","state_lgd":6,"district_lgd":61,"center":[75.57697668860374,29.56887903051537],"bbox":[75.2200042,29.2495838,75.9642676,29.8223436]},"geometry":{"type":"Point","coordinates":[75.57697668860374,29.56887903051537]}},{"type":"Feature","id":"in-haryana-d-62","properties":{"id":"in-haryana-d-62","name":"Gurugram","region":"in-haryana","level":"district","parent":"","source":"LGD via Bharatlas · 2024 snapshot","state_lgd":6,"district_lgd":62,"center":[76.94026804967561,28.36903267574355],"bbox":[76.6502874,28.1990039,77.2417716,28.5414072]},"geometry":{"type":"Point","coordinates":[76.94026804967561,28.36903267574355]}},{"type":"Feature","id":"in-haryana-d-63","properties":{"id":"in-haryana-d-63","name":"Hisar","region":"in-haryana","level":"district","parent":"","source":"LGD via Bharatlas · 2024 snapshot","state_lgd":6,"district_lgd":63,"center":[75.82244045443208,29.211693469366192],"bbox":[75.3280161,28.898616,76.3180964,29.5803376]},"geometry":{"type":"Point","coordinates":[75.82244045443208,29.211693469366192]}},{"type":"Feature","id":"in-haryana-d-64","properties":{"id":"in-haryana-d-64","name":"Jhajjar","region":"in-haryana","level":"district","parent":"","source":"LGD via Bharatlas · 2024 snapshot","state_lgd":6,"district_lgd":64,"center":[76.64817280272638,28.60482666169462],"bbox":[76.2827458,28.3562035,76.96783,28.8397084]},"geometry":{"type":"Point","coordinates":[76.64817280272638,28.60482666169462]}},{"type":"Feature","id":"in-haryana-d-65","properties":{"id":"in-haryana-d-65","name":"Jind","region":"in-haryana","level":"district","parent":"","source":"LGD via Bharatlas · 2024 snapshot","state_lgd":6,"district_lgd":65,"center":[76.30363227817942,29.43516393615481],"bbox":[75.933017,29.0556673,76.7624537,29.8447618]},"geometry":{"type":"Point","coordinates":[76.30363227817942,29.43516393615481]}},{"type":"Feature","id":"in-haryana-d-66","properties":{"id":"in-haryana-d-66","name":"Kaithal","region":"in-haryana","level":"district","parent":"","source":"LGD via Bharatlas · 2024 snapshot","state_lgd":6,"district_lgd":66,"center":[76.41385171254886,29.811239837658682],"bbox":[76.1683463,29.5144144,76.7170044,30.1924275]},"geometry":{"type":"Point","coordinates":[76.41385171254886,29.811239837658682]}},{"type":"Feature","id":"in-haryana-d-67","properties":{"id":"in-haryana-d-67","name":"Karnal","region":"in-haryana","level":"district","parent":"","source":"LGD via Bharatlas · 2024 snapshot","state_lgd":6,"district_lgd":67,"center":[76.88778953672667,29.68895029417103],"bbox":[76.4628928,29.4164767,77.2293064,29.9934391]},"geometry":{"type":"Point","coordinates":[76.88778953672667,29.68895029417103]}},{"type":"Feature","id":"in-haryana-d-68","properties":{"id":"in-haryana-d-68","name":"Kurukshetra","region":"in-haryana","level":"district","parent":"","source":"LGD via Bharatlas · 2024 snapshot","state_lgd":6,"district_lgd":68,"center":[76.7849410307069,30.038696737579304],"bbox":[76.4217099,29.8668302,77.1227793,30.2547135]},"geometry":{"type":"Point","coordinates":[76.7849410307069,30.038696737579304]}},{"type":"Feature","id":"in-haryana-d-69","properties":{"id":"in-haryana-d-69","name":"Mahendragarh","region":"in-haryana","level":"district","parent":"","source":"LGD via Bharatlas · 2024 snapshot","state_lgd":6,"district_lgd":69,"center":[76.13833707919903,28.171028903687358],"bbox":[75.8951764,27.7974792,76.3680091,28.4685007]},"geometry":{"type":"Point","coordinates":[76.13833707919903,28.171028903687358]}},{"type":"Feature","id":"in-haryana-d-604","properties":{"id":"in-haryana-d-604","name":"Nuh","region":"in-haryana","level":"district","parent":"","source":"LGD via Bharatlas · 2024 snapshot","state_lgd":6,"district_lgd":604,"center":[77.05019616042125,27.98519268687677],"bbox":[76.8529375,27.652271,77.3364258,28.3356624]},"geometry":{"type":"Point","coordinates":[77.05019616042125,27.98519268687677]}},{"type":"Feature","id":"in-haryana-d-619","properties":{"id":"in-haryana-d-619","name":"Palwal","region":"in-haryana","level":"district","parent":"","source":"LGD via Bharatlas · 2024 snapshot","state_lgd":6,"district_lgd":619,"center":[77.33491199567302,28.062991676751203],"bbox":[77.1206335,27.847418,77.5504209,28.2723457]},"geometry":{"type":"Point","coordinates":[77.33491199567302,28.062991676751203]}},{"type":"Feature","id":"in-haryana-d-70","properties":{"id":"in-haryana-d-70","name":"Panchkula","region":"in-haryana","level":"district","parent":"","source":"LGD via Bharatlas · 2024 snapshot","state_lgd":6,"district_lgd":70,"center":[76.97749553436367,30.686498066953302],"bbox":[76.7760865,30.4705566,77.1769956,30.9285429]},"geometry":{"type":"Point","coordinates":[76.97749553436367,30.686498066953302]}},{"type":"Feature","id":"in-haryana-d-71","properties":{"id":"in-haryana-d-71","name":"Panipat","region":"in-haryana","level":"district","parent":"","source":"LGD via Bharatlas · 2024 snapshot","state_lgd":6,"district_lgd":71,"center":[76.9281100512888,29.33795840507955],"bbox":[76.631911,29.1617656,77.1611548,29.5339729]},"geometry":{"type":"Point","coordinates":[76.9281100512888,29.33795840507955]}},{"type":"Feature","id":"in-haryana-d-72","properties":{"id":"in-haryana-d-72","name":"Rewari","region":"in-haryana","level":"district","parent":"","source":"LGD via Bharatlas · 2024 snapshot","state_lgd":6,"district_lgd":72,"center":[76.53661281040836,28.241077239680198],"bbox":[76.2801447,27.9636748,76.8590742,28.4729456]},"geometry":{"type":"Point","coordinates":[76.53661281040836,28.241077239680198]}},{"type":"Feature","id":"in-haryana-d-73","properties":{"id":"in-haryana-d-73","name":"Rohtak","region":"in-haryana","level":"district","parent":"","source":"LGD via Bharatlas · 2024 snapshot","state_lgd":6,"district_lgd":73,"center":[76.53027521018642,28.912076714032207],"bbox":[76.2123837,28.6825722,76.8687465,29.0983354]},"geometry":{"type":"Point","coordinates":[76.53027521018642,28.912076714032207]}},{"type":"Feature","id":"in-haryana-d-74","properties":{"id":"in-haryana-d-74","name":"Sirsa","region":"in-haryana","level":"district","parent":"","source":"LGD via Bharatlas · 2024 snapshot","state_lgd":6,"district_lgd":74,"center":[74.90079281053892,29.615601357833718],"bbox":[74.4732587,29.2228652,75.3038596,29.9924006]},"geometry":{"type":"Point","coordinates":[74.90079281053892,29.615601357833718]}},{"type":"Feature","id":"in-haryana-d-75","properties":{"id":"in-haryana-d-75","name":"Sonipat","region":"in-haryana","level":"district","parent":"","source":"LGD via Bharatlas · 2024 snapshot","state_lgd":6,"district_lgd":75,"center":[76.87479771074798,29.056548474936957],"bbox":[76.4745327,28.7934937,77.2347462,29.28917]},"geometry":{"type":"Point","coordinates":[76.87479771074798,29.056548474936957]}},{"type":"Feature","id":"in-haryana-d-76","properties":{"id":"in-haryana-d-76","name":"Yamunanagar","region":"in-haryana","level":"district","parent":"","source":"LGD via Bharatlas · 2024 snapshot","state_lgd":6,"district_lgd":76,"center":[77.30228602535257,30.23426269048744],"bbox":[77.0652721,29.9350642,77.6045913,30.4968311]},"geometry":{"type":"Point","coordinates":[77.30228602535257,30.23426269048744]}}]}
