{"type":"FeatureCollection","features":[{"type":"Feature","id":"in-haryana-t-393","properties":{"id":"in-haryana-t-393","name":"Adampur","region":"in-haryana","level":"tehsil","parent":"in-haryana-d-63","district":"Hisar","source":"LGD via Bharatlas · 2024 snapshot","state_lgd":6,"district_lgd":63,"subdistrict_lgd":393,"center":[75.48744108016501,29.265622304578628],"bbox":[75.3280161,29.1279009,75.6341054,29.3980468]},"geometry":{"type":"Point","coordinates":[75.48744108016501,29.265622304578628]}},{"type":"Feature","id":"in-haryana-t-359","properties":{"id":"in-haryana-t-359","name":"Ambala","region":"in-haryana","level":"tehsil","parent":"in-haryana-d-58","district":"Ambala","source":"LGD via Bharatlas · 2024 snapshot","state_lgd":6,"district_lgd":58,"subdistrict_lgd":359,"center":[76.81281192480255,30.29575159562353],"bbox":[76.5431102,30.066239,77.0477869,30.4434055]},"geometry":{"type":"Point","coordinates":[76.81281192480255,30.29575159562353]}},{"type":"Feature","id":"in-haryana-t-373","properties":{"id":"in-haryana-t-373","name":"Assandh","region":"in-haryana","level":"tehsil","parent":"in-haryana-d-67","district":"Karnal","source":"LGD via Bharatlas · 2024 snapshot","state_lgd":6,"district_lgd":67,"subdistrict_lgd":373,"center":[76.66957100028716,29.544085062417174],"bbox":[76.4628928,29.4164767,76.8880029,29.6775755]},"geometry":{"type":"Point","coordinates":[76.66957100028716,29.544085062417174]}},{"type":"Feature","id":"in-haryana-t-6457","properties":{"id":"in-haryana-t-6457","name":"Ateli","region":"in-haryana","level":"tehsil","parent":"in-haryana-d-69","district":"Mahendragarh","source":"LGD via Bharatlas · 2024 snapshot","state_lgd":6,"district_lgd":69,"subdistrict_lgd":6457,"center":[76.26487764679085,28.110802555134036],"bbox":[76.1570476,28.0155308,76.3598612,28.2199865]},"geometry":{"type":"Point","coordinates":[76.26487764679085,28.110802555134036]}},{"type":"Feature","id":"in-haryana-t-403","properties":{"id":"in-haryana-t-403","name":"Badhra","region":"in-haryana","level":"tehsil","parent":"in-haryana-d-701","district":"Charki Dadri","source":"LGD via Bharatlas · 2024 snapshot","state_lgd":6,"district_lgd":701,"subdistrict_lgd":403,"center":[75.96760470366877,28.521474658449776],"bbox":[75.8159348,28.3856216,76.1001657,28.6261493]},"geometry":{"type":"Point","coordinates":[75.96760470366877,28.521474658449776]}},{"type":"Feature","id":"in-haryana-t-408","properties":{"id":"in-haryana-t-408","name":"Bahadurgarh","region":"in-haryana","level":"tehsil","parent":"in-haryana-d-64","district":"Jhajjar","source":"LGD via Bharatlas · 2024 snapshot","state_lgd":6,"district_lgd":64,"subdistrict_lgd":408,"center":[76.83467982244521,28.6828283276473],"bbox":[76.6806646,28.4980371,76.96783,28.8237487]},"geometry":{"type":"Point","coordinates":[76.83467982244521,28.6828283276473]}},{"type":"Feature","id":"in-haryana-t-426","properties":{"id":"in-haryana-t-426","name":"Ballabgarh","region":"in-haryana","level":"tehsil","parent":"in-haryana-d-60","district":"Faridabad","source":"LGD via Bharatlas · 2024 snapshot","state_lgd":6,"district_lgd":60,"subdistrict_lgd":426,"center":[77.38920948131442,28.291336700024996],"bbox":[77.1915319,28.2004279,77.5070727,28.3878181]},"geometry":{"type":"Point","coordinates":[77.38920948131442,28.291336700024996]}},{"type":"Feature","id":"in-haryana-t-6462","properties":{"id":"in-haryana-t-6462","name":"Bapoli","region":"in-haryana","level":"tehsil","parent":"in-haryana-d-71","district":"Panipat","source":"LGD via Bharatlas · 2024 snapshot","state_lgd":6,"district_lgd":71,"subdistrict_lgd":6462,"center":[77.08953276470534,29.354998474278343],"bbox":[76.9922307,29.2456018,77.1611548,29.484943]},"geometry":{"type":"Point","coordinates":[77.08953276470534,29.354998474278343]}},{"type":"Feature","id":"in-haryana-t-360","properties":{"id":"in-haryana-t-360","name":"Barara","region":"in-haryana","level":"tehsil","parent":"in-haryana-d-58","district":"Ambala","source":"LGD via Bharatlas · 2024 snapshot","state_lgd":6,"district_lgd":58,"subdistrict_lgd":360,"center":[77.06084911151922,30.247291065939216],"bbox":[76.9357335,30.1236314,77.192145,30.3607433]},"geometry":{"type":"Point","coordinates":[77.06084911151922,30.247291065939216]}},{"type":"Feature","id":"in-haryana-t-415","properties":{"id":"in-haryana-t-415","name":"Bawal","region":"in-haryana","level":"tehsil","parent":"in-haryana-d-72","district":"Rewari","source":"LGD via Bharatlas · 2024 snapshot","state_lgd":6,"district_lgd":72,"subdistrict_lgd":415,"center":[76.56936625289585,28.065147293605115],"bbox":[76.4478409,27.9636748,76.712023,28.1477554]},"geometry":{"type":"Point","coordinates":[76.56936625289585,28.065147293605115]}},{"type":"Feature","id":"in-haryana-t-397","properties":{"id":"in-haryana-t-397","name":"Bawani Khera","region":"in-haryana","level":"tehsil","parent":"in-haryana-d-59","district":"Bhiwani","source":"LGD via Bharatlas · 2024 snapshot","state_lgd":6,"district_lgd":59,"subdistrict_lgd":397,"center":[76.0551746354912,28.965791653109914],"bbox":[75.8531605,28.8478594,76.2287445,29.0813444]},"geometry":{"type":"Point","coordinates":[76.0551746354912,28.965791653109914]}},{"type":"Feature","id":"in-haryana-t-407","properties":{"id":"in-haryana-t-407","name":"Beri","region":"in-haryana","level":"tehsil","parent":"in-haryana-d-64","district":"Jhajjar","source":"LGD via Bharatlas · 2024 snapshot","state_lgd":6,"district_lgd":64,"subdistrict_lgd":407,"center":[76.55936736912525,28.703313707604032],"bbox":[76.4011199,28.5996655,76.710216,28.8397084]},"geometry":{"type":"Point","coordinates":[76.55936736912525,28.703313707604032]}},{"type":"Feature","id":"in-haryana-t-398","properties":{"id":"in-haryana-t-398","name":"Bhiwani","region":"in-haryana","level":"tehsil","parent":"in-haryana-d-59","district":"Bhiwani","source":"LGD via Bharatlas · 2024 snapshot","state_lgd":6,"district_lgd":59,"subdistrict_lgd":398,"center":[76.1227304720139,28.773006265499788],"bbox":[75.8638333,28.6033886,76.3653487,28.9504308]},"geometry":{"type":"Point","coordinates":[76.1227304720139,28.773006265499788]}},{"type":"Feature","id":"in-haryana-t-362","properties":{"id":"in-haryana-t-362","name":"Bilaspur","region":"in-haryana","level":"tehsil","parent":"in-haryana-d-76","district":"Yamunanagar","source":"LGD via Bharatlas · 2024 snapshot","state_lgd":6,"district_lgd":76,"subdistrict_lgd":362,"center":[77.2921756266303,30.378645863660605],"bbox":[77.1617747,30.2648241,77.4662021,30.4968311]},"geometry":{"type":"Point","coordinates":[77.2921756266303,30.378645863660605]}},{"type":"Feature","id":"in-haryana-t-363","properties":{"id":"in-haryana-t-363","name":"Chhachhrauli","region":"in-haryana","level":"tehsil","parent":"in-haryana-d-76","district":"Yamunanagar","source":"LGD via Bharatlas · 2024 snapshot","state_lgd":6,"district_lgd":76,"subdistrict_lgd":363,"center":[77.45408745787132,30.292139872886505],"bbox":[77.269238,30.1355122,77.6045913,30.4454211]},"geometry":{"type":"Point","coordinates":[77.45408745787132,30.292139872886505]}},{"type":"Feature","id":"in-haryana-t-389","properties":{"id":"in-haryana-t-389","name":"Dabwali","region":"in-haryana","level":"tehsil","parent":"in-haryana-d-74","district":"Sirsa","source":"LGD via Bharatlas · 2024 snapshot","state_lgd":6,"district_lgd":74,"subdistrict_lgd":389,"center":[74.7305506312132,29.826571227194293],"bbox":[74.4732587,29.6706373,74.9561987,29.9924006]},"geometry":{"type":"Point","coordinates":[74.7305506312132,29.826571227194293]}},{"type":"Feature","id":"in-haryana-t-402","properties":{"id":"in-haryana-t-402","name":"Dadri","region":"in-haryana","level":"tehsil","parent":"in-haryana-d-701","district":"Charki Dadri","source":"LGD via Bharatlas · 2024 snapshot","state_lgd":6,"district_lgd":701,"subdistrict_lgd":402,"center":[76.23707387128935,28.601779145854593],"bbox":[76.0052791,28.3898585,76.4657204,28.8145277]},"geometry":{"type":"Point","coordinates":[76.23707387128935,28.601779145854593]}},{"type":"Feature","id":"in-haryana-t-392","properties":{"id":"in-haryana-t-392","name":"Ellenabad","region":"in-haryana","level":"tehsil","parent":"in-haryana-d-74","district":"Sirsa","source":"LGD via Bharatlas · 2024 snapshot","state_lgd":6,"district_lgd":74,"subdistrict_lgd":392,"center":[74.71205698163018,29.433837458941227],"bbox":[74.5345843,29.3273494,74.9095817,29.538836]},"geometry":{"type":"Point","coordinates":[74.71205698163018,29.433837458941227]}},{"type":"Feature","id":"in-haryana-t-425","properties":{"id":"in-haryana-t-425","name":"Faridabad","region":"in-haryana","level":"tehsil","parent":"in-haryana-d-60","district":"Faridabad","source":"LGD via Bharatlas · 2024 snapshot","state_lgd":6,"district_lgd":60,"subdistrict_lgd":425,"center":[77.30857099020028,28.396942196595315],"bbox":[77.1492497,28.2959513,77.483801,28.5132442]},"geometry":{"type":"Point","coordinates":[77.30857099020028,28.396942196595315]}},{"type":"Feature","id":"in-haryana-t-418","properties":{"id":"in-haryana-t-418","name":"Farrukhnagar","region":"in-haryana","level":"tehsil","parent":"in-haryana-d-62","district":"Gurugram","source":"LGD via Bharatlas · 2024 snapshot","state_lgd":6,"district_lgd":62,"subdistrict_lgd":418,"center":[76.81429590236766,28.40898226669098],"bbox":[76.7037881,28.2716548,76.9040435,28.5048415]},"geometry":{"type":"Point","coordinates":[76.81429590236766,28.40898226669098]}},{"type":"Feature","id":"in-haryana-t-388","properties":{"id":"in-haryana-t-388","name":"Fatehabad","region":"in-haryana","level":"tehsil","parent":"in-haryana-d-61","district":"Fatehabad","source":"LGD via Bharatlas · 2024 snapshot","state_lgd":6,"district_lgd":61,"subdistrict_lgd":388,"center":[75.48843556791644,29.481924164677476],"bbox":[75.2200042,29.2495838,75.8016342,29.6868478]},"geometry":{"type":"Point","coordinates":[75.48843556791644,29.481924164677476]}},{"type":"Feature","id":"in-haryana-t-369","properties":{"id":"in-haryana-t-369","name":"Fatehpur Pundri","region":"in-haryana","level":"tehsil","parent":"in-haryana-d-66","district":"Kaithal","source":"LGD via Bharatlas · 2024 snapshot","state_lgd":6,"district_lgd":66,"subdistrict_lgd":369,"center":[76.60203542917415,29.76875366972856],"bbox":[76.4798585,29.613303,76.7170044,29.9261943]},"geometry":{"type":"Point","coordinates":[76.60203542917415,29.76875366972856]}},{"type":"Feature","id":"in-haryana-t-423","properties":{"id":"in-haryana-t-423","name":"Ferozepur Jhirka","region":"in-haryana","level":"tehsil","parent":"in-haryana-d-604","district":"Nuh","source":"LGD via Bharatlas · 2024 snapshot","state_lgd":6,"district_lgd":604,"subdistrict_lgd":423,"center":[77.00190846568529,27.842897884671807],"bbox":[76.8893425,27.652271,77.1294834,28.0135499]},"geometry":{"type":"Point","coordinates":[77.00190846568529,27.842897884671807]}},{"type":"Feature","id":"in-haryana-t-379","properties":{"id":"in-haryana-t-379","name":"Ganaur","region":"in-haryana","level":"tehsil","parent":"in-haryana-d-75","district":"Sonipat","source":"LGD via Bharatlas · 2024 snapshot","state_lgd":6,"district_lgd":75,"subdistrict_lgd":379,"center":[76.99677748086624,29.13625550320244],"bbox":[76.8309385,29.0546675,77.1490846,29.2193214]},"geometry":{"type":"Point","coordinates":[76.99677748086624,29.13625550320244]}},{"type":"Feature","id":"in-haryana-t-374","properties":{"id":"in-haryana-t-374","name":"Gharaunda","region":"in-haryana","level":"tehsil","parent":"in-haryana-d-67","district":"Karnal","source":"LGD via Bharatlas · 2024 snapshot","state_lgd":6,"district_lgd":67,"subdistrict_lgd":374,"center":[76.97611948335735,29.52891607021238],"bbox":[76.8531752,29.4579647,77.131987,29.6191672]},"geometry":{"type":"Point","coordinates":[76.97611948335735,29.52891607021238]}},{"type":"Feature","id":"in-haryana-t-378","properties":{"id":"in-haryana-t-378","name":"Gohana","region":"in-haryana","level":"tehsil","parent":"in-haryana-d-75","district":"Sonipat","source":"LGD via Bharatlas · 2024 snapshot","state_lgd":6,"district_lgd":75,"subdistrict_lgd":378,"center":[76.68050275682857,29.14467848404385],"bbox":[76.4745327,28.9474498,76.8652593,29.28917]},"geometry":{"type":"Point","coordinates":[76.68050275682857,29.14467848404385]}},{"type":"Feature","id":"in-haryana-t-367","properties":{"id":"in-haryana-t-367","name":"Guhla","region":"in-haryana","level":"tehsil","parent":"in-haryana-d-66","district":"Kaithal","source":"LGD via Bharatlas · 2024 snapshot","state_lgd":6,"district_lgd":66,"subdistrict_lgd":367,"center":[76.3284683387508,30.018228066077153],"bbox":[76.1719724,29.878485,76.4679479,30.1924275]},"geometry":{"type":"Point","coordinates":[76.3284683387508,30.018228066077153]}},{"type":"Feature","id":"in-haryana-t-417","properties":{"id":"in-haryana-t-417","name":"Gurgaon","region":"in-haryana","level":"tehsil","parent":"in-haryana-d-62","district":"Gurugram","source":"LGD via Bharatlas · 2024 snapshot","state_lgd":6,"district_lgd":62,"subdistrict_lgd":417,"center":[77.00215711310612,28.442953942961307],"bbox":[76.8653524,28.3151013,77.1237623,28.5414072]},"geometry":{"type":"Point","coordinates":[77.00215711310612,28.442953942961307]}},{"type":"Feature","id":"in-haryana-t-396","properties":{"id":"in-haryana-t-396","name":"Hansi","region":"in-haryana","level":"tehsil","parent":"in-haryana-d-63","district":"Hisar","source":"LGD via Bharatlas · 2024 snapshot","state_lgd":6,"district_lgd":63,"subdistrict_lgd":396,"center":[76.04090608198847,29.129140416769783],"bbox":[75.793662,28.952584,76.3180964,29.321449]},"geometry":{"type":"Point","coordinates":[76.04090608198847,29.129140416769783]}},{"type":"Feature","id":"in-haryana-t-428","properties":{"id":"in-haryana-t-428","name":"Hathin","region":"in-haryana","level":"tehsil","parent":"in-haryana-d-619","district":"Palwal","source":"LGD via Bharatlas · 2024 snapshot","state_lgd":6,"district_lgd":619,"subdistrict_lgd":428,"center":[77.21685148070672,28.031015636254825],"bbox":[77.1206335,27.8812832,77.3091332,28.1894504]},"geometry":{"type":"Point","coordinates":[77.21685148070672,28.031015636254825]}},{"type":"Feature","id":"in-haryana-t-394","properties":{"id":"in-haryana-t-394","name":"Hisar","region":"in-haryana","level":"tehsil","parent":"in-haryana-d-63","district":"Hisar","source":"LGD via Bharatlas · 2024 snapshot","state_lgd":6,"district_lgd":63,"subdistrict_lgd":394,"center":[75.75038575312173,29.222292559276294],"bbox":[75.390988,28.898616,76.0931523,29.5803376]},"geometry":{"type":"Point","coordinates":[75.75038575312173,29.222292559276294]}},{"type":"Feature","id":"in-haryana-t-429","properties":{"id":"in-haryana-t-429","name":"Hodal","region":"in-haryana","level":"tehsil","parent":"in-haryana-d-619","district":"Palwal","source":"LGD via Bharatlas · 2024 snapshot","state_lgd":6,"district_lgd":619,"subdistrict_lgd":429,"center":[77.39393322322283,27.95302126122955],"bbox":[77.2812279,27.847418,77.5460773,28.0774191]},"geometry":{"type":"Point","coordinates":[77.39393322322283,27.95302126122955]}},{"type":"Feature","id":"in-haryana-t-371","properties":{"id":"in-haryana-t-371","name":"Indri","region":"in-haryana","level":"tehsil","parent":"in-haryana-d-67","district":"Karnal","source":"LGD via Bharatlas · 2024 snapshot","state_lgd":6,"district_lgd":67,"subdistrict_lgd":371,"center":[77.09081338240081,29.886390277396266],"bbox":[76.9489181,29.7902131,77.2293064,29.9934391]},"geometry":{"type":"Point","coordinates":[77.09081338240081,29.886390277396266]}},{"type":"Feature","id":"in-haryana-t-376","properties":{"id":"in-haryana-t-376","name":"Israna","region":"in-haryana","level":"tehsil","parent":"in-haryana-d-71","district":"Panipat","source":"LGD via Bharatlas · 2024 snapshot","state_lgd":6,"district_lgd":71,"subdistrict_lgd":376,"center":[76.81613037698537,29.27571609207875],"bbox":[76.631911,29.1918633,76.9438058,29.349032]},"geometry":{"type":"Point","coordinates":[76.81613037698537,29.27571609207875]}},{"type":"Feature","id":"in-haryana-t-361","properties":{"id":"in-haryana-t-361","name":"Jagadhri","region":"in-haryana","level":"tehsil","parent":"in-haryana-d-76","district":"Yamunanagar","source":"LGD via Bharatlas · 2024 snapshot","state_lgd":6,"district_lgd":76,"subdistrict_lgd":361,"center":[77.24703199923424,30.166534882490712],"bbox":[77.0652721,30.0333733,77.4250528,30.3224105]},"geometry":{"type":"Point","coordinates":[77.24703199923424,30.166534882490712]}},{"type":"Feature","id":"in-haryana-t-409","properties":{"id":"in-haryana-t-409","name":"Jhajjar","region":"in-haryana","level":"tehsil","parent":"in-haryana-d-64","district":"Jhajjar","source":"LGD via Bharatlas · 2024 snapshot","state_lgd":6,"district_lgd":64,"subdistrict_lgd":409,"center":[76.66450889441286,28.53194686465484],"bbox":[76.5065186,28.3562035,76.8244705,28.7128025]},"geometry":{"type":"Point","coordinates":[76.66450889441286,28.53194686465484]}},{"type":"Feature","id":"in-haryana-t-383","properties":{"id":"in-haryana-t-383","name":"Jind","region":"in-haryana","level":"tehsil","parent":"in-haryana-d-65","district":"Jind","source":"LGD via Bharatlas · 2024 snapshot","state_lgd":6,"district_lgd":65,"subdistrict_lgd":383,"center":[76.35734975012531,29.35684600421876],"bbox":[76.1777977,29.1786695,76.5061286,29.5826962]},"geometry":{"type":"Point","coordinates":[76.35734975012531,29.35684600421876]}},{"type":"Feature","id":"in-haryana-t-384","properties":{"id":"in-haryana-t-384","name":"Julana","region":"in-haryana","level":"tehsil","parent":"in-haryana-d-65","district":"Jind","source":"LGD via Bharatlas · 2024 snapshot","state_lgd":6,"district_lgd":65,"subdistrict_lgd":384,"center":[76.39557673782626,29.142580157940017],"bbox":[76.2706909,29.0554144,76.5122005,29.225447]},"geometry":{"type":"Point","coordinates":[76.39557673782626,29.142580157940017]}},{"type":"Feature","id":"in-haryana-t-368","properties":{"id":"in-haryana-t-368","name":"Kaithal","region":"in-haryana","level":"tehsil","parent":"in-haryana-d-66","district":"Kaithal","source":"LGD via Bharatlas · 2024 snapshot","state_lgd":6,"district_lgd":66,"subdistrict_lgd":368,"center":[76.40524329540789,29.760582209373908],"bbox":[76.2091602,29.5144144,76.5718252,29.9734812]},"geometry":{"type":"Point","coordinates":[76.40524329540789,29.760582209373908]}},{"type":"Feature","id":"in-haryana-t-6446","properties":{"id":"in-haryana-t-6446","name":"Kalayat","region":"in-haryana","level":"tehsil","parent":"in-haryana-d-66","district":"Kaithal","source":"LGD via Bharatlas · 2024 snapshot","state_lgd":6,"district_lgd":66,"subdistrict_lgd":6446,"center":[76.28636637872853,29.670326263277108],"bbox":[76.1683463,29.5468694,76.3953172,29.7951171]},"geometry":{"type":"Point","coordinates":[76.28636637872853,29.670326263277108]}},{"type":"Feature","id":"in-haryana-t-356","properties":{"id":"in-haryana-t-356","name":"Kalka","region":"in-haryana","level":"tehsil","parent":"in-haryana-d-70","district":"Panchkula","source":"LGD via Bharatlas · 2024 snapshot","state_lgd":6,"district_lgd":70,"subdistrict_lgd":356,"center":[76.90524237218534,30.809783379046443],"bbox":[76.7760865,30.6772422,77.0190631,30.9285429]},"geometry":{"type":"Point","coordinates":[76.90524237218534,30.809783379046443]}},{"type":"Feature","id":"in-haryana-t-6458","properties":{"id":"in-haryana-t-6458","name":"Kanina","region":"in-haryana","level":"tehsil","parent":"in-haryana-d-69","district":"Mahendragarh","source":"LGD via Bharatlas · 2024 snapshot","state_lgd":6,"district_lgd":69,"subdistrict_lgd":6458,"center":[76.2722443910373,28.315287060311473],"bbox":[76.1829585,28.1672636,76.3680091,28.4685007]},"geometry":{"type":"Point","coordinates":[76.2722443910373,28.315287060311473]}},{"type":"Feature","id":"in-haryana-t-372","properties":{"id":"in-haryana-t-372","name":"Karnal","region":"in-haryana","level":"tehsil","parent":"in-haryana-d-67","district":"Karnal","source":"LGD via Bharatlas · 2024 snapshot","state_lgd":6,"district_lgd":67,"subdistrict_lgd":372,"center":[76.93473374345076,29.68244442180711],"bbox":[76.6681776,29.5164528,77.1736743,29.8206921]},"geometry":{"type":"Point","coordinates":[76.93473374345076,29.68244442180711]}},{"type":"Feature","id":"in-haryana-t-381","properties":{"id":"in-haryana-t-381","name":"Kharkhoda","region":"in-haryana","level":"tehsil","parent":"in-haryana-d-75","district":"Sonipat","source":"LGD via Bharatlas · 2024 snapshot","state_lgd":6,"district_lgd":75,"subdistrict_lgd":381,"center":[76.89435813705815,28.897932937455252],"bbox":[76.7710763,28.7934937,77.0453439,29.0123407]},"geometry":{"type":"Point","coordinates":[76.89435813705815,28.897932937455252]}},{"type":"Feature","id":"in-haryana-t-413","properties":{"id":"in-haryana-t-413","name":"Kosli","region":"in-haryana","level":"tehsil","parent":"in-haryana-d-72","district":"Rewari","source":"LGD via Bharatlas · 2024 snapshot","state_lgd":6,"district_lgd":72,"subdistrict_lgd":413,"center":[76.4479138136615,28.391527292117047],"bbox":[76.2801447,28.3207656,76.6111465,28.4729456]},"geometry":{"type":"Point","coordinates":[76.4479138136615,28.391527292117047]}},{"type":"Feature","id":"in-haryana-t-401","properties":{"id":"in-haryana-t-401","name":"Loharu","region":"in-haryana","level":"tehsil","parent":"in-haryana-d-59","district":"Bhiwani","source":"LGD via Bharatlas · 2024 snapshot","state_lgd":6,"district_lgd":59,"subdistrict_lgd":401,"center":[75.78436432825534,28.535298403948044],"bbox":[75.5439502,28.3830454,75.9109217,28.7506013]},"geometry":{"type":"Point","coordinates":[75.78436432825534,28.535298403948044]}},{"type":"Feature","id":"in-haryana-t-404","properties":{"id":"in-haryana-t-404","name":"Maham","region":"in-haryana","level":"tehsil","parent":"in-haryana-d-73","district":"Rohtak","source":"LGD via Bharatlas · 2024 snapshot","state_lgd":6,"district_lgd":73,"subdistrict_lgd":404,"center":[76.37064485931951,28.982366334560314],"bbox":[76.2123837,28.8517054,76.5293004,29.0873833]},"geometry":{"type":"Point","coordinates":[76.37064485931951,28.982366334560314]}},{"type":"Feature","id":"in-haryana-t-411","properties":{"id":"in-haryana-t-411","name":"Mahendragarh","region":"in-haryana","level":"tehsil","parent":"in-haryana-d-69","district":"Mahendragarh","source":"LGD via Bharatlas · 2024 snapshot","state_lgd":6,"district_lgd":69,"subdistrict_lgd":411,"center":[76.09239145865047,28.31656094967519],"bbox":[75.8951764,28.1508435,76.2468766,28.4634052]},"geometry":{"type":"Point","coordinates":[76.09239145865047,28.31656094967519]}},{"type":"Feature","id":"in-haryana-t-419","properties":{"id":"in-haryana-t-419","name":"Manesar","region":"in-haryana","level":"tehsil","parent":"in-haryana-d-62","district":"Gurugram","source":"LGD via Bharatlas · 2024 snapshot","state_lgd":6,"district_lgd":62,"subdistrict_lgd":419,"center":[76.91061583570915,28.324718571715348],"bbox":[76.7816282,28.2345922,77.0165152,28.4151952]},"geometry":{"type":"Point","coordinates":[76.91061583570915,28.324718571715348]}},{"type":"Feature","id":"in-haryana-t-410","properties":{"id":"in-haryana-t-410","name":"Matenhail","region":"in-haryana","level":"tehsil","parent":"in-haryana-d-64","district":"Jhajjar","source":"LGD via Bharatlas · 2024 snapshot","state_lgd":6,"district_lgd":64,"subdistrict_lgd":410,"center":[76.43619522081451,28.517635738512634],"bbox":[76.2827458,28.4180139,76.5751862,28.6369228]},"geometry":{"type":"Point","coordinates":[76.43619522081451,28.517635738512634]}},{"type":"Feature","id":"in-haryana-t-6456","properties":{"id":"in-haryana-t-6456","name":"Nangal Chawdhary","region":"in-haryana","level":"tehsil","parent":"in-haryana-d-69","district":"Mahendragarh","source":"LGD via Bharatlas · 2024 snapshot","state_lgd":6,"district_lgd":69,"subdistrict_lgd":6456,"center":[76.08523914552583,27.899978088688336],"bbox":[75.9323559,27.7973914,76.2251789,27.99497]},"geometry":{"type":"Point","coordinates":[76.08523914552583,27.899978088688336]}},{"type":"Feature","id":"in-haryana-t-358","properties":{"id":"in-haryana-t-358","name":"Naraingarh","region":"in-haryana","level":"tehsil","parent":"in-haryana-d-58","district":"Ambala","source":"LGD via Bharatlas · 2024 snapshot","state_lgd":6,"district_lgd":58,"subdistrict_lgd":358,"center":[77.06440823605062,30.4418077653049],"bbox":[76.8975523,30.3265536,77.2124782,30.5629531]},"geometry":{"type":"Point","coordinates":[77.06440823605062,30.4418077653049]}},{"type":"Feature","id":"in-haryana-t-412","properties":{"id":"in-haryana-t-412","name":"Narnaul","region":"in-haryana","level":"tehsil","parent":"in-haryana-d-69","district":"Mahendragarh","source":"LGD via Bharatlas · 2024 snapshot","state_lgd":6,"district_lgd":69,"subdistrict_lgd":412,"center":[76.08387093073064,28.06749089795003],"bbox":[75.9386033,27.9499847,76.2166989,28.1822973]},"geometry":{"type":"Point","coordinates":[76.08387093073064,28.06749089795003]}},{"type":"Feature","id":"in-haryana-t-395","properties":{"id":"in-haryana-t-395","name":"Narnaund","region":"in-haryana","level":"tehsil","parent":"in-haryana-d-63","district":"Hisar","source":"LGD via Bharatlas · 2024 snapshot","state_lgd":6,"district_lgd":63,"subdistrict_lgd":395,"center":[76.12759653064384,29.26514734540659],"bbox":[76.0212549,29.120657,76.2280726,29.4200232]},"geometry":{"type":"Point","coordinates":[76.12759653064384,29.26514734540659]}},{"type":"Feature","id":"in-haryana-t-382","properties":{"id":"in-haryana-t-382","name":"Narwana","region":"in-haryana","level":"tehsil","parent":"in-haryana-d-65","district":"Jind","source":"LGD via Bharatlas · 2024 snapshot","state_lgd":6,"district_lgd":65,"subdistrict_lgd":382,"center":[76.12359389667662,29.58384381933872],"bbox":[75.933013,29.3832136,76.337559,29.8447618]},"geometry":{"type":"Point","coordinates":[76.12359389667662,29.58384381933872]}},{"type":"Feature","id":"in-haryana-t-6470","properties":{"id":"in-haryana-t-6470","name":"Nathusari Chopta","region":"in-haryana","level":"tehsil","parent":"in-haryana-d-74","district":"Sirsa","source":"LGD via Bharatlas · 2024 snapshot","state_lgd":6,"district_lgd":74,"subdistrict_lgd":6470,"center":[75.12169116013072,29.366604164186835],"bbox":[74.9016527,29.2228652,75.3020565,29.5260224]},"geometry":{"type":"Point","coordinates":[75.12169116013072,29.366604164186835]}},{"type":"Feature","id":"in-haryana-t-370","properties":{"id":"in-haryana-t-370","name":"Nilokheri","region":"in-haryana","level":"tehsil","parent":"in-haryana-d-67","district":"Karnal","source":"LGD via Bharatlas · 2024 snapshot","state_lgd":6,"district_lgd":67,"subdistrict_lgd":370,"center":[76.85774983079219,29.83005404618424],"bbox":[76.6744658,29.7375437,77.0139406,29.9259153]},"geometry":{"type":"Point","coordinates":[76.85774983079219,29.83005404618424]}},{"type":"Feature","id":"in-haryana-t-422","properties":{"id":"in-haryana-t-422","name":"Nuh","region":"in-haryana","level":"tehsil","parent":"in-haryana-d-604","district":"Nuh","source":"LGD via Bharatlas · 2024 snapshot","state_lgd":6,"district_lgd":604,"subdistrict_lgd":422,"center":[77.05856793755977,28.097000971563002],"bbox":[76.9306098,27.964015,77.1985046,28.2299332]},"geometry":{"type":"Point","coordinates":[77.05856793755977,28.097000971563002]}},{"type":"Feature","id":"in-haryana-t-427","properties":{"id":"in-haryana-t-427","name":"Palwal","region":"in-haryana","level":"tehsil","parent":"in-haryana-d-619","district":"Palwal","source":"LGD via Bharatlas · 2024 snapshot","state_lgd":6,"district_lgd":619,"subdistrict_lgd":427,"center":[77.36602221871445,28.146530289188444],"bbox":[77.1893396,27.9895033,77.5504209,28.2723457]},"geometry":{"type":"Point","coordinates":[77.36602221871445,28.146530289188444]}},{"type":"Feature","id":"in-haryana-t-357","properties":{"id":"in-haryana-t-357","name":"Panchkula","region":"in-haryana","level":"tehsil","parent":"in-haryana-d-70","district":"Panchkula","source":"LGD via Bharatlas · 2024 snapshot","state_lgd":6,"district_lgd":70,"subdistrict_lgd":357,"center":[77.0074884656423,30.635319246143045],"bbox":[76.8251561,30.4705566,77.1769956,30.7872607]},"geometry":{"type":"Point","coordinates":[77.0074884656423,30.635319246143045]}},{"type":"Feature","id":"in-haryana-t-375","properties":{"id":"in-haryana-t-375","name":"Panipat","region":"in-haryana","level":"tehsil","parent":"in-haryana-d-71","district":"Panipat","source":"LGD via Bharatlas · 2024 snapshot","state_lgd":6,"district_lgd":71,"subdistrict_lgd":375,"center":[76.87348585496964,29.39693558358596],"bbox":[76.6476073,29.2821873,77.0873325,29.5339729]},"geometry":{"type":"Point","coordinates":[76.87348585496964,29.39693558358596]}},{"type":"Feature","id":"in-haryana-t-416","properties":{"id":"in-haryana-t-416","name":"Pataudi","region":"in-haryana","level":"tehsil","parent":"in-haryana-d-62","district":"Gurugram","source":"LGD via Bharatlas · 2024 snapshot","state_lgd":6,"district_lgd":62,"subdistrict_lgd":416,"center":[76.7411203362498,28.311461366593953],"bbox":[76.6502874,28.2238774,76.8382329,28.3792316]},"geometry":{"type":"Point","coordinates":[76.7411203362498,28.311461366593953]}},{"type":"Feature","id":"in-haryana-t-365","properties":{"id":"in-haryana-t-365","name":"Pehowa","region":"in-haryana","level":"tehsil","parent":"in-haryana-d-68","district":"Kurukshetra","source":"LGD via Bharatlas · 2024 snapshot","state_lgd":6,"district_lgd":68,"subdistrict_lgd":365,"center":[76.60514407694467,30.024102904623707],"bbox":[76.4217099,29.8973385,76.7773612,30.1938714]},"geometry":{"type":"Point","coordinates":[76.60514407694467,30.024102904623707]}},{"type":"Feature","id":"in-haryana-t-424","properties":{"id":"in-haryana-t-424","name":"Punahana","region":"in-haryana","level":"tehsil","parent":"in-haryana-d-604","district":"Nuh","source":"LGD via Bharatlas · 2024 snapshot","state_lgd":6,"district_lgd":604,"subdistrict_lgd":424,"center":[77.19363588558285,27.868226947924],"bbox":[77.0708607,27.7750861,77.3364258,27.9702499]},"geometry":{"type":"Point","coordinates":[77.19363588558285,27.868226947924]}},{"type":"Feature","id":"in-haryana-t-6474","properties":{"id":"in-haryana-t-6474","name":"Radaur","region":"in-haryana","level":"tehsil","parent":"in-haryana-d-76","district":"Yamunanagar","source":"LGD via Bharatlas · 2024 snapshot","state_lgd":6,"district_lgd":76,"subdistrict_lgd":6474,"center":[77.16833647798867,30.03627474161479],"bbox":[77.0678849,29.9350642,77.2822696,30.146978]},"geometry":{"type":"Point","coordinates":[77.16833647798867,30.03627474161479]}},{"type":"Feature","id":"in-haryana-t-391","properties":{"id":"in-haryana-t-391","name":"Rania","region":"in-haryana","level":"tehsil","parent":"in-haryana-d-74","district":"Sirsa","source":"LGD via Bharatlas · 2024 snapshot","state_lgd":6,"district_lgd":74,"subdistrict_lgd":391,"center":[74.76056036032882,29.591327522903878],"bbox":[74.5749724,29.4682499,74.9361142,29.6963475]},"geometry":{"type":"Point","coordinates":[74.76056036032882,29.591327522903878]}},{"type":"Feature","id":"in-haryana-t-386","properties":{"id":"in-haryana-t-386","name":"Ratia","region":"in-haryana","level":"tehsil","parent":"in-haryana-d-61","district":"Fatehabad","source":"LGD via Bharatlas · 2024 snapshot","state_lgd":6,"district_lgd":61,"subdistrict_lgd":386,"center":[75.53492209281832,29.68932054996946],"bbox":[75.3457294,29.5760128,75.6995631,29.8077699]},"geometry":{"type":"Point","coordinates":[75.53492209281832,29.68932054996946]}},{"type":"Feature","id":"in-haryana-t-414","properties":{"id":"in-haryana-t-414","name":"Rewari","region":"in-haryana","level":"tehsil","parent":"in-haryana-d-72","district":"Rewari","source":"LGD via Bharatlas · 2024 snapshot","state_lgd":6,"district_lgd":72,"subdistrict_lgd":414,"center":[76.55991640685795,28.23515540726864],"bbox":[76.3036802,28.0918638,76.8590742,28.4298225]},"geometry":{"type":"Point","coordinates":[76.55991640685795,28.23515540726864]}},{"type":"Feature","id":"in-haryana-t-405","properties":{"id":"in-haryana-t-405","name":"Rohtak","region":"in-haryana","level":"tehsil","parent":"in-haryana-d-73","district":"Rohtak","source":"LGD via Bharatlas · 2024 snapshot","state_lgd":6,"district_lgd":73,"subdistrict_lgd":405,"center":[76.56476904068275,28.89495029537248],"bbox":[76.3334983,28.6825722,76.8272596,29.0983354]},"geometry":{"type":"Point","coordinates":[76.56476904068275,28.89495029537248]}},{"type":"Feature","id":"in-haryana-t-385","properties":{"id":"in-haryana-t-385","name":"Safidon","region":"in-haryana","level":"tehsil","parent":"in-haryana-d-65","district":"Jind","source":"LGD via Bharatlas · 2024 snapshot","state_lgd":6,"district_lgd":65,"subdistrict_lgd":385,"center":[76.58282477716388,29.373017150331375],"bbox":[76.4199753,29.2087208,76.7624537,29.4912206]},"geometry":{"type":"Point","coordinates":[76.58282477716388,29.373017150331375]}},{"type":"Feature","id":"in-haryana-t-377","properties":{"id":"in-haryana-t-377","name":"Samalkha","region":"in-haryana","level":"tehsil","parent":"in-haryana-d-71","district":"Panipat","source":"LGD via Bharatlas · 2024 snapshot","state_lgd":6,"district_lgd":71,"subdistrict_lgd":377,"center":[77.03743094390984,29.234968406881784],"bbox":[76.9309068,29.1617656,77.1502235,29.3158492]},"geometry":{"type":"Point","coordinates":[77.03743094390984,29.234968406881784]}},{"type":"Feature","id":"in-haryana-t-406","properties":{"id":"in-haryana-t-406","name":"Sampla","region":"in-haryana","level":"tehsil","parent":"in-haryana-d-73","district":"Rohtak","source":"LGD via Bharatlas · 2024 snapshot","state_lgd":6,"district_lgd":73,"subdistrict_lgd":406,"center":[76.7446425958732,28.825309467495185],"bbox":[76.6178911,28.7355839,76.8687465,28.9035026]},"geometry":{"type":"Point","coordinates":[76.7446425958732,28.825309467495185]}},{"type":"Feature","id":"in-haryana-t-364","properties":{"id":"in-haryana-t-364","name":"Shahbad","region":"in-haryana","level":"tehsil","parent":"in-haryana-d-68","district":"Kurukshetra","source":"LGD via Bharatlas · 2024 snapshot","state_lgd":6,"district_lgd":68,"subdistrict_lgd":364,"center":[76.89736981296618,30.13066645400704],"bbox":[76.704264,29.9887216,77.0566902,30.2547135]},"geometry":{"type":"Point","coordinates":[76.89736981296618,30.13066645400704]}},{"type":"Feature","id":"in-haryana-t-390","properties":{"id":"in-haryana-t-390","name":"Sirsa","region":"in-haryana","level":"tehsil","parent":"in-haryana-d-74","district":"Sirsa","source":"LGD via Bharatlas · 2024 snapshot","state_lgd":6,"district_lgd":74,"subdistrict_lgd":390,"center":[75.05206334064788,29.648762014608526],"bbox":[74.865116,29.3892927,75.3038596,29.9171882]},"geometry":{"type":"Point","coordinates":[75.05206334064788,29.648762014608526]}},{"type":"Feature","id":"in-haryana-t-400","properties":{"id":"in-haryana-t-400","name":"Siwani","region":"in-haryana","level":"tehsil","parent":"in-haryana-d-59","district":"Bhiwani","source":"LGD via Bharatlas · 2024 snapshot","state_lgd":6,"district_lgd":59,"subdistrict_lgd":400,"center":[75.58749325715013,28.841625030598756],"bbox":[75.4733962,28.6529522,75.704826,28.9899027]},"geometry":{"type":"Point","coordinates":[75.58749325715013,28.841625030598756]}},{"type":"Feature","id":"in-haryana-t-420","properties":{"id":"in-haryana-t-420","name":"Sohna","region":"in-haryana","level":"tehsil","parent":"in-haryana-d-62","district":"Gurugram","source":"LGD via Bharatlas · 2024 snapshot","state_lgd":6,"district_lgd":62,"subdistrict_lgd":420,"center":[77.11395015764785,28.307609502982807],"bbox":[77.0031218,28.1990039,77.2418683,28.4453345]},"geometry":{"type":"Point","coordinates":[77.11395015764785,28.307609502982807]}},{"type":"Feature","id":"in-haryana-t-380","properties":{"id":"in-haryana-t-380","name":"Sonipat","region":"in-haryana","level":"tehsil","parent":"in-haryana-d-75","district":"Sonipat","source":"LGD via Bharatlas · 2024 snapshot","state_lgd":6,"district_lgd":75,"subdistrict_lgd":380,"center":[77.03112436409558,28.98670823562298],"bbox":[76.8045098,28.8366899,77.2347462,29.1461991]},"geometry":{"type":"Point","coordinates":[77.03112436409558,28.98670823562298]}},{"type":"Feature","id":"in-haryana-t-421","properties":{"id":"in-haryana-t-421","name":"Taoru","region":"in-haryana","level":"tehsil","parent":"in-haryana-d-604","district":"Nuh","source":"LGD via Bharatlas · 2024 snapshot","state_lgd":6,"district_lgd":604,"subdistrict_lgd":421,"center":[76.95704767727749,28.238324742548848],"bbox":[76.8529375,28.138428,77.0585052,28.3356624]},"geometry":{"type":"Point","coordinates":[76.95704767727749,28.238324742548848]}},{"type":"Feature","id":"in-haryana-t-366","properties":{"id":"in-haryana-t-366","name":"Thanesar","region":"in-haryana","level":"tehsil","parent":"in-haryana-d-68","district":"Kurukshetra","source":"LGD via Bharatlas · 2024 snapshot","state_lgd":6,"district_lgd":68,"subdistrict_lgd":366,"center":[76.88058674399902,29.99373936769606],"bbox":[76.6852207,29.8668302,77.1227793,30.1312628]},"geometry":{"type":"Point","coordinates":[76.88058674399902,29.99373936769606]}},{"type":"Feature","id":"in-haryana-t-387","properties":{"id":"in-haryana-t-387","name":"Tohana","region":"in-haryana","level":"tehsil","parent":"in-haryana-d-61","district":"Fatehabad","source":"LGD via Bharatlas · 2024 snapshot","state_lgd":6,"district_lgd":61,"subdistrict_lgd":387,"center":[75.81910483118334,29.67009311429375],"bbox":[75.6702824,29.5084895,75.9642676,29.8223436]},"geometry":{"type":"Point","coordinates":[75.81910483118334,29.67009311429375]}},{"type":"Feature","id":"in-haryana-t-399","properties":{"id":"in-haryana-t-399","name":"Tosham","region":"in-haryana","level":"tehsil","parent":"in-haryana-d-59","district":"Bhiwani","source":"LGD via Bharatlas · 2024 snapshot","state_lgd":6,"district_lgd":59,"subdistrict_lgd":399,"center":[75.84213565497534,28.805936129701685],"bbox":[75.6539563,28.6316734,76.0240252,28.9539612]},"geometry":{"type":"Point","coordinates":[75.84213565497534,28.805936129701685]}}]}
