{"type":"FeatureCollection","features":[{"type":"Feature","id":"in-himachal-d-15","properties":{"id":"in-himachal-d-15","name":"Bilaspur","region":"in-himachal","level":"district","parent":"","source":"LGD via Bharatlas · 2024 snapshot","state_lgd":2,"district_lgd":15,"center":[76.6702191418991,31.370998334128238],"bbox":[76.3927126,31.2091271,76.9277483,31.5956743]},"geometry":{"type":"Point","coordinates":[76.6702191418991,31.370998334128238]}},{"type":"Feature","id":"in-himachal-d-16","properties":{"id":"in-himachal-d-16","name":"Chamba","region":"in-himachal","level":"district","parent":"","source":"LGD via Bharatlas · 2024 snapshot","state_lgd":2,"district_lgd":16,"center":[76.34821073611047,32.674758477907766],"bbox":[75.7962528,32.1755125,76.8774391,33.2095389]},"geometry":{"type":"Point","coordinates":[76.34821073611047,32.674758477907766]}},{"type":"Feature","id":"in-himachal-d-17","properties":{"id":"in-himachal-d-17","name":"Hamirpur","region":"in-himachal","level":"district","parent":"","source":"LGD via Bharatlas · 2024 snapshot","state_lgd":2,"district_lgd":17,"center":[76.52551281904194,31.667073526398354],"bbox":[76.2995038,31.4156898,76.7297486,31.8930363]},"geometry":{"type":"Point","coordinates":[76.52551281904194,31.667073526398354]}},{"type":"Feature","id":"in-himachal-d-18","properties":{"id":"in-himachal-d-18","name":"Kangra","region":"in-himachal","level":"district","parent":"","source":"LGD via Bharatlas · 2024 snapshot","state_lgd":2,"district_lgd":18,"center":[76.31559419284949,32.10826177808985],"bbox":[75.5945925,31.6847172,77.078436,32.4672592]},"geometry":{"type":"Point","coordinates":[76.31559419284949,32.10826177808985]}},{"type":"Feature","id":"in-himachal-d-19","properties":{"id":"in-himachal-d-19","name":"Kinnaur","region":"in-himachal","level":"district","parent":"","source":"LGD via Bharatlas · 2024 snapshot","state_lgd":2,"district_lgd":19,"center":[78.41398302995256,31.59531980314619],"bbox":[77.747886,31.0968983,79.008917,32.0769381]},"geometry":{"type":"Point","coordinates":[78.41398302995256,31.59531980314619]}},{"type":"Feature","id":"in-himachal-d-20","properties":{"id":"in-himachal-d-20","name":"Kullu","region":"in-himachal","level":"district","parent":"","source":"LGD via Bharatlas · 2024 snapshot","state_lgd":2,"district_lgd":20,"center":[77.39885008570776,31.902178700020926],"bbox":[76.9347661,31.3404178,77.8687271,32.4145959]},"geometry":{"type":"Point","coordinates":[77.39885008570776,31.902178700020926]}},{"type":"Feature","id":"in-himachal-d-21","properties":{"id":"in-himachal-d-21","name":"Lahul And Spiti","region":"in-himachal","level":"district","parent":"","source":"LGD via Bharatlas · 2024 snapshot","state_lgd":2,"district_lgd":21,"center":[77.61670195090866,32.48005647882074],"bbox":[76.372916,31.747512,78.6802698,33.256426]},"geometry":{"type":"Point","coordinates":[77.61670195090866,32.48005647882074]}},{"type":"Feature","id":"in-himachal-d-22","properties":{"id":"in-himachal-d-22","name":"Mandi","region":"in-himachal","level":"district","parent":"","source":"LGD via Bharatlas · 2024 snapshot","state_lgd":2,"district_lgd":22,"center":[76.99156774789171,31.63678618009562],"bbox":[76.6203726,31.2302112,77.3891346,32.0730193]},"geometry":{"type":"Point","coordinates":[76.99156774789171,31.63678618009562]}},{"type":"Feature","id":"in-himachal-d-23","properties":{"id":"in-himachal-d-23","name":"Shimla","region":"in-himachal","level":"district","parent":"","source":"LGD via Bharatlas · 2024 snapshot","state_lgd":2,"district_lgd":23,"center":[77.63201014298708,31.197358071158472],"bbox":[76.9888719,30.764039,78.3113439,31.7151145]},"geometry":{"type":"Point","coordinates":[77.63201014298708,31.197358071158472]}},{"type":"Feature","id":"in-himachal-d-24","properties":{"id":"in-himachal-d-24","name":"Sirmaur","region":"in-himachal","level":"district","parent":"","source":"LGD via Bharatlas · 2024 snapshot","state_lgd":2,"district_lgd":24,"center":[77.43092100542073,30.666820415690783],"bbox":[77.0200872,30.3773361,77.8277984,31.0209262]},"geometry":{"type":"Point","coordinates":[77.43092100542073,30.666820415690783]}},{"type":"Feature","id":"in-himachal-d-25","properties":{"id":"in-himachal-d-25","name":"Solan","region":"in-himachal","level":"district","parent":"","source":"LGD via Bharatlas · 2024 snapshot","state_lgd":2,"district_lgd":25,"center":[76.90955668976008,31.045308307400457],"bbox":[76.5968187,30.7414513,77.2497112,31.3655294]},"geometry":{"type":"Point","coordinates":[76.90955668976008,31.045308307400457]}},{"type":"Feature","id":"in-himachal-d-26","properties":{"id":"in-himachal-d-26","name":"Una","region":"in-himachal","level":"district","parent":"","source":"LGD via Bharatlas · 2024 snapshot","state_lgd":2,"district_lgd":26,"center":[76.20986620877899,31.579300029247438],"bbox":[75.9366805,31.2993937,76.4793765,31.8666677]},"geometry":{"type":"Point","coordinates":[76.20986620877899,31.579300029247438]}}]}
