{"type":"FeatureCollection","features":[{"type":"Feature","id":"in-jammu-kashmir-t-78","properties":{"id":"in-jammu-kashmir-t-78","name":"Akhnoor","region":"in-jammu-kashmir","level":"tehsil","parent":"in-jammu-kashmir-d-5","district":"Jammu","source":"LGD via Bharatlas · 2024 snapshot","state_lgd":1,"district_lgd":5,"subdistrict_lgd":78,"center":[74.58326598153825,32.919479872691845],"bbox":[74.3126058,32.7443649,74.8245221,33.062711]},"geometry":{"type":"Point","coordinates":[74.58326598153825,32.919479872691845]}},{"type":"Feature","id":"in-jammu-kashmir-t-55","properties":{"id":"in-jammu-kashmir-t-55","name":"Anantnag","region":"in-jammu-kashmir","level":"tehsil","parent":"in-jammu-kashmir-d-1","district":"Anantnag","source":"LGD via Bharatlas · 2024 snapshot","state_lgd":1,"district_lgd":1,"subdistrict_lgd":55,"center":[75.22700843683792,33.746144597169675],"bbox":[75.0982242,33.6540195,75.437003,33.8364099]},"geometry":{"type":"Point","coordinates":[75.22700843683792,33.746144597169675]}},{"type":"Feature","id":"in-jammu-kashmir-t-71","properties":{"id":"in-jammu-kashmir-t-71","name":"Atholi (Paddar)","region":"in-jammu-kashmir","level":"tehsil","parent":"in-jammu-kashmir-d-620","district":"Kishtwar","source":"LGD via Bharatlas · 2024 snapshot","state_lgd":1,"district_lgd":620,"subdistrict_lgd":71,"center":[76.37018117053059,33.32721467956524],"bbox":[76.038191,33.0206945,76.7794134,33.6105076]},"geometry":{"type":"Point","coordinates":[76.37018117053059,33.32721467956524]}},{"type":"Feature","id":"in-jammu-kashmir-t-49","properties":{"id":"in-jammu-kashmir-t-49","name":"Awantipora","region":"in-jammu-kashmir","level":"tehsil","parent":"in-jammu-kashmir-d-11","district":"Pulwama","source":"LGD via Bharatlas · 2024 snapshot","state_lgd":1,"district_lgd":11,"subdistrict_lgd":49,"center":[75.02681325180845,33.885591461358345],"bbox":[74.9588557,33.8086218,75.0962207,33.9570092]},"geometry":{"type":"Point","coordinates":[75.02681325180845,33.885591461358345]}},{"type":"Feature","id":"in-jammu-kashmir-t-41","properties":{"id":"in-jammu-kashmir-t-41","name":"Bandipora","region":"in-jammu-kashmir","level":"tehsil","parent":"in-jammu-kashmir-d-623","district":"Bandipora","source":"LGD via Bharatlas · 2024 snapshot","state_lgd":1,"district_lgd":623,"subdistrict_lgd":41,"center":[74.70821049401711,34.48789375100179],"bbox":[74.4772094,34.3135179,74.9414359,34.6725847]},"geometry":{"type":"Point","coordinates":[74.70821049401711,34.48789375100179]}},{"type":"Feature","id":"in-jammu-kashmir-t-29","properties":{"id":"in-jammu-kashmir-t-29","name":"Bani","region":"in-jammu-kashmir","level":"tehsil","parent":"in-jammu-kashmir-d-7","district":"Kathua","source":"LGD via Bharatlas · 2024 snapshot","state_lgd":1,"district_lgd":7,"subdistrict_lgd":29,"center":[75.79248784446614,32.76507700748216],"bbox":[75.6691819,32.6205869,75.9229674,32.8902638]},"geometry":{"type":"Point","coordinates":[75.79248784446614,32.76507700748216]}},{"type":"Feature","id":"in-jammu-kashmir-t-66","properties":{"id":"in-jammu-kashmir-t-66","name":"Banihal","region":"in-jammu-kashmir","level":"tehsil","parent":"in-jammu-kashmir-d-621","district":"Ramban","source":"LGD via Bharatlas · 2024 snapshot","state_lgd":1,"district_lgd":621,"subdistrict_lgd":66,"center":[75.18882424768422,33.406502495809185],"bbox":[75.010332,33.2931832,75.3825392,33.5251379]},"geometry":{"type":"Point","coordinates":[75.18882424768422,33.406502495809185]}},{"type":"Feature","id":"in-jammu-kashmir-t-35","properties":{"id":"in-jammu-kashmir-t-35","name":"Baramulla","region":"in-jammu-kashmir","level":"tehsil","parent":"in-jammu-kashmir-d-3","district":"Baramulla","source":"LGD via Bharatlas · 2024 snapshot","state_lgd":1,"district_lgd":3,"subdistrict_lgd":35,"center":[74.36695749267965,34.20958634091382],"bbox":[74.2717351,34.1213221,74.466468,34.2855468]},"geometry":{"type":"Point","coordinates":[74.36695749267965,34.20958634091382]}},{"type":"Feature","id":"in-jammu-kashmir-t-28","properties":{"id":"in-jammu-kashmir-t-28","name":"Basohli","region":"in-jammu-kashmir","level":"tehsil","parent":"in-jammu-kashmir-d-7","district":"Kathua","source":"LGD via Bharatlas · 2024 snapshot","state_lgd":1,"district_lgd":7,"subdistrict_lgd":28,"center":[75.73826450133613,32.55731080433079],"bbox":[75.5386252,32.4405379,75.9341522,32.6806771]},"geometry":{"type":"Point","coordinates":[75.73826450133613,32.55731080433079]}},{"type":"Feature","id":"in-jammu-kashmir-t-5","properties":{"id":"in-jammu-kashmir-t-5","name":"Beerwah","region":"in-jammu-kashmir","level":"tehsil","parent":"in-jammu-kashmir-d-2","district":"Budgam","source":"LGD via Bharatlas · 2024 snapshot","state_lgd":1,"district_lgd":2,"subdistrict_lgd":5,"center":[74.60132993156628,34.02355126673253],"bbox":[74.506881,33.9278256,74.6920175,34.1304551]},"geometry":{"type":"Point","coordinates":[74.60132993156628,34.02355126673253]}},{"type":"Feature","id":"in-jammu-kashmir-t-65","properties":{"id":"in-jammu-kashmir-t-65","name":"Bhaderwah","region":"in-jammu-kashmir","level":"tehsil","parent":"in-jammu-kashmir-d-4","district":"Doda","source":"LGD via Bharatlas · 2024 snapshot","state_lgd":1,"district_lgd":4,"subdistrict_lgd":65,"center":[75.68770427250304,32.986599297445274],"bbox":[75.5417603,32.8640676,75.8377017,33.0995776]},"geometry":{"type":"Point","coordinates":[75.68770427250304,32.986599297445274]}},{"type":"Feature","id":"in-jammu-kashmir-t-54","properties":{"id":"in-jammu-kashmir-t-54","name":"Bijbehara","region":"in-jammu-kashmir","level":"tehsil","parent":"in-jammu-kashmir-d-1","district":"Anantnag","source":"LGD via Bharatlas · 2024 snapshot","state_lgd":1,"district_lgd":1,"subdistrict_lgd":54,"center":[75.14252513566726,33.828801689927126],"bbox":[75.0465243,33.7422988,75.2150582,33.9052737]},"geometry":{"type":"Point","coordinates":[75.14252513566726,33.828801689927126]}},{"type":"Feature","id":"in-jammu-kashmir-t-27","properties":{"id":"in-jammu-kashmir-t-27","name":"Billawar","region":"in-jammu-kashmir","level":"tehsil","parent":"in-jammu-kashmir-d-7","district":"Kathua","source":"LGD via Bharatlas · 2024 snapshot","state_lgd":1,"district_lgd":7,"subdistrict_lgd":27,"center":[75.5459765058423,32.65505241648326],"bbox":[75.2842719,32.5334514,75.7568994,32.7820298]},"geometry":{"type":"Point","coordinates":[75.5459765058423,32.65505241648326]}},{"type":"Feature","id":"in-jammu-kashmir-t-81","properties":{"id":"in-jammu-kashmir-t-81","name":"Bishnah","region":"in-jammu-kashmir","level":"tehsil","parent":"in-jammu-kashmir-d-5","district":"Jammu","source":"LGD via Bharatlas · 2024 snapshot","state_lgd":1,"district_lgd":5,"subdistrict_lgd":81,"center":[74.85404701320788,32.55487714273859],"bbox":[74.7111794,32.4758153,74.9506443,32.6463696]},"geometry":{"type":"Point","coordinates":[74.85404701320788,32.55487714273859]}},{"type":"Feature","id":"in-jammu-kashmir-t-38","properties":{"id":"in-jammu-kashmir-t-38","name":"Boniyar","region":"in-jammu-kashmir","level":"tehsil","parent":"in-jammu-kashmir-d-3","district":"Baramulla","source":"LGD via Bharatlas · 2024 snapshot","state_lgd":1,"district_lgd":3,"subdistrict_lgd":38,"center":[74.15048498969132,34.148138319739544],"bbox":[73.9542182,33.9861873,74.3161627,34.2630118]},"geometry":{"type":"Point","coordinates":[74.15048498969132,34.148138319739544]}},{"type":"Feature","id":"in-jammu-kashmir-t-7","properties":{"id":"in-jammu-kashmir-t-7","name":"Budgam","region":"in-jammu-kashmir","level":"tehsil","parent":"in-jammu-kashmir-d-2","district":"Budgam","source":"LGD via Bharatlas · 2024 snapshot","state_lgd":1,"district_lgd":2,"subdistrict_lgd":7,"center":[74.73853199509257,34.03595238466505],"bbox":[74.6647314,33.9628982,74.8144157,34.1129513]},"geometry":{"type":"Point","coordinates":[74.73853199509257,34.03595238466505]}},{"type":"Feature","id":"in-jammu-kashmir-t-source-3367","properties":{"id":"in-jammu-kashmir-t-source-3367","name":"Budhal","region":"in-jammu-kashmir","level":"tehsil","parent":"in-jammu-kashmir-d-12","district":"Rajouri","source":"LGD via Bharatlas · 2024 snapshot","state_lgd":1,"district_lgd":12,"subdistrict_lgd":null,"source_objectid":3367,"center":[74.56928451761318,33.36243119023441],"bbox":[74.4129591,33.1851952,74.692934,33.5094543]},"geometry":{"type":"Point","coordinates":[74.56928451761318,33.36243119023441]}},{"type":"Feature","id":"in-jammu-kashmir-t-8","properties":{"id":"in-jammu-kashmir-t-8","name":"Chadoora","region":"in-jammu-kashmir","level":"tehsil","parent":"in-jammu-kashmir-d-2","district":"Budgam","source":"LGD via Bharatlas · 2024 snapshot","state_lgd":1,"district_lgd":2,"subdistrict_lgd":8,"center":[74.80003381321578,33.953414700054836],"bbox":[74.6666121,33.8490012,74.9164447,34.0517498]},"geometry":{"type":"Point","coordinates":[74.80003381321578,33.953414700054836]}},{"type":"Feature","id":"in-jammu-kashmir-t-9","properties":{"id":"in-jammu-kashmir-t-9","name":"Charar- E- Shrief","region":"in-jammu-kashmir","level":"tehsil","parent":"in-jammu-kashmir-d-2","district":"Budgam","source":"LGD via Bharatlas · 2024 snapshot","state_lgd":1,"district_lgd":2,"subdistrict_lgd":9,"center":[74.66199543327922,33.80782317793426],"bbox":[74.5192226,33.6802126,74.8277997,33.946634]},"geometry":{"type":"Point","coordinates":[74.66199543327922,33.80782317793426]}},{"type":"Feature","id":"in-jammu-kashmir-t-73","properties":{"id":"in-jammu-kashmir-t-73","name":"Chenani","region":"in-jammu-kashmir","level":"tehsil","parent":"in-jammu-kashmir-d-14","district":"Udhampur","source":"LGD via Bharatlas · 2024 snapshot","state_lgd":1,"district_lgd":14,"subdistrict_lgd":73,"center":[75.3296019951039,33.01874640461236],"bbox":[75.2217563,32.9115286,75.4364595,33.1181468]},"geometry":{"type":"Point","coordinates":[75.3296019951039,33.01874640461236]}},{"type":"Feature","id":"in-jammu-kashmir-t-70","properties":{"id":"in-jammu-kashmir-t-70","name":"Chhatroo","region":"in-jammu-kashmir","level":"tehsil","parent":"in-jammu-kashmir-d-620","district":"Kishtwar","source":"LGD via Bharatlas · 2024 snapshot","state_lgd":1,"district_lgd":620,"subdistrict_lgd":70,"center":[75.61610817116014,33.50548834261371],"bbox":[75.4667024,33.2931662,75.7804924,33.6925929]},"geometry":{"type":"Point","coordinates":[75.61610817116014,33.50548834261371]}},{"type":"Feature","id":"in-jammu-kashmir-t-61","properties":{"id":"in-jammu-kashmir-t-61","name":"D H PORA","region":"in-jammu-kashmir","level":"tehsil","parent":"in-jammu-kashmir-d-622","district":"Kulgam","source":"LGD via Bharatlas · 2024 snapshot","state_lgd":1,"district_lgd":622,"subdistrict_lgd":61,"center":[74.76446689785115,33.58003874265617],"bbox":[74.5137674,33.4678442,75.0978347,33.7039135]},"geometry":{"type":"Point","coordinates":[74.76446689785115,33.58003874265617]}},{"type":"Feature","id":"in-jammu-kashmir-t-21","properties":{"id":"in-jammu-kashmir-t-21","name":"Darhal","region":"in-jammu-kashmir","level":"tehsil","parent":"in-jammu-kashmir-d-12","district":"Rajouri","source":"LGD via Bharatlas · 2024 snapshot","state_lgd":1,"district_lgd":12,"subdistrict_lgd":21,"center":[74.43594363711291,33.475594815868284],"bbox":[74.3660271,33.3844701,74.5122526,33.552037]},"geometry":{"type":"Point","coordinates":[74.43594363711291,33.475594815868284]}},{"type":"Feature","id":"in-jammu-kashmir-t-60","properties":{"id":"in-jammu-kashmir-t-60","name":"Devsar","region":"in-jammu-kashmir","level":"tehsil","parent":"in-jammu-kashmir-d-622","district":"Kulgam","source":"LGD via Bharatlas · 2024 snapshot","state_lgd":1,"district_lgd":622,"subdistrict_lgd":60,"center":[75.0970162673651,33.640412411557406],"bbox":[75.046941,33.6060434,75.137512,33.6781958]},"geometry":{"type":"Point","coordinates":[75.0970162673651,33.640412411557406]}},{"type":"Feature","id":"in-jammu-kashmir-t-62","properties":{"id":"in-jammu-kashmir-t-62","name":"Doda","region":"in-jammu-kashmir","level":"tehsil","parent":"in-jammu-kashmir-d-4","district":"Doda","source":"LGD via Bharatlas · 2024 snapshot","state_lgd":1,"district_lgd":4,"subdistrict_lgd":62,"center":[75.51987221476533,33.18222592403314],"bbox":[75.3345363,32.9494304,75.8062274,33.407332]},"geometry":{"type":"Point","coordinates":[75.51987221476533,33.18222592403314]}},{"type":"Feature","id":"in-jammu-kashmir-t-58","properties":{"id":"in-jammu-kashmir-t-58","name":"Dooru","region":"in-jammu-kashmir","level":"tehsil","parent":"in-jammu-kashmir-d-1","district":"Anantnag","source":"LGD via Bharatlas · 2024 snapshot","state_lgd":1,"district_lgd":1,"subdistrict_lgd":58,"center":[75.23104166598758,33.544499881919634],"bbox":[75.1200395,33.383457,75.3574398,33.6847732]},"geometry":{"type":"Point","coordinates":[75.23104166598758,33.544499881919634]}},{"type":"Feature","id":"in-jammu-kashmir-t-47","properties":{"id":"in-jammu-kashmir-t-47","name":"Ganderbal","region":"in-jammu-kashmir","level":"tehsil","parent":"in-jammu-kashmir-d-626","district":"Ganderbal","source":"LGD via Bharatlas · 2024 snapshot","state_lgd":1,"district_lgd":626,"subdistrict_lgd":47,"center":[74.813776052575,34.209025731112256],"bbox":[74.7149388,34.1602615,74.9121736,34.2727608]},"geometry":{"type":"Point","coordinates":[74.813776052575,34.209025731112256]}},{"type":"Feature","id":"in-jammu-kashmir-t-source-2102","properties":{"id":"in-jammu-kashmir-t-source-2102","name":"Gandoh","region":"in-jammu-kashmir","level":"tehsil","parent":"in-jammu-kashmir-d-4","district":"Doda","source":"LGD via Bharatlas · 2024 snapshot","state_lgd":1,"district_lgd":4,"subdistrict_lgd":null,"source_objectid":2102,"center":[75.99450758090845,33.02268014240733],"bbox":[75.7586112,32.8728328,76.2356013,33.17589]},"geometry":{"type":"Point","coordinates":[75.99450758090845,33.02268014240733]}},{"type":"Feature","id":"in-jammu-kashmir-t-source-2850","properties":{"id":"in-jammu-kashmir-t-source-2850","name":"Gool-Gulabgarh","region":"in-jammu-kashmir","level":"tehsil","parent":"in-jammu-kashmir-d-627","district":"Reasi","source":"LGD via Bharatlas · 2024 snapshot","state_lgd":1,"district_lgd":627,"subdistrict_lgd":null,"source_objectid":2850,"center":[74.84758803308513,33.34264872842039],"bbox":[74.6019259,33.1454318,75.0958358,33.5259514]},"geometry":{"type":"Point","coordinates":[74.84758803308513,33.34264872842039]}},{"type":"Feature","id":"in-jammu-kashmir-t-40","properties":{"id":"in-jammu-kashmir-t-40","name":"Gurez","region":"in-jammu-kashmir","level":"tehsil","parent":"in-jammu-kashmir-d-623","district":"Bandipora","source":"LGD via Bharatlas · 2024 snapshot","state_lgd":1,"district_lgd":623,"subdistrict_lgd":40,"center":[74.96498544152598,34.65509139882744],"bbox":[74.3301925,34.3447993,75.3727652,34.9247992]},"geometry":{"type":"Point","coordinates":[74.96498544152598,34.65509139882744]}},{"type":"Feature","id":"in-jammu-kashmir-t-2","properties":{"id":"in-jammu-kashmir-t-2","name":"Handwara","region":"in-jammu-kashmir","level":"tehsil","parent":"in-jammu-kashmir-d-8","district":"Kupwara","source":"LGD via Bharatlas · 2024 snapshot","state_lgd":1,"district_lgd":8,"subdistrict_lgd":2,"center":[74.13368464840136,34.405002879984565],"bbox":[73.7498363,34.2445726,74.5348546,34.5803093]},"geometry":{"type":"Point","coordinates":[74.13368464840136,34.405002879984565]}},{"type":"Feature","id":"in-jammu-kashmir-t-16","properties":{"id":"in-jammu-kashmir-t-16","name":"Haveli","region":"in-jammu-kashmir","level":"tehsil","parent":"in-jammu-kashmir-d-10","district":"Poonch","source":"LGD via Bharatlas · 2024 snapshot","state_lgd":1,"district_lgd":10,"subdistrict_lgd":16,"center":[74.11462730898634,33.784922058371144],"bbox":[73.9850031,33.6939894,74.23536,33.8992369]},"geometry":{"type":"Point","coordinates":[74.11462730898634,33.784922058371144]}},{"type":"Feature","id":"in-jammu-kashmir-t-31","properties":{"id":"in-jammu-kashmir-t-31","name":"Hiranagar","region":"in-jammu-kashmir","level":"tehsil","parent":"in-jammu-kashmir-d-7","district":"Kathua","source":"LGD via Bharatlas · 2024 snapshot","state_lgd":1,"district_lgd":7,"subdistrict_lgd":31,"center":[75.31176046550122,32.45560483121937],"bbox":[75.1919928,32.3261167,75.4023931,32.5989444]},"geometry":{"type":"Point","coordinates":[75.31176046550122,32.45560483121937]}},{"type":"Feature","id":"in-jammu-kashmir-t-79","properties":{"id":"in-jammu-kashmir-t-79","name":"Jammu","region":"in-jammu-kashmir","level":"tehsil","parent":"in-jammu-kashmir-d-5","district":"Jammu","source":"LGD via Bharatlas · 2024 snapshot","state_lgd":1,"district_lgd":5,"subdistrict_lgd":79,"center":[74.87745952232594,32.793540053951624],"bbox":[74.6534978,32.6285119,75.1670219,32.993379]},"geometry":{"type":"Point","coordinates":[74.87745952232594,32.793540053951624]}},{"type":"Feature","id":"in-jammu-kashmir-t-24","properties":{"id":"in-jammu-kashmir-t-24","name":"Kalakote","region":"in-jammu-kashmir","level":"tehsil","parent":"in-jammu-kashmir-d-12","district":"Rajouri","source":"LGD via Bharatlas · 2024 snapshot","state_lgd":1,"district_lgd":12,"subdistrict_lgd":24,"center":[74.46278473365244,33.19570447709152],"bbox":[74.3109761,33.094538,74.6324021,33.3121294]},"geometry":{"type":"Point","coordinates":[74.46278473365244,33.19570447709152]}},{"type":"Feature","id":"in-jammu-kashmir-t-46","properties":{"id":"in-jammu-kashmir-t-46","name":"Kangan","region":"in-jammu-kashmir","level":"tehsil","parent":"in-jammu-kashmir-d-626","district":"Ganderbal","source":"LGD via Bharatlas · 2024 snapshot","state_lgd":1,"district_lgd":626,"subdistrict_lgd":46,"center":[75.10306058458723,34.296337562664476],"bbox":[74.7747854,34.1605811,75.4969562,34.4640547]},"geometry":{"type":"Point","coordinates":[75.10306058458723,34.296337562664476]}},{"type":"Feature","id":"in-jammu-kashmir-t-30","properties":{"id":"in-jammu-kashmir-t-30","name":"Kathua","region":"in-jammu-kashmir","level":"tehsil","parent":"in-jammu-kashmir-d-7","district":"Kathua","source":"LGD via Bharatlas · 2024 snapshot","state_lgd":1,"district_lgd":7,"subdistrict_lgd":30,"center":[75.51212331145423,32.437499747030685],"bbox":[75.3630295,32.2760053,75.7438472,32.5829068]},"geometry":{"type":"Point","coordinates":[75.51212331145423,32.437499747030685]}},{"type":"Feature","id":"in-jammu-kashmir-t-4","properties":{"id":"in-jammu-kashmir-t-4","name":"Khag","region":"in-jammu-kashmir","level":"tehsil","parent":"in-jammu-kashmir-d-2","district":"Budgam","source":"LGD via Bharatlas · 2024 snapshot","state_lgd":1,"district_lgd":2,"subdistrict_lgd":4,"center":[74.49377287934115,33.91759703804814],"bbox":[74.4015014,33.8044998,74.6243104,34.0474947]},"geometry":{"type":"Point","coordinates":[74.49377287934115,33.91759703804814]}},{"type":"Feature","id":"in-jammu-kashmir-t-6","properties":{"id":"in-jammu-kashmir-t-6","name":"Khansahib","region":"in-jammu-kashmir","level":"tehsil","parent":"in-jammu-kashmir-d-2","district":"Budgam","source":"LGD via Bharatlas · 2024 snapshot","state_lgd":1,"district_lgd":2,"subdistrict_lgd":6,"center":[74.59922067200064,33.87534800093255],"bbox":[74.4499337,33.7020568,74.7627709,34.0285183]},"geometry":{"type":"Point","coordinates":[74.59922067200064,33.87534800093255]}},{"type":"Feature","id":"in-jammu-kashmir-t-68","properties":{"id":"in-jammu-kashmir-t-68","name":"Kishtwar","region":"in-jammu-kashmir","level":"tehsil","parent":"in-jammu-kashmir-d-620","district":"Kishtwar","source":"LGD via Bharatlas · 2024 snapshot","state_lgd":1,"district_lgd":620,"subdistrict_lgd":68,"center":[75.89085456604678,33.29192619808582],"bbox":[75.5901325,33.1019497,76.1485949,33.4652162]},"geometry":{"type":"Point","coordinates":[75.89085456604678,33.29192619808582]}},{"type":"Feature","id":"in-jammu-kashmir-t-57","properties":{"id":"in-jammu-kashmir-t-57","name":"Kokernag","region":"in-jammu-kashmir","level":"tehsil","parent":"in-jammu-kashmir-d-1","district":"Anantnag","source":"LGD via Bharatlas · 2024 snapshot","state_lgd":1,"district_lgd":1,"subdistrict_lgd":57,"center":[75.39109760013487,33.57458320578587],"bbox":[75.1898396,33.3647226,75.5346268,33.7574373]},"geometry":{"type":"Point","coordinates":[75.39109760013487,33.57458320578587]}},{"type":"Feature","id":"in-jammu-kashmir-t-36","properties":{"id":"in-jammu-kashmir-t-36","name":"Kreeri","region":"in-jammu-kashmir","level":"tehsil","parent":"in-jammu-kashmir-d-3","district":"Baramulla","source":"LGD via Bharatlas · 2024 snapshot","state_lgd":1,"district_lgd":3,"subdistrict_lgd":36,"center":[74.33914449467261,34.1063447],"bbox":[74.2545014,34.0245929,74.492141,34.2289724]},"geometry":{"type":"Point","coordinates":[74.33914449467261,34.1063447]}},{"type":"Feature","id":"in-jammu-kashmir-t-59","properties":{"id":"in-jammu-kashmir-t-59","name":"Kulgam","region":"in-jammu-kashmir","level":"tehsil","parent":"in-jammu-kashmir-d-622","district":"Kulgam","source":"LGD via Bharatlas · 2024 snapshot","state_lgd":1,"district_lgd":622,"subdistrict_lgd":59,"center":[75.04810476629828,33.6613051184645],"bbox":[74.9091246,33.4968931,75.1750428,33.840316]},"geometry":{"type":"Point","coordinates":[75.04810476629828,33.6613051184645]}},{"type":"Feature","id":"in-jammu-kashmir-t-1","properties":{"id":"in-jammu-kashmir-t-1","name":"Kupwara","region":"in-jammu-kashmir","level":"tehsil","parent":"in-jammu-kashmir-d-8","district":"Kupwara","source":"LGD via Bharatlas · 2024 snapshot","state_lgd":1,"district_lgd":8,"subdistrict_lgd":1,"center":[74.27493233596543,34.628506613759775],"bbox":[73.8789294,34.4381993,74.6061049,34.7939085]},"geometry":{"type":"Point","coordinates":[74.27493233596543,34.628506613759775]}},{"type":"Feature","id":"in-jammu-kashmir-t-45","properties":{"id":"in-jammu-kashmir-t-45","name":"Lar","region":"in-jammu-kashmir","level":"tehsil","parent":"in-jammu-kashmir-d-626","district":"Ganderbal","source":"LGD via Bharatlas · 2024 snapshot","state_lgd":1,"district_lgd":626,"subdistrict_lgd":45,"center":[74.73265317466706,34.25192314703535],"bbox":[74.648412,34.1681205,74.8347116,34.32492]},"geometry":{"type":"Point","coordinates":[74.73265317466706,34.25192314703535]}},{"type":"Feature","id":"in-jammu-kashmir-t-75","properties":{"id":"in-jammu-kashmir-t-75","name":"Majalta","region":"in-jammu-kashmir","level":"tehsil","parent":"in-jammu-kashmir-d-14","district":"Udhampur","source":"LGD via Bharatlas · 2024 snapshot","state_lgd":1,"district_lgd":14,"subdistrict_lgd":75,"center":[75.30087572980851,32.70541136649392],"bbox":[75.0916255,32.6397856,75.4840758,32.7636288]},"geometry":{"type":"Point","coordinates":[75.30087572980851,32.70541136649392]}},{"type":"Feature","id":"in-jammu-kashmir-t-17","properties":{"id":"in-jammu-kashmir-t-17","name":"Mandi","region":"in-jammu-kashmir","level":"tehsil","parent":"in-jammu-kashmir-d-10","district":"Poonch","source":"LGD via Bharatlas · 2024 snapshot","state_lgd":1,"district_lgd":10,"subdistrict_lgd":17,"center":[74.3152243214779,33.85505684882917],"bbox":[74.1795183,33.7403983,74.4703423,34.0032237]},"geometry":{"type":"Point","coordinates":[74.3152243214779,33.85505684882917]}},{"type":"Feature","id":"in-jammu-kashmir-t-69","properties":{"id":"in-jammu-kashmir-t-69","name":"Marwah","region":"in-jammu-kashmir","level":"tehsil","parent":"in-jammu-kashmir-d-620","district":"Kishtwar","source":"LGD via Bharatlas · 2024 snapshot","state_lgd":1,"district_lgd":620,"subdistrict_lgd":69,"center":[75.83057103877117,33.780417306637815],"bbox":[75.3892092,33.4365436,76.2846506,34.2120025]},"geometry":{"type":"Point","coordinates":[75.83057103877117,33.780417306637815]}},{"type":"Feature","id":"in-jammu-kashmir-t-18","properties":{"id":"in-jammu-kashmir-t-18","name":"Mendhar","region":"in-jammu-kashmir","level":"tehsil","parent":"in-jammu-kashmir-d-10","district":"Poonch","source":"LGD via Bharatlas · 2024 snapshot","state_lgd":1,"district_lgd":10,"subdistrict_lgd":18,"center":[74.130736144578,33.57018232833427],"bbox":[73.9850033,33.3908485,74.2953635,33.7279088]},"geometry":{"type":"Point","coordinates":[74.130736144578,33.57018232833427]}},{"type":"Feature","id":"in-jammu-kashmir-t-25","properties":{"id":"in-jammu-kashmir-t-25","name":"Nowshera","region":"in-jammu-kashmir","level":"tehsil","parent":"in-jammu-kashmir-d-12","district":"Rajouri","source":"LGD via Bharatlas · 2024 snapshot","state_lgd":1,"district_lgd":12,"subdistrict_lgd":25,"center":[74.250353929987,33.139529046905224],"bbox":[74.0681073,33.0080943,74.4054061,33.2810161]},"geometry":{"type":"Point","coordinates":[74.250353929987,33.139529046905224]}},{"type":"Feature","id":"in-jammu-kashmir-t-53","properties":{"id":"in-jammu-kashmir-t-53","name":"Pahalgam","region":"in-jammu-kashmir","level":"tehsil","parent":"in-jammu-kashmir-d-1","district":"Anantnag","source":"LGD via Bharatlas · 2024 snapshot","state_lgd":1,"district_lgd":1,"subdistrict_lgd":53,"center":[75.33370874928545,34.05170427975732],"bbox":[75.0966176,33.7744831,75.5933634,34.2546347]},"geometry":{"type":"Point","coordinates":[75.33370874928545,34.05170427975732]}},{"type":"Feature","id":"in-jammu-kashmir-t-48","properties":{"id":"in-jammu-kashmir-t-48","name":"Pampore","region":"in-jammu-kashmir","level":"tehsil","parent":"in-jammu-kashmir-d-11","district":"Pulwama","source":"LGD via Bharatlas · 2024 snapshot","state_lgd":1,"district_lgd":11,"subdistrict_lgd":48,"center":[75.00684658838345,34.013564762133335],"bbox":[74.8956187,33.928354,75.0866565,34.1096389]},"geometry":{"type":"Point","coordinates":[75.00684658838345,34.013564762133335]}},{"type":"Feature","id":"in-jammu-kashmir-t-34","properties":{"id":"in-jammu-kashmir-t-34","name":"Pattan","region":"in-jammu-kashmir","level":"tehsil","parent":"in-jammu-kashmir-d-3","district":"Baramulla","source":"LGD via Bharatlas · 2024 snapshot","state_lgd":1,"district_lgd":3,"subdistrict_lgd":34,"center":[74.56697237141967,34.15905231674417],"bbox":[74.4563259,34.0985534,74.7023505,34.2293937]},"geometry":{"type":"Point","coordinates":[74.56697237141967,34.15905231674417]}},{"type":"Feature","id":"in-jammu-kashmir-t-51","properties":{"id":"in-jammu-kashmir-t-51","name":"Pulwama","region":"in-jammu-kashmir","level":"tehsil","parent":"in-jammu-kashmir-d-11","district":"Pulwama","source":"LGD via Bharatlas · 2024 snapshot","state_lgd":1,"district_lgd":11,"subdistrict_lgd":51,"center":[74.8948333294754,33.87364359605005],"bbox":[74.7116429,33.785216,75.0295366,34.0136643]},"geometry":{"type":"Point","coordinates":[74.8948333294754,33.87364359605005]}},{"type":"Feature","id":"in-jammu-kashmir-t-33","properties":{"id":"in-jammu-kashmir-t-33","name":"Rafiabad","region":"in-jammu-kashmir","level":"tehsil","parent":"in-jammu-kashmir-d-3","district":"Baramulla","source":"LGD via Bharatlas · 2024 snapshot","state_lgd":1,"district_lgd":3,"subdistrict_lgd":33,"center":[74.28821202295887,34.28017661958755],"bbox":[74.0763297,34.2170458,74.4318922,34.393741]},"geometry":{"type":"Point","coordinates":[74.28821202295887,34.28017661958755]}},{"type":"Feature","id":"in-jammu-kashmir-t-22","properties":{"id":"in-jammu-kashmir-t-22","name":"Rajouri","region":"in-jammu-kashmir","level":"tehsil","parent":"in-jammu-kashmir-d-12","district":"Rajouri","source":"LGD via Bharatlas · 2024 snapshot","state_lgd":1,"district_lgd":12,"subdistrict_lgd":22,"center":[74.26173750869368,33.342040799263074],"bbox":[74.0019596,33.193987,74.5003562,33.5558317]},"geometry":{"type":"Point","coordinates":[74.26173750869368,33.342040799263074]}},{"type":"Feature","id":"in-jammu-kashmir-t-67","properties":{"id":"in-jammu-kashmir-t-67","name":"Ramban","region":"in-jammu-kashmir","level":"tehsil","parent":"in-jammu-kashmir-d-621","district":"Ramban","source":"LGD via Bharatlas · 2024 snapshot","state_lgd":1,"district_lgd":621,"subdistrict_lgd":67,"center":[75.19061019563236,33.23666930943698],"bbox":[74.957968,33.0663731,75.393844,33.3707088]},"geometry":{"type":"Point","coordinates":[75.19061019563236,33.23666930943698]}},{"type":"Feature","id":"in-jammu-kashmir-t-74","properties":{"id":"in-jammu-kashmir-t-74","name":"Ramnagar","region":"in-jammu-kashmir","level":"tehsil","parent":"in-jammu-kashmir-d-14","district":"Udhampur","source":"LGD via Bharatlas · 2024 snapshot","state_lgd":1,"district_lgd":14,"subdistrict_lgd":74,"center":[75.42053124480536,32.85160903941418],"bbox":[75.1448356,32.7170046,75.6952768,33.0021046]},"geometry":{"type":"Point","coordinates":[75.42053124480536,32.85160903941418]}},{"type":"Feature","id":"in-jammu-kashmir-t-80","properties":{"id":"in-jammu-kashmir-t-80","name":"Ranbir Singh Pura","region":"in-jammu-kashmir","level":"tehsil","parent":"in-jammu-kashmir-d-5","district":"Jammu","source":"LGD via Bharatlas · 2024 snapshot","state_lgd":1,"district_lgd":5,"subdistrict_lgd":80,"center":[74.73670785029664,32.580557322990806],"bbox":[74.6390331,32.4826241,74.8360004,32.6674174]},"geometry":{"type":"Point","coordinates":[74.73670785029664,32.580557322990806]}},{"type":"Feature","id":"in-jammu-kashmir-t-77","properties":{"id":"in-jammu-kashmir-t-77","name":"Reasi","region":"in-jammu-kashmir","level":"tehsil","parent":"in-jammu-kashmir-d-627","district":"Reasi","source":"LGD via Bharatlas · 2024 snapshot","state_lgd":1,"district_lgd":627,"subdistrict_lgd":77,"center":[74.80865915492757,33.09280303719355],"bbox":[74.5212683,32.8872427,75.0770483,33.2519157]},"geometry":{"type":"Point","coordinates":[74.80865915492757,33.09280303719355]}},{"type":"Feature","id":"in-jammu-kashmir-t-82","properties":{"id":"in-jammu-kashmir-t-82","name":"Samba","region":"in-jammu-kashmir","level":"tehsil","parent":"in-jammu-kashmir-d-624","district":"Samba","source":"LGD via Bharatlas · 2024 snapshot","state_lgd":1,"district_lgd":624,"subdistrict_lgd":82,"center":[75.09049195019199,32.58168610572132],"bbox":[74.8693679,32.4084969,75.3455267,32.7425826]},"geometry":{"type":"Point","coordinates":[75.09049195019199,32.58168610572132]}},{"type":"Feature","id":"in-jammu-kashmir-t-56","properties":{"id":"in-jammu-kashmir-t-56","name":"Shangus","region":"in-jammu-kashmir","level":"tehsil","parent":"in-jammu-kashmir-d-1","district":"Anantnag","source":"LGD via Bharatlas · 2024 snapshot","state_lgd":1,"district_lgd":1,"subdistrict_lgd":56,"center":[75.35449385606731,33.740997483170574],"bbox":[75.2368972,33.6554336,75.4818868,33.8309751]},"geometry":{"type":"Point","coordinates":[75.35449385606731,33.740997483170574]}},{"type":"Feature","id":"in-jammu-kashmir-t-52","properties":{"id":"in-jammu-kashmir-t-52","name":"Shopian","region":"in-jammu-kashmir","level":"tehsil","parent":"in-jammu-kashmir-d-625","district":"Shopian","source":"LGD via Bharatlas · 2024 snapshot","state_lgd":1,"district_lgd":625,"subdistrict_lgd":52,"center":[74.81853289943432,33.73521273034933],"bbox":[74.5664067,33.6269726,75.0554182,33.8214749]},"geometry":{"type":"Point","coordinates":[74.81853289943432,33.73521273034933]}},{"type":"Feature","id":"in-jammu-kashmir-t-42","properties":{"id":"in-jammu-kashmir-t-42","name":"Sonawari","region":"in-jammu-kashmir","level":"tehsil","parent":"in-jammu-kashmir-d-623","district":"Bandipora","source":"LGD via Bharatlas · 2024 snapshot","state_lgd":1,"district_lgd":623,"subdistrict_lgd":42,"center":[74.6110340568963,34.31036811621688],"bbox":[74.5104599,34.1593502,74.7454134,34.4503997]},"geometry":{"type":"Point","coordinates":[74.6110340568963,34.31036811621688]}},{"type":"Feature","id":"in-jammu-kashmir-t-32","properties":{"id":"in-jammu-kashmir-t-32","name":"Sopore","region":"in-jammu-kashmir","level":"tehsil","parent":"in-jammu-kashmir-d-3","district":"Baramulla","source":"LGD via Bharatlas · 2024 snapshot","state_lgd":1,"district_lgd":3,"subdistrict_lgd":32,"center":[74.46501574579787,34.33377992006835],"bbox":[74.3461479,34.2112397,74.5564884,34.4375134]},"geometry":{"type":"Point","coordinates":[74.46501574579787,34.33377992006835]}},{"type":"Feature","id":"in-jammu-kashmir-t-43","properties":{"id":"in-jammu-kashmir-t-43","name":"Srinagar (North)","region":"in-jammu-kashmir","level":"tehsil","parent":"in-jammu-kashmir-d-626","district":"Ganderbal","source":"LGD via Bharatlas · 2024 snapshot","state_lgd":1,"district_lgd":626,"subdistrict_lgd":43,"center":[74.99334927280836,34.121793103668566],"bbox":[74.8598326,34.0433163,75.1464642,34.2033396]},"geometry":{"type":"Point","coordinates":[74.99334927280836,34.121793103668566]}},{"type":"Feature","id":"in-jammu-kashmir-t-44","properties":{"id":"in-jammu-kashmir-t-44","name":"Srinagar (South)","region":"in-jammu-kashmir","level":"tehsil","parent":"in-jammu-kashmir-d-13","district":"Srinagar","source":"LGD via Bharatlas · 2024 snapshot","state_lgd":1,"district_lgd":13,"subdistrict_lgd":44,"center":[74.82126941614754,34.1146532124753],"bbox":[74.6747116,34.0202682,75.0017422,34.2122244]},"geometry":{"type":"Point","coordinates":[74.82126941614754,34.1146532124753]}},{"type":"Feature","id":"in-jammu-kashmir-t-26","properties":{"id":"in-jammu-kashmir-t-26","name":"Sundarbani","region":"in-jammu-kashmir","level":"tehsil","parent":"in-jammu-kashmir-d-12","district":"Rajouri","source":"LGD via Bharatlas · 2024 snapshot","state_lgd":1,"district_lgd":12,"subdistrict_lgd":26,"center":[74.47067603195622,33.05565594679954],"bbox":[74.320456,32.9500064,74.6354259,33.1581533]},"geometry":{"type":"Point","coordinates":[74.47067603195622,33.05565594679954]}},{"type":"Feature","id":"in-jammu-kashmir-t-19","properties":{"id":"in-jammu-kashmir-t-19","name":"Surankote","region":"in-jammu-kashmir","level":"tehsil","parent":"in-jammu-kashmir-d-10","district":"Poonch","source":"LGD via Bharatlas · 2024 snapshot","state_lgd":1,"district_lgd":10,"subdistrict_lgd":19,"center":[74.38079859036306,33.651309811117045],"bbox":[74.1619695,33.4677705,74.5757791,33.760192]},"geometry":{"type":"Point","coordinates":[74.38079859036306,33.651309811117045]}},{"type":"Feature","id":"in-jammu-kashmir-t-39","properties":{"id":"in-jammu-kashmir-t-39","name":"Tangmarg","region":"in-jammu-kashmir","level":"tehsil","parent":"in-jammu-kashmir-d-3","district":"Baramulla","source":"LGD via Bharatlas · 2024 snapshot","state_lgd":1,"district_lgd":3,"subdistrict_lgd":39,"center":[74.4252922714279,34.03413642068959],"bbox":[74.2836578,33.9077109,74.6075901,34.1287192]},"geometry":{"type":"Point","coordinates":[74.4252922714279,34.03413642068959]}},{"type":"Feature","id":"in-jammu-kashmir-t-20","properties":{"id":"in-jammu-kashmir-t-20","name":"Thana Mandi","region":"in-jammu-kashmir","level":"tehsil","parent":"in-jammu-kashmir-d-12","district":"Rajouri","source":"LGD via Bharatlas · 2024 snapshot","state_lgd":1,"district_lgd":12,"subdistrict_lgd":20,"center":[74.35991596039987,33.50358605326707],"bbox":[74.2953635,33.3997401,74.4420832,33.5841324]},"geometry":{"type":"Point","coordinates":[74.35991596039987,33.50358605326707]}},{"type":"Feature","id":"in-jammu-kashmir-t-63","properties":{"id":"in-jammu-kashmir-t-63","name":"Thathri","region":"in-jammu-kashmir","level":"tehsil","parent":"in-jammu-kashmir-d-4","district":"Doda","source":"LGD via Bharatlas · 2024 snapshot","state_lgd":1,"district_lgd":4,"subdistrict_lgd":63,"center":[75.76943445071886,33.106403285136615],"bbox":[75.6130373,33.0598316,75.9534223,33.1576323]},"geometry":{"type":"Point","coordinates":[75.76943445071886,33.106403285136615]}},{"type":"Feature","id":"in-jammu-kashmir-t-50","properties":{"id":"in-jammu-kashmir-t-50","name":"Tral","region":"in-jammu-kashmir","level":"tehsil","parent":"in-jammu-kashmir-d-11","district":"Pulwama","source":"LGD via Bharatlas · 2024 snapshot","state_lgd":1,"district_lgd":11,"subdistrict_lgd":50,"center":[75.1404504346934,33.98547736154233],"bbox":[75.0498579,33.8617961,75.2350912,34.1014824]},"geometry":{"type":"Point","coordinates":[75.1404504346934,33.98547736154233]}},{"type":"Feature","id":"in-jammu-kashmir-t-72","properties":{"id":"in-jammu-kashmir-t-72","name":"Udhampur","region":"in-jammu-kashmir","level":"tehsil","parent":"in-jammu-kashmir-d-14","district":"Udhampur","source":"LGD via Bharatlas · 2024 snapshot","state_lgd":1,"district_lgd":14,"subdistrict_lgd":72,"center":[75.11420555571357,32.998176985157144],"bbox":[74.9628259,32.7870021,75.2563236,33.1881448]},"geometry":{"type":"Point","coordinates":[75.11420555571357,32.998176985157144]}},{"type":"Feature","id":"in-jammu-kashmir-t-37","properties":{"id":"in-jammu-kashmir-t-37","name":"Uri","region":"in-jammu-kashmir","level":"tehsil","parent":"in-jammu-kashmir-d-3","district":"Baramulla","source":"LGD via Bharatlas · 2024 snapshot","state_lgd":1,"district_lgd":3,"subdistrict_lgd":37,"center":[74.0093733756134,34.07564359055821],"bbox":[73.8902485,33.9999999,74.1475437,34.1643488]},"geometry":{"type":"Point","coordinates":[74.0093733756134,34.07564359055821]}}]}
