{"type":"FeatureCollection","features":[{"type":"Feature","id":"in-jammu-kashmir-d-1","properties":{"id":"in-jammu-kashmir-d-1","name":"Anantnag","region":"in-jammu-kashmir","level":"district","parent":"","source":"LGD via Bharatlas · 2024 snapshot","state_lgd":1,"district_lgd":1,"center":[75.32471331844735,33.82653208980771],"bbox":[75.0465243,33.3647226,75.5933634,34.2546347]},"geometry":{"type":"Point","coordinates":[75.32471331844735,33.82653208980771]}},{"type":"Feature","id":"in-jammu-kashmir-d-623","properties":{"id":"in-jammu-kashmir-d-623","name":"Bandipora","region":"in-jammu-kashmir","level":"district","parent":"","source":"LGD via Bharatlas · 2024 snapshot","state_lgd":1,"district_lgd":623,"center":[74.87612229109405,34.58729388696919],"bbox":[74.3301925,34.1593502,75.3727652,34.9247992]},"geometry":{"type":"Point","coordinates":[74.87612229109405,34.58729388696919]}},{"type":"Feature","id":"in-jammu-kashmir-d-3","properties":{"id":"in-jammu-kashmir-d-3","name":"Baramulla","region":"in-jammu-kashmir","level":"district","parent":"","source":"LGD via Bharatlas · 2024 snapshot","state_lgd":1,"district_lgd":3,"center":[74.30251063484567,34.15823292338806],"bbox":[73.8902485,33.9077109,74.7023505,34.4375134]},"geometry":{"type":"Point","coordinates":[74.30251063484567,34.15823292338806]}},{"type":"Feature","id":"in-jammu-kashmir-d-2","properties":{"id":"in-jammu-kashmir-d-2","name":"Budgam","region":"in-jammu-kashmir","level":"district","parent":"","source":"LGD via Bharatlas · 2024 snapshot","state_lgd":1,"district_lgd":2,"center":[74.63458288832655,33.91823040628392],"bbox":[74.4015014,33.6802126,74.9164447,34.1304551]},"geometry":{"type":"Point","coordinates":[74.63458288832655,33.91823040628392]}},{"type":"Feature","id":"in-jammu-kashmir-d-4","properties":{"id":"in-jammu-kashmir-d-4","name":"Doda","region":"in-jammu-kashmir","level":"district","parent":"","source":"LGD via Bharatlas · 2024 snapshot","state_lgd":1,"district_lgd":4,"center":[75.7146800911065,33.093286995165826],"bbox":[75.3345363,32.8640676,76.2356013,33.407332]},"geometry":{"type":"Point","coordinates":[75.7146800911065,33.093286995165826]}},{"type":"Feature","id":"in-jammu-kashmir-d-626","properties":{"id":"in-jammu-kashmir-d-626","name":"Ganderbal","region":"in-jammu-kashmir","level":"district","parent":"","source":"LGD via Bharatlas · 2024 snapshot","state_lgd":1,"district_lgd":626,"center":[75.03236167457125,34.26205552951171],"bbox":[74.648412,34.0433163,75.4969562,34.4640547]},"geometry":{"type":"Point","coordinates":[75.03236167457125,34.26205552951171]}},{"type":"Feature","id":"in-jammu-kashmir-d-5","properties":{"id":"in-jammu-kashmir-d-5","name":"Jammu","region":"in-jammu-kashmir","level":"district","parent":"","source":"LGD via Bharatlas · 2024 snapshot","state_lgd":1,"district_lgd":5,"center":[74.74685961127278,32.80497716665101],"bbox":[74.3126058,32.4758153,75.1670219,33.062711]},"geometry":{"type":"Point","coordinates":[74.74685961127278,32.80497716665101]}},{"type":"Feature","id":"in-jammu-kashmir-d-7","properties":{"id":"in-jammu-kashmir-d-7","name":"Kathua","region":"in-jammu-kashmir","level":"district","parent":"","source":"LGD via Bharatlas · 2024 snapshot","state_lgd":1,"district_lgd":7,"center":[75.58340898290203,32.574591707167514],"bbox":[75.1919928,32.2760053,75.9341522,32.8902638]},"geometry":{"type":"Point","coordinates":[75.58340898290203,32.574591707167514]}},{"type":"Feature","id":"in-jammu-kashmir-d-620","properties":{"id":"in-jammu-kashmir-d-620","name":"Kishtwar","region":"in-jammu-kashmir","level":"district","parent":"","source":"LGD via Bharatlas · 2024 snapshot","state_lgd":1,"district_lgd":620,"center":[75.97100388523904,33.54989623288754],"bbox":[75.3892092,33.0206945,76.7794134,34.2120025]},"geometry":{"type":"Point","coordinates":[75.97100388523904,33.54989623288754]}},{"type":"Feature","id":"in-jammu-kashmir-d-622","properties":{"id":"in-jammu-kashmir-d-622","name":"Kulgam","region":"in-jammu-kashmir","level":"district","parent":"","source":"LGD via Bharatlas · 2024 snapshot","state_lgd":1,"district_lgd":622,"center":[74.86000069945055,33.60643389058452],"bbox":[74.5137674,33.4678442,75.1750428,33.840316]},"geometry":{"type":"Point","coordinates":[74.86000069945055,33.60643389058452]}},{"type":"Feature","id":"in-jammu-kashmir-d-8","properties":{"id":"in-jammu-kashmir-d-8","name":"Kupwara","region":"in-jammu-kashmir","level":"district","parent":"","source":"LGD via Bharatlas · 2024 snapshot","state_lgd":1,"district_lgd":8,"center":[74.20722107634138,34.52136368599767],"bbox":[73.7498363,34.2445726,74.6061049,34.7939085]},"geometry":{"type":"Point","coordinates":[74.20722107634138,34.52136368599767]}},{"type":"Feature","id":"in-jammu-kashmir-d-10","properties":{"id":"in-jammu-kashmir-d-10","name":"Poonch","region":"in-jammu-kashmir","level":"district","parent":"","source":"LGD via Bharatlas · 2024 snapshot","state_lgd":1,"district_lgd":10,"center":[74.01781872639422,33.78399470709294],"bbox":[73.4909334,33.3908485,74.5757791,34.1464659]},"geometry":{"type":"Point","coordinates":[74.01781872639422,33.78399470709294]}},{"type":"Feature","id":"in-jammu-kashmir-d-11","properties":{"id":"in-jammu-kashmir-d-11","name":"Pulwama","region":"in-jammu-kashmir","level":"district","parent":"","source":"LGD via Bharatlas · 2024 snapshot","state_lgd":1,"district_lgd":11,"center":[75.01685756094193,33.94069112358608],"bbox":[74.7116429,33.785216,75.2350912,34.1096389]},"geometry":{"type":"Point","coordinates":[75.01685756094193,33.94069112358608]}},{"type":"Feature","id":"in-jammu-kashmir-d-12","properties":{"id":"in-jammu-kashmir-d-12","name":"Rajouri","region":"in-jammu-kashmir","level":"district","parent":"","source":"LGD via Bharatlas · 2024 snapshot","state_lgd":1,"district_lgd":12,"center":[74.38087547743942,33.278225451095494],"bbox":[74.0019596,32.9500064,74.692934,33.5841324]},"geometry":{"type":"Point","coordinates":[74.38087547743942,33.278225451095494]}},{"type":"Feature","id":"in-jammu-kashmir-d-621","properties":{"id":"in-jammu-kashmir-d-621","name":"Ramban","region":"in-jammu-kashmir","level":"district","parent":"","source":"LGD via Bharatlas · 2024 snapshot","state_lgd":1,"district_lgd":621,"center":[75.18986368383715,33.30767039748921],"bbox":[74.957968,33.0663731,75.393844,33.5251379]},"geometry":{"type":"Point","coordinates":[75.18986368383715,33.30767039748921]}},{"type":"Feature","id":"in-jammu-kashmir-d-627","properties":{"id":"in-jammu-kashmir-d-627","name":"Reasi","region":"in-jammu-kashmir","level":"district","parent":"","source":"LGD via Bharatlas · 2024 snapshot","state_lgd":1,"district_lgd":627,"center":[74.83142483802945,33.23891212999384],"bbox":[74.5212683,32.8872427,75.0958358,33.5259514]},"geometry":{"type":"Point","coordinates":[74.83142483802945,33.23891212999384]}},{"type":"Feature","id":"in-jammu-kashmir-d-624","properties":{"id":"in-jammu-kashmir-d-624","name":"Samba","region":"in-jammu-kashmir","level":"district","parent":"","source":"LGD via Bharatlas · 2024 snapshot","state_lgd":1,"district_lgd":624,"center":[75.09049070593196,32.58168651796909],"bbox":[74.8693679,32.4084969,75.3455267,32.7425826]},"geometry":{"type":"Point","coordinates":[75.09049070593196,32.58168651796909]}},{"type":"Feature","id":"in-jammu-kashmir-d-625","properties":{"id":"in-jammu-kashmir-d-625","name":"Shopian","region":"in-jammu-kashmir","level":"district","parent":"","source":"LGD via Bharatlas · 2024 snapshot","state_lgd":1,"district_lgd":625,"center":[74.81853356590636,33.73521271971885],"bbox":[74.5664476,33.6269726,75.0554182,33.8214749]},"geometry":{"type":"Point","coordinates":[74.81853356590636,33.73521271971885]}},{"type":"Feature","id":"in-jammu-kashmir-d-13","properties":{"id":"in-jammu-kashmir-d-13","name":"Srinagar","region":"in-jammu-kashmir","level":"district","parent":"","source":"LGD via Bharatlas · 2024 snapshot","state_lgd":1,"district_lgd":13,"center":[74.8212692875274,34.11465319135269],"bbox":[74.6747116,34.0202682,75.0017422,34.2122244]},"geometry":{"type":"Point","coordinates":[74.8212692875274,34.11465319135269]}},{"type":"Feature","id":"in-jammu-kashmir-d-14","properties":{"id":"in-jammu-kashmir-d-14","name":"Udhampur","region":"in-jammu-kashmir","level":"district","parent":"","source":"LGD via Bharatlas · 2024 snapshot","state_lgd":1,"district_lgd":14,"center":[75.29695096593795,32.89882673222007],"bbox":[74.9628259,32.6397856,75.6952768,33.1881448]},"geometry":{"type":"Point","coordinates":[75.29695096593795,32.89882673222007]}}]}
