{"type":"FeatureCollection","features":[{"type":"Feature","id":"in-jharkhand-d-322","properties":{"id":"in-jharkhand-d-322","name":"Bokaro","region":"in-jharkhand","level":"district","parent":"","source":"LGD via Bharatlas · 2024 snapshot","state_lgd":20,"district_lgd":322,"center":[85.99653899386529,23.694741791264672],"bbox":[85.5837116,23.4108168,86.4884291,23.9867043]},"geometry":{"type":"Point","coordinates":[85.99653899386529,23.694741791264672]}},{"type":"Feature","id":"in-jharkhand-d-323","properties":{"id":"in-jharkhand-d-323","name":"Chatra","region":"in-jharkhand","level":"district","parent":"","source":"LGD via Bharatlas · 2024 snapshot","state_lgd":20,"district_lgd":323,"center":[84.89188625946908,24.16432882945107],"bbox":[84.448722,23.6630158,85.3816339,24.5307444]},"geometry":{"type":"Point","coordinates":[84.89188625946908,24.16432882945107]}},{"type":"Feature","id":"in-jharkhand-d-324","properties":{"id":"in-jharkhand-d-324","name":"Deoghar","region":"in-jharkhand","level":"district","parent":"","source":"LGD via Bharatlas · 2024 snapshot","state_lgd":20,"district_lgd":324,"center":[86.74001724243985,24.328225363935672],"bbox":[86.4553744,24.040861,87.0679595,24.6218126]},"geometry":{"type":"Point","coordinates":[86.74001724243985,24.328225363935672]}},{"type":"Feature","id":"in-jharkhand-d-325","properties":{"id":"in-jharkhand-d-325","name":"Dhanbad","region":"in-jharkhand","level":"district","parent":"","source":"LGD via Bharatlas · 2024 snapshot","state_lgd":20,"district_lgd":325,"center":[86.47225295742294,23.8267601416225],"bbox":[86.111006,23.6301787,86.828366,24.059433]},"geometry":{"type":"Point","coordinates":[86.47225295742294,23.8267601416225]}},{"type":"Feature","id":"in-jharkhand-d-326","properties":{"id":"in-jharkhand-d-326","name":"Dumka","region":"in-jharkhand","level":"district","parent":"","source":"LGD via Bharatlas · 2024 snapshot","state_lgd":20,"district_lgd":326,"center":[87.26641720366476,24.319558603852407],"bbox":[86.8890428,23.9812519,87.7029025,24.6505509]},"geometry":{"type":"Point","coordinates":[87.26641720366476,24.319558603852407]}},{"type":"Feature","id":"in-jharkhand-d-327","properties":{"id":"in-jharkhand-d-327","name":"East Singhbum","region":"in-jharkhand","level":"district","parent":"","source":"LGD via Bharatlas · 2024 snapshot","state_lgd":20,"district_lgd":327,"center":[86.45142539949971,22.582491522434758],"bbox":[86.0654922,22.211435,86.8893297,23.0159984]},"geometry":{"type":"Point","coordinates":[86.45142539949971,22.582491522434758]}},{"type":"Feature","id":"in-jharkhand-d-328","properties":{"id":"in-jharkhand-d-328","name":"Garhwa","region":"in-jharkhand","level":"district","parent":"","source":"LGD via Bharatlas · 2024 snapshot","state_lgd":20,"district_lgd":328,"center":[83.69849080972237,24.103699134626847],"bbox":[83.3293539,23.5689736,84.0698829,24.5367259]},"geometry":{"type":"Point","coordinates":[83.69849080972237,24.103699134626847]}},{"type":"Feature","id":"in-jharkhand-d-329","properties":{"id":"in-jharkhand-d-329","name":"Giridih","region":"in-jharkhand","level":"district","parent":"","source":"LGD via Bharatlas · 2024 snapshot","state_lgd":20,"district_lgd":329,"center":[86.11099724904987,24.293575900202487],"bbox":[85.6754111,23.8835614,86.572042,24.7796926]},"geometry":{"type":"Point","coordinates":[86.11099724904987,24.293575900202487]}},{"type":"Feature","id":"in-jharkhand-d-330","properties":{"id":"in-jharkhand-d-330","name":"Godda","region":"in-jharkhand","level":"district","parent":"","source":"LGD via Bharatlas · 2024 snapshot","state_lgd":20,"district_lgd":330,"center":[87.30849728378193,24.858694932184306],"bbox":[87.046151,24.5005754,87.5448988,25.2278722]},"geometry":{"type":"Point","coordinates":[87.30849728378193,24.858694932184306]}},{"type":"Feature","id":"in-jharkhand-d-331","properties":{"id":"in-jharkhand-d-331","name":"Gumla","region":"in-jharkhand","level":"district","parent":"","source":"LGD via Bharatlas · 2024 snapshot","state_lgd":20,"district_lgd":331,"center":[84.5323654625855,23.103198916141224],"bbox":[84.0318977,22.7093183,85.0163294,23.6087445]},"geometry":{"type":"Point","coordinates":[84.5323654625855,23.103198916141224]}},{"type":"Feature","id":"in-jharkhand-d-332","properties":{"id":"in-jharkhand-d-332","name":"Hazaribagh","region":"in-jharkhand","level":"district","parent":"","source":"LGD via Bharatlas · 2024 snapshot","state_lgd":20,"district_lgd":332,"center":[85.42587522164378,24.062077584617636],"bbox":[85.0214889,23.652381,85.9327896,24.5237868]},"geometry":{"type":"Point","coordinates":[85.42587522164378,24.062077584617636]}},{"type":"Feature","id":"in-jharkhand-d-333","properties":{"id":"in-jharkhand-d-333","name":"Jamtara","region":"in-jharkhand","level":"district","parent":"","source":"LGD via Bharatlas · 2024 snapshot","state_lgd":20,"district_lgd":333,"center":[86.90746797774814,23.975651074530198],"bbox":[86.4674036,23.7966412,87.2950331,24.1654261]},"geometry":{"type":"Point","coordinates":[86.90746797774814,23.975651074530198]}},{"type":"Feature","id":"in-jharkhand-d-606","properties":{"id":"in-jharkhand-d-606","name":"Khunti","region":"in-jharkhand","level":"district","parent":"","source":"LGD via Bharatlas · 2024 snapshot","state_lgd":20,"district_lgd":606,"center":[85.26259909890484,22.994323789031718],"bbox":[84.9402921,22.5733466,85.6557687,23.2851138]},"geometry":{"type":"Point","coordinates":[85.26259909890484,22.994323789031718]}},{"type":"Feature","id":"in-jharkhand-d-334","properties":{"id":"in-jharkhand-d-334","name":"Koderma","region":"in-jharkhand","level":"district","parent":"","source":"LGD via Bharatlas · 2024 snapshot","state_lgd":20,"district_lgd":334,"center":[85.66815232287256,24.500100501919327],"bbox":[85.163938,24.2630313,85.9036092,24.8210605]},"geometry":{"type":"Point","coordinates":[85.66815232287256,24.500100501919327]}},{"type":"Feature","id":"in-jharkhand-d-335","properties":{"id":"in-jharkhand-d-335","name":"Latehar","region":"in-jharkhand","level":"district","parent":"","source":"LGD via Bharatlas · 2024 snapshot","state_lgd":20,"district_lgd":335,"center":[84.44479886556671,23.71698101228108],"bbox":[83.9670024,23.3253384,84.9675746,24.0486525]},"geometry":{"type":"Point","coordinates":[84.44479886556671,23.71698101228108]}},{"type":"Feature","id":"in-jharkhand-d-336","properties":{"id":"in-jharkhand-d-336","name":"Lohardaga","region":"in-jharkhand","level":"district","parent":"","source":"LGD via Bharatlas · 2024 snapshot","state_lgd":20,"district_lgd":336,"center":[84.67177171486199,23.47571748277604],"bbox":[84.386786,23.2789593,84.9466823,23.6752598]},"geometry":{"type":"Point","coordinates":[84.67177171486199,23.47571748277604]}},{"type":"Feature","id":"in-jharkhand-d-337","properties":{"id":"in-jharkhand-d-337","name":"Pakur","region":"in-jharkhand","level":"district","parent":"","source":"LGD via Bharatlas · 2024 snapshot","state_lgd":20,"district_lgd":337,"center":[87.6626038126467,24.564220205645416],"bbox":[87.3874547,24.2361196,87.9173365,24.8291899]},"geometry":{"type":"Point","coordinates":[87.6626038126467,24.564220205645416]}},{"type":"Feature","id":"in-jharkhand-d-338","properties":{"id":"in-jharkhand-d-338","name":"Palamu","region":"in-jharkhand","level":"district","parent":"","source":"LGD via Bharatlas · 2024 snapshot","state_lgd":20,"district_lgd":338,"center":[84.16888038037293,24.199754422886347],"bbox":[83.8133187,23.7925875,84.590705,24.6428916]},"geometry":{"type":"Point","coordinates":[84.16888038037293,24.199754422886347]}},{"type":"Feature","id":"in-jharkhand-d-607","properties":{"id":"in-jharkhand-d-607","name":"Ramgarh","region":"in-jharkhand","level":"district","parent":"","source":"LGD via Bharatlas · 2024 snapshot","state_lgd":20,"district_lgd":607,"center":[85.564362471246,23.63417039818639],"bbox":[85.2036353,23.4221095,85.88802,23.9621764]},"geometry":{"type":"Point","coordinates":[85.564362471246,23.63417039818639]}},{"type":"Feature","id":"in-jharkhand-d-339","properties":{"id":"in-jharkhand-d-339","name":"Ranchi","region":"in-jharkhand","level":"district","parent":"","source":"LGD via Bharatlas · 2024 snapshot","state_lgd":20,"district_lgd":339,"center":[85.37527897051162,23.328675379767528],"bbox":[84.8685882,22.8829684,85.9027926,23.7171283]},"geometry":{"type":"Point","coordinates":[85.37527897051162,23.328675379767528]}},{"type":"Feature","id":"in-jharkhand-d-340","properties":{"id":"in-jharkhand-d-340","name":"Sahebganj","region":"in-jharkhand","level":"district","parent":"","source":"LGD via Bharatlas · 2024 snapshot","state_lgd":20,"district_lgd":340,"center":[87.67778260528007,25.01009446296632],"bbox":[87.4545166,24.7146983,87.9628253,25.3491809]},"geometry":{"type":"Point","coordinates":[87.67778260528007,25.01009446296632]}},{"type":"Feature","id":"in-jharkhand-d-341","properties":{"id":"in-jharkhand-d-341","name":"Saraikela Kharsawan","region":"in-jharkhand","level":"district","parent":"","source":"LGD via Bharatlas · 2024 snapshot","state_lgd":20,"district_lgd":341,"center":[85.950299749608,22.847375637652984],"bbox":[85.5132453,22.4851452,86.2482432,23.1610504]},"geometry":{"type":"Point","coordinates":[85.950299749608,22.847375637652984]}},{"type":"Feature","id":"in-jharkhand-d-342","properties":{"id":"in-jharkhand-d-342","name":"Simdega","region":"in-jharkhand","level":"district","parent":"","source":"LGD via Bharatlas · 2024 snapshot","state_lgd":20,"district_lgd":342,"center":[84.56423891003494,22.58180022392612],"bbox":[84.0028459,22.3410248,85.079945,22.837553]},"geometry":{"type":"Point","coordinates":[84.56423891003494,22.58180022392612]}},{"type":"Feature","id":"in-jharkhand-d-343","properties":{"id":"in-jharkhand-d-343","name":"West Singhbhum","region":"in-jharkhand","level":"district","parent":"","source":"LGD via Bharatlas · 2024 snapshot","state_lgd":20,"district_lgd":343,"center":[85.51810623284788,22.420670932176343],"bbox":[84.9833935,21.9701292,86.0473436,22.8864105]},"geometry":{"type":"Point","coordinates":[85.51810623284788,22.420670932176343]}}]}
