{"type":"FeatureCollection","features":[{"type":"Feature","id":"in-karnataka-d-524","properties":{"id":"in-karnataka-d-524","name":"Bagalkote","region":"in-karnataka","level":"district","parent":"","source":"LGD via Bharatlas · 2024 snapshot","state_lgd":29,"district_lgd":524,"center":[75.62483523327707,16.221444958314816],"bbox":[74.9862697,15.8127324,76.3322759,16.768133]},"geometry":{"type":"Point","coordinates":[75.62483523327707,16.221444958314816]}},{"type":"Feature","id":"in-karnataka-d-528","properties":{"id":"in-karnataka-d-528","name":"Ballari","region":"in-karnataka","level":"district","parent":"","source":"LGD via Bharatlas · 2024 snapshot","state_lgd":29,"district_lgd":528,"center":[76.80774413678452,15.26607003622134],"bbox":[76.3614188,14.8586397,77.1691336,15.8375092]},"geometry":{"type":"Point","coordinates":[76.80774413678452,15.26607003622134]}},{"type":"Feature","id":"in-karnataka-d-527","properties":{"id":"in-karnataka-d-527","name":"Belagavi","region":"in-karnataka","level":"district","parent":"","source":"LGD via Bharatlas · 2024 snapshot","state_lgd":29,"district_lgd":527,"center":[74.8238814750074,16.12167751442139],"bbox":[74.0880625,15.3584588,75.4578328,16.9569548]},"geometry":{"type":"Point","coordinates":[74.8238814750074,16.12167751442139]}},{"type":"Feature","id":"in-karnataka-d-526","properties":{"id":"in-karnataka-d-526","name":"Bengaluru Rural","region":"in-karnataka","level":"district","parent":"","source":"LGD via Bharatlas · 2024 snapshot","state_lgd":29,"district_lgd":526,"center":[77.57408077104056,13.227235347080311],"bbox":[77.1826567,12.8661104,77.9649866,13.4990683]},"geometry":{"type":"Point","coordinates":[77.57408077104056,13.227235347080311]}},{"type":"Feature","id":"in-karnataka-d-525","properties":{"id":"in-karnataka-d-525","name":"Bengaluru Urban","region":"in-karnataka","level":"district","parent":"","source":"LGD via Bharatlas · 2024 snapshot","state_lgd":29,"district_lgd":525,"center":[77.59370804514933,12.951774236789703],"bbox":[77.3256128,12.6574395,77.8360272,13.2330371]},"geometry":{"type":"Point","coordinates":[77.59370804514933,12.951774236789703]}},{"type":"Feature","id":"in-karnataka-d-529","properties":{"id":"in-karnataka-d-529","name":"Bidar","region":"in-karnataka","level":"district","parent":"","source":"LGD via Bharatlas · 2024 snapshot","state_lgd":29,"district_lgd":529,"center":[77.22499295119508,17.952312146745854],"bbox":[76.690669,17.5830795,77.6558552,18.4777265]},"geometry":{"type":"Point","coordinates":[77.22499295119508,17.952312146745854]}},{"type":"Feature","id":"in-karnataka-d-531","properties":{"id":"in-karnataka-d-531","name":"Chamarajanagara","region":"in-karnataka","level":"district","parent":"","source":"LGD via Bharatlas · 2024 snapshot","state_lgd":29,"district_lgd":531,"center":[77.09766628198855,11.95821568654399],"bbox":[76.4033752,11.5944715,77.776722,12.3141342]},"geometry":{"type":"Point","coordinates":[77.09766628198855,11.95821568654399]}},{"type":"Feature","id":"in-karnataka-d-630","properties":{"id":"in-karnataka-d-630","name":"Chikkaballapura","region":"in-karnataka","level":"district","parent":"","source":"LGD via Bharatlas · 2024 snapshot","state_lgd":29,"district_lgd":630,"center":[77.83527585214703,13.577996241140582],"bbox":[77.3598965,13.2195013,78.210386,13.960188]},"geometry":{"type":"Point","coordinates":[77.83527585214703,13.577996241140582]}},{"type":"Feature","id":"in-karnataka-d-532","properties":{"id":"in-karnataka-d-532","name":"Chikkamagaluru","region":"in-karnataka","level":"district","parent":"","source":"LGD via Bharatlas · 2024 snapshot","state_lgd":29,"district_lgd":532,"center":[75.69064259268809,13.454630653797004],"bbox":[75.0785253,12.9128001,76.3638653,13.8993959]},"geometry":{"type":"Point","coordinates":[75.69064259268809,13.454630653797004]}},{"type":"Feature","id":"in-karnataka-d-533","properties":{"id":"in-karnataka-d-533","name":"Chitradurga","region":"in-karnataka","level":"district","parent":"","source":"LGD via Bharatlas · 2024 snapshot","state_lgd":29,"district_lgd":533,"center":[76.51519136687028,14.16858157033439],"bbox":[76.0249578,13.5759715,77.0238435,15.0359991]},"geometry":{"type":"Point","coordinates":[76.51519136687028,14.16858157033439]}},{"type":"Feature","id":"in-karnataka-d-534","properties":{"id":"in-karnataka-d-534","name":"Dakshina Kannada","region":"in-karnataka","level":"district","parent":"","source":"LGD via Bharatlas · 2024 snapshot","state_lgd":29,"district_lgd":534,"center":[75.25090511747699,12.853122900731142],"bbox":[74.776332,12.460086,75.6706418,13.1851626]},"geometry":{"type":"Point","coordinates":[75.25090511747699,12.853122900731142]}},{"type":"Feature","id":"in-karnataka-d-535","properties":{"id":"in-karnataka-d-535","name":"Davangere","region":"in-karnataka","level":"district","parent":"","source":"LGD via Bharatlas · 2024 snapshot","state_lgd":29,"district_lgd":535,"center":[75.94510610449034,14.308381588818252],"bbox":[75.3987931,13.8062066,76.5336333,14.7053394]},"geometry":{"type":"Point","coordinates":[75.94510610449034,14.308381588818252]}},{"type":"Feature","id":"in-karnataka-d-536","properties":{"id":"in-karnataka-d-536","name":"Dharwad","region":"in-karnataka","level":"district","parent":"","source":"LGD via Bharatlas · 2024 snapshot","state_lgd":29,"district_lgd":536,"center":[75.15229934340822,15.390178619780086],"bbox":[74.7271305,15.0386945,75.5543658,15.7025376]},"geometry":{"type":"Point","coordinates":[75.15229934340822,15.390178619780086]}},{"type":"Feature","id":"in-karnataka-d-537","properties":{"id":"in-karnataka-d-537","name":"Gadag","region":"in-karnataka","level":"district","parent":"","source":"LGD via Bharatlas · 2024 snapshot","state_lgd":29,"district_lgd":537,"center":[75.66523137645518,15.431400674640475],"bbox":[75.2736218,14.94401,76.0450595,15.886972]},"geometry":{"type":"Point","coordinates":[75.66523137645518,15.431400674640475]}},{"type":"Feature","id":"in-karnataka-d-539","properties":{"id":"in-karnataka-d-539","name":"Hassan","region":"in-karnataka","level":"district","parent":"","source":"LGD via Bharatlas · 2024 snapshot","state_lgd":29,"district_lgd":539,"center":[76.10783032562243,12.99641730224939],"bbox":[75.554503,12.5124371,76.6337591,13.547941]},"geometry":{"type":"Point","coordinates":[76.10783032562243,12.99641730224939]}},{"type":"Feature","id":"in-karnataka-d-540","properties":{"id":"in-karnataka-d-540","name":"Haveri","region":"in-karnataka","level":"district","parent":"","source":"LGD via Bharatlas · 2024 snapshot","state_lgd":29,"district_lgd":540,"center":[75.41648064207862,14.738832689282827],"bbox":[75.0151274,14.2742413,75.82025,15.1617738]},"geometry":{"type":"Point","coordinates":[75.41648064207862,14.738832689282827]}},{"type":"Feature","id":"in-karnataka-d-538","properties":{"id":"in-karnataka-d-538","name":"Kalaburagi","region":"in-karnataka","level":"district","parent":"","source":"LGD via Bharatlas · 2024 snapshot","state_lgd":29,"district_lgd":538,"center":[76.86897859273385,17.260366869764724],"bbox":[76.0649862,16.7105235,77.6925187,17.7708537]},"geometry":{"type":"Point","coordinates":[76.86897859273385,17.260366869764724]}},{"type":"Feature","id":"in-karnataka-d-541","properties":{"id":"in-karnataka-d-541","name":"Kodagu","region":"in-karnataka","level":"district","parent":"","source":"LGD via Bharatlas · 2024 snapshot","state_lgd":29,"district_lgd":541,"center":[75.80128457719432,12.325007627938694],"bbox":[75.3656304,11.9313917,76.1892617,12.8342368]},"geometry":{"type":"Point","coordinates":[75.80128457719432,12.325007627938694]}},{"type":"Feature","id":"in-karnataka-d-542","properties":{"id":"in-karnataka-d-542","name":"Kolar","region":"in-karnataka","level":"district","parent":"","source":"LGD via Bharatlas · 2024 snapshot","state_lgd":29,"district_lgd":542,"center":[78.21787758236144,13.139686764671195],"bbox":[77.8395431,12.7606586,78.5877023,13.5985979]},"geometry":{"type":"Point","coordinates":[78.21787758236144,13.139686764671195]}},{"type":"Feature","id":"in-karnataka-d-543","properties":{"id":"in-karnataka-d-543","name":"Koppal","region":"in-karnataka","level":"district","parent":"","source":"LGD via Bharatlas · 2024 snapshot","state_lgd":29,"district_lgd":543,"center":[76.2215871972364,15.562168655907762],"bbox":[75.7735264,15.1376588,76.8126175,16.0118145]},"geometry":{"type":"Point","coordinates":[76.2215871972364,15.562168655907762]}},{"type":"Feature","id":"in-karnataka-d-544","properties":{"id":"in-karnataka-d-544","name":"Mandya","region":"in-karnataka","level":"district","parent":"","source":"LGD via Bharatlas · 2024 snapshot","state_lgd":29,"district_lgd":544,"center":[76.79730465672903,12.612296690318962],"bbox":[76.3295647,12.2179124,77.3338035,13.0553354]},"geometry":{"type":"Point","coordinates":[76.79730465672903,12.612296690318962]}},{"type":"Feature","id":"in-karnataka-d-545","properties":{"id":"in-karnataka-d-545","name":"Mysuru","region":"in-karnataka","level":"district","parent":"","source":"LGD via Bharatlas · 2024 snapshot","state_lgd":29,"district_lgd":545,"center":[76.44121664715301,12.210793324463163],"bbox":[75.9086798,11.7381878,77.134284,12.6556829]},"geometry":{"type":"Point","coordinates":[76.44121664715301,12.210793324463163]}},{"type":"Feature","id":"in-karnataka-d-546","properties":{"id":"in-karnataka-d-546","name":"Raichur","region":"in-karnataka","level":"district","parent":"","source":"LGD via Bharatlas · 2024 snapshot","state_lgd":29,"district_lgd":546,"center":[76.8917615580042,16.090678457821415],"bbox":[76.2341617,15.5474362,77.5978097,16.5620451]},"geometry":{"type":"Point","coordinates":[76.8917615580042,16.090678457821415]}},{"type":"Feature","id":"in-karnataka-d-631","properties":{"id":"in-karnataka-d-631","name":"Ramanagara","region":"in-karnataka","level":"district","parent":"","source":"LGD via Bharatlas · 2024 snapshot","state_lgd":29,"district_lgd":631,"center":[77.3353582262299,12.679146534909966],"bbox":[77.0680638,12.2432313,77.6348048,13.1969723]},"geometry":{"type":"Point","coordinates":[77.3353582262299,12.679146534909966]}},{"type":"Feature","id":"in-karnataka-d-547","properties":{"id":"in-karnataka-d-547","name":"Shivamogga","region":"in-karnataka","level":"district","parent":"","source":"LGD via Bharatlas · 2024 snapshot","state_lgd":29,"district_lgd":547,"center":[75.2203783302782,14.043205972405913],"bbox":[74.6252159,13.4568025,75.8787561,14.6551484]},"geometry":{"type":"Point","coordinates":[75.2203783302782,14.043205972405913]}},{"type":"Feature","id":"in-karnataka-d-548","properties":{"id":"in-karnataka-d-548","name":"Tumakuru","region":"in-karnataka","level":"district","parent":"","source":"LGD via Bharatlas · 2024 snapshot","state_lgd":29,"district_lgd":548,"center":[76.9014521771255,13.427265619107976],"bbox":[76.3462278,12.7455385,77.5170719,14.3421653]},"geometry":{"type":"Point","coordinates":[76.9014521771255,13.427265619107976]}},{"type":"Feature","id":"in-karnataka-d-549","properties":{"id":"in-karnataka-d-549","name":"Udupi","region":"in-karnataka","level":"district","parent":"","source":"LGD via Bharatlas · 2024 snapshot","state_lgd":29,"district_lgd":549,"center":[74.87195983321467,13.498278519875736],"bbox":[74.5819858,13.0715218,75.2057992,13.9821515]},"geometry":{"type":"Point","coordinates":[74.87195983321467,13.498278519875736]}},{"type":"Feature","id":"in-karnataka-d-550","properties":{"id":"in-karnataka-d-550","name":"Uttara Kannada","region":"in-karnataka","level":"district","parent":"","source":"LGD via Bharatlas · 2024 snapshot","state_lgd":29,"district_lgd":550,"center":[74.61945972434499,14.792198891419707],"bbox":[74.0539934,13.9252421,75.1029206,15.5249608]},"geometry":{"type":"Point","coordinates":[74.61945972434499,14.792198891419707]}},{"type":"Feature","id":"in-karnataka-d-738","properties":{"id":"in-karnataka-d-738","name":"Vijayanagar","region":"in-karnataka","level":"district","parent":"","source":"LGD via Bharatlas · 2024 snapshot","state_lgd":29,"district_lgd":738,"center":[76.18504919031916,14.893343394981239],"bbox":[75.6635721,14.5057067,76.7423985,15.3811062]},"geometry":{"type":"Point","coordinates":[76.18504919031916,14.893343394981239]}},{"type":"Feature","id":"in-karnataka-d-530","properties":{"id":"in-karnataka-d-530","name":"Vijayapura","region":"in-karnataka","level":"district","parent":"","source":"LGD via Bharatlas · 2024 snapshot","state_lgd":29,"district_lgd":530,"center":[75.95281977081797,16.794485225252306],"bbox":[75.3338017,16.1514032,76.4709774,17.4772144]},"geometry":{"type":"Point","coordinates":[75.95281977081797,16.794485225252306]}},{"type":"Feature","id":"in-karnataka-d-635","properties":{"id":"in-karnataka-d-635","name":"Yadgir","region":"in-karnataka","level":"district","parent":"","source":"LGD via Bharatlas · 2024 snapshot","state_lgd":29,"district_lgd":635,"center":[76.91250662240556,16.626886741464908],"bbox":[76.2913489,16.1937602,77.476494,16.9539887]},"geometry":{"type":"Point","coordinates":[76.91250662240556,16.626886741464908]}}]}
