{"type":"FeatureCollection","features":[{"type":"Feature","id":"in-kerala-d-554","properties":{"id":"in-kerala-d-554","name":"Alappuzha","region":"in-kerala","level":"district","parent":"","source":"LGD via Bharatlas · 2024 snapshot","state_lgd":32,"district_lgd":554,"center":[76.44704001420205,9.428386433669946],"bbox":[76.2771933,9.1097954,76.6906883,9.8913823]},"geometry":{"type":"Point","coordinates":[76.44704001420205,9.428386433669946]}},{"type":"Feature","id":"in-kerala-d-555","properties":{"id":"in-kerala-d-555","name":"Ernakulam","region":"in-kerala","level":"district","parent":"","source":"LGD via Bharatlas · 2024 snapshot","state_lgd":32,"district_lgd":555,"center":[76.54601107322478,10.084494049569708],"bbox":[76.1648369,9.7890437,77.0891324,10.3025381]},"geometry":{"type":"Point","coordinates":[76.54601107322478,10.084494049569708]}},{"type":"Feature","id":"in-kerala-d-556","properties":{"id":"in-kerala-d-556","name":"Idukki","region":"in-kerala","level":"district","parent":"","source":"LGD via Bharatlas · 2024 snapshot","state_lgd":32,"district_lgd":556,"center":[77.05684570031451,9.839669121250394],"bbox":[76.6270961,9.2728067,77.4123964,10.3584412]},"geometry":{"type":"Point","coordinates":[77.05684570031451,9.839669121250394]}},{"type":"Feature","id":"in-kerala-d-557","properties":{"id":"in-kerala-d-557","name":"Kannur","region":"in-kerala","level":"district","parent":"","source":"LGD via Bharatlas · 2024 snapshot","state_lgd":32,"district_lgd":557,"center":[75.52356361191632,12.000437475341197],"bbox":[75.1677988,11.675081,75.9396018,12.3007106]},"geometry":{"type":"Point","coordinates":[75.52356361191632,12.000437475341197]}},{"type":"Feature","id":"in-kerala-d-558","properties":{"id":"in-kerala-d-558","name":"Kasaragod","region":"in-kerala","level":"district","parent":"","source":"LGD via Bharatlas · 2024 snapshot","state_lgd":32,"district_lgd":558,"center":[75.15102042629768,12.462372001853353],"bbox":[74.8644983,12.0442061,75.432195,12.7955345]},"geometry":{"type":"Point","coordinates":[75.15102042629768,12.462372001853353]}},{"type":"Feature","id":"in-kerala-d-559","properties":{"id":"in-kerala-d-559","name":"Kollam","region":"in-kerala","level":"district","parent":"","source":"LGD via Bharatlas · 2024 snapshot","state_lgd":32,"district_lgd":559,"center":[76.87172882537816,8.96252642247385],"bbox":[76.4629065,8.7613677,77.2628164,9.1737942]},"geometry":{"type":"Point","coordinates":[76.87172882537816,8.96252642247385]}},{"type":"Feature","id":"in-kerala-d-560","properties":{"id":"in-kerala-d-560","name":"Kottayam","region":"in-kerala","level":"district","parent":"","source":"LGD via Bharatlas · 2024 snapshot","state_lgd":32,"district_lgd":560,"center":[76.65070078807983,9.637749399528944],"bbox":[76.3649725,9.4005682,76.9847782,9.8571724]},"geometry":{"type":"Point","coordinates":[76.65070078807983,9.637749399528944]}},{"type":"Feature","id":"in-kerala-d-561","properties":{"id":"in-kerala-d-561","name":"Kozhikode","region":"in-kerala","level":"district","parent":"","source":"LGD via Bharatlas · 2024 snapshot","state_lgd":32,"district_lgd":561,"center":[75.8333081411893,11.485647146540842],"bbox":[75.5362261,11.1238337,76.1460048,11.8058709]},"geometry":{"type":"Point","coordinates":[75.8333081411893,11.485647146540842]}},{"type":"Feature","id":"in-kerala-d-562","properties":{"id":"in-kerala-d-562","name":"Malappuram","region":"in-kerala","level":"district","parent":"","source":"LGD via Bharatlas · 2024 snapshot","state_lgd":32,"district_lgd":562,"center":[76.1543762484555,11.13332520139615],"bbox":[75.8250507,10.6853604,76.5499669,11.5287546]},"geometry":{"type":"Point","coordinates":[76.1543762484555,11.13332520139615]}},{"type":"Feature","id":"in-kerala-d-563","properties":{"id":"in-kerala-d-563","name":"Palakkad","region":"in-kerala","level":"district","parent":"","source":"LGD via Bharatlas · 2024 snapshot","state_lgd":32,"district_lgd":563,"center":[76.55639782927994,10.79564692037568],"bbox":[76.0272189,10.3341587,76.9075345,11.2396016]},"geometry":{"type":"Point","coordinates":[76.55639782927994,10.79564692037568]}},{"type":"Feature","id":"in-kerala-d-564","properties":{"id":"in-kerala-d-564","name":"Pathanamthitta","region":"in-kerala","level":"district","parent":"","source":"LGD via Bharatlas · 2024 snapshot","state_lgd":32,"district_lgd":564,"center":[76.92642732199137,9.284934744137288],"bbox":[76.4733555,9.0716007,77.2835204,9.4829871]},"geometry":{"type":"Point","coordinates":[76.92642732199137,9.284934744137288]}},{"type":"Feature","id":"in-kerala-d-565","properties":{"id":"in-kerala-d-565","name":"Thiruvananthapuram","region":"in-kerala","level":"district","parent":"","source":"LGD via Bharatlas · 2024 snapshot","state_lgd":32,"district_lgd":565,"center":[77.01221670832115,8.609468516645599],"bbox":[76.6729271,8.2930182,77.2838468,8.8625914]},"geometry":{"type":"Point","coordinates":[77.01221670832115,8.609468516645599]}},{"type":"Feature","id":"in-kerala-d-566","properties":{"id":"in-kerala-d-566","name":"Thrissur","region":"in-kerala","level":"district","parent":"","source":"LGD via Bharatlas · 2024 snapshot","state_lgd":32,"district_lgd":566,"center":[76.31542221565651,10.471718568738337],"bbox":[75.9561575,10.1746877,76.9012066,10.7829274]},"geometry":{"type":"Point","coordinates":[76.31542221565651,10.471718568738337]}},{"type":"Feature","id":"in-kerala-d-567","properties":{"id":"in-kerala-d-567","name":"Wayanad","region":"in-kerala","level":"district","parent":"","source":"LGD via Bharatlas · 2024 snapshot","state_lgd":32,"district_lgd":567,"center":[76.0977541888869,11.712508256868146],"bbox":[75.7720476,11.4516326,76.443901,11.9786551]},"geometry":{"type":"Point","coordinates":[76.0977541888869,11.712508256868146]}}]}
