{"type":"FeatureCollection","features":[{"type":"Feature","id":"in-kerala-t-5683","properties":{"id":"in-kerala-t-5683","name":"Adoor","region":"in-kerala","level":"tehsil","parent":"in-kerala-d-564","district":"Pathanamthitta","source":"LGD via Bharatlas · 2024 snapshot","state_lgd":32,"district_lgd":564,"subdistrict_lgd":5683,"center":[76.7379432731896,9.154513019602327],"bbox":[76.6328531,9.0721217,76.8520203,9.2420071]},"geometry":{"type":"Point","coordinates":[76.7379432731896,9.154513019602327]}},{"type":"Feature","id":"in-kerala-t-5651","properties":{"id":"in-kerala-t-5651","name":"Alathur","region":"in-kerala","level":"tehsil","parent":"in-kerala-d-563","district":"Palakkad","source":"LGD via Bharatlas · 2024 snapshot","state_lgd":32,"district_lgd":563,"subdistrict_lgd":5651,"center":[76.52555396128764,10.627474056646047],"bbox":[76.401174,10.4340953,76.655085,10.7894167]},"geometry":{"type":"Point","coordinates":[76.52555396128764,10.627474056646047]}},{"type":"Feature","id":"in-kerala-t-5658","properties":{"id":"in-kerala-t-5658","name":"Aluva","region":"in-kerala","level":"tehsil","parent":"in-kerala-d-555","district":"Ernakulam","source":"LGD via Bharatlas · 2024 snapshot","state_lgd":32,"district_lgd":555,"subdistrict_lgd":5658,"center":[76.47627188106364,10.204729883520162],"bbox":[76.3106406,10.0353002,76.6876464,10.3025381]},"geometry":{"type":"Point","coordinates":[76.47627188106364,10.204729883520162]}},{"type":"Feature","id":"in-kerala-t-5674","properties":{"id":"in-kerala-t-5674","name":"Ambalappuzha","region":"in-kerala","level":"tehsil","parent":"in-kerala-d-554","district":"Alappuzha","source":"LGD via Bharatlas · 2024 snapshot","state_lgd":32,"district_lgd":554,"subdistrict_lgd":5674,"center":[76.35472145022547,9.480999991029664],"bbox":[76.2993803,9.3040084,76.4122912,9.6015333]},"geometry":{"type":"Point","coordinates":[76.35472145022547,9.480999991029664]}},{"type":"Feature","id":"in-kerala-t-5671","properties":{"id":"in-kerala-t-5671","name":"Changanassery","region":"in-kerala","level":"tehsil","parent":"in-kerala-d-560","district":"Kottayam","source":"LGD via Bharatlas · 2024 snapshot","state_lgd":32,"district_lgd":560,"subdistrict_lgd":5671,"center":[76.62024413667505,9.493279754978214],"bbox":[76.4900137,9.4005682,76.7520698,9.5790663]},"geometry":{"type":"Point","coordinates":[76.62024413667505,9.493279754978214]}},{"type":"Feature","id":"in-kerala-t-5653","properties":{"id":"in-kerala-t-5653","name":"Chavakkad","region":"in-kerala","level":"tehsil","parent":"in-kerala-d-566","district":"Thrissur","source":"LGD via Bharatlas · 2024 snapshot","state_lgd":32,"district_lgd":566,"subdistrict_lgd":5653,"center":[76.05618215483777,10.551549710231612],"bbox":[75.9561575,10.3518984,76.1348766,10.6958667]},"geometry":{"type":"Point","coordinates":[76.05618215483777,10.551549710231612]}},{"type":"Feature","id":"in-kerala-t-5677","properties":{"id":"in-kerala-t-5677","name":"Chengannur","region":"in-kerala","level":"tehsil","parent":"in-kerala-d-554","district":"Alappuzha","source":"LGD via Bharatlas · 2024 snapshot","state_lgd":32,"district_lgd":554,"subdistrict_lgd":5677,"center":[76.5957119579736,9.295208714561971],"bbox":[76.4913838,9.2265998,76.6776174,9.3560933]},"geometry":{"type":"Point","coordinates":[76.5957119579736,9.295208714561971]}},{"type":"Feature","id":"in-kerala-t-5673","properties":{"id":"in-kerala-t-5673","name":"Cherthala","region":"in-kerala","level":"tehsil","parent":"in-kerala-d-554","district":"Alappuzha","source":"LGD via Bharatlas · 2024 snapshot","state_lgd":32,"district_lgd":554,"subdistrict_lgd":5673,"center":[76.33610075542946,9.730841949140123],"bbox":[76.2771933,9.5891177,76.4026427,9.8913823]},"geometry":{"type":"Point","coordinates":[76.33610075542946,9.730841949140123]}},{"type":"Feature","id":"in-kerala-t-5689","properties":{"id":"in-kerala-t-5689","name":"Chirayinkeezhu","region":"in-kerala","level":"tehsil","parent":"in-kerala-d-565","district":"Thiruvananthapuram","source":"LGD via Bharatlas · 2024 snapshot","state_lgd":32,"district_lgd":565,"subdistrict_lgd":5689,"center":[76.84002227771082,8.722329479296246],"bbox":[76.7349338,8.6182348,76.9335739,8.8186119]},"geometry":{"type":"Point","coordinates":[76.84002227771082,8.722329479296246]}},{"type":"Feature","id":"in-kerala-t-5650","properties":{"id":"in-kerala-t-5650","name":"Chittur","region":"in-kerala","level":"tehsil","parent":"in-kerala-d-563","district":"Palakkad","source":"LGD via Bharatlas · 2024 snapshot","state_lgd":32,"district_lgd":563,"subdistrict_lgd":5650,"center":[76.73294329197788,10.55759341286208],"bbox":[76.5392795,10.3341587,76.9075345,10.8185529]},"geometry":{"type":"Point","coordinates":[76.73294329197788,10.55759341286208]}},{"type":"Feature","id":"in-kerala-t-5664","properties":{"id":"in-kerala-t-5664","name":"Devikulam","region":"in-kerala","level":"tehsil","parent":"in-kerala-d-556","district":"Idukki","source":"LGD via Bharatlas · 2024 snapshot","state_lgd":32,"district_lgd":556,"subdistrict_lgd":5664,"center":[77.08021447273282,10.136383410477322],"bbox":[76.7695047,9.9513546,77.2949556,10.3584412]},"geometry":{"type":"Point","coordinates":[77.08021447273282,10.136383410477322]}},{"type":"Feature","id":"in-kerala-t-5641","properties":{"id":"in-kerala-t-5641","name":"Ernad","region":"in-kerala","level":"tehsil","parent":"in-kerala-d-562","district":"Malappuram","source":"LGD via Bharatlas · 2024 snapshot","state_lgd":32,"district_lgd":562,"subdistrict_lgd":5641,"center":[76.11460413746748,11.160334613251525],"bbox":[75.9838196,11.027349,76.2824946,11.3441221]},"geometry":{"type":"Point","coordinates":[76.11460413746748,11.160334613251525]}},{"type":"Feature","id":"in-kerala-t-5631","properties":{"id":"in-kerala-t-5631","name":"Hosdurg","region":"in-kerala","level":"tehsil","parent":"in-kerala-d-558","district":"Kasaragod","source":"LGD via Bharatlas · 2024 snapshot","state_lgd":32,"district_lgd":558,"subdistrict_lgd":5631,"center":[75.13881224168146,12.297602298281108],"bbox":[75.0028014,12.0442061,75.2914933,12.4787659]},"geometry":{"type":"Point","coordinates":[75.13881224168146,12.297602298281108]}},{"type":"Feature","id":"in-kerala-t-5942","properties":{"id":"in-kerala-t-5942","name":"Idukki","region":"in-kerala","level":"tehsil","parent":"in-kerala-d-556","district":"Idukki","source":"LGD via Bharatlas · 2024 snapshot","state_lgd":32,"district_lgd":556,"subdistrict_lgd":5942,"center":[76.99948453857985,9.834168846307639],"bbox":[76.8368098,9.6635217,77.1634185,10.024476]},"geometry":{"type":"Point","coordinates":[76.99948453857985,9.834168846307639]}},{"type":"Feature","id":"in-kerala-t-5937","properties":{"id":"in-kerala-t-5937","name":"Iritty","region":"in-kerala","level":"tehsil","parent":"in-kerala-d-557","district":"Kannur","source":"LGD via Bharatlas · 2024 snapshot","state_lgd":32,"district_lgd":557,"subdistrict_lgd":5937,"center":[75.73273605267106,11.964560467081911],"bbox":[75.5382107,11.8399812,75.9396018,12.1106593]},"geometry":{"type":"Point","coordinates":[75.73273605267106,11.964560467081911]}},{"type":"Feature","id":"in-kerala-t-5661","properties":{"id":"in-kerala-t-5661","name":"Kanayannur","region":"in-kerala","level":"tehsil","parent":"in-kerala-d-555","district":"Ernakulam","source":"LGD via Bharatlas · 2024 snapshot","state_lgd":32,"district_lgd":555,"subdistrict_lgd":5661,"center":[76.34303819260757,9.954310978508627],"bbox":[76.2374184,9.8223372,76.4698411,10.0784236]},"geometry":{"type":"Point","coordinates":[76.34303819260757,9.954310978508627]}},{"type":"Feature","id":"in-kerala-t-5672","properties":{"id":"in-kerala-t-5672","name":"Kanjirappally","region":"in-kerala","level":"tehsil","parent":"in-kerala-d-560","district":"Kottayam","source":"LGD via Bharatlas · 2024 snapshot","state_lgd":32,"district_lgd":560,"subdistrict_lgd":5672,"center":[76.83541786037561,9.53642274776259],"bbox":[76.7068309,9.4155615,76.9847947,9.6700512]},"geometry":{"type":"Point","coordinates":[76.83541786037561,9.53642274776259]}},{"type":"Feature","id":"in-kerala-t-5633","properties":{"id":"in-kerala-t-5633","name":"Kannur","region":"in-kerala","level":"tehsil","parent":"in-kerala-d-557","district":"Kannur","source":"LGD via Bharatlas · 2024 snapshot","state_lgd":32,"district_lgd":557,"subdistrict_lgd":5633,"center":[75.39400381702183,11.90758773710372],"bbox":[75.2556378,11.7774637,75.5179323,12.0252457]},"geometry":{"type":"Point","coordinates":[75.39400381702183,11.90758773710372]}},{"type":"Feature","id":"in-kerala-t-5676","properties":{"id":"in-kerala-t-5676","name":"Karthikappally","region":"in-kerala","level":"tehsil","parent":"in-kerala-d-554","district":"Alappuzha","source":"LGD via Bharatlas · 2024 snapshot","state_lgd":32,"district_lgd":554,"subdistrict_lgd":5676,"center":[76.46345288187159,9.241112655509026],"bbox":[76.3844982,9.1252073,76.5438875,9.3539867]},"geometry":{"type":"Point","coordinates":[76.46345288187159,9.241112655509026]}},{"type":"Feature","id":"in-kerala-t-5684","properties":{"id":"in-kerala-t-5684","name":"Karunagappally","region":"in-kerala","level":"tehsil","parent":"in-kerala-d-559","district":"Kollam","source":"LGD via Bharatlas · 2024 snapshot","state_lgd":32,"district_lgd":559,"subdistrict_lgd":5684,"center":[76.54248775489522,9.05039393440164],"bbox":[76.4629065,8.9327269,76.6052238,9.1375513]},"geometry":{"type":"Point","coordinates":[76.54248775489522,9.05039393440164]}},{"type":"Feature","id":"in-kerala-t-5630","properties":{"id":"in-kerala-t-5630","name":"Kasaragod","region":"in-kerala","level":"tehsil","parent":"in-kerala-d-558","district":"Kasaragod","source":"LGD via Bharatlas · 2024 snapshot","state_lgd":32,"district_lgd":558,"subdistrict_lgd":5630,"center":[75.1337274280131,12.528678864147624],"bbox":[74.9513547,12.4190473,75.3280449,12.6343807]},"geometry":{"type":"Point","coordinates":[75.1337274280131,12.528678864147624]}},{"type":"Feature","id":"in-kerala-t-5945","properties":{"id":"in-kerala-t-5945","name":"Kattakkada","region":"in-kerala","level":"tehsil","parent":"in-kerala-d-565","district":"Thiruvananthapuram","source":"LGD via Bharatlas · 2024 snapshot","state_lgd":32,"district_lgd":565,"subdistrict_lgd":5945,"center":[77.1511025159861,8.535815293311957],"bbox":[77.0022782,8.4317477,77.2838468,8.6754017]},"geometry":{"type":"Point","coordinates":[77.1511025159861,8.535815293311957]}},{"type":"Feature","id":"in-kerala-t-5660","properties":{"id":"in-kerala-t-5660","name":"Kochi","region":"in-kerala","level":"tehsil","parent":"in-kerala-d-555","district":"Ernakulam","source":"LGD via Bharatlas · 2024 snapshot","state_lgd":32,"district_lgd":555,"subdistrict_lgd":5660,"center":[76.2433283186508,9.987044301887554],"bbox":[76.1648369,9.7890437,76.3030484,10.1861884]},"geometry":{"type":"Point","coordinates":[76.2433283186508,9.987044301887554]}},{"type":"Feature","id":"in-kerala-t-5655","properties":{"id":"in-kerala-t-5655","name":"Kodungallur","region":"in-kerala","level":"tehsil","parent":"in-kerala-d-566","district":"Thrissur","source":"LGD via Bharatlas · 2024 snapshot","state_lgd":32,"district_lgd":566,"subdistrict_lgd":5655,"center":[76.21689395955102,10.330674462207229],"bbox":[76.1092193,10.1798024,76.3629812,10.4756953]},"geometry":{"type":"Point","coordinates":[76.21689395955102,10.330674462207229]}},{"type":"Feature","id":"in-kerala-t-5688","properties":{"id":"in-kerala-t-5688","name":"Kollam","region":"in-kerala","level":"tehsil","parent":"in-kerala-d-559","district":"Kollam","source":"LGD via Bharatlas · 2024 snapshot","state_lgd":32,"district_lgd":559,"subdistrict_lgd":5688,"center":[76.66366665194151,8.897866000624772],"bbox":[76.5353807,8.776048,76.7944216,9.028542]},"geometry":{"type":"Point","coordinates":[76.66366665194151,8.897866000624772]}},{"type":"Feature","id":"in-kerala-t-5941","properties":{"id":"in-kerala-t-5941","name":"Kondotty","region":"in-kerala","level":"tehsil","parent":"in-kerala-d-562","district":"Malappuram","source":"LGD via Bharatlas · 2024 snapshot","state_lgd":32,"district_lgd":562,"subdistrict_lgd":5941,"center":[75.95601285403689,11.177887570851471],"bbox":[75.8522098,11.0835484,76.0469077,11.2691573]},"geometry":{"type":"Point","coordinates":[75.95601285403689,11.177887570851471]}},{"type":"Feature","id":"in-kerala-t-5943","properties":{"id":"in-kerala-t-5943","name":"Konni","region":"in-kerala","level":"tehsil","parent":"in-kerala-d-564","district":"Pathanamthitta","source":"LGD via Bharatlas · 2024 snapshot","state_lgd":32,"district_lgd":564,"subdistrict_lgd":5943,"center":[77.05702928597653,9.250884652766395],"bbox":[76.7205158,9.0716007,77.2835204,9.4726625]},"geometry":{"type":"Point","coordinates":[77.05702928597653,9.250884652766395]}},{"type":"Feature","id":"in-kerala-t-5663","properties":{"id":"in-kerala-t-5663","name":"Kothamangalam","region":"in-kerala","level":"tehsil","parent":"in-kerala-d-555","district":"Ernakulam","source":"LGD via Bharatlas · 2024 snapshot","state_lgd":32,"district_lgd":555,"subdistrict_lgd":5663,"center":[76.77471316513883,10.144840389049671],"bbox":[76.556598,9.9809328,77.0891324,10.2860639]},"geometry":{"type":"Point","coordinates":[76.77471316513883,10.144840389049671]}},{"type":"Feature","id":"in-kerala-t-5687","properties":{"id":"in-kerala-t-5687","name":"Kottarakkara","region":"in-kerala","level":"tehsil","parent":"in-kerala-d-559","district":"Kollam","source":"LGD via Bharatlas · 2024 snapshot","state_lgd":32,"district_lgd":559,"subdistrict_lgd":5687,"center":[76.82849210610046,8.923565391517757],"bbox":[76.6717802,8.7613677,77.032596,9.0884219]},"geometry":{"type":"Point","coordinates":[76.82849210610046,8.923565391517757]}},{"type":"Feature","id":"in-kerala-t-5670","properties":{"id":"in-kerala-t-5670","name":"Kottayam","region":"in-kerala","level":"tehsil","parent":"in-kerala-d-560","district":"Kottayam","source":"LGD via Bharatlas · 2024 snapshot","state_lgd":32,"district_lgd":560,"subdistrict_lgd":5670,"center":[76.5499206094252,9.603386713912737],"bbox":[76.392199,9.4931265,76.7261078,9.7080066]},"geometry":{"type":"Point","coordinates":[76.5499206094252,9.603386713912737]}},{"type":"Feature","id":"in-kerala-t-5639","properties":{"id":"in-kerala-t-5639","name":"Koyilandi","region":"in-kerala","level":"tehsil","parent":"in-kerala-d-561","district":"Kozhikode","source":"LGD via Bharatlas · 2024 snapshot","state_lgd":32,"district_lgd":561,"subdistrict_lgd":5639,"center":[75.7814364123401,11.527053687334066],"bbox":[75.5902059,11.3513892,76.0522192,11.678413]},"geometry":{"type":"Point","coordinates":[75.7814364123401,11.527053687334066]}},{"type":"Feature","id":"in-kerala-t-5682","properties":{"id":"in-kerala-t-5682","name":"Kozhenchery","region":"in-kerala","level":"tehsil","parent":"in-kerala-d-564","district":"Pathanamthitta","source":"LGD via Bharatlas · 2024 snapshot","state_lgd":32,"district_lgd":564,"subdistrict_lgd":5682,"center":[76.72703015201328,9.283692351942934],"bbox":[76.6353656,9.2232317,76.8304998,9.3593515]},"geometry":{"type":"Point","coordinates":[76.72703015201328,9.283692351942934]}},{"type":"Feature","id":"in-kerala-t-5640","properties":{"id":"in-kerala-t-5640","name":"Kozhikode","region":"in-kerala","level":"tehsil","parent":"in-kerala-d-561","district":"Kozhikode","source":"LGD via Bharatlas · 2024 snapshot","state_lgd":32,"district_lgd":561,"subdistrict_lgd":5640,"center":[75.87078961669879,11.293801402102618],"bbox":[75.7322439,11.1238337,76.0725704,11.4461266]},"geometry":{"type":"Point","coordinates":[75.87078961669879,11.293801402102618]}},{"type":"Feature","id":"in-kerala-t-6598","properties":{"id":"in-kerala-t-6598","name":"Kunnamkulam","region":"in-kerala","level":"tehsil","parent":"in-kerala-d-566","district":"Thrissur","source":"LGD via Bharatlas · 2024 snapshot","state_lgd":32,"district_lgd":566,"subdistrict_lgd":6598,"center":[76.10447832293109,10.662629015294],"bbox":[76.0073242,10.5778245,76.1932209,10.7302932]},"geometry":{"type":"Point","coordinates":[76.10447832293109,10.662629015294]}},{"type":"Feature","id":"in-kerala-t-5657","properties":{"id":"in-kerala-t-5657","name":"Kunnathunad","region":"in-kerala","level":"tehsil","parent":"in-kerala-d-555","district":"Ernakulam","source":"LGD via Bharatlas · 2024 snapshot","state_lgd":32,"district_lgd":555,"subdistrict_lgd":5657,"center":[76.47860873185144,10.063957832575564],"bbox":[76.3574006,9.9079467,76.6415851,10.198284]},"geometry":{"type":"Point","coordinates":[76.47860873185144,10.063957832575564]}},{"type":"Feature","id":"in-kerala-t-5685","properties":{"id":"in-kerala-t-5685","name":"Kunnathur","region":"in-kerala","level":"tehsil","parent":"in-kerala-d-559","district":"Kollam","source":"LGD via Bharatlas · 2024 snapshot","state_lgd":32,"district_lgd":559,"subdistrict_lgd":5685,"center":[76.63358763488695,9.065892730376333],"bbox":[76.5602876,8.9985356,76.7241958,9.1408359]},"geometry":{"type":"Point","coordinates":[76.63358763488695,9.065892730376333]}},{"type":"Feature","id":"in-kerala-t-5675","properties":{"id":"in-kerala-t-5675","name":"Kuttanad","region":"in-kerala","level":"tehsil","parent":"in-kerala-d-554","district":"Alappuzha","source":"LGD via Bharatlas · 2024 snapshot","state_lgd":32,"district_lgd":554,"subdistrict_lgd":5675,"center":[76.44024838596822,9.448416146109826],"bbox":[76.3610372,9.3401612,76.5237652,9.5633437]},"geometry":{"type":"Point","coordinates":[76.44024838596822,9.448416146109826]}},{"type":"Feature","id":"in-kerala-t-5680","properties":{"id":"in-kerala-t-5680","name":"Mallappally","region":"in-kerala","level":"tehsil","parent":"in-kerala-d-564","district":"Pathanamthitta","source":"LGD via Bharatlas · 2024 snapshot","state_lgd":32,"district_lgd":564,"subdistrict_lgd":5680,"center":[76.68503893338136,9.430438149978364],"bbox":[76.5905958,9.3733625,76.7940074,9.4829871]},"geometry":{"type":"Point","coordinates":[76.68503893338136,9.430438149978364]}},{"type":"Feature","id":"in-kerala-t-5635","properties":{"id":"in-kerala-t-5635","name":"Mananthavady","region":"in-kerala","level":"tehsil","parent":"in-kerala-d-567","district":"Wayanad","source":"LGD via Bharatlas · 2024 snapshot","state_lgd":32,"district_lgd":567,"subdistrict_lgd":5635,"center":[75.97059072800118,11.813760550706382],"bbox":[75.7720476,11.6807094,76.1217007,11.9786551]},"geometry":{"type":"Point","coordinates":[75.97059072800118,11.813760550706382]}},{"type":"Feature","id":"in-kerala-t-5932","properties":{"id":"in-kerala-t-5932","name":"Manjeswaram","region":"in-kerala","level":"tehsil","parent":"in-kerala-d-558","district":"Kasaragod","source":"LGD via Bharatlas · 2024 snapshot","state_lgd":32,"district_lgd":558,"subdistrict_lgd":5932,"center":[74.99373587509515,12.675663394002644],"bbox":[74.8643371,12.5562473,75.1620335,12.7955345]},"geometry":{"type":"Point","coordinates":[74.99373587509515,12.675663394002644]}},{"type":"Feature","id":"in-kerala-t-5648","properties":{"id":"in-kerala-t-5648","name":"Mannarkad","region":"in-kerala","level":"tehsil","parent":"in-kerala-d-563","district":"Palakkad","source":"LGD via Bharatlas · 2024 snapshot","state_lgd":32,"district_lgd":563,"subdistrict_lgd":5648,"center":[76.54001323226133,11.063085558192805],"bbox":[76.2841491,10.8775946,76.8008596,11.2396016]},"geometry":{"type":"Point","coordinates":[76.54001323226133,11.063085558192805]}},{"type":"Feature","id":"in-kerala-t-5678","properties":{"id":"in-kerala-t-5678","name":"Mavelikkara","region":"in-kerala","level":"tehsil","parent":"in-kerala-d-554","district":"Alappuzha","source":"LGD via Bharatlas · 2024 snapshot","state_lgd":32,"district_lgd":554,"subdistrict_lgd":5678,"center":[76.57776482530002,9.201758477709268],"bbox":[76.4890862,9.1097954,76.6906883,9.3096002]},"geometry":{"type":"Point","coordinates":[76.57776482530002,9.201758477709268]}},{"type":"Feature","id":"in-kerala-t-5668","properties":{"id":"in-kerala-t-5668","name":"Meenachil","region":"in-kerala","level":"tehsil","parent":"in-kerala-d-560","district":"Kottayam","source":"LGD via Bharatlas · 2024 snapshot","state_lgd":32,"district_lgd":560,"subdistrict_lgd":5668,"center":[76.70944540516106,9.728961266523655],"bbox":[76.513718,9.595841,76.9117908,9.8571724]},"geometry":{"type":"Point","coordinates":[76.70944540516106,9.728961266523655]}},{"type":"Feature","id":"in-kerala-t-5656","properties":{"id":"in-kerala-t-5656","name":"Mukundapuram","region":"in-kerala","level":"tehsil","parent":"in-kerala-d-566","district":"Thrissur","source":"LGD via Bharatlas · 2024 snapshot","state_lgd":32,"district_lgd":566,"subdistrict_lgd":5656,"center":[76.4965993352925,10.343799045479358],"bbox":[76.2448721,10.1746877,76.9012066,10.4863397]},"geometry":{"type":"Point","coordinates":[76.4965993352925,10.343799045479358]}},{"type":"Feature","id":"in-kerala-t-5662","properties":{"id":"in-kerala-t-5662","name":"Muvattupuzha","region":"in-kerala","level":"tehsil","parent":"in-kerala-d-555","district":"Ernakulam","source":"LGD via Bharatlas · 2024 snapshot","state_lgd":32,"district_lgd":555,"subdistrict_lgd":5662,"center":[76.57057650952893,9.92961007981902],"bbox":[76.4222104,9.7998617,76.7247504,10.0584051]},"geometry":{"type":"Point","coordinates":[76.57057650952893,9.92961007981902]}},{"type":"Feature","id":"in-kerala-t-5690","properties":{"id":"in-kerala-t-5690","name":"Nedumangad","region":"in-kerala","level":"tehsil","parent":"in-kerala-d-565","district":"Thiruvananthapuram","source":"LGD via Bharatlas · 2024 snapshot","state_lgd":32,"district_lgd":565,"subdistrict_lgd":5690,"center":[77.04349931153583,8.686045138976406],"bbox":[76.8700355,8.508975,77.2072561,8.8464544]},"geometry":{"type":"Point","coordinates":[77.04349931153583,8.686045138976406]}},{"type":"Feature","id":"in-kerala-t-5692","properties":{"id":"in-kerala-t-5692","name":"Neyyattinkara","region":"in-kerala","level":"tehsil","parent":"in-kerala-d-565","district":"Thiruvananthapuram","source":"LGD via Bharatlas · 2024 snapshot","state_lgd":32,"district_lgd":565,"subdistrict_lgd":5692,"center":[77.10032096308022,8.391927817036942],"bbox":[76.9696826,8.2930182,77.2284635,8.4785733]},"geometry":{"type":"Point","coordinates":[77.10032096308022,8.391927817036942]}},{"type":"Feature","id":"in-kerala-t-5642","properties":{"id":"in-kerala-t-5642","name":"Nilambur","region":"in-kerala","level":"tehsil","parent":"in-kerala-d-562","district":"Malappuram","source":"LGD via Bharatlas · 2024 snapshot","state_lgd":32,"district_lgd":562,"subdistrict_lgd":5642,"center":[76.30587842882521,11.305169143528834],"bbox":[76.0920622,11.0765315,76.5499669,11.5287546]},"geometry":{"type":"Point","coordinates":[76.30587842882521,11.305169143528834]}},{"type":"Feature","id":"in-kerala-t-5647","properties":{"id":"in-kerala-t-5647","name":"Ottappalam","region":"in-kerala","level":"tehsil","parent":"in-kerala-d-563","district":"Palakkad","source":"LGD via Bharatlas · 2024 snapshot","state_lgd":32,"district_lgd":563,"subdistrict_lgd":5647,"center":[76.3725431829366,10.845423330583351],"bbox":[76.2443423,10.743075,76.5218729,10.9687543]},"geometry":{"type":"Point","coordinates":[76.3725431829366,10.845423330583351]}},{"type":"Feature","id":"in-kerala-t-5649","properties":{"id":"in-kerala-t-5649","name":"Palakkad","region":"in-kerala","level":"tehsil","parent":"in-kerala-d-563","district":"Palakkad","source":"LGD via Bharatlas · 2024 snapshot","state_lgd":32,"district_lgd":563,"subdistrict_lgd":5649,"center":[76.65840034943608,10.818855005718609],"bbox":[76.446326,10.6830173,76.8538902,10.9304965]},"geometry":{"type":"Point","coordinates":[76.65840034943608,10.818855005718609]}},{"type":"Feature","id":"in-kerala-t-5659","properties":{"id":"in-kerala-t-5659","name":"Paravur","region":"in-kerala","level":"tehsil","parent":"in-kerala-d-555","district":"Ernakulam","source":"LGD via Bharatlas · 2024 snapshot","state_lgd":32,"district_lgd":555,"subdistrict_lgd":5659,"center":[76.26535930513141,10.131735657686784],"bbox":[76.1749049,10.0430792,76.3468614,10.2070199]},"geometry":{"type":"Point","coordinates":[76.26535930513141,10.131735657686784]}},{"type":"Feature","id":"in-kerala-t-5686","properties":{"id":"in-kerala-t-5686","name":"Pathanapuram","region":"in-kerala","level":"tehsil","parent":"in-kerala-d-559","district":"Kollam","source":"LGD via Bharatlas · 2024 snapshot","state_lgd":32,"district_lgd":559,"subdistrict_lgd":5686,"center":[76.90132506758046,9.082740449852421],"bbox":[76.7656185,9.005515,77.0467777,9.1737942]},"geometry":{"type":"Point","coordinates":[76.90132506758046,9.082740449852421]}},{"type":"Feature","id":"in-kerala-t-5940","properties":{"id":"in-kerala-t-5940","name":"Pattambi","region":"in-kerala","level":"tehsil","parent":"in-kerala-d-563","district":"Palakkad","source":"LGD via Bharatlas · 2024 snapshot","state_lgd":32,"district_lgd":563,"subdistrict_lgd":5940,"center":[76.15257263231929,10.810449602112184],"bbox":[76.0272189,10.7060361,76.2760856,10.9151548]},"geometry":{"type":"Point","coordinates":[76.15257263231929,10.810449602112184]}},{"type":"Feature","id":"in-kerala-t-6599","properties":{"id":"in-kerala-t-6599","name":"Payyannur","region":"in-kerala","level":"tehsil","parent":"in-kerala-d-557","district":"Kannur","source":"LGD via Bharatlas · 2024 snapshot","state_lgd":32,"district_lgd":557,"subdistrict_lgd":6599,"center":[75.29619357535061,12.155767161163974],"bbox":[75.1677988,12.0005032,75.4927226,12.3007106]},"geometry":{"type":"Point","coordinates":[75.29619357535061,12.155767161163974]}},{"type":"Feature","id":"in-kerala-t-5667","properties":{"id":"in-kerala-t-5667","name":"Peerumade","region":"in-kerala","level":"tehsil","parent":"in-kerala-d-556","district":"Idukki","source":"LGD via Bharatlas · 2024 snapshot","state_lgd":32,"district_lgd":556,"subdistrict_lgd":5667,"center":[77.13198399762933,9.534465003765076],"bbox":[76.8671421,9.2728067,77.4123964,9.7512189]},"geometry":{"type":"Point","coordinates":[77.13198399762933,9.534465003765076]}},{"type":"Feature","id":"in-kerala-t-5643","properties":{"id":"in-kerala-t-5643","name":"Perinthalmanna","region":"in-kerala","level":"tehsil","parent":"in-kerala-d-562","district":"Malappuram","source":"LGD via Bharatlas · 2024 snapshot","state_lgd":32,"district_lgd":562,"subdistrict_lgd":5643,"center":[76.21009462330152,10.992092936896386],"bbox":[76.0464487,10.8855451,76.3711416,11.0963406]},"geometry":{"type":"Point","coordinates":[76.21009462330152,10.992092936896386]}},{"type":"Feature","id":"in-kerala-t-5646","properties":{"id":"in-kerala-t-5646","name":"Ponnani","region":"in-kerala","level":"tehsil","parent":"in-kerala-d-562","district":"Malappuram","source":"LGD via Bharatlas · 2024 snapshot","state_lgd":32,"district_lgd":562,"subdistrict_lgd":5646,"center":[75.99067899122954,10.767968576517703],"bbox":[75.9129761,10.6853604,76.069482,10.86378]},"geometry":{"type":"Point","coordinates":[75.99067899122954,10.767968576517703]}},{"type":"Feature","id":"in-kerala-t-5947","properties":{"id":"in-kerala-t-5947","name":"Punalur","region":"in-kerala","level":"tehsil","parent":"in-kerala-d-559","district":"Kollam","source":"LGD via Bharatlas · 2024 snapshot","state_lgd":32,"district_lgd":559,"subdistrict_lgd":5947,"center":[77.06526271540473,8.947157679369703],"bbox":[76.8434299,8.765342,77.2628164,9.1277102]},"geometry":{"type":"Point","coordinates":[77.06526271540473,8.947157679369703]}},{"type":"Feature","id":"in-kerala-t-5681","properties":{"id":"in-kerala-t-5681","name":"Ranni","region":"in-kerala","level":"tehsil","parent":"in-kerala-d-564","district":"Pathanamthitta","source":"LGD via Bharatlas · 2024 snapshot","state_lgd":32,"district_lgd":564,"subdistrict_lgd":5681,"center":[76.90161402213398,9.391752692001086],"bbox":[76.7087329,9.3033025,77.1629482,9.469333]},"geometry":{"type":"Point","coordinates":[76.90161402213398,9.391752692001086]}},{"type":"Feature","id":"in-kerala-t-5636","properties":{"id":"in-kerala-t-5636","name":"Sulthanbathery","region":"in-kerala","level":"tehsil","parent":"in-kerala-d-567","district":"Wayanad","source":"LGD via Bharatlas · 2024 snapshot","state_lgd":32,"district_lgd":567,"subdistrict_lgd":5636,"center":[76.24573288045309,11.707447951355984],"bbox":[76.0749653,11.5490036,76.444057,11.8719554]},"geometry":{"type":"Point","coordinates":[76.24573288045309,11.707447951355984]}},{"type":"Feature","id":"in-kerala-t-5652","properties":{"id":"in-kerala-t-5652","name":"Talappilly","region":"in-kerala","level":"tehsil","parent":"in-kerala-d-566","district":"Thrissur","source":"LGD via Bharatlas · 2024 snapshot","state_lgd":32,"district_lgd":566,"subdistrict_lgd":5652,"center":[76.31411764048286,10.684564210926537],"bbox":[76.1612517,10.5907087,76.479682,10.7829274]},"geometry":{"type":"Point","coordinates":[76.31411764048286,10.684564210926537]}},{"type":"Feature","id":"in-kerala-t-5632","properties":{"id":"in-kerala-t-5632","name":"Taliparamba","region":"in-kerala","level":"tehsil","parent":"in-kerala-d-557","district":"Kannur","source":"LGD via Bharatlas · 2024 snapshot","state_lgd":32,"district_lgd":557,"subdistrict_lgd":5632,"center":[75.46829817547062,12.094941053287256],"bbox":[75.2970159,11.9197509,75.6529055,12.2798267]},"geometry":{"type":"Point","coordinates":[75.46829817547062,12.094941053287256]}},{"type":"Feature","id":"in-kerala-t-5634","properties":{"id":"in-kerala-t-5634","name":"Thalassery","region":"in-kerala","level":"tehsil","parent":"in-kerala-d-557","district":"Kannur","source":"LGD via Bharatlas · 2024 snapshot","state_lgd":32,"district_lgd":557,"subdistrict_lgd":5634,"center":[75.59923594071542,11.827397739443738],"bbox":[75.4528084,11.675081,75.8053465,11.9949614]},"geometry":{"type":"Point","coordinates":[75.59923594071542,11.827397739443738]}},{"type":"Feature","id":"in-kerala-t-5938","properties":{"id":"in-kerala-t-5938","name":"Thamarassery","region":"in-kerala","level":"tehsil","parent":"in-kerala-d-561","district":"Kozhikode","source":"LGD via Bharatlas · 2024 snapshot","state_lgd":32,"district_lgd":561,"subdistrict_lgd":5938,"center":[75.92185094845983,11.446425872820972],"bbox":[75.8028294,11.2940534,76.1460048,11.5553697]},"geometry":{"type":"Point","coordinates":[75.92185094845983,11.446425872820972]}},{"type":"Feature","id":"in-kerala-t-5679","properties":{"id":"in-kerala-t-5679","name":"Thiruvalla","region":"in-kerala","level":"tehsil","parent":"in-kerala-d-564","district":"Pathanamthitta","source":"LGD via Bharatlas · 2024 snapshot","state_lgd":32,"district_lgd":564,"subdistrict_lgd":5679,"center":[76.59386735333236,9.370391030710083],"bbox":[76.4733555,9.3220855,76.7187574,9.4361754]},"geometry":{"type":"Point","coordinates":[76.59386735333236,9.370391030710083]}},{"type":"Feature","id":"in-kerala-t-5691","properties":{"id":"in-kerala-t-5691","name":"Thiruvananthapuram","region":"in-kerala","level":"tehsil","parent":"in-kerala-d-565","district":"Thiruvananthapuram","source":"LGD via Bharatlas · 2024 snapshot","state_lgd":32,"district_lgd":565,"subdistrict_lgd":5691,"center":[76.9249653603265,8.531159232092026],"bbox":[76.7978285,8.3872254,77.0451888,8.6742496]},"geometry":{"type":"Point","coordinates":[76.9249653603265,8.531159232092026]}},{"type":"Feature","id":"in-kerala-t-5666","properties":{"id":"in-kerala-t-5666","name":"Thodupuzha","region":"in-kerala","level":"tehsil","parent":"in-kerala-d-556","district":"Idukki","source":"LGD via Bharatlas · 2024 snapshot","state_lgd":32,"district_lgd":556,"subdistrict_lgd":5666,"center":[76.78434072292931,9.890602786730971],"bbox":[76.6270961,9.730486,76.9004624,10.0359643]},"geometry":{"type":"Point","coordinates":[76.78434072292931,9.890602786730971]}},{"type":"Feature","id":"in-kerala-t-5654","properties":{"id":"in-kerala-t-5654","name":"Thrissur","region":"in-kerala","level":"tehsil","parent":"in-kerala-d-566","district":"Thrissur","source":"LGD via Bharatlas · 2024 snapshot","state_lgd":32,"district_lgd":566,"subdistrict_lgd":5654,"center":[76.25683054281156,10.519899983798256],"bbox":[76.0830753,10.3854015,76.478538,10.6290947]},"geometry":{"type":"Point","coordinates":[76.25683054281156,10.519899983798256]}},{"type":"Feature","id":"in-kerala-t-5644","properties":{"id":"in-kerala-t-5644","name":"Tirur","region":"in-kerala","level":"tehsil","parent":"in-kerala-d-562","district":"Malappuram","source":"LGD via Bharatlas · 2024 snapshot","state_lgd":32,"district_lgd":562,"subdistrict_lgd":5644,"center":[75.98858914688913,10.917176447218996],"bbox":[75.8574888,10.7845488,76.1315314,11.0402046]},"geometry":{"type":"Point","coordinates":[75.98858914688913,10.917176447218996]}},{"type":"Feature","id":"in-kerala-t-5645","properties":{"id":"in-kerala-t-5645","name":"Tirurangadi","region":"in-kerala","level":"tehsil","parent":"in-kerala-d-562","district":"Malappuram","source":"LGD via Bharatlas · 2024 snapshot","state_lgd":32,"district_lgd":562,"subdistrict_lgd":5645,"center":[75.92911281823626,11.0606134240837],"bbox":[75.8250507,10.9690932,76.0454881,11.1441175]},"geometry":{"type":"Point","coordinates":[75.92911281823626,11.0606134240837]}},{"type":"Feature","id":"in-kerala-t-5665","properties":{"id":"in-kerala-t-5665","name":"Udumbanchola","region":"in-kerala","level":"tehsil","parent":"in-kerala-d-556","district":"Idukki","source":"LGD via Bharatlas · 2024 snapshot","state_lgd":32,"district_lgd":556,"subdistrict_lgd":5665,"center":[77.16251863628325,9.870472863618813],"bbox":[77.0566255,9.6363353,77.2728772,10.0427211]},"geometry":{"type":"Point","coordinates":[77.16251863628325,9.870472863618813]}},{"type":"Feature","id":"in-kerala-t-5669","properties":{"id":"in-kerala-t-5669","name":"Vaikom","region":"in-kerala","level":"tehsil","parent":"in-kerala-d-560","district":"Kottayam","source":"LGD via Bharatlas · 2024 snapshot","state_lgd":32,"district_lgd":560,"subdistrict_lgd":5669,"center":[76.45599088924088,9.757846365496256],"bbox":[76.3649725,9.6461977,76.5667543,9.8515489]},"geometry":{"type":"Point","coordinates":[76.45599088924088,9.757846365496256]}},{"type":"Feature","id":"in-kerala-t-5946","properties":{"id":"in-kerala-t-5946","name":"Varkala","region":"in-kerala","level":"tehsil","parent":"in-kerala-d-565","district":"Thiruvananthapuram","source":"LGD via Bharatlas · 2024 snapshot","state_lgd":32,"district_lgd":565,"subdistrict_lgd":5946,"center":[76.76692743706433,8.77148943456401],"bbox":[76.6729271,8.6951542,76.8520356,8.8625914]},"geometry":{"type":"Point","coordinates":[76.76692743706433,8.77148943456401]}},{"type":"Feature","id":"in-kerala-t-5638","properties":{"id":"in-kerala-t-5638","name":"Vatakara","region":"in-kerala","level":"tehsil","parent":"in-kerala-d-561","district":"Kozhikode","source":"LGD via Bharatlas · 2024 snapshot","state_lgd":32,"district_lgd":561,"subdistrict_lgd":5638,"center":[75.70319646511466,11.674681062699642],"bbox":[75.5362261,11.5275121,75.915462,11.8058709]},"geometry":{"type":"Point","coordinates":[75.70319646511466,11.674681062699642]}},{"type":"Feature","id":"in-kerala-t-5933","properties":{"id":"in-kerala-t-5933","name":"Vellarikkundu","region":"in-kerala","level":"tehsil","parent":"in-kerala-d-558","district":"Kasaragod","source":"LGD via Bharatlas · 2024 snapshot","state_lgd":32,"district_lgd":558,"subdistrict_lgd":5933,"center":[75.29194176650603,12.371861327889091],"bbox":[75.1315096,12.2617404,75.432195,12.5037376]},"geometry":{"type":"Point","coordinates":[75.29194176650603,12.371861327889091]}},{"type":"Feature","id":"in-kerala-t-5637","properties":{"id":"in-kerala-t-5637","name":"Vythiri","region":"in-kerala","level":"tehsil","parent":"in-kerala-d-567","district":"Wayanad","source":"LGD via Bharatlas · 2024 snapshot","state_lgd":32,"district_lgd":567,"subdistrict_lgd":5637,"center":[76.06554791184718,11.596980916792047],"bbox":[75.8970014,11.4516326,76.2515055,11.7418058]},"geometry":{"type":"Point","coordinates":[76.06554791184718,11.596980916792047]}}]}
