{"type":"FeatureCollection","features":[{"type":"Feature","id":"in-ladakh-d-6","properties":{"id":"in-ladakh-d-6","name":"Kargil","region":"in-ladakh","level":"district","parent":"","source":"LGD via Bharatlas · 2024 snapshot","state_lgd":37,"district_lgd":6,"center":[76.49464258521418,33.90284602108311],"bbox":[75.3759617,32.8634708,77.5615372,34.7518299]},"geometry":{"type":"Point","coordinates":[76.49464258521418,33.90284602108311]}},{"type":"Feature","id":"in-ladakh-d-9","properties":{"id":"in-ladakh-d-9","name":"Leh Ladakh","region":"in-ladakh","level":"district","parent":"","source":"LGD via Bharatlas · 2024 snapshot","state_lgd":37,"district_lgd":9,"center":[76.82131475360502,35.04389337654334],"bbox":[72.5127625,32.3356936,80.3450836,37.0883418]},"geometry":{"type":"Point","coordinates":[76.82131475360502,35.04389337654334]}}]}
