{"type":"FeatureCollection","features":[{"type":"Feature","id":"in-lakshadweep-d-553","properties":{"id":"in-lakshadweep-d-553","name":"Lakshadweep District","region":"in-lakshadweep","level":"district","parent":"","source":"LGD via Bharatlas · 2024 snapshot","state_lgd":31,"district_lgd":553,"center":[73.67706572558774,10.812627965876981],"bbox":[72.1640278,8.2652027,73.7009189,11.7049757]},"geometry":{"type":"MultiPolygon","coordinates":[[[[73.013203,8.3032184],[73.0132347,8.3032997],[73.0132528,8.3035077],[73.013162,8.3035981],[73.0130803,8.3036207],[73.0129351,8.3035799],[73.0128534,8.3034759],[73.0128626,8.3033403],[73.0130396,8.3031867],[73.0131167,8.3031867],[73.013203,8.3032184]]],[[[73.0527339,8.273496],[73.0533826,8.2745449],[73.0537864,8.2751734],[73.0542354,8.2756708],[73.0562182,8.2774703],[73.0595486,8.2806807],[73.060624,8.2816032],[73.0643855,8.2850305],[73.0652112,8.2861563],[73.0655151,8.2869023],[73.0656648,8.2877295],[73.0655646,8.2892033],[73.0653876,8.2897819],[73.065088,8.2905594],[73.064788,8.2925078],[73.0648105,8.2937555],[73.0648375,8.294958],[73.0651594,8.2968341],[73.0653861,8.2981316],[73.0653133,8.2988097],[73.0652361,8.2995602],[73.0653856,8.3011379],[73.0658119,8.3024354],[73.0661384,8.303986],[73.0682932,8.3095921],[73.0692459,8.3114638],[73.0727305,8.317599],[73.07401,8.3199454],[73.0748131,8.3217719],[73.075589,8.3230197],[73.0767915,8.3243716],[73.0772952,8.3247468],[73.0776946,8.325095],[73.0776945,8.3252984],[73.0776446,8.3254973],[73.0774721,8.3254973],[73.0772452,8.3252984],[73.0765191,8.3246201],[73.0754164,8.3234718],[73.0741596,8.3218486],[73.0735833,8.3208223],[73.0724853,8.3184533],[73.0705842,8.3150579],[73.0690779,8.3125081],[73.0678756,8.3103333],[73.0676216,8.3093072],[73.0664693,8.3064589],[73.0653668,8.304013],[73.0650675,8.3031902],[73.0645415,8.3007219],[73.0643148,8.2991487],[73.0641381,8.2975709],[73.063739,8.2964722],[73.0628633,8.2950752],[73.0611891,8.2931266],[73.0593607,8.2907799],[73.0585849,8.2891794],[73.057428,8.2874026],[73.0564027,8.2855805],[73.0550237,8.2832295],[73.0535489,8.2820629],[73.051616,8.2805526],[73.0490616,8.2785313],[73.0479544,8.2777444],[73.0475097,8.2773284],[73.046988,8.2766684],[73.0459536,8.2759267],[73.0438436,8.2747417],[73.0419513,8.2740271],[73.0395282,8.2733845],[73.0386525,8.2731945],[73.0370595,8.2734517],[73.0362018,8.2735374],[73.0335606,8.2734011],[73.032939,8.273306],[73.032399,8.2731703],[73.0284149,8.2721249],[73.0274574,8.2720298],[73.0245258,8.2721284],[73.0226743,8.2722274],[73.0217485,8.2723311],[73.0209316,8.2726111],[73.0197652,8.2732843],[73.0193293,8.2736731],[73.0191069,8.2740527],[73.018258,8.275273],[73.0180582,8.2755713],[73.0180445,8.2757838],[73.0180943,8.2759601],[73.0182713,8.276046],[73.0185254,8.276001],[73.018934,8.2756394],[73.0198873,8.2747401],[73.020432,8.2741436],[73.0210358,8.2734475],[73.0212537,8.2732939],[73.0214124,8.2732939],[73.0215123,8.2733978],[73.0215122,8.2735878],[73.0213987,8.2738228],[73.0206494,8.2753596],[73.0203454,8.2756489],[73.0200275,8.2759426],[73.0197144,8.2760691],[73.0183572,8.2768779],[73.0180623,8.2771084],[73.0178216,8.2772304],[73.0175766,8.2772846],[73.0173452,8.2772483],[73.0171501,8.2770765],[73.0170049,8.2768639],[73.0169869,8.2766334],[73.0170551,8.2763034],[73.0172867,8.2756343],[73.0177909,8.2740387],[73.0181361,8.2727776],[73.0181183,8.2717107],[73.0182182,8.2714123],[73.0188355,8.27087],[73.019235,8.2705447],[73.0200611,8.2700205],[73.0207146,8.2696952],[73.0223167,8.2690176],[73.0238461,8.2683942],[73.0269277,8.267622],[73.0310168,8.2662714],[73.0352463,8.265626],[73.0373519,8.2654999],[73.0419898,8.2652027],[73.0437459,8.2654517],[73.04562,8.2658635],[73.0466998,8.2664153],[73.0478524,8.2674372],[73.0496579,8.2695895],[73.0502567,8.2707379],[73.0512367,8.271936],[73.0527339,8.273496]]],[[[72.2832271,10.0422138],[72.2836147,10.0423585],[72.2841346,10.042422],[72.2842121,10.0424401],[72.2856529,10.043566],[72.286287,10.0441816],[72.2867333,10.0450851],[72.2871982,10.045795],[72.2876176,10.0463556],[72.2879641,10.0466993],[72.2882102,10.0473096],[72.2883834,10.0478701],[72.2886794,10.0490455],[72.2887022,10.0492398],[72.2886014,10.0508264],[72.288975,10.052074],[72.2897362,10.0537107],[72.289809,10.0542757],[72.2895126,10.0541988],[72.2891204,10.0539681],[72.2880541,10.0509664],[72.2879492,10.050894],[72.2875571,10.0505775],[72.287051,10.0500756],[72.2869142,10.0498721],[72.2866773,10.0494472],[72.2862395,10.048995],[72.2855237,10.0484298],[72.2847851,10.0474441],[72.2839648,10.0458889],[72.283664,10.0448809],[72.2835457,10.0444694],[72.2833953,10.0439948],[72.2831309,10.0435427],[72.2827389,10.0429414],[72.2826022,10.0426475],[72.2825931,10.0424577],[72.2826935,10.0422723],[72.2829397,10.0421549],[72.2832271,10.0422138]]],[[[73.6300314,10.0693368],[73.6304875,10.0693956],[73.6308477,10.0696307],[73.6309253,10.0697843],[73.6307064,10.0699878],[73.6303141,10.0699696],[73.6300632,10.0699379],[73.6298626,10.0698793],[73.6297531,10.069816],[73.6295935,10.069721],[73.6295798,10.069504],[73.6297213,10.0693052],[73.6300314,10.0693368]]],[[[73.6324167,10.070372],[73.6323848,10.0707155],[73.6323255,10.0709913],[73.6321978,10.0710861],[73.6320427,10.0709911],[73.6319569,10.0709386],[73.6316049,10.0705301],[73.631541,10.0701233],[73.6316688,10.0699064],[73.6321066,10.0699064],[73.6324167,10.070372]]],[[[73.6336652,10.0726366],[73.6339799,10.072944],[73.633948,10.0733192],[73.6338643,10.0734162],[73.6336027,10.0734682],[73.6334281,10.0734682],[73.6330641,10.0734537],[73.6328013,10.0732754],[73.6328534,10.0728219],[73.6330723,10.07251],[73.6336652,10.0726366]]],[[[73.630156,10.074281],[73.6303247,10.0744495],[73.6304086,10.0746177],[73.6304642,10.0748278],[73.6304213,10.0749535],[73.6303225,10.074967],[73.6301955,10.0749245],[73.6300266,10.0748259],[73.6298159,10.0746292],[73.629746,10.0744611],[73.6297369,10.0743484],[73.6297325,10.0742932],[73.6297895,10.0741675],[73.6298603,10.0741399],[73.6299731,10.0741263],[73.630156,10.074281]]],[[[73.6272263,10.0748379],[73.6272583,10.0749599],[73.6276322,10.0751137],[73.627728,10.0752718],[73.6275091,10.0753939],[73.6272583,10.0754572],[73.6268797,10.0753623],[73.6265057,10.0750548],[73.62563,10.0742457],[73.6253472,10.0739383],[73.625443,10.0735948],[73.625817,10.0732242],[73.6263506,10.0732875],[73.6270986,10.0736264],[73.6276323,10.0742774],[73.6279743,10.074743],[73.6277554,10.0749283],[73.6273495,10.0747429],[73.6272263,10.0748379]]],[[[73.6469342,10.0735358],[73.646843,10.0745303],[73.6467793,10.0762029],[73.6465285,10.0776312],[73.6466243,10.0783725],[73.6467794,10.0792133],[73.6468752,10.0805919],[73.6469985,10.0824181],[73.6472494,10.0835345],[73.6475915,10.0846827],[73.6480933,10.0861111],[73.6484355,10.0883712],[73.6485451,10.0898492],[73.6488279,10.0912731],[73.6489512,10.0925434],[73.649421,10.0948395],[73.6504201,10.0977958],[73.6507349,10.0994366],[73.6508582,10.1008966],[73.6508901,10.1015475],[73.6506074,10.1029715],[73.6503884,10.1030664],[73.6502652,10.1023205],[73.6502013,10.1011136],[73.6500781,10.0998434],[73.6497039,10.0979179],[73.6493573,10.0965844],[73.6491383,10.0960194],[73.6483901,10.0942519],[73.6479203,10.0932304],[73.6476693,10.0921772],[73.6475462,10.0905635],[73.6473591,10.0895419],[73.6464878,10.0872638],[73.6456439,10.0854015],[73.6450509,10.0837291],[73.6447727,10.0823007],[73.6443347,10.0808451],[73.6439607,10.0799457],[73.6436459,10.0789783],[73.6434589,10.0781105],[73.6433038,10.0773963],[73.6419583,10.074978],[73.6413334,10.0742637],[73.6402068,10.0728988],[73.6396595,10.0722478],[73.6389114,10.0718771],[73.6380358,10.0716286],[73.6371282,10.0716602],[73.6364121,10.0719992],[73.6357873,10.0723427],[73.6348203,10.0726818],[73.6343824,10.0726818],[73.6341954,10.0723744],[73.6343825,10.0719721],[73.6345695,10.0716285],[73.6350302,10.0708014],[73.63581,10.0695944],[73.6366264,10.0685412],[73.6371555,10.0673931],[73.6380311,10.0654042],[73.6389387,10.0629543],[73.6392168,10.0621496],[73.6392169,10.0617157],[73.6387197,10.0609698],[73.6386879,10.0602556],[73.6388748,10.0596363],[73.6394677,10.0590487],[73.6403753,10.0583345],[73.6412783,10.0581175],[73.6425917,10.0580541],[73.6438413,10.0581174],[73.644749,10.0582394],[73.6453419,10.0586146],[73.6460306,10.0592338],[73.6464365,10.0597898],[73.6466829,10.0604452],[73.6469019,10.0616205],[73.6469019,10.0631077],[73.6470296,10.064319],[73.6471209,10.0652502],[73.6471528,10.0666741],[73.647121,10.0688167],[73.6471211,10.071461],[73.6469342,10.0735358]]],[[[72.3373058,10.1053056],[72.3375566,10.1060334],[72.3375566,10.1064447],[72.3367081,10.107308],[72.3363841,10.1076017],[72.335928,10.1075113],[72.3359737,10.1071496],[72.3364756,10.1060106],[72.3361108,10.1047584],[72.3352399,10.1025751],[72.3343644,10.1014856],[72.334182,10.1009386],[72.3344375,10.1008708],[72.3348479,10.1012777],[72.3355821,10.1021684],[72.3362708,10.103511],[72.3366401,10.1043291],[72.3373058,10.1053056]]],[[[73.6517117,10.10972],[73.6518348,10.1100139],[73.6518029,10.1103077],[73.6516934,10.1104614],[73.6515383,10.1106151],[73.6513056,10.1106329],[73.6511642,10.1104479],[73.6511323,10.1101676],[73.6512555,10.1098421],[73.6514927,10.1096703],[73.6517117,10.10972]]],[[[72.3315909,10.1312508],[72.3314538,10.1315853],[72.3313398,10.1319966],[72.3312575,10.1326701],[72.3311068,10.1337911],[72.3310155,10.134094],[72.3308422,10.1342973],[72.3304225,10.1345957],[72.3299754,10.1350792],[72.3295691,10.1359018],[72.329373,10.1364759],[72.3292816,10.1369324],[72.329131,10.1373347],[72.3289576,10.1376646],[72.328702,10.1381347],[72.3284466,10.1383426],[72.3281727,10.1386047],[72.3279218,10.1389437],[72.3278351,10.1391335],[72.3278396,10.1393279],[72.3278533,10.1395538],[72.3278579,10.1396488],[72.3278532,10.1397573],[72.3278259,10.1398341],[72.3277939,10.1398703],[72.3276754,10.139911],[72.3275476,10.1398929],[72.3273606,10.1398205],[72.3271827,10.1396848],[72.3271508,10.1396486],[72.3270185,10.1394136],[72.3268772,10.1390293],[72.3269001,10.1385186],[72.3269092,10.1383197],[72.3270097,10.1378858],[72.327247,10.1370044],[72.3275026,10.1359422],[72.3275388,10.1355613],[72.3275483,10.1354539],[72.3276124,10.1342562],[72.3276125,10.1338357],[72.3275806,10.1336233],[72.3275305,10.1334063],[72.3272888,10.1328095],[72.3271201,10.1325203],[72.3269284,10.1323485],[72.3266913,10.1321404],[72.3265316,10.131919],[72.3264907,10.1317246],[72.3265159,10.1313471],[72.3265272,10.1311776],[72.3266231,10.1309517],[72.3267874,10.1307754],[72.3270976,10.1306127],[72.3277316,10.1305315],[72.3282106,10.1305677],[72.32853,10.1306492],[72.328936,10.1307894],[72.3292461,10.1308888],[72.3296429,10.1309522],[72.3303227,10.1308167],[72.3307972,10.1304958],[72.3313721,10.1300032],[72.3315774,10.1296643],[72.331655,10.129506],[72.3318375,10.1291038],[72.3320884,10.1290315],[72.3323074,10.1290541],[72.3324717,10.1291355],[72.3325764,10.1292711],[72.3325993,10.1294429],[72.3319376,10.1307582],[72.3318326,10.1309435],[72.3315909,10.1312508]]],[[[73.6595382,10.155315],[73.6594744,10.1560246],[73.6593193,10.1564269],[73.6588175,10.1566123],[73.6582564,10.156522],[73.6575036,10.1561514],[73.6571294,10.1558079],[73.6569105,10.1549716],[73.6569423,10.1542304],[73.65707,10.1537782],[73.6573164,10.1535929],[73.6575992,10.1537783],[73.6576313,10.1542438],[73.6578183,10.1544608],[73.6582242,10.1537466],[73.658539,10.152942],[73.6585069,10.1519159],[73.658694,10.1509846],[73.6591318,10.1496466],[73.6595378,10.1488104],[73.6601307,10.1472283],[73.6607874,10.1457681],[73.6611934,10.1444347],[73.6614122,10.1432549],[73.6615672,10.1417677],[73.6614119,10.1398738],[73.6612887,10.1384092],[73.6611014,10.1370757],[73.6607867,10.1360859],[73.6604124,10.1348428],[73.6601614,10.133758],[73.6600655,10.1326732],[73.6600062,10.1316516],[73.6596594,10.1310278],[73.6591302,10.1306256],[73.6591302,10.1304718],[73.659194,10.1303453],[73.6596594,10.1303769],[73.6600655,10.1305939],[73.6605673,10.1309961],[73.6608181,10.131742],[73.6611924,10.1333239],[73.6616623,10.134567],[73.6620365,10.1355253],[73.6626297,10.1375773],[73.6630086,10.139625],[73.6633509,10.1408364],[73.6633829,10.1422603],[73.6631639,10.1431282],[73.6626942,10.1446199],[73.6621652,10.1461748],[73.6619144,10.1467308],[73.6611298,10.1480328],[73.6607558,10.149086],[73.6603818,10.1505099],[73.6601949,10.1517801],[73.6600399,10.1528966],[73.6596613,10.1543522],[73.6595382,10.155315]]],[[[72.6433832,10.5794349],[72.6424923,10.5797512],[72.6415285,10.5801445],[72.6409072,10.5803616],[72.64056,10.580461],[72.640327,10.580461],[72.6399661,10.5804474],[72.6398565,10.5803526],[72.6398473,10.5801175],[72.6399752,10.5794304],[72.6398382,10.5788203],[72.6395732,10.5780789],[72.6391758,10.5765195],[72.6388971,10.5754347],[72.6385864,10.5748154],[72.6384813,10.5746618],[72.6381022,10.5740786],[72.6376088,10.5732063],[72.637321,10.5724515],[72.6370515,10.5716876],[72.6365261,10.5706479],[72.6362475,10.5702999],[72.6358455,10.5696942],[72.6353658,10.5688987],[72.6342283,10.5667969],[72.6328991,10.564695],[72.6322733,10.5638135],[72.6320631,10.5634791],[72.6315652,10.5626428],[72.631145,10.5618429],[72.6304644,10.5608665],[72.6298797,10.5600799],[72.6290985,10.5590312],[72.6283312,10.5577973],[72.6273765,10.5563599],[72.6266639,10.5553655],[72.6262025,10.5547235],[72.6259468,10.5543484],[72.6254534,10.5533675],[72.6249419,10.552328],[72.6248002,10.5520295],[72.6243983,10.5513696],[72.6241105,10.5509672],[72.6239553,10.5507729],[72.6234802,10.5501808],[72.6229457,10.549557],[72.6226078,10.5491999],[72.6225118,10.549123],[72.6221693,10.5490823],[72.62195,10.5490688],[72.6216988,10.5490959],[72.6214202,10.5492044],[72.6212237,10.5491411],[72.6201503,10.5487207],[72.6184283,10.5479251],[72.6176746,10.5476086],[72.6174417,10.5473917],[72.617026,10.546908],[72.6167338,10.5465463],[72.6158066,10.5453846],[72.6157106,10.5451451],[72.6156741,10.5447879],[72.6157107,10.5444625],[72.6157701,10.5440873],[72.6159528,10.5437981],[72.6161857,10.5434817],[72.6164416,10.5432784],[72.6166837,10.5431698],[72.6170034,10.5431337],[72.6173185,10.543179],[72.6176018,10.5432784],[72.6179535,10.5434456],[72.6185519,10.5438435],[72.6193329,10.5443994],[72.619543,10.5445712],[72.6198079,10.5448244],[72.6201505,10.5451633],[72.6204793,10.545525],[72.6218816,10.5471071],[72.6223338,10.5475908],[72.6227357,10.5480474],[72.6229459,10.5483999],[72.6231286,10.5488474],[72.6235442,10.5494124],[72.6242019,10.5499684],[72.62475,10.5503798],[72.625312,10.5507776],[72.6274222,10.5523369],[72.6286327,10.5533179],[72.6299253,10.554222],[72.6313003,10.5552978],[72.6336847,10.5571689],[72.6346028,10.5579194],[72.6354937,10.5585432],[72.6370103,10.5593432],[72.6376361,10.5595511],[72.6381294,10.559655],[72.6385268,10.5597183],[72.6393262,10.5600257],[72.6398652,10.5603692],[72.6407012,10.5608212],[72.641633,10.5613002],[72.6424782,10.5615669],[72.64288,10.5616392],[72.6433689,10.561698],[72.6440815,10.5617477],[72.6451778,10.5621635],[72.6458859,10.5624346],[72.646562,10.5628595],[72.6484989,10.5642652],[72.6489283,10.5646493],[72.6492024,10.5650336],[72.6493806,10.5655535],[72.6494857,10.5661274],[72.6495496,10.5665613],[72.6496365,10.5670631],[72.6499151,10.5679897],[72.6502487,10.5689344],[72.650541,10.5698067],[72.6506324,10.5703717],[72.6505229,10.5711311],[72.6502809,10.5723154],[72.650089,10.5732239],[72.6495911,10.5744309],[72.6490385,10.5756377],[72.6483762,10.5766639],[72.6476681,10.5775588],[72.646316,10.5791726],[72.645914,10.5794845],[72.6455988,10.5795206],[72.6448359,10.5794393],[72.6441278,10.5793625],[72.6439268,10.5793037],[72.6433832,10.5794349]]],[[[72.1680008,10.8160492],[72.1680694,10.8162346],[72.1680695,10.8162978],[72.1679872,10.8163566],[72.1678272,10.816316],[72.1664739,10.8159273],[72.1659207,10.8158009],[72.1651205,10.8153445],[72.1647182,10.8150281],[72.1643753,10.8147389],[72.1641375,10.8145219],[72.1640278,10.8142326],[72.1641146,10.8140427],[72.1642152,10.8139252],[72.164398,10.8138258],[72.1646495,10.8138077],[72.1666428,10.8138164],[72.1672279,10.8138255],[72.1674977,10.8138345],[72.1677675,10.8138571],[72.1678795,10.813869],[72.1679367,10.8138751],[72.1681377,10.8139339],[72.1682384,10.8140152],[72.1683206,10.8141328],[72.1682612,10.814291],[72.1681515,10.814413],[72.1679687,10.8145622],[72.1678179,10.8147069],[72.1677401,10.8148289],[72.1676578,10.8150866],[72.1677402,10.8155024],[72.1679003,10.8158685],[72.1680008,10.8160492]]],[[[73.6682859,10.8184745],[73.6672481,10.8186464],[73.6655885,10.8186691],[73.6645736,10.818606],[73.664057,10.8184524],[73.6628043,10.8184525],[73.6621139,10.8183486],[73.6610761,10.8181363],[73.6605778,10.8180052],[73.6598644,10.8174719],[73.6593935,10.8168753],[73.6590689,10.8162561],[73.6588082,10.8155736],[73.6587213,10.8150177],[73.6587029,10.8143713],[73.6587485,10.8132186],[73.6589816,10.8120751],[73.6594387,10.8106874],[73.6604305,10.8087437],[73.6616603,10.8076181],[73.66289,10.8067637],[73.6650249,10.8060584],[73.6665381,10.8057373],[73.6679186,10.8054795],[73.6688695,10.8053121],[73.6696649,10.8052036],[73.6709176,10.8050768],[73.6722341,10.8050089],[73.6738937,10.8049906],[73.6749544,10.8050763],[73.6765087,10.8052886],[73.6773728,10.8056093],[73.6791192,10.8061425],[73.6803308,10.8064406],[73.6825481,10.8070188],[73.6834122,10.8072944],[73.6850535,10.8080851],[73.6871888,10.8089616],[73.6894565,10.8100912],[73.6921127,10.8110309],[73.6929266,10.8111935],[73.6937724,10.811469],[73.6948515,10.811835],[73.6956698,10.8120697],[73.6972883,10.8124536],[73.6983261,10.8125619],[73.6990166,10.8128103],[73.6995011,10.8131628],[73.7001048,10.8136961],[73.7004387,10.8140033],[73.7006353,10.8142926],[73.7009189,10.8154],[73.7008963,10.8160192],[73.7006586,10.8165933],[73.7001832,10.8170002],[73.6994702,10.8173846],[73.6986061,10.8174706],[73.6973351,10.8175115],[73.6956481,10.8177063],[73.6946149,10.8177697],[73.693344,10.8178152],[73.6918536,10.8177702],[73.6909666,10.8178563],[73.6904729,10.8179423],[73.6898008,10.8180509],[73.688315,10.8179834],[73.687556,10.817857],[73.6872315,10.8177712],[73.6869297,10.8176626],[73.6862621,10.8174729],[73.6858965,10.8174504],[73.6854667,10.8174731],[73.6847763,10.8175818],[73.6835877,10.8176633],[73.6823579,10.8176861],[73.6809086,10.817623],[73.680328,10.8176458],[73.6795736,10.8179667],[73.6790114,10.8181341],[73.6778272,10.8182201],[73.6770729,10.8182021],[73.6763368,10.8176644],[73.6757104,10.8173887],[73.6752578,10.817452],[73.6746727,10.8177098],[73.6741332,10.8178997],[73.6732051,10.8179857],[73.6711342,10.818072],[73.6704621,10.8180945],[73.6697534,10.8178777],[73.6696482,10.8179003],[73.6689533,10.8182394],[73.6682859,10.8184745]]],[[[72.2022125,10.8796355],[72.201737,10.8797351],[72.201266,10.8798436],[72.2008225,10.8799613],[72.2004932,10.8799613],[72.2003286,10.8799297],[72.2002418,10.8798257],[72.1999536,10.8794733],[72.1989838,10.8782214],[72.1985677,10.8777696],[72.197447,10.8766172],[72.1969393,10.8759212],[72.1964957,10.8753472],[72.1956724,10.8744209],[72.1953659,10.8741316],[72.194936,10.8736842],[72.1943048,10.8729205],[72.1939206,10.8724188],[72.1936782,10.8719353],[72.1926901,10.8694223],[72.1924658,10.8686811],[72.1923468,10.8682019],[72.1919258,10.866385],[72.1917747,10.8657206],[72.1915277,10.8649703],[72.1910885,10.8638857],[72.1909376,10.8633974],[72.1907199,10.8625662],[72.1906951,10.862471],[72.1905393,10.8614991],[72.1902053,10.8599489],[72.1899079,10.858837],[72.1895692,10.8576211],[72.1890523,10.8561748],[72.1886451,10.8549861],[72.1882379,10.8533002],[72.1879953,10.8521251],[72.1877208,10.8512392],[72.1874143,10.8503804],[72.1863166,10.8481975],[72.1857769,10.8471399],[72.1845511,10.8447537],[72.184263,10.844288],[72.1834809,10.8430045],[72.1829412,10.8420237],[72.1822506,10.8406137],[72.1816011,10.8387198],[72.1801237,10.8354702],[72.1798036,10.8347832],[72.1790032,10.8332962],[72.1783446,10.8319448],[72.1773889,10.8305121],[72.176703,10.8296987],[72.1758798,10.8286004],[72.1748646,10.8271812],[72.1741422,10.8262909],[72.173287,10.8251926],[72.172313,10.823778],[72.1707218,10.8217577],[72.1693088,10.8196109],[72.1693728,10.8192809],[72.1695739,10.8192719],[72.1699717,10.8193984],[72.1703055,10.8195384],[72.1707765,10.8199],[72.1716954,10.8207452],[72.1721115,10.8211744],[72.1731725,10.8224581],[72.1738126,10.823267],[72.1756508,10.8256398],[72.1764236,10.8266115],[72.1775348,10.8280396],[72.1789844,10.8299198],[72.1794509,10.8309863],[72.1800912,10.832374],[72.1803794,10.8331152],[72.1806996,10.8340778],[72.1808871,10.8347333],[72.1812073,10.8356056],[72.1817104,10.8366993],[72.182552,10.8384078],[72.1830779,10.839262],[72.1833066,10.83961],[72.1838691,10.8407355],[72.1845278,10.8421772],[72.1849576,10.842828],[72.185662,10.8440167],[72.1860736,10.8448301],[72.1869884,10.8464843],[72.1884657,10.8491418],[72.1892799,10.8504615],[72.1903272,10.8520524],[72.1908624,10.8528297],[72.1915163,10.8538014],[72.1921933,10.8548634],[72.192733,10.8556589],[72.1934601,10.8566396],[72.1943841,10.8580271],[72.1951571,10.859193],[72.1965614,10.8613353],[72.1985281,10.8643903],[72.1992692,10.8655518],[72.1998181,10.8665733],[72.2005683,10.8680376],[72.2010441,10.8688329],[72.2016341,10.8697549],[72.202087,10.8704509],[72.2027731,10.8717569],[72.2032993,10.8729548],[72.2038803,10.874193],[72.2045985,10.8755851],[72.2052162,10.8767871],[72.2055227,10.8774741],[72.2056554,10.8780121],[72.2057653,10.8786629],[72.2057426,10.8790787],[72.2056558,10.8793499],[72.2054043,10.8796031],[72.2051163,10.8796982],[72.2047641,10.8797118],[72.2041788,10.8796667],[72.2037764,10.8796126],[72.2031042,10.8795901],[72.2025418,10.8795902],[72.2022125,10.8796355]]],[[[72.2881183,10.9476165],[72.28767,10.9479735],[72.2871759,10.948249],[72.2869426,10.9482489],[72.2866683,10.9479958],[72.2863894,10.9474262],[72.2861108,10.9465176],[72.285855,10.9456315],[72.2857272,10.9444293],[72.2855994,10.9437557],[72.2851517,10.9422232],[72.2846216,10.9405145],[72.2841281,10.9392081],[72.2839591,10.9386386],[72.2840645,10.938155],[72.2842383,10.9377527],[72.2845357,10.9375223],[72.2849428,10.9373326],[72.2867999,10.9369715],[72.2876278,10.9368047],[72.2882497,10.9367641],[72.2888032,10.9367824],[72.2893566,10.936891],[72.2899145,10.9370811],[72.29066,10.937357],[72.2917894,10.9378409],[72.2920043,10.9380535],[72.2919813,10.9384105],[72.2917251,10.9388941],[72.2913636,10.9393189],[72.2907232,10.9399289],[72.2901055,10.9404756],[72.2898035,10.941149],[72.2893776,10.9427308],[72.2888007,10.9446743],[72.2888234,10.9453478],[72.2890793,10.9460032],[72.2895456,10.9466362],[72.2898657,10.9469934],[72.2901218,10.9471833],[72.291041,10.9472152],[72.2916064,10.9471397],[72.292555,10.9470664],[72.2927472,10.947175],[72.2927059,10.9473196],[72.2925137,10.9474461],[72.2912513,10.947491],[72.2894402,10.9474904],[72.2888867,10.9474902],[72.2884568,10.947445],[72.2881183,10.9476165]]],[[[72.3155343,10.9446497],[72.3161104,10.9450114],[72.3169474,10.9455405],[72.3180587,10.9460875],[72.3197965,10.9471139],[72.3206288,10.947774],[72.3227004,10.9495509],[72.3234275,10.9502471],[72.3241364,10.9509477],[72.3247766,10.9514135],[72.3255906,10.9518793],[72.3261028,10.9522137],[72.3263588,10.9524488],[72.326272,10.9526161],[72.3260387,10.952616],[72.3250006,10.9521231],[72.3242733,10.9517026],[72.3228189,10.9514041],[72.3217716,10.9512141],[72.3204543,10.9510781],[72.3186888,10.9510054],[72.318053,10.9509692],[72.3169737,10.9508921],[72.3165667,10.9508514],[72.3163059,10.9507428],[72.3157252,10.9503179],[72.3153181,10.9498973],[72.3149341,10.9492824],[72.3146781,10.9485413],[72.3145276,10.946679],[72.3145095,10.9461501],[72.3145921,10.9449478],[72.3146561,10.9446901],[72.314958,10.9446269],[72.3155343,10.9446497]]],[[[72.3309466,10.951731],[72.3311158,10.9519524],[72.3313398,10.9523005],[72.3320259,10.9528702],[72.3324375,10.9530194],[72.3325656,10.9531008],[72.3328536,10.9536388],[72.3328444,10.9537788],[72.3327255,10.9538918],[72.332355,10.9539369],[72.3320669,10.9538285],[72.3315455,10.9534939],[72.3310974,10.9531548],[72.3297527,10.9527885],[72.3296018,10.9527433],[72.3295927,10.952585],[72.3297711,10.9522822],[72.3299838,10.9519433],[72.330201,10.951776],[72.3304755,10.9516811],[72.3307133,10.9516586],[72.3309466,10.951731]]],[[[72.3341065,10.956247],[72.3340286,10.9563734],[72.3338594,10.9563599],[72.3337871,10.9562572],[72.3335393,10.9560344],[72.3333792,10.9560253],[72.333091,10.9560569],[72.3327938,10.9561202],[72.3325467,10.9561925],[72.3323776,10.9561201],[72.3322495,10.9560252],[72.3321718,10.9558444],[72.3321077,10.9555822],[72.3322495,10.9554557],[72.332492,10.9553292],[72.3327619,10.955275],[72.3330593,10.954484],[72.3330365,10.954276],[72.3331325,10.9541496],[72.3332926,10.9541496],[72.3334664,10.9542851],[72.3336768,10.9545158],[72.3338276,10.9548457],[72.3340608,10.9559305],[72.3341065,10.956247]]],[[[72.3342343,10.9573092],[72.3345408,10.9574674],[72.3347237,10.9577025],[72.3347648,10.9581137],[72.3347784,10.9585884],[72.3346594,10.9589229],[72.3344444,10.9594381],[72.3341242,10.9597228],[72.333868,10.9600618],[72.3336986,10.9603058],[72.3335478,10.9603782],[72.3334013,10.9603464],[72.3332916,10.9601566],[72.33331,10.9598944],[72.3334198,10.9596595],[72.3335067,10.9594832],[72.3335937,10.9591667],[72.3336121,10.9587464],[72.333571,10.9582175],[72.333539,10.957847],[72.3336123,10.9574898],[72.3338364,10.9573001],[72.3342343,10.9573092]]],[[[72.7195074,11.1150411],[72.7196998,11.1156151],[72.7201896,11.1161437],[72.7212653,11.1170113],[72.7239432,11.1191439],[72.7265983,11.1214979],[72.7283106,11.1235539],[72.7296201,11.1254836],[72.7304718,11.1267625],[72.731571,11.1290491],[72.7320794,11.1306807],[72.7324734,11.1316342],[72.732936,11.1327234],[72.733472,11.1343594],[72.7337379,11.1354487],[72.7338113,11.1359774],[72.7336329,11.1365379],[72.7332762,11.137198],[72.7329193,11.1374648],[72.732416,11.1376096],[72.7321048,11.137682],[72.7311392,11.1378451],[72.7303061,11.137877],[72.7298119,11.1378591],[72.7292947,11.1377597],[72.7284891,11.1373893],[72.7276695,11.1368156],[72.727047,11.1362283],[72.7259299,11.1352749],[72.7249321,11.1345972],[72.7242043,11.1342042],[72.7234627,11.1338067],[72.7224373,11.1331741],[72.7212883,11.1323384],[72.7202355,11.1315115],[72.7195579,11.1308653],[72.7186468,11.1297175],[72.7177997,11.1283664],[72.7175021,11.1277471],[72.7166823,11.1260117],[72.7161923,11.1248774],[72.7159082,11.1234944],[72.7158348,11.1227441],[72.7158343,11.1210401],[72.7158478,11.1205881],[72.7162044,11.1191145],[72.7167852,11.1175414],[72.7173663,11.1169536],[72.717961,11.1163794],[72.7183452,11.1158188],[72.7187203,11.1152493],[72.7190177,11.1149825],[72.7193426,11.114892],[72.7195074,11.1150411]]],[[[72.761091,11.1838656],[72.7613335,11.1839336],[72.761631,11.184137],[72.7618964,11.1843767],[72.7621571,11.1848062],[72.7623308,11.1852627],[72.7626599,11.1865737],[72.7627557,11.1873015],[72.7632032,11.1899819],[72.7635095,11.1910487],[72.7638752,11.1922828],[72.7647941,11.1950584],[72.7657957,11.1975989],[72.766198,11.198824],[72.7665408,11.2000942],[72.7677526,11.2035118],[72.7682373,11.2048136],[72.7685802,11.2059844],[72.7688683,11.2067665],[72.7694034,11.2077024],[72.7699343,11.208498],[72.7704741,11.2092937],[72.7711924,11.210311],[72.7718147,11.2111881],[72.7723958,11.2119025],[72.7732149,11.2129604],[72.7749123,11.2155103],[72.7754979,11.2165816],[72.7759096,11.2174225],[72.7763349,11.2184939],[72.777085,11.2207541],[72.7773547,11.2218253],[72.777414,11.2223136],[72.777423,11.2227701],[72.7776287,11.2238955],[72.7778252,11.2246234],[72.7782595,11.2263772],[72.7784561,11.2272181],[72.7790002,11.2291391],[72.7793706,11.2302286],[72.7795399,11.2308208],[72.7795716,11.2314807],[72.7797453,11.2322988],[72.7799419,11.2330176],[72.7802256,11.233655],[72.7805595,11.2344505],[72.7807653,11.2350563],[72.7809254,11.2357299],[72.7813962,11.2373346],[72.7818719,11.238754],[72.7822745,11.2398254],[72.7826771,11.2405531],[72.7828463,11.241055],[72.7831116,11.241846],[72.7833768,11.2430122],[72.783482,11.24341],[72.7837335,11.2441513],[72.7841315,11.244965],[72.7844427,11.2455211],[72.7851563,11.247266],[72.7853988,11.2480707],[72.7858562,11.2492143],[72.7863503,11.2501591],[72.786904,11.2512848],[72.7878007,11.253337],[72.7885419,11.255091],[72.7892557,11.2565783],[72.7894523,11.2574281],[72.7896897,11.2592767],[72.7898403,11.260922],[72.7898173,11.2611481],[72.7896662,11.2613559],[72.7894601,11.2614915],[72.7891853,11.2615004],[72.7889428,11.2614551],[72.7886223,11.2612742],[72.7879997,11.2608085],[72.7870842,11.2603291],[72.7868873,11.2602522],[72.7866675,11.260094],[72.7862235,11.2596237],[72.7856745,11.2588507],[72.7851345,11.2580323],[72.7846632,11.2568932],[72.7842149,11.2555868],[72.7832954,11.2535661],[72.7823345,11.2514957],[72.7818863,11.2502345],[72.7811451,11.2486658],[72.7803537,11.2470656],[72.7791733,11.2445611],[72.77851,11.2429789],[72.7778652,11.2408905],[72.7777052,11.2402802],[72.7775176,11.2394847],[72.7769232,11.2376494],[72.7766169,11.2362934],[72.7759631,11.2339247],[72.7755287,11.2325775],[72.7752178,11.2313209],[72.775035,11.2304801],[72.7742348,11.2277182],[72.7737958,11.2263757],[72.7733202,11.2250918],[72.7731008,11.2242827],[72.7729637,11.2233515],[72.7728266,11.2229085],[72.772607,11.222348],[72.7723006,11.221575],[72.7719667,11.2208924],[72.7716785,11.2201646],[72.7715643,11.2194594],[72.7715325,11.2187452],[72.7714641,11.2183475],[72.7713726,11.2179723],[72.7710708,11.2171947],[72.7705677,11.2158431],[72.7701424,11.2146451],[72.7699366,11.2139987],[72.7685603,11.2099755],[72.7679841,11.2084385],[72.7675131,11.2072451],[72.7672982,11.2065715],[72.7671473,11.2060698],[72.7669873,11.2054596],[72.7667816,11.2047859],[72.7665483,11.204248],[72.7661228,11.2033936],[72.765725,11.2025346],[72.7653317,11.2015944],[72.7649201,11.2005728],[72.7645908,11.199872],[72.7641975,11.1990764],[72.7639003,11.1981587],[72.7636626,11.197336],[72.7629952,11.1948858],[72.7628124,11.1942034],[72.7626251,11.1931727],[72.7624335,11.1914596],[72.7624935,11.1904653],[72.7625395,11.1900223],[72.7625625,11.1894889],[72.7625446,11.1887522],[72.7620649,11.1861486],[72.7619279,11.1855022],[72.7617999,11.1851812],[72.7616398,11.1849009],[72.7614018,11.1845799],[72.7610542,11.184173],[72.7609765,11.183965],[72.7609628,11.1838656],[72.761091,11.1838656]]],[[[73.0076369,11.4708465],[73.0080903,11.4711044],[73.0086263,11.4714842],[73.0101149,11.4727187],[73.0105684,11.4731754],[73.0108522,11.4735688],[73.0110125,11.4739078],[73.0110764,11.4742874],[73.010613,11.4759099],[73.0100853,11.4774872],[73.009856,11.4781559],[73.0097504,11.4785265],[73.0096677,11.478983],[73.0094472,11.4803976],[73.0092541,11.4818122],[73.0091802,11.4832088],[73.0091246,11.4845963],[73.00916,11.4873174],[73.0091778,11.4886778],[73.0086503,11.4898844],[73.0084577,11.4902458],[73.0076094,11.4917054],[73.0068984,11.4931559],[73.0062518,11.4946156],[73.0056143,11.4956819],[73.0051787,11.4962739],[73.0045413,11.497033],[73.0040324,11.4975887],[73.0026296,11.4987587],[73.0021667,11.4990477],[73.0013463,11.4994044],[73.0006039,11.499612],[72.9999394,11.4996524],[72.9990824,11.4995977],[72.9987845,11.4995163],[72.9982304,11.4992538],[72.9976943,11.4989507],[72.9974469,11.4987336],[72.9973782,11.4985258],[72.9974105,11.4982953],[72.997548,11.4980603],[72.9979148,11.4976311],[72.9983963,11.4969035],[72.9986624,11.4964653],[72.9987816,11.4960404],[72.9989285,11.4957242],[72.9992448,11.495304],[72.9996024,11.495051],[72.9999279,11.4949247],[73.0005098,11.4949068],[73.000936,11.494794],[73.0012522,11.4946767],[73.0015273,11.4944689],[73.0017107,11.4942701],[73.0018345,11.4940487],[73.0024908,11.4918207],[73.002982,11.4899],[73.0033999,11.4880153],[73.0035103,11.4869262],[73.0037952,11.4849963],[73.0040111,11.4841377],[73.0042864,11.4833016],[73.0045846,11.4823526],[73.0046397,11.4820272],[73.0048329,11.4805764],[73.0049248,11.4800522],[73.0051588,11.4790759],[73.0055764,11.4779508],[73.0059708,11.4771374],[73.0064614,11.4762472],[73.0066632,11.4757817],[73.0072734,11.4742091],[73.0074111,11.4738295],[73.0074478,11.4735628],[73.0074479,11.4733729],[73.0073471,11.4732102],[73.0070631,11.4729706],[73.0067563,11.4727082],[73.0065548,11.4724461],[73.0064357,11.4722517],[73.0063625,11.4720075],[73.0063008,11.4716594],[73.0063033,11.4713159],[73.0063766,11.4711488],[73.0064546,11.4710493],[73.0067663,11.4708913],[73.0070641,11.470792],[73.0073391,11.470774],[73.0076369,11.4708465]]],[[[72.1896785,11.5998969],[72.1896464,11.6001319],[72.1894631,11.6004393],[72.1892799,11.6007196],[72.1887298,11.6014293],[72.1884732,11.6017232],[72.1881341,11.6019582],[72.1875978,11.6022657],[72.186979,11.6025325],[72.1866418,11.6026828],[72.1865189,11.6027377],[72.1864519,11.6027677],[72.185833,11.6030614],[72.1855488,11.6031158],[72.1850125,11.6030617],[72.1848154,11.603021],[72.1845724,11.6028403],[72.1845035,11.6027137],[72.1845723,11.6025465],[72.1848152,11.6022798],[72.1852231,11.6017915],[72.1855072,11.6013305],[72.1856034,11.6009147],[72.1856491,11.6006796],[72.1856904,11.6002728],[72.1857041,11.6000378],[72.1857315,11.5998977],[72.1859607,11.5997576],[72.1863825,11.5997167],[72.187148,11.5997844],[72.1886883,11.5998112],[72.1890412,11.5997841],[72.1895226,11.5998111],[72.1896785,11.5998969]]],[[[72.71085,11.6866269],[72.7120107,11.6883623],[72.7125795,11.6892706],[72.7137264,11.690834],[72.7152885,11.6928008],[72.7160983,11.6944763],[72.7166259,11.6957777],[72.7166269,11.6987293],[72.7163665,11.7022004],[72.716101,11.7035022],[72.7157483,11.7049757],[72.7143399,11.7032405],[72.7132848,11.7018533],[72.7129314,11.7008094],[72.7128439,11.6996839],[72.7114353,11.6969951],[72.7102929,11.6949118],[72.7096735,11.6936103],[72.7092328,11.6917889],[72.7085302,11.68858],[72.7080026,11.6871023],[72.7073696,11.6864877],[72.7071311,11.6863251],[72.7063972,11.6858553],[72.7062413,11.6858643],[72.7061934,11.6858981],[72.7056223,11.6858871],[72.7055214,11.6858691],[72.7050214,11.6851867],[72.7047598,11.6842286],[72.7048055,11.6838037],[72.7049705,11.683546],[72.705452,11.6833922],[72.7062223,11.6833604],[72.7069239,11.6833693],[72.7075889,11.6833917],[72.7079969,11.6834368],[72.7091068,11.6840737],[72.7091527,11.6841099],[72.7094829,11.6844172],[72.709616,11.6846477],[72.7097352,11.6849143],[72.7097399,11.6851131],[72.7097996,11.6852216],[72.7099371,11.6854385],[72.71085,11.6866269]]]]}}]}
