{"type":"FeatureCollection","features":[{"type":"Feature","id":"in-lakshadweep-t-5626","properties":{"id":"in-lakshadweep-t-5626","name":"Agatti","region":"in-lakshadweep","level":"tehsil","parent":"in-lakshadweep-d-553","district":"Lakshadweep District","source":"LGD via Bharatlas · 2024 snapshot","state_lgd":31,"district_lgd":553,"subdistrict_lgd":5626,"center":[72.19287860093307,10.860445586603582],"bbox":[72.1640278,10.8138077,72.3347784,10.9603782]},"geometry":{"type":"Point","coordinates":[72.19287860093307,10.860445586603582]}},{"type":"Feature","id":"in-lakshadweep-t-5620","properties":{"id":"in-lakshadweep-t-5620","name":"Amini","region":"in-lakshadweep","level":"tehsil","parent":"in-lakshadweep-d-553","district":"Lakshadweep District","source":"LGD via Bharatlas · 2024 snapshot","state_lgd":31,"district_lgd":553,"subdistrict_lgd":5620,"center":[72.724247699257,11.127137758888912],"bbox":[72.7158343,11.114892,72.7338113,11.137877]},"geometry":{"type":"Point","coordinates":[72.724247699257,11.127137758888912]}},{"type":"Feature","id":"in-lakshadweep-t-5627","properties":{"id":"in-lakshadweep-t-5627","name":"Andrott","region":"in-lakshadweep","level":"tehsil","parent":"in-lakshadweep-d-553","district":"Lakshadweep District","source":"LGD via Bharatlas · 2024 snapshot","state_lgd":31,"district_lgd":553,"subdistrict_lgd":5627,"center":[73.67705753739783,10.812627116940755],"bbox":[73.6587029,10.8049906,73.7009189,10.8186691]},"geometry":{"type":"Point","coordinates":[73.67705753739783,10.812627116940755]}},{"type":"Feature","id":"in-lakshadweep-t-5621","properties":{"id":"in-lakshadweep-t-5621","name":"Bitra","region":"in-lakshadweep","level":"tehsil","parent":"in-lakshadweep-d-553","district":"Lakshadweep District","source":"LGD via Bharatlas · 2024 snapshot","state_lgd":31,"district_lgd":553,"subdistrict_lgd":5621,"center":[72.18699664719138,11.60122809278844],"bbox":[72.1845035,11.5997167,72.1896785,11.6031158]},"geometry":{"type":"Point","coordinates":[72.18699664719138,11.60122809278844]}},{"type":"Feature","id":"in-lakshadweep-t-5622","properties":{"id":"in-lakshadweep-t-5622","name":"Chetlat","region":"in-lakshadweep","level":"tehsil","parent":"in-lakshadweep-d-553","district":"Lakshadweep District","source":"LGD via Bharatlas · 2024 snapshot","state_lgd":31,"district_lgd":553,"subdistrict_lgd":5622,"center":[72.71209783273488,11.693350309785101],"bbox":[72.7047598,11.6833604,72.7166269,11.7049757]},"geometry":{"type":"Point","coordinates":[72.71209783273488,11.693350309785101]}},{"type":"Feature","id":"in-lakshadweep-t-5624","properties":{"id":"in-lakshadweep-t-5624","name":"Kadmat","region":"in-lakshadweep","level":"tehsil","parent":"in-lakshadweep-d-553","district":"Lakshadweep District","source":"LGD via Bharatlas · 2024 snapshot","state_lgd":31,"district_lgd":553,"subdistrict_lgd":5624,"center":[72.77725899950256,11.230624155136958],"bbox":[72.7609628,11.1838656,72.7898403,11.2615004]},"geometry":{"type":"Point","coordinates":[72.77725899950256,11.230624155136958]}},{"type":"Feature","id":"in-lakshadweep-t-5628","properties":{"id":"in-lakshadweep-t-5628","name":"Kalpeni","region":"in-lakshadweep","level":"tehsil","parent":"in-lakshadweep-d-553","district":"Lakshadweep District","source":"LGD via Bharatlas · 2024 snapshot","state_lgd":31,"district_lgd":553,"subdistrict_lgd":5628,"center":[73.64338683167031,10.071238361945126],"bbox":[73.6253472,10.0580541,73.6633829,10.1566123]},"geometry":{"type":"Point","coordinates":[73.64338683167031,10.071238361945126]}},{"type":"Feature","id":"in-lakshadweep-t-5625","properties":{"id":"in-lakshadweep-t-5625","name":"Kavaratti","region":"in-lakshadweep","level":"tehsil","parent":"in-lakshadweep-d-553","district":"Lakshadweep District","source":"LGD via Bharatlas · 2024 snapshot","state_lgd":31,"district_lgd":553,"subdistrict_lgd":5625,"center":[72.63852017188967,10.565575572404269],"bbox":[72.2825931,10.0421549,72.6506324,10.580461]},"geometry":{"type":"Point","coordinates":[72.63852017188967,10.565575572404269]}},{"type":"Feature","id":"in-lakshadweep-t-5623","properties":{"id":"in-lakshadweep-t-5623","name":"Kiltan","region":"in-lakshadweep","level":"tehsil","parent":"in-lakshadweep-d-553","district":"Lakshadweep District","source":"LGD via Bharatlas · 2024 snapshot","state_lgd":31,"district_lgd":553,"subdistrict_lgd":5623,"center":[73.00561286047596,11.486524024285222],"bbox":[72.9973782,11.470774,73.0110764,11.4996524]},"geometry":{"type":"Point","coordinates":[73.00561286047596,11.486524024285222]}},{"type":"Feature","id":"in-lakshadweep-t-5629","properties":{"id":"in-lakshadweep-t-5629","name":"Minicoy","region":"in-lakshadweep","level":"tehsil","parent":"in-lakshadweep-d-553","district":"Lakshadweep District","source":"LGD via Bharatlas · 2024 snapshot","state_lgd":31,"district_lgd":553,"subdistrict_lgd":5629,"center":[73.03454403714446,8.27123216],"bbox":[73.0128534,8.2652027,73.0776946,8.3254973]},"geometry":{"type":"Point","coordinates":[73.03454403714446,8.27123216]}}]}
