{"type":"FeatureCollection","features":[{"type":"Feature","id":"in-ladakh-t-13","properties":{"id":"in-ladakh-t-13","name":"Kargil","region":"in-ladakh","level":"tehsil","parent":"in-ladakh-d-9","district":"Leh Ladakh","source":"LGD via Bharatlas · 2024 snapshot","state_lgd":37,"district_lgd":9,"subdistrict_lgd":13,"center":[75.86421758096421,34.763905046033905],"bbox":[75.3668203,34.3670439,76.4649584,35.0312478]},"geometry":{"type":"Point","coordinates":[75.86421758096421,34.763905046033905]}},{"type":"Feature","id":"in-ladakh-t-12","properties":{"id":"in-ladakh-t-12","name":"Khalsi","region":"in-ladakh","level":"tehsil","parent":"in-ladakh-d-9","district":"Leh Ladakh","source":"LGD via Bharatlas · 2024 snapshot","state_lgd":37,"district_lgd":9,"subdistrict_lgd":12,"center":[76.83408642345996,34.26104096282453],"bbox":[76.4193214,33.7954013,77.2600938,34.8011664]},"geometry":{"type":"Point","coordinates":[76.83408642345996,34.26104096282453]}},{"type":"Feature","id":"in-ladakh-t-10","properties":{"id":"in-ladakh-t-10","name":"Leh","region":"in-ladakh","level":"tehsil","parent":"in-ladakh-d-9","district":"Leh Ladakh","source":"LGD via Bharatlas · 2024 snapshot","state_lgd":37,"district_lgd":9,"subdistrict_lgd":10,"center":[78.25019525743059,33.35451901266983],"bbox":[76.7688186,32.3356936,79.6118608,34.3636511]},"geometry":{"type":"Point","coordinates":[78.25019525743059,33.35451901266983]}},{"type":"Feature","id":"in-ladakh-t-11","properties":{"id":"in-ladakh-t-11","name":"Nubra","region":"in-ladakh","level":"tehsil","parent":"in-ladakh-d-9","district":"Leh Ladakh","source":"LGD via Bharatlas · 2024 snapshot","state_lgd":37,"district_lgd":9,"subdistrict_lgd":11,"center":[77.55339647967416,34.7301967408734],"bbox":[76.4110739,34.0126806,78.362186,35.3195284]},"geometry":{"type":"Point","coordinates":[77.55339647967416,34.7301967408734]}},{"type":"Feature","id":"in-ladakh-t-14","properties":{"id":"in-ladakh-t-14","name":"Sanku","region":"in-ladakh","level":"tehsil","parent":"in-ladakh-d-6","district":"Kargil","source":"LGD via Bharatlas · 2024 snapshot","state_lgd":37,"district_lgd":6,"subdistrict_lgd":14,"center":[76.13008267074392,34.29570489253887],"bbox":[75.3759617,33.748482,76.7223539,34.7518299]},"geometry":{"type":"Point","coordinates":[76.13008267074392,34.29570489253887]}},{"type":"Feature","id":"in-ladakh-t-15","properties":{"id":"in-ladakh-t-15","name":"Zanskar","region":"in-ladakh","level":"tehsil","parent":"in-ladakh-d-6","district":"Kargil","source":"LGD via Bharatlas · 2024 snapshot","state_lgd":37,"district_lgd":6,"subdistrict_lgd":15,"center":[76.91741912058188,33.44725179449193],"bbox":[76.2054252,32.8634708,77.5615372,33.9742897]},"geometry":{"type":"Point","coordinates":[76.91741912058188,33.44725179449193]}}]}
