{"type":"FeatureCollection","features":[{"type":"Feature","id":"in-madhya-pradesh-d-667","properties":{"id":"in-madhya-pradesh-d-667","name":"Agar Malwa","region":"in-madhya-pradesh","level":"district","parent":"","source":"LGD via Bharatlas · 2024 snapshot","state_lgd":23,"district_lgd":667,"center":[76.07103116430504,23.826486341334284],"bbox":[75.6867187,23.5413004,76.4085341,24.3292765]},"geometry":{"type":"Point","coordinates":[76.07103116430504,23.826486341334284]}},{"type":"Feature","id":"in-madhya-pradesh-d-639","properties":{"id":"in-madhya-pradesh-d-639","name":"Alirajpur","region":"in-madhya-pradesh","level":"district","parent":"","source":"LGD via Bharatlas · 2024 snapshot","state_lgd":23,"district_lgd":639,"center":[74.36378826415104,22.31458999493],"bbox":[74.029382,21.9258779,74.7476664,22.6460041]},"geometry":{"type":"Point","coordinates":[74.36378826415104,22.31458999493]}},{"type":"Feature","id":"in-madhya-pradesh-d-390","properties":{"id":"in-madhya-pradesh-d-390","name":"Anuppur","region":"in-madhya-pradesh","level":"district","parent":"","source":"LGD via Bharatlas · 2024 snapshot","state_lgd":23,"district_lgd":390,"center":[81.68270948673738,23.05685662518636],"bbox":[81.1241595,22.6444865,82.1993882,23.4250343]},"geometry":{"type":"Point","coordinates":[81.68270948673738,23.05685662518636]}},{"type":"Feature","id":"in-madhya-pradesh-d-391","properties":{"id":"in-madhya-pradesh-d-391","name":"Ashoknagar","region":"in-madhya-pradesh","level":"district","parent":"","source":"LGD via Bharatlas · 2024 snapshot","state_lgd":23,"district_lgd":391,"center":[77.87535535030408,24.60938566106078],"bbox":[77.4717161,24.2293927,78.2780049,25.007729]},"geometry":{"type":"Point","coordinates":[77.87535535030408,24.60938566106078]}},{"type":"Feature","id":"in-madhya-pradesh-d-392","properties":{"id":"in-madhya-pradesh-d-392","name":"Balaghat","region":"in-madhya-pradesh","level":"district","parent":"","source":"LGD via Bharatlas · 2024 snapshot","state_lgd":23,"district_lgd":392,"center":[80.35983340443492,21.88079567041373],"bbox":[79.510083,21.3203598,81.0484196,22.4019677]},"geometry":{"type":"Point","coordinates":[80.35983340443492,21.88079567041373]}},{"type":"Feature","id":"in-madhya-pradesh-d-393","properties":{"id":"in-madhya-pradesh-d-393","name":"Barwani","region":"in-madhya-pradesh","level":"district","parent":"","source":"LGD via Bharatlas · 2024 snapshot","state_lgd":23,"district_lgd":393,"center":[75.0208793171178,21.788217590269696],"bbox":[74.4316399,21.368528,75.6286467,22.1342986]},"geometry":{"type":"Point","coordinates":[75.0208793171178,21.788217590269696]}},{"type":"Feature","id":"in-madhya-pradesh-d-394","properties":{"id":"in-madhya-pradesh-d-394","name":"Betul","region":"in-madhya-pradesh","level":"district","parent":"","source":"LGD via Bharatlas · 2024 snapshot","state_lgd":23,"district_lgd":394,"center":[77.87202554365926,21.878655264393647],"bbox":[76.9861583,21.3574472,78.5492222,22.4020896]},"geometry":{"type":"Point","coordinates":[77.87202554365926,21.878655264393647]}},{"type":"Feature","id":"in-madhya-pradesh-d-395","properties":{"id":"in-madhya-pradesh-d-395","name":"Bhind","region":"in-madhya-pradesh","level":"district","parent":"","source":"LGD via Bharatlas · 2024 snapshot","state_lgd":23,"district_lgd":395,"center":[78.72122065305241,26.421977317289024],"bbox":[78.2104683,25.9063397,79.1388308,26.7972787]},"geometry":{"type":"Point","coordinates":[78.72122065305241,26.421977317289024]}},{"type":"Feature","id":"in-madhya-pradesh-d-396","properties":{"id":"in-madhya-pradesh-d-396","name":"Bhopal","region":"in-madhya-pradesh","level":"district","parent":"","source":"LGD via Bharatlas · 2024 snapshot","state_lgd":23,"district_lgd":396,"center":[77.39075751986312,23.47015882548002],"bbox":[77.1656638,23.0725047,77.6485205,23.8953516]},"geometry":{"type":"Point","coordinates":[77.39075751986312,23.47015882548002]}},{"type":"Feature","id":"in-madhya-pradesh-d-397","properties":{"id":"in-madhya-pradesh-d-397","name":"Burhanpur","region":"in-madhya-pradesh","level":"district","parent":"","source":"LGD via Bharatlas · 2024 snapshot","state_lgd":23,"district_lgd":397,"center":[76.36915967141687,21.37067700255125],"bbox":[75.9480356,21.0706885,76.7956092,21.5990214]},"geometry":{"type":"Point","coordinates":[76.36915967141687,21.37067700255125]}},{"type":"Feature","id":"in-madhya-pradesh-d-398","properties":{"id":"in-madhya-pradesh-d-398","name":"Chhatarpur","region":"in-madhya-pradesh","level":"district","parent":"","source":"LGD via Bharatlas · 2024 snapshot","state_lgd":23,"district_lgd":398,"center":[79.66464561669108,24.79934453030073],"bbox":[78.9857612,24.096693,80.4316754,25.4240195]},"geometry":{"type":"Point","coordinates":[79.66464561669108,24.79934453030073]}},{"type":"Feature","id":"in-madhya-pradesh-d-399","properties":{"id":"in-madhya-pradesh-d-399","name":"Chhindwara","region":"in-madhya-pradesh","level":"district","parent":"","source":"LGD via Bharatlas · 2024 snapshot","state_lgd":23,"district_lgd":399,"center":[78.8541282267716,22.122543273484464],"bbox":[78.2449589,21.462293,79.4065341,22.8168766]},"geometry":{"type":"Point","coordinates":[78.8541282267716,22.122543273484464]}},{"type":"Feature","id":"in-madhya-pradesh-d-400","properties":{"id":"in-madhya-pradesh-d-400","name":"Damoh","region":"in-madhya-pradesh","level":"district","parent":"","source":"LGD via Bharatlas · 2024 snapshot","state_lgd":23,"district_lgd":400,"center":[79.52683087956201,23.812320574022745],"bbox":[79.0548543,23.1504351,79.9556105,24.4457832]},"geometry":{"type":"Point","coordinates":[79.52683087956201,23.812320574022745]}},{"type":"Feature","id":"in-madhya-pradesh-d-401","properties":{"id":"in-madhya-pradesh-d-401","name":"Datia","region":"in-madhya-pradesh","level":"district","parent":"","source":"LGD via Bharatlas · 2024 snapshot","state_lgd":23,"district_lgd":401,"center":[78.61394630764818,25.84035160910473],"bbox":[78.2143766,25.052525,78.8948116,26.2908628]},"geometry":{"type":"Point","coordinates":[78.61394630764818,25.84035160910473]}},{"type":"Feature","id":"in-madhya-pradesh-d-402","properties":{"id":"in-madhya-pradesh-d-402","name":"Dewas","region":"in-madhya-pradesh","level":"district","parent":"","source":"LGD via Bharatlas · 2024 snapshot","state_lgd":23,"district_lgd":402,"center":[76.45686198119877,22.744198016641533],"bbox":[75.8970314,22.2898082,77.1326494,23.3216819]},"geometry":{"type":"Point","coordinates":[76.45686198119877,22.744198016641533]}},{"type":"Feature","id":"in-madhya-pradesh-d-403","properties":{"id":"in-madhya-pradesh-d-403","name":"Dhar","region":"in-madhya-pradesh","level":"district","parent":"","source":"LGD via Bharatlas · 2024 snapshot","state_lgd":23,"district_lgd":403,"center":[75.10396771284536,22.497954651338837],"bbox":[74.4710516,22.0223179,75.7137576,23.1351569]},"geometry":{"type":"Point","coordinates":[75.10396771284536,22.497954651338837]}},{"type":"Feature","id":"in-madhya-pradesh-d-404","properties":{"id":"in-madhya-pradesh-d-404","name":"Dindori","region":"in-madhya-pradesh","level":"district","parent":"","source":"LGD via Bharatlas · 2024 snapshot","state_lgd":23,"district_lgd":404,"center":[81.05128818975757,22.88998916793981],"bbox":[80.4781431,22.4397105,81.7414629,23.3745386]},"geometry":{"type":"Point","coordinates":[81.05128818975757,22.88998916793981]}},{"type":"Feature","id":"in-madhya-pradesh-d-405","properties":{"id":"in-madhya-pradesh-d-405","name":"East Nimar","region":"in-madhya-pradesh","level":"district","parent":"","source":"LGD via Bharatlas · 2024 snapshot","state_lgd":23,"district_lgd":405,"center":[76.56839792776837,21.9351510800443],"bbox":[76.0125306,21.541688,77.2210287,22.4122202]},"geometry":{"type":"Point","coordinates":[76.56839792776837,21.9351510800443]}},{"type":"Feature","id":"in-madhya-pradesh-d-406","properties":{"id":"in-madhya-pradesh-d-406","name":"Guna","region":"in-madhya-pradesh","level":"district","parent":"","source":"LGD via Bharatlas · 2024 snapshot","state_lgd":23,"district_lgd":406,"center":[77.19863293091069,24.555940769439125],"bbox":[76.8003685,23.8842855,77.7357042,25.116094]},"geometry":{"type":"Point","coordinates":[77.19863293091069,24.555940769439125]}},{"type":"Feature","id":"in-madhya-pradesh-d-407","properties":{"id":"in-madhya-pradesh-d-407","name":"Gwalior","region":"in-madhya-pradesh","level":"district","parent":"","source":"LGD via Bharatlas · 2024 snapshot","state_lgd":23,"district_lgd":407,"center":[78.14608358323441,26.039596622568812],"bbox":[77.6673368,25.7086245,78.6522628,26.3484113]},"geometry":{"type":"Point","coordinates":[78.14608358323441,26.039596622568812]}},{"type":"Feature","id":"in-madhya-pradesh-d-408","properties":{"id":"in-madhya-pradesh-d-408","name":"Harda","region":"in-madhya-pradesh","level":"district","parent":"","source":"LGD via Bharatlas · 2024 snapshot","state_lgd":23,"district_lgd":408,"center":[77.12351953742824,22.232407961339515],"bbox":[76.7803649,21.9060185,77.5100143,22.5795251]},"geometry":{"type":"Point","coordinates":[77.12351953742824,22.232407961339515]}},{"type":"Feature","id":"in-madhya-pradesh-d-410","properties":{"id":"in-madhya-pradesh-d-410","name":"Indore","region":"in-madhya-pradesh","level":"district","parent":"","source":"LGD via Bharatlas · 2024 snapshot","state_lgd":23,"district_lgd":410,"center":[75.78222349997192,22.71313791774501],"bbox":[75.4230682,22.3321365,76.2472777,23.089235]},"geometry":{"type":"Point","coordinates":[75.78222349997192,22.71313791774501]}},{"type":"Feature","id":"in-madhya-pradesh-d-411","properties":{"id":"in-madhya-pradesh-d-411","name":"Jabalpur","region":"in-madhya-pradesh","level":"district","parent":"","source":"LGD via Bharatlas · 2024 snapshot","state_lgd":23,"district_lgd":411,"center":[79.97591188810122,23.23400335172734],"bbox":[79.3468153,22.8308003,80.5846065,23.6157636]},"geometry":{"type":"Point","coordinates":[79.97591188810122,23.23400335172734]}},{"type":"Feature","id":"in-madhya-pradesh-d-412","properties":{"id":"in-madhya-pradesh-d-412","name":"Jhabua","region":"in-madhya-pradesh","level":"district","parent":"","source":"LGD via Bharatlas · 2024 snapshot","state_lgd":23,"district_lgd":412,"center":[74.67155263254604,22.892390742537117],"bbox":[74.3189011,22.5294147,75.0159584,23.2445524]},"geometry":{"type":"Point","coordinates":[74.67155263254604,22.892390742537117]}},{"type":"Feature","id":"in-madhya-pradesh-d-413","properties":{"id":"in-madhya-pradesh-d-413","name":"Katni","region":"in-madhya-pradesh","level":"district","parent":"","source":"LGD via Bharatlas · 2024 snapshot","state_lgd":23,"district_lgd":413,"center":[80.40149237887393,23.752955474734268],"bbox":[79.8152013,23.3034394,80.9503459,24.1318555]},"geometry":{"type":"Point","coordinates":[80.40149237887393,23.752955474734268]}},{"type":"Feature","id":"in-madhya-pradesh-d-414","properties":{"id":"in-madhya-pradesh-d-414","name":"Khargone","region":"in-madhya-pradesh","level":"district","parent":"","source":"LGD via Bharatlas · 2024 snapshot","state_lgd":23,"district_lgd":414,"center":[75.77149485027809,21.918639763233443],"bbox":[75.2073766,21.3687716,76.2348453,22.5400225]},"geometry":{"type":"Point","coordinates":[75.77149485027809,21.918639763233443]}},{"type":"Feature","id":"in-madhya-pradesh-d-415","properties":{"id":"in-madhya-pradesh-d-415","name":"Mandla","region":"in-madhya-pradesh","level":"district","parent":"","source":"LGD via Bharatlas · 2024 snapshot","state_lgd":23,"district_lgd":415,"center":[80.51219940540082,22.6392532782954],"bbox":[79.9513531,22.2021576,81.1974876,23.1723535]},"geometry":{"type":"Point","coordinates":[80.51219940540082,22.6392532782954]}},{"type":"Feature","id":"in-madhya-pradesh-d-416","properties":{"id":"in-madhya-pradesh-d-416","name":"Mandsaur","region":"in-madhya-pradesh","level":"district","parent":"","source":"LGD via Bharatlas · 2024 snapshot","state_lgd":23,"district_lgd":416,"center":[75.40531519752871,24.20437954479667],"bbox":[74.8797546,23.7647315,75.9233388,24.7617986]},"geometry":{"type":"Point","coordinates":[75.40531519752871,24.20437954479667]}},{"type":"Feature","id":"in-madhya-pradesh-d-417","properties":{"id":"in-madhya-pradesh-d-417","name":"Morena","region":"in-madhya-pradesh","level":"district","parent":"","source":"LGD via Bharatlas · 2024 snapshot","state_lgd":23,"district_lgd":417,"center":[77.86811408432388,26.4130148848559],"bbox":[77.1145841,25.8999957,78.5452276,26.8695616]},"geometry":{"type":"Point","coordinates":[77.86811408432388,26.4130148848559]}},{"type":"Feature","id":"in-madhya-pradesh-d-409","properties":{"id":"in-madhya-pradesh-d-409","name":"Narmadapuram","region":"in-madhya-pradesh","level":"district","parent":"","source":"LGD via Bharatlas · 2024 snapshot","state_lgd":23,"district_lgd":409,"center":[77.99068621430708,22.59066668922012],"bbox":[77.2128925,22.2134442,78.6987228,22.9871029]},"geometry":{"type":"Point","coordinates":[77.99068621430708,22.59066668922012]}},{"type":"Feature","id":"in-madhya-pradesh-d-418","properties":{"id":"in-madhya-pradesh-d-418","name":"Narsinghpur","region":"in-madhya-pradesh","level":"district","parent":"","source":"LGD via Bharatlas · 2024 snapshot","state_lgd":23,"district_lgd":418,"center":[79.087884781144,22.93623800407828],"bbox":[78.4431576,22.6153319,79.6431747,23.2535689]},"geometry":{"type":"Point","coordinates":[79.087884781144,22.93623800407828]}},{"type":"Feature","id":"in-madhya-pradesh-d-419","properties":{"id":"in-madhya-pradesh-d-419","name":"Neemuch","region":"in-madhya-pradesh","level":"district","parent":"","source":"LGD via Bharatlas · 2024 snapshot","state_lgd":23,"district_lgd":419,"center":[75.14206940948785,24.59225927096228],"bbox":[74.708727,24.2101973,75.6085102,25.0484142]},"geometry":{"type":"Point","coordinates":[75.14206940948785,24.59225927096228]}},{"type":"Feature","id":"in-madhya-pradesh-d-722","properties":{"id":"in-madhya-pradesh-d-722","name":"Niwari","region":"in-madhya-pradesh","level":"district","parent":"","source":"LGD via Bharatlas · 2024 snapshot","state_lgd":23,"district_lgd":722,"center":[78.74875884831434,25.285085409919745],"bbox":[78.4350308,25.0676478,78.9893319,25.5572196]},"geometry":{"type":"Point","coordinates":[78.74875884831434,25.285085409919745]}},{"type":"Feature","id":"in-madhya-pradesh-d-420","properties":{"id":"in-madhya-pradesh-d-420","name":"Panna","region":"in-madhya-pradesh","level":"district","parent":"","source":"LGD via Bharatlas · 2024 snapshot","state_lgd":23,"district_lgd":420,"center":[80.18796176415904,24.4164123074783],"bbox":[79.7347124,23.8212034,80.6786606,25.1263218]},"geometry":{"type":"Point","coordinates":[80.18796176415904,24.4164123074783]}},{"type":"Feature","id":"in-madhya-pradesh-d-421","properties":{"id":"in-madhya-pradesh-d-421","name":"Raisen","region":"in-madhya-pradesh","level":"district","parent":"","source":"LGD via Bharatlas · 2024 snapshot","state_lgd":23,"district_lgd":421,"center":[78.12059065719201,23.22006153264697],"bbox":[77.3388974,22.7896835,78.8167299,23.7455133]},"geometry":{"type":"Point","coordinates":[78.12059065719201,23.22006153264697]}},{"type":"Feature","id":"in-madhya-pradesh-d-422","properties":{"id":"in-madhya-pradesh-d-422","name":"Rajgarh","region":"in-madhya-pradesh","level":"district","parent":"","source":"LGD via Bharatlas · 2024 snapshot","state_lgd":23,"district_lgd":422,"center":[76.73243229298987,23.86115924885519],"bbox":[76.1894736,23.4569255,77.226393,24.2865142]},"geometry":{"type":"Point","coordinates":[76.73243229298987,23.86115924885519]}},{"type":"Feature","id":"in-madhya-pradesh-d-423","properties":{"id":"in-madhya-pradesh-d-423","name":"Ratlam","region":"in-madhya-pradesh","level":"district","parent":"","source":"LGD via Bharatlas · 2024 snapshot","state_lgd":23,"district_lgd":423,"center":[75.0885979942631,23.502380354827583],"bbox":[74.5140368,23.0857852,75.6904521,23.9199308]},"geometry":{"type":"Point","coordinates":[75.0885979942631,23.502380354827583]}},{"type":"Feature","id":"in-madhya-pradesh-d-424","properties":{"id":"in-madhya-pradesh-d-424","name":"Rewa","region":"in-madhya-pradesh","level":"district","parent":"","source":"LGD via Bharatlas · 2024 snapshot","state_lgd":23,"district_lgd":424,"center":[81.58737946132418,24.755309765922583],"bbox":[81.0388162,24.3199559,82.306692,25.1921923]},"geometry":{"type":"Point","coordinates":[81.58737946132418,24.755309765922583]}},{"type":"Feature","id":"in-madhya-pradesh-d-425","properties":{"id":"in-madhya-pradesh-d-425","name":"Sagar","region":"in-madhya-pradesh","level":"district","parent":"","source":"LGD via Bharatlas · 2024 snapshot","state_lgd":23,"district_lgd":425,"center":[78.75973059350612,23.85004455802297],"bbox":[78.0597274,23.1654124,79.3523276,24.451206]},"geometry":{"type":"Point","coordinates":[78.75973059350612,23.85004455802297]}},{"type":"Feature","id":"in-madhya-pradesh-d-426","properties":{"id":"in-madhya-pradesh-d-426","name":"Satna","region":"in-madhya-pradesh","level":"district","parent":"","source":"LGD via Bharatlas · 2024 snapshot","state_lgd":23,"district_lgd":426,"center":[80.83219546592903,24.529506618929403],"bbox":[80.0998675,23.9671783,81.3888246,25.1879389]},"geometry":{"type":"Point","coordinates":[80.83219546592903,24.529506618929403]}},{"type":"Feature","id":"in-madhya-pradesh-d-427","properties":{"id":"in-madhya-pradesh-d-427","name":"Sehore","region":"in-madhya-pradesh","level":"district","parent":"","source":"LGD via Bharatlas · 2024 snapshot","state_lgd":23,"district_lgd":427,"center":[77.1274295776297,22.987637065107474],"bbox":[76.4302038,22.5554231,78.0347113,23.6745473]},"geometry":{"type":"Point","coordinates":[77.1274295776297,22.987637065107474]}},{"type":"Feature","id":"in-madhya-pradesh-d-428","properties":{"id":"in-madhya-pradesh-d-428","name":"Seoni","region":"in-madhya-pradesh","level":"district","parent":"","source":"LGD via Bharatlas · 2024 snapshot","state_lgd":23,"district_lgd":428,"center":[79.68916306299477,22.316959862382003],"bbox":[79.194898,21.5942719,80.289425,22.9555521]},"geometry":{"type":"Point","coordinates":[79.68916306299477,22.316959862382003]}},{"type":"Feature","id":"in-madhya-pradesh-d-429","properties":{"id":"in-madhya-pradesh-d-429","name":"Shahdol","region":"in-madhya-pradesh","level":"district","parent":"","source":"LGD via Bharatlas · 2024 snapshot","state_lgd":23,"district_lgd":429,"center":[81.47349327682973,23.62944213641394],"bbox":[80.9986687,23.0243833,81.9847975,24.2820793]},"geometry":{"type":"Point","coordinates":[81.47349327682973,23.62944213641394]}},{"type":"Feature","id":"in-madhya-pradesh-d-430","properties":{"id":"in-madhya-pradesh-d-430","name":"Shajapur","region":"in-madhya-pradesh","level":"district","parent":"","source":"LGD via Bharatlas · 2024 snapshot","state_lgd":23,"district_lgd":430,"center":[76.55949855369303,23.383975389106663],"bbox":[76.1205879,23.1076508,77.0497352,23.726587]},"geometry":{"type":"Point","coordinates":[76.55949855369303,23.383975389106663]}},{"type":"Feature","id":"in-madhya-pradesh-d-431","properties":{"id":"in-madhya-pradesh-d-431","name":"Sheopur","region":"in-madhya-pradesh","level":"district","parent":"","source":"LGD via Bharatlas · 2024 snapshot","state_lgd":23,"district_lgd":431,"center":[77.00690688906604,25.753954745303623],"bbox":[76.4719918,25.2821217,77.6698081,26.2178636]},"geometry":{"type":"Point","coordinates":[77.00690688906604,25.753954745303623]}},{"type":"Feature","id":"in-madhya-pradesh-d-432","properties":{"id":"in-madhya-pradesh-d-432","name":"Shivpuri","region":"in-madhya-pradesh","level":"district","parent":"","source":"LGD via Bharatlas · 2024 snapshot","state_lgd":23,"district_lgd":432,"center":[77.80537219106847,25.365538984997347],"bbox":[77.0119516,24.8351,78.4685962,25.913154]},"geometry":{"type":"Point","coordinates":[77.80537219106847,25.365538984997347]}},{"type":"Feature","id":"in-madhya-pradesh-d-433","properties":{"id":"in-madhya-pradesh-d-433","name":"Sidhi","region":"in-madhya-pradesh","level":"district","parent":"","source":"LGD via Bharatlas · 2024 snapshot","state_lgd":23,"district_lgd":433,"center":[81.8340236572201,24.220619450414155],"bbox":[81.3052316,23.806365,82.3797544,24.6164612]},"geometry":{"type":"Point","coordinates":[81.8340236572201,24.220619450414155]}},{"type":"Feature","id":"in-madhya-pradesh-d-638","properties":{"id":"in-madhya-pradesh-d-638","name":"Singrauli","region":"in-madhya-pradesh","level":"district","parent":"","source":"LGD via Bharatlas · 2024 snapshot","state_lgd":23,"district_lgd":638,"center":[82.41994469004275,24.21591330152002],"bbox":[81.8778826,23.7836774,82.8126116,24.7025857]},"geometry":{"type":"Point","coordinates":[82.41994469004275,24.21591330152002]}},{"type":"Feature","id":"in-madhya-pradesh-d-434","properties":{"id":"in-madhya-pradesh-d-434","name":"Tikamgarh","region":"in-madhya-pradesh","level":"district","parent":"","source":"LGD via Bharatlas · 2024 snapshot","state_lgd":23,"district_lgd":434,"center":[79.01610642705738,24.8831949938247],"bbox":[78.6313697,24.4366219,79.3463539,25.2740499]},"geometry":{"type":"Point","coordinates":[79.01610642705738,24.8831949938247]}},{"type":"Feature","id":"in-madhya-pradesh-d-435","properties":{"id":"in-madhya-pradesh-d-435","name":"Ujjain","region":"in-madhya-pradesh","level":"district","parent":"","source":"LGD via Bharatlas · 2024 snapshot","state_lgd":23,"district_lgd":435,"center":[75.66903261363018,23.330883107896035],"bbox":[75.1345491,22.8296422,76.2547673,23.7574897]},"geometry":{"type":"Point","coordinates":[75.66903261363018,23.330883107896035]}},{"type":"Feature","id":"in-madhya-pradesh-d-436","properties":{"id":"in-madhya-pradesh-d-436","name":"Umaria","region":"in-madhya-pradesh","level":"district","parent":"","source":"LGD via Bharatlas · 2024 snapshot","state_lgd":23,"district_lgd":436,"center":[80.97319009564538,23.56279275549046],"bbox":[80.5283787,23.1944683,81.3530583,24.0916561]},"geometry":{"type":"Point","coordinates":[80.97319009564538,23.56279275549046]}},{"type":"Feature","id":"in-madhya-pradesh-d-437","properties":{"id":"in-madhya-pradesh-d-437","name":"Vidisha","region":"in-madhya-pradesh","level":"district","parent":"","source":"LGD via Bharatlas · 2024 snapshot","state_lgd":23,"district_lgd":437,"center":[77.812964868216,23.892375238335937],"bbox":[77.2592219,23.3435685,78.3116091,24.3490222]},"geometry":{"type":"Point","coordinates":[77.812964868216,23.892375238335937]}}]}
