{"type":"FeatureCollection","features":[{"type":"Feature","id":"in-meghalaya-t-1998","properties":{"id":"in-meghalaya-t-1998","name":"Amlarem","region":"in-meghalaya","level":"tehsil","parent":"in-meghalaya-d-275","district":"West Jaintia Hills","source":"LGD via Bharatlas · 2024 snapshot","state_lgd":17,"district_lgd":275,"subdistrict_lgd":1998,"center":[92.1194143315329,25.249627849588308],"bbox":[91.98212,25.1179211,92.2385773,25.4088351]},"geometry":{"type":"Point","coordinates":[92.1194143315329,25.249627849588308]}},{"type":"Feature","id":"in-meghalaya-t-1977","properties":{"id":"in-meghalaya-t-1977","name":"Baghmara","region":"in-meghalaya","level":"tehsil","parent":"in-meghalaya-d-277","district":"South Garo Hills","source":"LGD via Bharatlas · 2024 snapshot","state_lgd":17,"district_lgd":277,"subdistrict_lgd":1977,"center":[90.63353333722984,25.338275935864857],"bbox":[90.4873719,25.1694237,90.7925478,25.5543177]},"geometry":{"type":"Point","coordinates":[90.63353333722984,25.338275935864857]}},{"type":"Feature","id":"in-meghalaya-t-1966","properties":{"id":"in-meghalaya-t-1966","name":"Betasing","region":"in-meghalaya","level":"tehsil","parent":"in-meghalaya-d-663","district":"South West Garo Hills","source":"LGD via Bharatlas · 2024 snapshot","state_lgd":17,"district_lgd":663,"subdistrict_lgd":1966,"center":[89.99687875781173,25.523258935644353],"bbox":[89.8676117,25.4599844,90.1320262,25.5917521]},"geometry":{"type":"Point","coordinates":[89.99687875781173,25.523258935644353]}},{"type":"Feature","id":"in-meghalaya-t-1975","properties":{"id":"in-meghalaya-t-1975","name":"Chokpot","region":"in-meghalaya","level":"tehsil","parent":"in-meghalaya-d-277","district":"South Garo Hills","source":"LGD via Bharatlas · 2024 snapshot","state_lgd":17,"district_lgd":277,"subdistrict_lgd":1975,"center":[90.43037129993635,25.36328921863689],"bbox":[90.273788,25.2527832,90.5943454,25.4610199]},"geometry":{"type":"Point","coordinates":[90.43037129993635,25.36328921863689]}},{"type":"Feature","id":"in-meghalaya-t-1963","properties":{"id":"in-meghalaya-t-1963","name":"Dadenggiri","region":"in-meghalaya","level":"tehsil","parent":"in-meghalaya-d-278","district":"West Garo Hills","source":"LGD via Bharatlas · 2024 snapshot","state_lgd":17,"district_lgd":278,"subdistrict_lgd":1963,"center":[90.1930805058912,25.789820543382543],"bbox":[90.0498137,25.665865,90.3578345,25.9409146]},"geometry":{"type":"Point","coordinates":[90.1930805058912,25.789820543382543]}},{"type":"Feature","id":"in-meghalaya-t-1969","properties":{"id":"in-meghalaya-t-1969","name":"Dalu","region":"in-meghalaya","level":"tehsil","parent":"in-meghalaya-d-278","district":"West Garo Hills","source":"LGD via Bharatlas · 2024 snapshot","state_lgd":17,"district_lgd":278,"subdistrict_lgd":1969,"center":[90.15028214349823,25.305157804272895],"bbox":[89.9662377,25.2001377,90.2851667,25.4221479]},"geometry":{"type":"Point","coordinates":[90.15028214349823,25.305157804272895]}},{"type":"Feature","id":"in-meghalaya-t-1971","properties":{"id":"in-meghalaya-t-1971","name":"Dambo Rongjeng","region":"in-meghalaya","level":"tehsil","parent":"in-meghalaya-d-273","district":"East Garo Hills","source":"LGD via Bharatlas · 2024 snapshot","state_lgd":17,"district_lgd":273,"subdistrict_lgd":1971,"center":[90.80616921254862,25.695718372102924],"bbox":[90.684997,25.5723781,90.9746581,25.8144424]},"geometry":{"type":"Point","coordinates":[90.80616921254862,25.695718372102924]}},{"type":"Feature","id":"in-meghalaya-t-1968","properties":{"id":"in-meghalaya-t-1968","name":"Gambegre","region":"in-meghalaya","level":"tehsil","parent":"in-meghalaya-d-278","district":"West Garo Hills","source":"LGD via Bharatlas · 2024 snapshot","state_lgd":17,"district_lgd":278,"subdistrict_lgd":1968,"center":[90.24677725185268,25.435620543441086],"bbox":[90.14768,25.311745,90.3377959,25.5206844]},"geometry":{"type":"Point","coordinates":[90.24677725185268,25.435620543441086]}},{"type":"Feature","id":"in-meghalaya-t-1976","properties":{"id":"in-meghalaya-t-1976","name":"Gasuapara","region":"in-meghalaya","level":"tehsil","parent":"in-meghalaya-d-277","district":"South Garo Hills","source":"LGD via Bharatlas · 2024 snapshot","state_lgd":17,"district_lgd":277,"subdistrict_lgd":1976,"center":[90.37667387073549,25.223552816964144],"bbox":[90.234023,25.1445084,90.5096975,25.3136709]},"geometry":{"type":"Point","coordinates":[90.37667387073549,25.223552816964144]}},{"type":"Feature","id":"in-meghalaya-t-1986","properties":{"id":"in-meghalaya-t-1986","name":"Jirang","region":"in-meghalaya","level":"tehsil","parent":"in-meghalaya-d-276","district":"Ri Bhoi","source":"LGD via Bharatlas · 2024 snapshot","state_lgd":17,"district_lgd":276,"subdistrict_lgd":1986,"center":[91.62110698517625,25.89941436417954],"bbox":[91.3418942,25.7884353,91.8100719,26.0897577]},"geometry":{"type":"Point","coordinates":[91.62110698517625,25.89941436417954]}},{"type":"Feature","id":"in-meghalaya-t-1972","properties":{"id":"in-meghalaya-t-1972","name":"Kharkutta","region":"in-meghalaya","level":"tehsil","parent":"in-meghalaya-d-656","district":"North Garo Hills","source":"LGD via Bharatlas · 2024 snapshot","state_lgd":17,"district_lgd":656,"subdistrict_lgd":1972,"center":[90.88819379718238,25.85171120006168],"bbox":[90.7500812,25.732638,91.0305484,25.9524373]},"geometry":{"type":"Point","coordinates":[90.88819379718238,25.85171120006168]}},{"type":"Feature","id":"in-meghalaya-t-1992","properties":{"id":"in-meghalaya-t-1992","name":"Khatarshnong Laitkroh","region":"in-meghalaya","level":"tehsil","parent":"in-meghalaya-d-274","district":"East Khasi Hills","source":"LGD via Bharatlas · 2024 snapshot","state_lgd":17,"district_lgd":274,"subdistrict_lgd":1992,"center":[91.80045138859569,25.376966967315017],"bbox":[91.6760487,25.2596754,91.9185552,25.5137319]},"geometry":{"type":"Point","coordinates":[91.80045138859569,25.376966967315017]}},{"type":"Feature","id":"in-meghalaya-t-1999","properties":{"id":"in-meghalaya-t-1999","name":"Khliehriat","region":"in-meghalaya","level":"tehsil","parent":"in-meghalaya-d-657","district":"East Jaintia Hills","source":"LGD via Bharatlas · 2024 snapshot","state_lgd":17,"district_lgd":657,"subdistrict_lgd":1999,"center":[92.3316223806471,25.22989083213265],"bbox":[92.171253,25.0277954,92.4794129,25.4179951]},"geometry":{"type":"Point","coordinates":[92.3316223806471,25.22989083213265]}},{"type":"Feature","id":"in-meghalaya-t-1997","properties":{"id":"in-meghalaya-t-1997","name":"Laskein","region":"in-meghalaya","level":"tehsil","parent":"in-meghalaya-d-275","district":"West Jaintia Hills","source":"LGD via Bharatlas · 2024 snapshot","state_lgd":17,"district_lgd":275,"subdistrict_lgd":1997,"center":[92.44750200420341,25.525384070678573],"bbox":[92.2795277,25.4007698,92.6614615,25.6446429]},"geometry":{"type":"Point","coordinates":[92.44750200420341,25.525384070678573]}},{"type":"Feature","id":"in-meghalaya-t-1982","properties":{"id":"in-meghalaya-t-1982","name":"Mairang","region":"in-meghalaya","level":"tehsil","parent":"in-meghalaya-d-740","district":"Eastern West Khasi Hills","source":"LGD via Bharatlas · 2024 snapshot","state_lgd":17,"district_lgd":740,"subdistrict_lgd":1982,"center":[91.65198046414297,25.685541379966953],"bbox":[91.485804,25.5186716,91.8286058,25.8288618]},"geometry":{"type":"Point","coordinates":[91.65198046414297,25.685541379966953]}},{"type":"Feature","id":"in-meghalaya-t-1991","properties":{"id":"in-meghalaya-t-1991","name":"Mawkynrew","region":"in-meghalaya","level":"tehsil","parent":"in-meghalaya-d-274","district":"East Khasi Hills","source":"LGD via Bharatlas · 2024 snapshot","state_lgd":17,"district_lgd":274,"subdistrict_lgd":1991,"center":[92.01286086662684,25.42322304161684],"bbox":[91.8812217,25.3038042,92.1199869,25.5288739]},"geometry":{"type":"Point","coordinates":[92.01286086662684,25.42322304161684]}},{"type":"Feature","id":"in-meghalaya-t-1984","properties":{"id":"in-meghalaya-t-1984","name":"Mawkyrwat","region":"in-meghalaya","level":"tehsil","parent":"in-meghalaya-d-658","district":"South West Khasi Hills","source":"LGD via Bharatlas · 2024 snapshot","state_lgd":17,"district_lgd":658,"subdistrict_lgd":1984,"center":[91.33726380581646,25.361295214754932],"bbox":[91.0953482,25.2763898,91.5560754,25.4516564]},"geometry":{"type":"Point","coordinates":[91.33726380581646,25.361295214754932]}},{"type":"Feature","id":"in-meghalaya-t-1988","properties":{"id":"in-meghalaya-t-1988","name":"Mawphlang","region":"in-meghalaya","level":"tehsil","parent":"in-meghalaya-d-274","district":"East Khasi Hills","source":"LGD via Bharatlas · 2024 snapshot","state_lgd":17,"district_lgd":274,"subdistrict_lgd":1988,"center":[91.76965924711959,25.543774530447987],"bbox":[91.6897334,25.4206134,91.8650504,25.6692792]},"geometry":{"type":"Point","coordinates":[91.76965924711959,25.543774530447987]}},{"type":"Feature","id":"in-meghalaya-t-1990","properties":{"id":"in-meghalaya-t-1990","name":"Mawryngkneng","region":"in-meghalaya","level":"tehsil","parent":"in-meghalaya-d-274","district":"East Khasi Hills","source":"LGD via Bharatlas · 2024 snapshot","state_lgd":17,"district_lgd":274,"subdistrict_lgd":1990,"center":[92.0302848443812,25.576762969605596],"bbox":[91.879758,25.5137319,92.1581904,25.6735627]},"geometry":{"type":"Point","coordinates":[92.0302848443812,25.576762969605596]}},{"type":"Feature","id":"in-meghalaya-t-1979","properties":{"id":"in-meghalaya-t-1979","name":"Mawshynrut","region":"in-meghalaya","level":"tehsil","parent":"in-meghalaya-d-279","district":"West Khasi Hills","source":"LGD via Bharatlas · 2024 snapshot","state_lgd":17,"district_lgd":279,"subdistrict_lgd":1979,"center":[91.00315830770407,25.58523404827723],"bbox":[90.7491359,25.2936185,91.2994348,25.8613935]},"geometry":{"type":"Point","coordinates":[91.00315830770407,25.58523404827723]}},{"type":"Feature","id":"in-meghalaya-t-1993","properties":{"id":"in-meghalaya-t-1993","name":"Mawsynram","region":"in-meghalaya","level":"tehsil","parent":"in-meghalaya-d-274","district":"East Khasi Hills","source":"LGD via Bharatlas · 2024 snapshot","state_lgd":17,"district_lgd":274,"subdistrict_lgd":1993,"center":[91.57285859150545,25.331250045671755],"bbox":[91.3538134,25.1334178,91.7431626,25.5518724]},"geometry":{"type":"Point","coordinates":[91.57285859150545,25.331250045671755]}},{"type":"Feature","id":"in-meghalaya-t-1981","properties":{"id":"in-meghalaya-t-1981","name":"Mawthadraishan","region":"in-meghalaya","level":"tehsil","parent":"in-meghalaya-d-740","district":"Eastern West Khasi Hills","source":"LGD via Bharatlas · 2024 snapshot","state_lgd":17,"district_lgd":740,"subdistrict_lgd":1981,"center":[91.4512253660076,25.55931202676296],"bbox":[91.2883246,25.4067736,91.5732208,25.7970246]},"geometry":{"type":"Point","coordinates":[91.4512253660076,25.55931202676296]}},{"type":"Feature","id":"in-meghalaya-t-1989","properties":{"id":"in-meghalaya-t-1989","name":"Mylliem","region":"in-meghalaya","level":"tehsil","parent":"in-meghalaya-d-274","district":"East Khasi Hills","source":"LGD via Bharatlas · 2024 snapshot","state_lgd":17,"district_lgd":274,"subdistrict_lgd":1989,"center":[91.88979854759701,25.578016415086122],"bbox":[91.7878992,25.4565758,91.9980861,25.690557]},"geometry":{"type":"Point","coordinates":[91.88979854759701,25.578016415086122]}},{"type":"Feature","id":"in-meghalaya-t-1980","properties":{"id":"in-meghalaya-t-1980","name":"Nongstoin","region":"in-meghalaya","level":"tehsil","parent":"in-meghalaya-d-279","district":"West Khasi Hills","source":"LGD via Bharatlas · 2024 snapshot","state_lgd":17,"district_lgd":279,"subdistrict_lgd":1980,"center":[91.24846531694885,25.563011939433174],"bbox":[90.9984647,25.3065227,91.4444805,25.8406932]},"geometry":{"type":"Point","coordinates":[91.24846531694885,25.563011939433174]}},{"type":"Feature","id":"in-meghalaya-t-1995","properties":{"id":"in-meghalaya-t-1995","name":"Pynursla","region":"in-meghalaya","level":"tehsil","parent":"in-meghalaya-d-274","district":"East Khasi Hills","source":"LGD via Bharatlas · 2024 snapshot","state_lgd":17,"district_lgd":274,"subdistrict_lgd":1995,"center":[91.89820750348754,25.270063379825192],"bbox":[91.7660745,25.1631295,92.0219901,25.4693693]},"geometry":{"type":"Point","coordinates":[91.89820750348754,25.270063379825192]}},{"type":"Feature","id":"in-meghalaya-t-1983","properties":{"id":"in-meghalaya-t-1983","name":"Ranikor","region":"in-meghalaya","level":"tehsil","parent":"in-meghalaya-d-658","district":"South West Khasi Hills","source":"LGD via Bharatlas · 2024 snapshot","state_lgd":17,"district_lgd":658,"subdistrict_lgd":1983,"center":[91.1488004484295,25.258223693562588],"bbox":[90.8570604,25.1679533,91.4958794,25.3657905]},"geometry":{"type":"Point","coordinates":[91.1488004484295,25.258223693562588]}},{"type":"Feature","id":"in-meghalaya-t-1970","properties":{"id":"in-meghalaya-t-1970","name":"Resubelpara","region":"in-meghalaya","level":"tehsil","parent":"in-meghalaya-d-656","district":"North Garo Hills","source":"LGD via Bharatlas · 2024 snapshot","state_lgd":17,"district_lgd":656,"subdistrict_lgd":1970,"center":[90.55048436949166,25.852765516869177],"bbox":[90.3310283,25.7049374,90.784898,26.0095867]},"geometry":{"type":"Point","coordinates":[90.55048436949166,25.852765516869177]}},{"type":"Feature","id":"in-meghalaya-t-1978","properties":{"id":"in-meghalaya-t-1978","name":"Rongara","region":"in-meghalaya","level":"tehsil","parent":"in-meghalaya-d-277","district":"South Garo Hills","source":"LGD via Bharatlas · 2024 snapshot","state_lgd":17,"district_lgd":277,"subdistrict_lgd":1978,"center":[90.79478025702883,25.251003949209558],"bbox":[90.64515,25.1549114,90.9715052,25.3798418]},"geometry":{"type":"Point","coordinates":[90.79478025702883,25.251003949209558]}},{"type":"Feature","id":"in-meghalaya-t-1965","properties":{"id":"in-meghalaya-t-1965","name":"Rongram","region":"in-meghalaya","level":"tehsil","parent":"in-meghalaya-d-278","district":"West Garo Hills","source":"LGD via Bharatlas · 2024 snapshot","state_lgd":17,"district_lgd":278,"subdistrict_lgd":1965,"center":[90.27425707880421,25.614635612292677],"bbox":[90.0975219,25.4767255,90.4138091,25.8056368]},"geometry":{"type":"Point","coordinates":[90.27425707880421,25.614635612292677]}},{"type":"Feature","id":"in-meghalaya-t-2000","properties":{"id":"in-meghalaya-t-2000","name":"Saipung","region":"in-meghalaya","level":"tehsil","parent":"in-meghalaya-d-657","district":"East Jaintia Hills","source":"LGD via Bharatlas · 2024 snapshot","state_lgd":17,"district_lgd":657,"subdistrict_lgd":2000,"center":[92.58625309844952,25.28305487645436],"bbox":[92.4233634,25.0986072,92.8029147,25.4721062]},"geometry":{"type":"Point","coordinates":[92.58625309844952,25.28305487645436]}},{"type":"Feature","id":"in-meghalaya-t-1974","properties":{"id":"in-meghalaya-t-1974","name":"Samanda","region":"in-meghalaya","level":"tehsil","parent":"in-meghalaya-d-273","district":"East Garo Hills","source":"LGD via Bharatlas · 2024 snapshot","state_lgd":17,"district_lgd":273,"subdistrict_lgd":1974,"center":[90.51249751533824,25.530523794341352],"bbox":[90.3157568,25.4153969,90.7314109,25.673843]},"geometry":{"type":"Point","coordinates":[90.51249751533824,25.530523794341352]}},{"type":"Feature","id":"in-meghalaya-t-1962","properties":{"id":"in-meghalaya-t-1962","name":"Selsella","region":"in-meghalaya","level":"tehsil","parent":"in-meghalaya-d-278","district":"West Garo Hills","source":"LGD via Bharatlas · 2024 snapshot","state_lgd":17,"district_lgd":278,"subdistrict_lgd":1962,"center":[90.03764743241527,25.72992897997804],"bbox":[89.8936271,25.5255759,90.1574843,25.9584502]},"geometry":{"type":"Point","coordinates":[90.03764743241527,25.72992897997804]}},{"type":"Feature","id":"in-meghalaya-t-1994","properties":{"id":"in-meghalaya-t-1994","name":"Shella Bholaganj","region":"in-meghalaya","level":"tehsil","parent":"in-meghalaya-d-274","district":"East Khasi Hills","source":"LGD via Bharatlas · 2024 snapshot","state_lgd":17,"district_lgd":274,"subdistrict_lgd":1994,"center":[91.69558606502865,25.22783743023591],"bbox":[91.5994149,25.1225445,91.7883593,25.3418857]},"geometry":{"type":"Point","coordinates":[91.69558606502865,25.22783743023591]}},{"type":"Feature","id":"in-meghalaya-t-1973","properties":{"id":"in-meghalaya-t-1973","name":"Songsak","region":"in-meghalaya","level":"tehsil","parent":"in-meghalaya-d-273","district":"East Garo Hills","source":"LGD via Bharatlas · 2024 snapshot","state_lgd":17,"district_lgd":273,"subdistrict_lgd":1973,"center":[90.6052577863898,25.661828366199682],"bbox":[90.3966435,25.5330278,90.7739902,25.7904361]},"geometry":{"type":"Point","coordinates":[90.6052577863898,25.661828366199682]}},{"type":"Feature","id":"in-meghalaya-t-1996","properties":{"id":"in-meghalaya-t-1996","name":"Thadlaskein","region":"in-meghalaya","level":"tehsil","parent":"in-meghalaya-d-275","district":"West Jaintia Hills","source":"LGD via Bharatlas · 2024 snapshot","state_lgd":17,"district_lgd":275,"subdistrict_lgd":1996,"center":[92.25283466583603,25.56536565912824],"bbox":[92.0962008,25.3593154,92.48667,25.754523]},"geometry":{"type":"Point","coordinates":[92.25283466583603,25.56536565912824]}},{"type":"Feature","id":"in-meghalaya-t-1964","properties":{"id":"in-meghalaya-t-1964","name":"Tikrikilla","region":"in-meghalaya","level":"tehsil","parent":"in-meghalaya-d-278","district":"West Garo Hills","source":"LGD via Bharatlas · 2024 snapshot","state_lgd":17,"district_lgd":278,"subdistrict_lgd":1964,"center":[90.30558209525343,25.913639208444607],"bbox":[90.1305856,25.8051791,90.425607,26.0125162]},"geometry":{"type":"Point","coordinates":[90.30558209525343,25.913639208444607]}},{"type":"Feature","id":"in-meghalaya-t-1985","properties":{"id":"in-meghalaya-t-1985","name":"Umling","region":"in-meghalaya","level":"tehsil","parent":"in-meghalaya-d-276","district":"Ri Bhoi","source":"LGD via Bharatlas · 2024 snapshot","state_lgd":17,"district_lgd":276,"subdistrict_lgd":1985,"center":[91.9294391916281,25.958455263416393],"bbox":[91.7601032,25.8087675,92.151596,26.1194058]},"geometry":{"type":"Point","coordinates":[91.9294391916281,25.958455263416393]}},{"type":"Feature","id":"in-meghalaya-t-1987","properties":{"id":"in-meghalaya-t-1987","name":"Umsning","region":"in-meghalaya","level":"tehsil","parent":"in-meghalaya-d-276","district":"Ri Bhoi","source":"LGD via Bharatlas · 2024 snapshot","state_lgd":17,"district_lgd":276,"subdistrict_lgd":1987,"center":[92.01881200361122,25.803449895462528],"bbox":[91.7653559,25.6293526,92.274893,26.0782444]},"geometry":{"type":"Point","coordinates":[92.01881200361122,25.803449895462528]}},{"type":"Feature","id":"in-meghalaya-t-1967","properties":{"id":"in-meghalaya-t-1967","name":"Zikzak","region":"in-meghalaya","level":"tehsil","parent":"in-meghalaya-d-663","district":"South West Garo Hills","source":"LGD via Bharatlas · 2024 snapshot","state_lgd":17,"district_lgd":663,"subdistrict_lgd":1967,"center":[89.98255180329603,25.40591917031825],"bbox":[89.8195454,25.2853283,90.164051,25.553826]},"geometry":{"type":"Point","coordinates":[89.98255180329603,25.40591917031825]}}]}
