{"type":"FeatureCollection","features":[{"type":"Feature","id":"in-manipur-d-252","properties":{"id":"in-manipur-d-252","name":"Bishnupur","region":"in-manipur","level":"district","parent":"","source":"LGD via Bharatlas · 2024 snapshot","state_lgd":14,"district_lgd":252,"center":[93.79544586089584,24.539344636883307],"bbox":[93.7047856,24.3064979,93.8943166,24.7396044]},"geometry":{"type":"Point","coordinates":[93.79544586089584,24.539344636883307]}},{"type":"Feature","id":"in-manipur-d-253","properties":{"id":"in-manipur-d-253","name":"Chandel","region":"in-manipur","level":"district","parent":"","source":"LGD via Bharatlas · 2024 snapshot","state_lgd":14,"district_lgd":253,"center":[94.00718810540728,24.137733593832337],"bbox":[93.7349797,23.8328484,94.2548899,24.4919477]},"geometry":{"type":"Point","coordinates":[94.00718810540728,24.137733593832337]}},{"type":"Feature","id":"in-manipur-d-254","properties":{"id":"in-manipur-d-254","name":"Churachandpur","region":"in-manipur","level":"district","parent":"","source":"LGD via Bharatlas · 2024 snapshot","state_lgd":14,"district_lgd":254,"center":[93.60575482966294,24.277463790891936],"bbox":[93.3650359,23.9421156,93.8771433,24.6121871]},"geometry":{"type":"Point","coordinates":[93.60575482966294,24.277463790891936]}},{"type":"Feature","id":"in-manipur-d-255","properties":{"id":"in-manipur-d-255","name":"Imphal East","region":"in-manipur","level":"district","parent":"","source":"LGD via Bharatlas · 2024 snapshot","state_lgd":14,"district_lgd":255,"center":[94.01050119537467,24.82573312699778],"bbox":[93.8953225,24.6545193,94.1417402,25.0503043]},"geometry":{"type":"Point","coordinates":[94.01050119537467,24.82573312699778]}},{"type":"Feature","id":"in-manipur-d-256","properties":{"id":"in-manipur-d-256","name":"Imphal West","region":"in-manipur","level":"district","parent":"","source":"LGD via Bharatlas · 2024 snapshot","state_lgd":14,"district_lgd":256,"center":[93.870593904298,24.78377770928088],"bbox":[93.7705672,24.455898,93.9656995,25.134836]},"geometry":{"type":"Point","coordinates":[93.870593904298,24.78377770928088]}},{"type":"Feature","id":"in-manipur-d-713","properties":{"id":"in-manipur-d-713","name":"Jiribam","region":"in-manipur","level":"district","parent":"","source":"LGD via Bharatlas · 2024 snapshot","state_lgd":14,"district_lgd":713,"center":[93.1334997250072,24.70385136747979],"bbox":[93.0711513,24.552461,93.2387337,24.8561448]},"geometry":{"type":"Point","coordinates":[93.1334997250072,24.70385136747979]}},{"type":"Feature","id":"in-manipur-d-711","properties":{"id":"in-manipur-d-711","name":"Kakching","region":"in-manipur","level":"district","parent":"","source":"LGD via Bharatlas · 2024 snapshot","state_lgd":14,"district_lgd":711,"center":[93.91999240257951,24.442324636415595],"bbox":[93.8374895,24.220705,94.0477295,24.5641222]},"geometry":{"type":"Point","coordinates":[93.91999240257951,24.442324636415595]}},{"type":"Feature","id":"in-manipur-d-717","properties":{"id":"in-manipur-d-717","name":"Kamjong","region":"in-manipur","level":"district","parent":"","source":"LGD via Bharatlas · 2024 snapshot","state_lgd":14,"district_lgd":717,"center":[94.43342776055464,24.806545724879225],"bbox":[94.1343033,24.4783455,94.7446864,25.1028888]},"geometry":{"type":"Point","coordinates":[94.43342776055464,24.806545724879225]}},{"type":"Feature","id":"in-manipur-d-712","properties":{"id":"in-manipur-d-712","name":"Kangpokpi","region":"in-manipur","level":"district","parent":"","source":"LGD via Bharatlas · 2024 snapshot","state_lgd":14,"district_lgd":712,"center":[93.94001074905546,24.987486041154924],"bbox":[93.6604956,24.6185608,94.1949537,25.3236121]},"geometry":{"type":"Point","coordinates":[93.94001074905546,24.987486041154924]}},{"type":"Feature","id":"in-manipur-d-714","properties":{"id":"in-manipur-d-714","name":"Noney","region":"in-manipur","level":"district","parent":"","source":"LGD via Bharatlas · 2024 snapshot","state_lgd":14,"district_lgd":714,"center":[93.45972017780755,24.676478661572737],"bbox":[93.1692761,24.4944821,93.7381486,24.8464604]},"geometry":{"type":"Point","coordinates":[93.45972017780755,24.676478661572737]}},{"type":"Feature","id":"in-manipur-d-715","properties":{"id":"in-manipur-d-715","name":"Pherzawl","region":"in-manipur","level":"district","parent":"","source":"LGD via Bharatlas · 2024 snapshot","state_lgd":14,"district_lgd":715,"center":[93.22073265279012,24.320403630550803],"bbox":[92.9694338,24.0207124,93.496351,24.7211378]},"geometry":{"type":"Point","coordinates":[93.22073265279012,24.320403630550803]}},{"type":"Feature","id":"in-manipur-d-257","properties":{"id":"in-manipur-d-257","name":"Senapati","region":"in-manipur","level":"district","parent":"","source":"LGD via Bharatlas · 2024 snapshot","state_lgd":14,"district_lgd":257,"center":[94.11898137520747,25.395592893651752],"bbox":[93.7606118,25.1644845,94.489697,25.6162487]},"geometry":{"type":"Point","coordinates":[94.11898137520747,25.395592893651752]}},{"type":"Feature","id":"in-manipur-d-258","properties":{"id":"in-manipur-d-258","name":"Tamenglong","region":"in-manipur","level":"district","parent":"","source":"LGD via Bharatlas · 2024 snapshot","state_lgd":14,"district_lgd":258,"center":[93.54839974019649,25.054565025705326],"bbox":[93.1529685,24.6666987,93.9552788,25.4615894]},"geometry":{"type":"Point","coordinates":[93.54839974019649,25.054565025705326]}},{"type":"Feature","id":"in-manipur-d-716","properties":{"id":"in-manipur-d-716","name":"Tengnoupal","region":"in-manipur","level":"district","parent":"","source":"LGD via Bharatlas · 2024 snapshot","state_lgd":14,"district_lgd":716,"center":[94.22724234755283,24.414512091873334],"bbox":[94.033146,24.1062691,94.4086938,24.6486983]},"geometry":{"type":"Point","coordinates":[94.22724234755283,24.414512091873334]}},{"type":"Feature","id":"in-manipur-d-259","properties":{"id":"in-manipur-d-259","name":"Thoubal","region":"in-manipur","level":"district","parent":"","source":"LGD via Bharatlas · 2024 snapshot","state_lgd":14,"district_lgd":259,"center":[94.00550641184064,24.613981722104004],"bbox":[93.8886894,24.512896,94.1321242,24.723633]},"geometry":{"type":"Point","coordinates":[94.00550641184064,24.613981722104004]}},{"type":"Feature","id":"in-manipur-d-260","properties":{"id":"in-manipur-d-260","name":"Ukhrul","region":"in-manipur","level":"district","parent":"","source":"LGD via Bharatlas · 2024 snapshot","state_lgd":14,"district_lgd":260,"center":[94.4243672435755,25.211213019647275],"bbox":[94.1175451,24.8845154,94.7448901,25.6920902]},"geometry":{"type":"Point","coordinates":[94.4243672435755,25.211213019647275]}}]}
