{"type":"FeatureCollection","features":[{"type":"Feature","id":"in-maharashtra-d-466","properties":{"id":"in-maharashtra-d-466","name":"Ahmednagar","region":"in-maharashtra","level":"district","parent":"","source":"LGD via Bharatlas · 2024 snapshot","state_lgd":27,"district_lgd":466,"center":[74.67523003300717,19.205391153261868],"bbox":[73.6143755,18.3298711,75.5829714,19.9951879]},"geometry":{"type":"Point","coordinates":[74.67523003300717,19.205391153261868]}},{"type":"Feature","id":"in-maharashtra-d-467","properties":{"id":"in-maharashtra-d-467","name":"Akola","region":"in-maharashtra","level":"district","parent":"","source":"LGD via Bharatlas · 2024 snapshot","state_lgd":27,"district_lgd":467,"center":[77.05601787462368,20.748005052318675],"bbox":[76.6911173,20.2752295,77.6198045,21.2480313]},"geometry":{"type":"Point","coordinates":[77.05601787462368,20.748005052318675]}},{"type":"Feature","id":"in-maharashtra-d-468","properties":{"id":"in-maharashtra-d-468","name":"Amravati","region":"in-maharashtra","level":"district","parent":"","source":"LGD via Bharatlas · 2024 snapshot","state_lgd":27,"district_lgd":468,"center":[77.57035434667503,21.187564883751904],"bbox":[76.6217473,20.5381257,78.4492403,21.7700155]},"geometry":{"type":"Point","coordinates":[77.57035434667503,21.187564883751904]}},{"type":"Feature","id":"in-maharashtra-d-469","properties":{"id":"in-maharashtra-d-469","name":"Aurangabad","region":"in-maharashtra","level":"district","parent":"","source":"LGD via Bharatlas · 2024 snapshot","state_lgd":27,"district_lgd":469,"center":[75.27346733888301,20.022248183384637],"bbox":[74.5891768,19.3776247,76.0428543,20.6683145]},"geometry":{"type":"Point","coordinates":[75.27346733888301,20.022248183384637]}},{"type":"Feature","id":"in-maharashtra-d-470","properties":{"id":"in-maharashtra-d-470","name":"Beed","region":"in-maharashtra","level":"district","parent":"","source":"LGD via Bharatlas · 2024 snapshot","state_lgd":27,"district_lgd":470,"center":[75.83822458589421,18.946659897792323],"bbox":[74.8082301,18.5421583,76.7340674,19.442395]},"geometry":{"type":"Point","coordinates":[75.83822458589421,18.946659897792323]}},{"type":"Feature","id":"in-maharashtra-d-471","properties":{"id":"in-maharashtra-d-471","name":"Bhandara","region":"in-maharashtra","level":"district","parent":"","source":"LGD via Bharatlas · 2024 snapshot","state_lgd":27,"district_lgd":471,"center":[79.76315087886131,21.11561778592812],"bbox":[79.4481311,20.6413977,80.1021136,21.6038929]},"geometry":{"type":"Point","coordinates":[79.76315087886131,21.11561778592812]}},{"type":"Feature","id":"in-maharashtra-d-472","properties":{"id":"in-maharashtra-d-472","name":"Buldhana","region":"in-maharashtra","level":"district","parent":"","source":"LGD via Bharatlas · 2024 snapshot","state_lgd":27,"district_lgd":472,"center":[76.40713346276556,20.510806630406744],"bbox":[75.923094,19.8374935,76.8260763,21.2896825]},"geometry":{"type":"Point","coordinates":[76.40713346276556,20.510806630406744]}},{"type":"Feature","id":"in-maharashtra-d-473","properties":{"id":"in-maharashtra-d-473","name":"Chandrapur","region":"in-maharashtra","level":"district","parent":"","source":"LGD via Bharatlas · 2024 snapshot","state_lgd":27,"district_lgd":473,"center":[79.44053990555983,20.11838545366404],"bbox":[78.7987736,19.4589023,79.99214,20.7348803]},"geometry":{"type":"Point","coordinates":[79.44053990555983,20.11838545366404]}},{"type":"Feature","id":"in-maharashtra-d-474","properties":{"id":"in-maharashtra-d-474","name":"Dhule","region":"in-maharashtra","level":"district","parent":"","source":"LGD via Bharatlas · 2024 snapshot","state_lgd":27,"district_lgd":474,"center":[74.60049402664072,21.11037084307221],"bbox":[73.8505492,20.6277214,75.2065577,21.634455]},"geometry":{"type":"Point","coordinates":[74.60049402664072,21.11037084307221]}},{"type":"Feature","id":"in-maharashtra-d-475","properties":{"id":"in-maharashtra-d-475","name":"Gadchiroli","region":"in-maharashtra","level":"district","parent":"","source":"LGD via Bharatlas · 2024 snapshot","state_lgd":27,"district_lgd":475,"center":[80.24043295493937,19.787912997243474],"bbox":[79.7408154,18.680374,80.8976843,20.834681]},"geometry":{"type":"Point","coordinates":[80.24043295493937,19.787912997243474]}},{"type":"Feature","id":"in-maharashtra-d-476","properties":{"id":"in-maharashtra-d-476","name":"Gondia","region":"in-maharashtra","level":"district","parent":"","source":"LGD via Bharatlas · 2024 snapshot","state_lgd":27,"district_lgd":476,"center":[80.21785515854417,21.165306121600093],"bbox":[79.7959408,20.6546568,80.6817077,21.6360596]},"geometry":{"type":"Point","coordinates":[80.21785515854417,21.165306121600093]}},{"type":"Feature","id":"in-maharashtra-d-477","properties":{"id":"in-maharashtra-d-477","name":"Hingoli","region":"in-maharashtra","level":"district","parent":"","source":"LGD via Bharatlas · 2024 snapshot","state_lgd":27,"district_lgd":477,"center":[77.10045449751269,19.63748032499137],"bbox":[76.5120108,19.2217806,77.4895806,20.0176295]},"geometry":{"type":"Point","coordinates":[77.10045449751269,19.63748032499137]}},{"type":"Feature","id":"in-maharashtra-d-478","properties":{"id":"in-maharashtra-d-478","name":"Jalgaon","region":"in-maharashtra","level":"district","parent":"","source":"LGD via Bharatlas · 2024 snapshot","state_lgd":27,"district_lgd":478,"center":[75.48794010411373,20.93254570409263],"bbox":[74.7602127,20.2699681,76.3986561,21.414769]},"geometry":{"type":"Point","coordinates":[75.48794010411373,20.93254570409263]}},{"type":"Feature","id":"in-maharashtra-d-479","properties":{"id":"in-maharashtra-d-479","name":"Jalna","region":"in-maharashtra","level":"district","parent":"","source":"LGD via Bharatlas · 2024 snapshot","state_lgd":27,"district_lgd":479,"center":[75.9808697593912,19.80730549907168],"bbox":[75.5582645,19.276989,76.5345961,20.5609394]},"geometry":{"type":"Point","coordinates":[75.9808697593912,19.80730549907168]}},{"type":"Feature","id":"in-maharashtra-d-480","properties":{"id":"in-maharashtra-d-480","name":"Kolhapur","region":"in-maharashtra","level":"district","parent":"","source":"LGD via Bharatlas · 2024 snapshot","state_lgd":27,"district_lgd":480,"center":[74.15890893534367,16.470073790155354],"bbox":[73.6883929,15.7415914,74.7005807,17.1820775]},"geometry":{"type":"Point","coordinates":[74.15890893534367,16.470073790155354]}},{"type":"Feature","id":"in-maharashtra-d-481","properties":{"id":"in-maharashtra-d-481","name":"Latur","region":"in-maharashtra","level":"district","parent":"","source":"LGD via Bharatlas · 2024 snapshot","state_lgd":27,"district_lgd":481,"center":[76.75951012691169,18.37376517187375],"bbox":[76.2037475,17.8705752,77.2943583,18.839169]},"geometry":{"type":"Point","coordinates":[76.75951012691169,18.37376517187375]}},{"type":"Feature","id":"in-maharashtra-d-482","properties":{"id":"in-maharashtra-d-482","name":"Mumbai","region":"in-maharashtra","level":"district","parent":"","source":"LGD via Bharatlas · 2024 snapshot","state_lgd":27,"district_lgd":482,"center":[72.83801757071389,18.989040716402663],"bbox":[72.7924965,18.8934052,72.8814764,19.0530042]},"geometry":{"type":"Point","coordinates":[72.83801757071389,18.989040716402663]}},{"type":"Feature","id":"in-maharashtra-d-483","properties":{"id":"in-maharashtra-d-483","name":"Mumbai Suburban","region":"in-maharashtra","level":"district","parent":"","source":"LGD via Bharatlas · 2024 snapshot","state_lgd":27,"district_lgd":483,"center":[72.8844974836962,19.1317774094834],"bbox":[72.7755759,18.9788958,72.9805009,19.2696096]},"geometry":{"type":"Point","coordinates":[72.8844974836962,19.1317774094834]}},{"type":"Feature","id":"in-maharashtra-d-484","properties":{"id":"in-maharashtra-d-484","name":"Nagpur","region":"in-maharashtra","level":"district","parent":"","source":"LGD via Bharatlas · 2024 snapshot","state_lgd":27,"district_lgd":484,"center":[79.08503007636119,21.178155687728914],"bbox":[78.2495982,20.5831343,79.6569687,21.722284]},"geometry":{"type":"Point","coordinates":[79.08503007636119,21.178155687728914]}},{"type":"Feature","id":"in-maharashtra-d-485","properties":{"id":"in-maharashtra-d-485","name":"Nanded","region":"in-maharashtra","level":"district","parent":"","source":"LGD via Bharatlas · 2024 snapshot","state_lgd":27,"district_lgd":485,"center":[77.61782597649128,19.112444530048588],"bbox":[76.9296471,18.262536,78.3646746,19.924349]},"geometry":{"type":"Point","coordinates":[77.61782597649128,19.112444530048588]}},{"type":"Feature","id":"in-maharashtra-d-486","properties":{"id":"in-maharashtra-d-486","name":"Nandurbar","region":"in-maharashtra","level":"district","parent":"","source":"LGD via Bharatlas · 2024 snapshot","state_lgd":27,"district_lgd":486,"center":[74.21659118539895,21.549888050471143],"bbox":[73.5768809,20.9976349,74.7711888,22.0302694]},"geometry":{"type":"Point","coordinates":[74.21659118539895,21.549888050471143]}},{"type":"Feature","id":"in-maharashtra-d-487","properties":{"id":"in-maharashtra-d-487","name":"Nashik","region":"in-maharashtra","level":"district","parent":"","source":"LGD via Bharatlas · 2024 snapshot","state_lgd":27,"district_lgd":487,"center":[74.07070347590336,20.25982008012212],"bbox":[73.2477195,19.5859046,74.9350834,20.8647717]},"geometry":{"type":"Point","coordinates":[74.07070347590336,20.25982008012212]}},{"type":"Feature","id":"in-maharashtra-d-488","properties":{"id":"in-maharashtra-d-488","name":"Osmanabad","region":"in-maharashtra","level":"district","parent":"","source":"LGD via Bharatlas · 2024 snapshot","state_lgd":27,"district_lgd":488,"center":[76.03705231752298,18.188756724735057],"bbox":[75.2839697,17.6409513,76.7903937,18.6981706]},"geometry":{"type":"Point","coordinates":[76.03705231752298,18.188756724735057]}},{"type":"Feature","id":"in-maharashtra-d-665","properties":{"id":"in-maharashtra-d-665","name":"Palghar","region":"in-maharashtra","level":"district","parent":"","source":"LGD via Bharatlas · 2024 snapshot","state_lgd":27,"district_lgd":665,"center":[73.01218405857993,19.79376530137814],"bbox":[72.6419906,19.2871932,73.5038486,20.2283237]},"geometry":{"type":"Point","coordinates":[73.01218405857993,19.79376530137814]}},{"type":"Feature","id":"in-maharashtra-d-489","properties":{"id":"in-maharashtra-d-489","name":"Parbhani","region":"in-maharashtra","level":"district","parent":"","source":"LGD via Bharatlas · 2024 snapshot","state_lgd":27,"district_lgd":489,"center":[76.69085827001133,19.268248416753664],"bbox":[76.2069492,18.7496947,77.1925679,19.8304864]},"geometry":{"type":"Point","coordinates":[76.69085827001133,19.268248416753664]}},{"type":"Feature","id":"in-maharashtra-d-490","properties":{"id":"in-maharashtra-d-490","name":"Pune","region":"in-maharashtra","level":"district","parent":"","source":"LGD via Bharatlas · 2024 snapshot","state_lgd":27,"district_lgd":490,"center":[74.067966244091,18.571059241197727],"bbox":[73.3229189,17.8949561,75.1628094,19.3951243]},"geometry":{"type":"Point","coordinates":[74.067966244091,18.571059241197727]}},{"type":"Feature","id":"in-maharashtra-d-491","properties":{"id":"in-maharashtra-d-491","name":"Raigad","region":"in-maharashtra","level":"district","parent":"","source":"LGD via Bharatlas · 2024 snapshot","state_lgd":27,"district_lgd":491,"center":[73.22145798831355,18.510062610984278],"bbox":[72.8510523,17.8506209,73.6662754,19.1354826]},"geometry":{"type":"Point","coordinates":[73.22145798831355,18.510062610984278]}},{"type":"Feature","id":"in-maharashtra-d-492","properties":{"id":"in-maharashtra-d-492","name":"Ratnagiri","region":"in-maharashtra","level":"district","parent":"","source":"LGD via Bharatlas · 2024 snapshot","state_lgd":27,"district_lgd":492,"center":[73.45467572631394,17.27459184473896],"bbox":[73.0287964,16.4936801,73.863492,18.071303]},"geometry":{"type":"Point","coordinates":[73.45467572631394,17.27459184473896]}},{"type":"Feature","id":"in-maharashtra-d-493","properties":{"id":"in-maharashtra-d-493","name":"Sangli","region":"in-maharashtra","level":"district","parent":"","source":"LGD via Bharatlas · 2024 snapshot","state_lgd":27,"district_lgd":493,"center":[74.76791374321556,17.11376232802499],"bbox":[73.6908549,16.7149085,75.6789677,17.6298517]},"geometry":{"type":"Point","coordinates":[74.76791374321556,17.11376232802499]}},{"type":"Feature","id":"in-maharashtra-d-494","properties":{"id":"in-maharashtra-d-494","name":"Satara","region":"in-maharashtra","level":"district","parent":"","source":"LGD via Bharatlas · 2024 snapshot","state_lgd":27,"district_lgd":494,"center":[74.17272680304104,17.669920149809748],"bbox":[73.5325064,17.0900537,74.9061081,18.1826658]},"geometry":{"type":"Point","coordinates":[74.17272680304104,17.669920149809748]}},{"type":"Feature","id":"in-maharashtra-d-495","properties":{"id":"in-maharashtra-d-495","name":"Sindhudurg","region":"in-maharashtra","level":"district","parent":"","source":"LGD via Bharatlas · 2024 snapshot","state_lgd":27,"district_lgd":495,"center":[73.73774451404431,16.134193651787275],"bbox":[73.3108706,15.6060852,74.2089249,16.6653489]},"geometry":{"type":"Point","coordinates":[73.73774451404431,16.134193651787275]}},{"type":"Feature","id":"in-maharashtra-d-496","properties":{"id":"in-maharashtra-d-496","name":"Solapur","region":"in-maharashtra","level":"district","parent":"","source":"LGD via Bharatlas · 2024 snapshot","state_lgd":27,"district_lgd":496,"center":[75.48314409544473,17.7906534218814],"bbox":[74.607063,17.1457327,76.4291316,18.5540712]},"geometry":{"type":"Point","coordinates":[75.48314409544473,17.7906534218814]}},{"type":"Feature","id":"in-maharashtra-d-497","properties":{"id":"in-maharashtra-d-497","name":"Thane","region":"in-maharashtra","level":"district","parent":"","source":"LGD via Bharatlas · 2024 snapshot","state_lgd":27,"district_lgd":497,"center":[73.31954238933687,19.361102810941233],"bbox":[72.778655,18.9870007,73.7947443,19.7314833]},"geometry":{"type":"Point","coordinates":[73.31954238933687,19.361102810941233]}},{"type":"Feature","id":"in-maharashtra-d-498","properties":{"id":"in-maharashtra-d-498","name":"Wardha","region":"in-maharashtra","level":"district","parent":"","source":"LGD via Bharatlas · 2024 snapshot","state_lgd":27,"district_lgd":498,"center":[78.58588505854728,20.79714328376175],"bbox":[78.0522408,20.2937829,79.2223573,21.3592677]},"geometry":{"type":"Point","coordinates":[78.58588505854728,20.79714328376175]}},{"type":"Feature","id":"in-maharashtra-d-499","properties":{"id":"in-maharashtra-d-499","name":"Washim","region":"in-maharashtra","level":"district","parent":"","source":"LGD via Bharatlas · 2024 snapshot","state_lgd":27,"district_lgd":499,"center":[77.21602611338788,20.23366776770191],"bbox":[76.6056725,19.8469328,77.6907119,20.7570334]},"geometry":{"type":"Point","coordinates":[77.21602611338788,20.23366776770191]}},{"type":"Feature","id":"in-maharashtra-d-500","properties":{"id":"in-maharashtra-d-500","name":"Yavatmal","region":"in-maharashtra","level":"district","parent":"","source":"LGD via Bharatlas · 2024 snapshot","state_lgd":27,"district_lgd":500,"center":[78.16102557298096,20.083546288274082],"bbox":[77.2826122,19.4305526,79.149196,20.6979909]},"geometry":{"type":"Point","coordinates":[78.16102557298096,20.083546288274082]}}]}
