{"type":"FeatureCollection","features":[{"type":"Feature","id":"in-mizoram-t-1899","properties":{"id":"in-mizoram-t-1899","name":"'N' Thingdawl","region":"in-mizoram","level":"tehsil","parent":"in-mizoram-d-263","district":"Kolasib","source":"LGD via Bharatlas · 2024 snapshot","state_lgd":15,"district_lgd":263,"subdistrict_lgd":1899,"center":[92.73617002974528,24.080830084434357],"bbox":[92.533971,23.8458792,92.9002684,24.3246731]},"geometry":{"type":"Point","coordinates":[92.73617002974528,24.080830084434357]}},{"type":"Feature","id":"in-mizoram-t-1904","properties":{"id":"in-mizoram-t-1904","name":"Aibawk","region":"in-mizoram","level":"tehsil","parent":"in-mizoram-d-261","district":"Aizawl","source":"LGD via Bharatlas · 2024 snapshot","state_lgd":15,"district_lgd":261,"subdistrict_lgd":1904,"center":[92.7357316160767,23.481851459575466],"bbox":[92.6333705,23.318872,92.8410257,23.6665337]},"geometry":{"type":"Point","coordinates":[92.7357316160767,23.481851459575466]}},{"type":"Feature","id":"in-mizoram-t-1900","properties":{"id":"in-mizoram-t-1900","name":"Bilkhawthlir","region":"in-mizoram","level":"tehsil","parent":"in-mizoram-d-263","district":"Kolasib","source":"LGD via Bharatlas · 2024 snapshot","state_lgd":15,"district_lgd":263,"subdistrict_lgd":1900,"center":[92.71061565240934,24.30773754971215],"bbox":[92.5268223,24.1411648,92.8961975,24.5211499]},"geometry":{"type":"Point","coordinates":[92.71061565240934,24.30773754971215]}},{"type":"Feature","id":"in-mizoram-t-1908","properties":{"id":"in-mizoram-t-1908","name":"Champhai","region":"in-mizoram","level":"tehsil","parent":"in-mizoram-d-262","district":"Champhai","source":"LGD via Bharatlas · 2024 snapshot","state_lgd":15,"district_lgd":262,"subdistrict_lgd":1908,"center":[93.33859199483277,23.61743341461045],"bbox":[93.2414381,23.4189971,93.4369062,23.8599069]},"geometry":{"type":"Point","coordinates":[93.33859199483277,23.61743341461045]}},{"type":"Feature","id":"in-mizoram-t-1916","properties":{"id":"in-mizoram-t-1916","name":"Chawngte","region":"in-mizoram","level":"tehsil","parent":"in-mizoram-d-264","district":"Lawngtlai","source":"LGD via Bharatlas · 2024 snapshot","state_lgd":15,"district_lgd":264,"subdistrict_lgd":1916,"center":[92.59758467577367,22.404429326276635],"bbox":[92.5040708,21.9746567,92.6851761,22.7627381]},"geometry":{"type":"Point","coordinates":[92.59758467577367,22.404429326276635]}},{"type":"Feature","id":"in-mizoram-t-1902","properties":{"id":"in-mizoram-t-1902","name":"Darlawn","region":"in-mizoram","level":"tehsil","parent":"in-mizoram-d-261","district":"Aizawl","source":"LGD via Bharatlas · 2024 snapshot","state_lgd":15,"district_lgd":261,"subdistrict_lgd":1902,"center":[92.92682821523567,24.088709146589167],"bbox":[92.806648,23.7851077,93.0393172,24.412909]},"geometry":{"type":"Point","coordinates":[92.92682821523567,24.088709146589167]}},{"type":"Feature","id":"in-mizoram-t-1911","properties":{"id":"in-mizoram-t-1911","name":"East Lungdar","region":"in-mizoram","level":"tehsil","parent":"in-mizoram-d-268","district":"Serchhip","source":"LGD via Bharatlas · 2024 snapshot","state_lgd":15,"district_lgd":268,"subdistrict_lgd":1911,"center":[93.05811445724142,23.149564960371496],"bbox":[92.9178079,23.0063831,93.1798356,23.2727991]},"geometry":{"type":"Point","coordinates":[93.05811445724142,23.149564960371496]}},{"type":"Feature","id":"in-mizoram-t-1915","properties":{"id":"in-mizoram-t-1915","name":"Hnahthial","region":"in-mizoram","level":"tehsil","parent":"in-mizoram-d-726","district":"Hnahthial","source":"LGD via Bharatlas · 2024 snapshot","state_lgd":15,"district_lgd":726,"subdistrict_lgd":1915,"center":[92.983974149266,22.94477430338741],"bbox":[92.8508046,22.7237472,93.164537,23.1891286]},"geometry":{"type":"Point","coordinates":[92.983974149266,22.94477430338741]}},{"type":"Feature","id":"in-mizoram-t-1909","properties":{"id":"in-mizoram-t-1909","name":"Khawbung","region":"in-mizoram","level":"tehsil","parent":"in-mizoram-d-262","district":"Champhai","source":"LGD via Bharatlas · 2024 snapshot","state_lgd":15,"district_lgd":262,"subdistrict_lgd":1909,"center":[93.27028711452674,23.19137680774624],"bbox":[93.1449202,23.0039106,93.388613,23.3899056]},"geometry":{"type":"Point","coordinates":[93.27028711452674,23.19137680774624]}},{"type":"Feature","id":"in-mizoram-t-1907","properties":{"id":"in-mizoram-t-1907","name":"Khawzawl","region":"in-mizoram","level":"tehsil","parent":"in-mizoram-d-728","district":"Khawzawl","source":"LGD via Bharatlas · 2024 snapshot","state_lgd":15,"district_lgd":728,"subdistrict_lgd":1907,"center":[93.16305823966039,23.4795107656879],"bbox":[93.0051002,23.19905,93.4025118,23.7998137]},"geometry":{"type":"Point","coordinates":[93.16305823966039,23.4795107656879]}},{"type":"Feature","id":"in-mizoram-t-1917","properties":{"id":"in-mizoram-t-1917","name":"Lawngtlai","region":"in-mizoram","level":"tehsil","parent":"in-mizoram-d-264","district":"Lawngtlai","source":"LGD via Bharatlas · 2024 snapshot","state_lgd":15,"district_lgd":264,"subdistrict_lgd":1917,"center":[92.80393975087955,22.420407129677592],"bbox":[92.621918,22.0590391,92.9653552,22.6306952]},"geometry":{"type":"Point","coordinates":[92.80393975087955,22.420407129677592]}},{"type":"Feature","id":"in-mizoram-t-1914","properties":{"id":"in-mizoram-t-1914","name":"Lunglei","region":"in-mizoram","level":"tehsil","parent":"in-mizoram-d-265","district":"Lunglei","source":"LGD via Bharatlas · 2024 snapshot","state_lgd":15,"district_lgd":265,"subdistrict_lgd":1914,"center":[92.81452181982573,22.91383438000851],"bbox":[92.694998,22.5472928,92.9518616,23.2459984]},"geometry":{"type":"Point","coordinates":[92.81452181982573,22.91383438000851]}},{"type":"Feature","id":"in-mizoram-t-1913","properties":{"id":"in-mizoram-t-1913","name":"Lungsen","region":"in-mizoram","level":"tehsil","parent":"in-mizoram-d-265","district":"Lunglei","source":"LGD via Bharatlas · 2024 snapshot","state_lgd":15,"district_lgd":265,"subdistrict_lgd":1913,"center":[92.609547928271,22.850565630551632],"bbox":[92.3717786,22.4968969,92.8033414,23.104414]},"geometry":{"type":"Point","coordinates":[92.609547928271,22.850565630551632]}},{"type":"Feature","id":"in-mizoram-t-1906","properties":{"id":"in-mizoram-t-1906","name":"Ngopa","region":"in-mizoram","level":"tehsil","parent":"in-mizoram-d-727","district":"Saitual","source":"LGD via Bharatlas · 2024 snapshot","state_lgd":15,"district_lgd":727,"subdistrict_lgd":1906,"center":[93.21925357136266,23.86385447432491],"bbox":[93.0097358,23.6417019,93.3952761,24.0835213]},"geometry":{"type":"Point","coordinates":[93.21925357136266,23.86385447432491]}},{"type":"Feature","id":"in-mizoram-t-1903","properties":{"id":"in-mizoram-t-1903","name":"Phullen","region":"in-mizoram","level":"tehsil","parent":"in-mizoram-d-727","district":"Saitual","source":"LGD via Bharatlas · 2024 snapshot","state_lgd":15,"district_lgd":727,"subdistrict_lgd":1903,"center":[93.07335232394547,23.952219809702182],"bbox":[92.9664634,23.7771771,93.1902259,24.1141997]},"geometry":{"type":"Point","coordinates":[93.07335232394547,23.952219809702182]}},{"type":"Feature","id":"in-mizoram-t-1898","properties":{"id":"in-mizoram-t-1898","name":"Reiek","region":"in-mizoram","level":"tehsil","parent":"in-mizoram-d-266","district":"Mamit","source":"LGD via Bharatlas · 2024 snapshot","state_lgd":15,"district_lgd":266,"subdistrict_lgd":1898,"center":[92.58625632651105,23.708667168667457],"bbox":[92.5156322,23.3783436,92.674442,24.0774823]},"geometry":{"type":"Point","coordinates":[92.58625632651105,23.708667168667457]}},{"type":"Feature","id":"in-mizoram-t-1918","properties":{"id":"in-mizoram-t-1918","name":"S' Bungtlang","region":"in-mizoram","level":"tehsil","parent":"in-mizoram-d-264","district":"Lawngtlai","source":"LGD via Bharatlas · 2024 snapshot","state_lgd":15,"district_lgd":264,"subdistrict_lgd":1918,"center":[92.70273468665232,22.29467243559188],"bbox":[92.6255758,22.045161,92.8069684,22.4958833]},"geometry":{"type":"Point","coordinates":[92.70273468665232,22.29467243559188]}},{"type":"Feature","id":"in-mizoram-t-1921","properties":{"id":"in-mizoram-t-1921","name":"Saiha","region":"in-mizoram","level":"tehsil","parent":"in-mizoram-d-267","district":"Saiha","source":"LGD via Bharatlas · 2024 snapshot","state_lgd":15,"district_lgd":267,"subdistrict_lgd":1921,"center":[93.05311013316435,22.45603125699651],"bbox":[92.9307573,22.3083003,93.1966774,22.6344267]},"geometry":{"type":"Point","coordinates":[93.05311013316435,22.45603125699651]}},{"type":"Feature","id":"in-mizoram-t-1919","properties":{"id":"in-mizoram-t-1919","name":"Sangau","region":"in-mizoram","level":"tehsil","parent":"in-mizoram-d-264","district":"Lawngtlai","source":"LGD via Bharatlas · 2024 snapshot","state_lgd":15,"district_lgd":264,"subdistrict_lgd":1919,"center":[93.03205444766864,22.664167632499],"bbox":[92.9125053,22.4608384,93.1403282,22.8087597]},"geometry":{"type":"Point","coordinates":[93.03205444766864,22.664167632499]}},{"type":"Feature","id":"in-mizoram-t-1910","properties":{"id":"in-mizoram-t-1910","name":"Serchhip","region":"in-mizoram","level":"tehsil","parent":"in-mizoram-d-268","district":"Serchhip","source":"LGD via Bharatlas · 2024 snapshot","state_lgd":15,"district_lgd":268,"subdistrict_lgd":1910,"center":[92.89189133736747,23.37730122053708],"bbox":[92.6830923,23.1696783,93.0989258,23.6000826]},"geometry":{"type":"Point","coordinates":[92.89189133736747,23.37730122053708]}},{"type":"Feature","id":"in-mizoram-t-1905","properties":{"id":"in-mizoram-t-1905","name":"Thingsulthliah","region":"in-mizoram","level":"tehsil","parent":"in-mizoram-d-261","district":"Aizawl","source":"LGD via Bharatlas · 2024 snapshot","state_lgd":15,"district_lgd":261,"subdistrict_lgd":1905,"center":[92.91671488843724,23.677247343170148],"bbox":[92.784346,23.5077349,93.0408747,23.8521683]},"geometry":{"type":"Point","coordinates":[92.91671488843724,23.677247343170148]}},{"type":"Feature","id":"in-mizoram-t-1901","properties":{"id":"in-mizoram-t-1901","name":"Tlangnuam","region":"in-mizoram","level":"tehsil","parent":"in-mizoram-d-261","district":"Aizawl","source":"LGD via Bharatlas · 2024 snapshot","state_lgd":15,"district_lgd":261,"subdistrict_lgd":1901,"center":[92.71384984929799,23.767822098190482],"bbox":[92.5993923,23.6239862,92.8344747,23.8997331]},"geometry":{"type":"Point","coordinates":[92.71384984929799,23.767822098190482]}},{"type":"Feature","id":"in-mizoram-t-1920","properties":{"id":"in-mizoram-t-1920","name":"Tuipang","region":"in-mizoram","level":"tehsil","parent":"in-mizoram-d-267","district":"Saiha","source":"LGD via Bharatlas · 2024 snapshot","state_lgd":15,"district_lgd":267,"subdistrict_lgd":1920,"center":[92.97764030768602,22.217531529030435],"bbox":[92.8205531,21.9400395,93.2020416,22.4299135]},"geometry":{"type":"Point","coordinates":[92.97764030768602,22.217531529030435]}},{"type":"Feature","id":"in-mizoram-t-1912","properties":{"id":"in-mizoram-t-1912","name":"West Bunghmun","region":"in-mizoram","level":"tehsil","parent":"in-mizoram-d-265","district":"Lunglei","source":"LGD via Bharatlas · 2024 snapshot","state_lgd":15,"district_lgd":265,"subdistrict_lgd":1912,"center":[92.54271801983886,23.19813743122007],"bbox":[92.3467791,22.999637,92.7288489,23.4072637]},"geometry":{"type":"Point","coordinates":[92.54271801983886,23.19813743122007]}},{"type":"Feature","id":"in-mizoram-t-1897","properties":{"id":"in-mizoram-t-1897","name":"West Phaileng","region":"in-mizoram","level":"tehsil","parent":"in-mizoram-d-266","district":"Mamit","source":"LGD via Bharatlas · 2024 snapshot","state_lgd":15,"district_lgd":266,"subdistrict_lgd":1897,"center":[92.42763461725221,23.544469586617055],"bbox":[92.2872592,23.2565986,92.5654176,23.7959789]},"geometry":{"type":"Point","coordinates":[92.42763461725221,23.544469586617055]}},{"type":"Feature","id":"in-mizoram-t-1896","properties":{"id":"in-mizoram-t-1896","name":"Zawlnuam","region":"in-mizoram","level":"tehsil","parent":"in-mizoram-d-266","district":"Mamit","source":"LGD via Bharatlas · 2024 snapshot","state_lgd":15,"district_lgd":266,"subdistrict_lgd":1896,"center":[92.4046738475122,23.965287107401974],"bbox":[92.2570648,23.6221956,92.5452499,24.2548561]},"geometry":{"type":"Point","coordinates":[92.4046738475122,23.965287107401974]}}]}
