{"type":"FeatureCollection","features":[{"type":"Feature","id":"in-meghalaya-d-273","properties":{"id":"in-meghalaya-d-273","name":"East Garo Hills","region":"in-meghalaya","level":"district","parent":"","source":"LGD via Bharatlas · 2024 snapshot","state_lgd":17,"district_lgd":273,"center":[90.62833309185972,25.620030220537437],"bbox":[90.3157568,25.4153969,90.9746581,25.8144424]},"geometry":{"type":"Point","coordinates":[90.62833309185972,25.620030220537437]}},{"type":"Feature","id":"in-meghalaya-d-657","properties":{"id":"in-meghalaya-d-657","name":"East Jaintia Hills","region":"in-meghalaya","level":"district","parent":"","source":"LGD via Bharatlas · 2024 snapshot","state_lgd":17,"district_lgd":657,"center":[92.46834419297276,25.258437266893804],"bbox":[92.171253,25.0277954,92.8029147,25.4721062]},"geometry":{"type":"Point","coordinates":[92.46834419297276,25.258437266893804]}},{"type":"Feature","id":"in-meghalaya-d-274","properties":{"id":"in-meghalaya-d-274","name":"East Khasi Hills","region":"in-meghalaya","level":"district","parent":"","source":"LGD via Bharatlas · 2024 snapshot","state_lgd":17,"district_lgd":274,"center":[91.79823124135444,25.3853184557596],"bbox":[91.3538134,25.1225445,92.1581904,25.690557]},"geometry":{"type":"Point","coordinates":[91.79823124135444,25.3853184557596]}},{"type":"Feature","id":"in-meghalaya-d-740","properties":{"id":"in-meghalaya-d-740","name":"Eastern West Khasi Hills","region":"in-meghalaya","level":"district","parent":"","source":"LGD via Bharatlas · 2024 snapshot","state_lgd":17,"district_lgd":740,"center":[91.57031584683637,25.63419287335836],"bbox":[91.2883246,25.4067736,91.8286058,25.8288618]},"geometry":{"type":"Point","coordinates":[91.57031584683637,25.63419287335836]}},{"type":"Feature","id":"in-meghalaya-d-656","properties":{"id":"in-meghalaya-d-656","name":"North Garo Hills","region":"in-meghalaya","level":"district","parent":"","source":"LGD via Bharatlas · 2024 snapshot","state_lgd":17,"district_lgd":656,"center":[90.66214991985206,25.852417331235017],"bbox":[90.3310283,25.7049374,91.0305484,26.0095867]},"geometry":{"type":"Point","coordinates":[90.66214991985206,25.852417331235017]}},{"type":"Feature","id":"in-meghalaya-d-276","properties":{"id":"in-meghalaya-d-276","name":"Ri Bhoi","region":"in-meghalaya","level":"district","parent":"","source":"LGD via Bharatlas · 2024 snapshot","state_lgd":17,"district_lgd":276,"center":[91.88455801125116,25.87369525924222],"bbox":[91.3418942,25.6293526,92.274893,26.1194018]},"geometry":{"type":"Point","coordinates":[91.88455801125116,25.87369525924222]}},{"type":"Feature","id":"in-meghalaya-d-277","properties":{"id":"in-meghalaya-d-277","name":"South Garo Hills","region":"in-meghalaya","level":"district","parent":"","source":"LGD via Bharatlas · 2024 snapshot","state_lgd":17,"district_lgd":277,"center":[90.59074706282854,25.301665304930967],"bbox":[90.234023,25.1445516,90.9715052,25.5543177]},"geometry":{"type":"Point","coordinates":[90.59074706282854,25.301665304930967]}},{"type":"Feature","id":"in-meghalaya-d-663","properties":{"id":"in-meghalaya-d-663","name":"South West Garo Hills","region":"in-meghalaya","level":"district","parent":"","source":"LGD via Bharatlas · 2024 snapshot","state_lgd":17,"district_lgd":663,"center":[89.98685619319788,25.441158603456582],"bbox":[89.8195454,25.2853283,90.1638472,25.5917521]},"geometry":{"type":"Point","coordinates":[89.98685619319788,25.441158603456582]}},{"type":"Feature","id":"in-meghalaya-d-658","properties":{"id":"in-meghalaya-d-658","name":"South West Khasi Hills","region":"in-meghalaya","level":"district","parent":"","source":"LGD via Bharatlas · 2024 snapshot","state_lgd":17,"district_lgd":658,"center":[91.23960001964292,25.307882652516312],"bbox":[90.8570604,25.1679533,91.5560754,25.4516564]},"geometry":{"type":"Point","coordinates":[91.23960001964292,25.307882652516312]}},{"type":"Feature","id":"in-meghalaya-d-278","properties":{"id":"in-meghalaya-d-278","name":"West Garo Hills","region":"in-meghalaya","level":"district","parent":"","source":"LGD via Bharatlas · 2024 snapshot","state_lgd":17,"district_lgd":278,"center":[90.19322688729963,25.64139797107966],"bbox":[89.8936271,25.2001377,90.425607,26.0125162]},"geometry":{"type":"Point","coordinates":[90.19322688729963,25.64139797107966]}},{"type":"Feature","id":"in-meghalaya-d-275","properties":{"id":"in-meghalaya-d-275","name":"West Jaintia Hills","region":"in-meghalaya","level":"district","parent":"","source":"LGD via Bharatlas · 2024 snapshot","state_lgd":17,"district_lgd":275,"center":[92.28570112997816,25.482484061840854],"bbox":[91.98212,25.1179211,92.6614615,25.754523]},"geometry":{"type":"Point","coordinates":[92.28570112997816,25.482484061840854]}},{"type":"Feature","id":"in-meghalaya-d-279","properties":{"id":"in-meghalaya-d-279","name":"West Khasi Hills","region":"in-meghalaya","level":"district","parent":"","source":"LGD via Bharatlas · 2024 snapshot","state_lgd":17,"district_lgd":279,"center":[91.096297047214,25.576797335017236],"bbox":[90.7491359,25.2936185,91.4444805,25.8611704]},"geometry":{"type":"Point","coordinates":[91.096297047214,25.576797335017236]}}]}
