{"type":"FeatureCollection","features":[{"type":"Feature","id":"in-manipur-t-1874","properties":{"id":"in-manipur-t-1874","name":"Bishnupur","region":"in-manipur","level":"tehsil","parent":"in-manipur-d-252","district":"Bishnupur","source":"LGD via Bharatlas · 2024 snapshot","state_lgd":14,"district_lgd":252,"subdistrict_lgd":1874,"center":[93.7810209692551,24.581070072058303],"bbox":[93.719867,24.5126252,93.8738493,24.6653684]},"geometry":{"type":"Point","coordinates":[93.7810209692551,24.581070072058303]}},{"type":"Feature","id":"in-manipur-t-1895","properties":{"id":"in-manipur-t-1895","name":"Chakpikarong","region":"in-manipur","level":"tehsil","parent":"in-manipur-d-253","district":"Chandel","source":"LGD via Bharatlas · 2024 snapshot","state_lgd":14,"district_lgd":253,"subdistrict_lgd":1895,"center":[93.99328947326862,24.051805362965236],"bbox":[93.7349797,23.8328484,94.2548899,24.2512856]},"geometry":{"type":"Point","coordinates":[93.99328947326862,24.051805362965236]}},{"type":"Feature","id":"in-manipur-t-1894","properties":{"id":"in-manipur-t-1894","name":"Chandel","region":"in-manipur","level":"tehsil","parent":"in-manipur-d-253","district":"Chandel","source":"LGD via Bharatlas · 2024 snapshot","state_lgd":14,"district_lgd":253,"subdistrict_lgd":1894,"center":[94.03481418013811,24.308446807033338],"bbox":[93.8816408,24.1458874,94.1939067,24.4919477]},"geometry":{"type":"Point","coordinates":[94.03481418013811,24.308446807033338]}},{"type":"Feature","id":"in-manipur-t-1887","properties":{"id":"in-manipur-t-1887","name":"Chingai","region":"in-manipur","level":"tehsil","parent":"in-manipur-d-260","district":"Ukhrul","source":"LGD via Bharatlas · 2024 snapshot","state_lgd":14,"district_lgd":260,"subdistrict_lgd":1887,"center":[94.49614652265923,25.388384563395363],"bbox":[94.3136565,25.1871523,94.6802783,25.6920902]},"geometry":{"type":"Point","coordinates":[94.49614652265923,25.388384563395363]}},{"type":"Feature","id":"in-manipur-t-1883","properties":{"id":"in-manipur-t-1883","name":"Jiribam","region":"in-manipur","level":"tehsil","parent":"in-manipur-d-713","district":"Jiribam","source":"LGD via Bharatlas · 2024 snapshot","state_lgd":14,"district_lgd":713,"subdistrict_lgd":1883,"center":[93.13349992097818,24.70385909984272],"bbox":[93.0711513,24.552461,93.2387337,24.8561448]},"geometry":{"type":"Point","coordinates":[93.13349992097818,24.70385909984272]}},{"type":"Feature","id":"in-manipur-t-1878","properties":{"id":"in-manipur-t-1878","name":"Kakching","region":"in-manipur","level":"tehsil","parent":"in-manipur-d-711","district":"Kakching","source":"LGD via Bharatlas · 2024 snapshot","state_lgd":14,"district_lgd":711,"subdistrict_lgd":1878,"center":[93.91999424300467,24.442316780490184],"bbox":[93.8374895,24.220705,94.0477295,24.5641222]},"geometry":{"type":"Point","coordinates":[93.91999424300467,24.442316780490184]}},{"type":"Feature","id":"in-manipur-t-1889","properties":{"id":"in-manipur-t-1889","name":"Kamjong","region":"in-manipur","level":"tehsil","parent":"in-manipur-d-717","district":"Kamjong","source":"LGD via Bharatlas · 2024 snapshot","state_lgd":14,"district_lgd":717,"subdistrict_lgd":1889,"center":[94.54909995047353,24.87710797943592],"bbox":[94.383303,24.5616303,94.7446864,25.1028888]},"geometry":{"type":"Point","coordinates":[94.54909995047353,24.87710797943592]}},{"type":"Feature","id":"in-manipur-t-1861","properties":{"id":"in-manipur-t-1861","name":"KANGPOKPI","region":"in-manipur","level":"tehsil","parent":"in-manipur-d-712","district":"Kangpokpi","source":"LGD via Bharatlas · 2024 snapshot","state_lgd":14,"district_lgd":712,"subdistrict_lgd":1861,"center":[93.9058867486202,25.20246570772864],"bbox":[93.7743536,25.1225926,94.0115591,25.3236121]},"geometry":{"type":"Point","coordinates":[93.9058867486202,25.20246570772864]}},{"type":"Feature","id":"in-manipur-t-1891","properties":{"id":"in-manipur-t-1891","name":"Kasom Khullen","region":"in-manipur","level":"tehsil","parent":"in-manipur-d-717","district":"Kamjong","source":"LGD via Bharatlas · 2024 snapshot","state_lgd":14,"district_lgd":717,"subdistrict_lgd":1891,"center":[94.3008046095595,24.658224788733698],"bbox":[94.1343033,24.4783455,94.4668326,24.819947]},"geometry":{"type":"Point","coordinates":[94.3008046095595,24.658224788733698]}},{"type":"Feature","id":"in-manipur-t-1886","properties":{"id":"in-manipur-t-1886","name":"Keirao Bitra","region":"in-manipur","level":"tehsil","parent":"in-manipur-d-255","district":"Imphal East","source":"LGD via Bharatlas · 2024 snapshot","state_lgd":14,"district_lgd":255,"subdistrict_lgd":1886,"center":[94.02128140572587,24.748233835816542],"bbox":[93.9408959,24.6545193,94.0839266,24.8669026]},"geometry":{"type":"Point","coordinates":[94.02128140572587,24.748233835816542]}},{"type":"Feature","id":"in-manipur-t-1881","properties":{"id":"in-manipur-t-1881","name":"Lamphelpat","region":"in-manipur","level":"tehsil","parent":"in-manipur-d-256","district":"Imphal West","source":"LGD via Bharatlas · 2024 snapshot","state_lgd":14,"district_lgd":256,"subdistrict_lgd":1881,"center":[93.91199506456377,24.82142719762843],"bbox":[93.877843,24.7667969,93.9425252,24.886765]},"geometry":{"type":"Point","coordinates":[93.91199506456377,24.82142719762843]}},{"type":"Feature","id":"in-manipur-t-1879","properties":{"id":"in-manipur-t-1879","name":"Lamsang","region":"in-manipur","level":"tehsil","parent":"in-manipur-d-256","district":"Imphal West","source":"LGD via Bharatlas · 2024 snapshot","state_lgd":14,"district_lgd":256,"subdistrict_lgd":1879,"center":[93.87355601911791,24.920394198424095],"bbox":[93.7837225,24.7998914,93.9658486,25.134836]},"geometry":{"type":"Point","coordinates":[93.87355601911791,24.920394198424095]}},{"type":"Feature","id":"in-manipur-t-1876","properties":{"id":"in-manipur-t-1876","name":"Lilong","region":"in-manipur","level":"tehsil","parent":"in-manipur-d-259","district":"Thoubal","source":"LGD via Bharatlas · 2024 snapshot","state_lgd":14,"district_lgd":259,"subdistrict_lgd":1876,"center":[93.93807787607007,24.65453688814869],"bbox":[93.8886894,24.5549535,94.0003705,24.7182653]},"geometry":{"type":"Point","coordinates":[93.93807787607007,24.65453688814869]}},{"type":"Feature","id":"in-manipur-t-1892","properties":{"id":"in-manipur-t-1892","name":"Machi","region":"in-manipur","level":"tehsil","parent":"in-manipur-d-716","district":"Tengnoupal","source":"LGD via Bharatlas · 2024 snapshot","state_lgd":14,"district_lgd":716,"subdistrict_lgd":1892,"center":[94.19678413608791,24.53278233589535],"bbox":[94.033146,24.4228548,94.372259,24.6486983]},"geometry":{"type":"Point","coordinates":[94.19678413608791,24.53278233589535]}},{"type":"Feature","id":"in-manipur-t-1875","properties":{"id":"in-manipur-t-1875","name":"Moirang","region":"in-manipur","level":"tehsil","parent":"in-manipur-d-252","district":"Bishnupur","source":"LGD via Bharatlas · 2024 snapshot","state_lgd":14,"district_lgd":252,"subdistrict_lgd":1875,"center":[93.79368775811936,24.453314576675137],"bbox":[93.7047856,24.3064979,93.8646508,24.5526826]},"geometry":{"type":"Point","coordinates":[93.79368775811936,24.453314576675137]}},{"type":"Feature","id":"in-manipur-t-1873","properties":{"id":"in-manipur-t-1873","name":"Nambol","region":"in-manipur","level":"tehsil","parent":"in-manipur-d-252","district":"Bishnupur","source":"LGD via Bharatlas · 2024 snapshot","state_lgd":14,"district_lgd":252,"subdistrict_lgd":1873,"center":[93.82407620747517,24.6963637226434],"bbox":[93.756238,24.6497295,93.8943166,24.7396078]},"geometry":{"type":"Point","coordinates":[93.82407620747517,24.6963637226434]}},{"type":"Feature","id":"in-manipur-t-1867","properties":{"id":"in-manipur-t-1867","name":"Nungba","region":"in-manipur","level":"tehsil","parent":"in-manipur-d-714","district":"Noney","source":"LGD via Bharatlas · 2024 snapshot","state_lgd":14,"district_lgd":714,"subdistrict_lgd":1867,"center":[93.45971843641573,24.67647863222398],"bbox":[93.1692761,24.4944821,93.7381486,24.8464604]},"geometry":{"type":"Point","coordinates":[93.45971843641573,24.67647863222398]}},{"type":"Feature","id":"in-manipur-t-1859","properties":{"id":"in-manipur-t-1859","name":"Paomata","region":"in-manipur","level":"tehsil","parent":"in-manipur-d-257","district":"Senapati","source":"LGD via Bharatlas · 2024 snapshot","state_lgd":14,"district_lgd":257,"subdistrict_lgd":1859,"center":[94.31044909856557,25.470122470465906],"bbox":[94.1399208,25.3869828,94.489697,25.6162487]},"geometry":{"type":"Point","coordinates":[94.31044909856557,25.470122470465906]}},{"type":"Feature","id":"in-manipur-t-1880","properties":{"id":"in-manipur-t-1880","name":"Patsoi","region":"in-manipur","level":"tehsil","parent":"in-manipur-d-256","district":"Imphal West","source":"LGD via Bharatlas · 2024 snapshot","state_lgd":14,"district_lgd":256,"subdistrict_lgd":1880,"center":[93.834954337994,24.771375195764435],"bbox":[93.7705672,24.7189837,93.9027087,24.8158066]},"geometry":{"type":"Point","coordinates":[93.834954337994,24.771375195764435]}},{"type":"Feature","id":"in-manipur-t-1890","properties":{"id":"in-manipur-t-1890","name":"Phungyar","region":"in-manipur","level":"tehsil","parent":"in-manipur-d-717","district":"Kamjong","source":"LGD via Bharatlas · 2024 snapshot","state_lgd":14,"district_lgd":717,"subdistrict_lgd":1890,"center":[94.32504372589436,24.809212574899245],"bbox":[94.1360043,24.6392093,94.4692126,24.948964]},"geometry":{"type":"Point","coordinates":[94.32504372589436,24.809212574899245]}},{"type":"Feature","id":"in-manipur-t-1885","properties":{"id":"in-manipur-t-1885","name":"Porompat","region":"in-manipur","level":"tehsil","parent":"in-manipur-d-255","district":"Imphal East","source":"LGD via Bharatlas · 2024 snapshot","state_lgd":14,"district_lgd":255,"subdistrict_lgd":1885,"center":[93.95193035159649,24.82241473567892],"bbox":[93.8953225,24.7157629,94.0537727,24.9103873]},"geometry":{"type":"Point","coordinates":[93.95193035159649,24.82241473567892]}},{"type":"Feature","id":"in-manipur-t-1860","properties":{"id":"in-manipur-t-1860","name":"Purul","region":"in-manipur","level":"tehsil","parent":"in-manipur-d-257","district":"Senapati","source":"LGD via Bharatlas · 2024 snapshot","state_lgd":14,"district_lgd":257,"subdistrict_lgd":1860,"center":[94.2645447767789,25.349949834553797],"bbox":[94.1347515,25.2639647,94.395455,25.4326685]},"geometry":{"type":"Point","coordinates":[94.2645447767789,25.349949834553797]}},{"type":"Feature","id":"in-manipur-t-6501","properties":{"id":"in-manipur-t-6501","name":"SAIKOT","region":"in-manipur","level":"tehsil","parent":"in-manipur-d-254","district":"Churachandpur","source":"LGD via Bharatlas · 2024 snapshot","state_lgd":14,"district_lgd":254,"subdistrict_lgd":6501,"center":[93.73113444581683,24.287911809106898],"bbox":[93.5660246,24.1294564,93.8771433,24.4215347]},"geometry":{"type":"Point","coordinates":[93.73113444581683,24.287911809106898]}},{"type":"Feature","id":"in-manipur-t-6493","properties":{"id":"in-manipur-t-6493","name":"SAIKUL","region":"in-manipur","level":"tehsil","parent":"in-manipur-d-712","district":"Kangpokpi","source":"LGD via Bharatlas · 2024 snapshot","state_lgd":14,"district_lgd":712,"subdistrict_lgd":6493,"center":[94.06465861949836,24.968485500552447],"bbox":[93.8864229,24.6185608,94.1949537,25.2076902]},"geometry":{"type":"Point","coordinates":[94.06465861949836,24.968485500552447]}},{"type":"Feature","id":"in-manipur-t-1862","properties":{"id":"in-manipur-t-1862","name":"Saitu-Gamphazol","region":"in-manipur","level":"tehsil","parent":"in-manipur-d-712","district":"Kangpokpi","source":"LGD via Bharatlas · 2024 snapshot","state_lgd":14,"district_lgd":712,"subdistrict_lgd":1862,"center":[93.78936671776201,24.90825417714369],"bbox":[93.6604956,24.6206118,93.9360057,25.1356877]},"geometry":{"type":"Point","coordinates":[93.78936671776201,24.90825417714369]}},{"type":"Feature","id":"in-manipur-t-6505","properties":{"id":"in-manipur-t-6505","name":"SAMULAMLAN","region":"in-manipur","level":"tehsil","parent":"in-manipur-d-254","district":"Churachandpur","source":"LGD via Bharatlas · 2024 snapshot","state_lgd":14,"district_lgd":254,"subdistrict_lgd":6505,"center":[93.69456694857578,24.472180007290785],"bbox":[93.6358212,24.3930997,93.7297493,24.6121871]},"geometry":{"type":"Point","coordinates":[93.69456694857578,24.472180007290785]}},{"type":"Feature","id":"in-manipur-t-1884","properties":{"id":"in-manipur-t-1884","name":"Sawombung","region":"in-manipur","level":"tehsil","parent":"in-manipur-d-255","district":"Imphal East","source":"LGD via Bharatlas · 2024 snapshot","state_lgd":14,"district_lgd":255,"subdistrict_lgd":1884,"center":[94.03107267944304,24.896775574769148],"bbox":[93.9449417,24.780852,94.1417402,25.0503043]},"geometry":{"type":"Point","coordinates":[94.03107267944304,24.896775574769148]}},{"type":"Feature","id":"in-manipur-t-1872","properties":{"id":"in-manipur-t-1872","name":"Singngat","region":"in-manipur","level":"tehsil","parent":"in-manipur-d-254","district":"Churachandpur","source":"LGD via Bharatlas · 2024 snapshot","state_lgd":14,"district_lgd":254,"subdistrict_lgd":1872,"center":[93.57236376162454,24.118877832532807],"bbox":[93.3817093,23.9421156,93.7744477,24.3067117]},"geometry":{"type":"Point","coordinates":[93.57236376162454,24.118877832532807]}},{"type":"Feature","id":"in-manipur-t-6508","properties":{"id":"in-manipur-t-6508","name":"TADUBI","region":"in-manipur","level":"tehsil","parent":"in-manipur-d-257","district":"Senapati","source":"LGD via Bharatlas · 2024 snapshot","state_lgd":14,"district_lgd":257,"subdistrict_lgd":6508,"center":[94.03901316741448,25.387999356719796],"bbox":[93.7606118,25.1644845,94.3095172,25.5917657]},"geometry":{"type":"Point","coordinates":[94.03901316741448,25.387999356719796]}},{"type":"Feature","id":"in-manipur-t-1866","properties":{"id":"in-manipur-t-1866","name":"Tamenglong","region":"in-manipur","level":"tehsil","parent":"in-manipur-d-258","district":"Tamenglong","source":"LGD via Bharatlas · 2024 snapshot","state_lgd":14,"district_lgd":258,"subdistrict_lgd":1866,"center":[93.56938271052134,24.936043439487065],"bbox":[93.390003,24.7933127,93.7404449,25.0873362]},"geometry":{"type":"Point","coordinates":[93.56938271052134,24.936043439487065]}},{"type":"Feature","id":"in-manipur-t-1865","properties":{"id":"in-manipur-t-1865","name":"Tamenglong North","region":"in-manipur","level":"tehsil","parent":"in-manipur-d-258","district":"Tamenglong","source":"LGD via Bharatlas · 2024 snapshot","state_lgd":14,"district_lgd":258,"subdistrict_lgd":1865,"center":[93.728272758011,25.210940123488246],"bbox":[93.4702472,24.9402136,93.9552788,25.4615894]},"geometry":{"type":"Point","coordinates":[93.728272758011,25.210940123488246]}},{"type":"Feature","id":"in-manipur-t-1864","properties":{"id":"in-manipur-t-1864","name":"Tamenglong West","region":"in-manipur","level":"tehsil","parent":"in-manipur-d-258","district":"Tamenglong","source":"LGD via Bharatlas · 2024 snapshot","state_lgd":14,"district_lgd":258,"subdistrict_lgd":1864,"center":[93.35898319158038,24.988229037849308],"bbox":[93.1529685,24.6666987,93.6041545,25.3050604]},"geometry":{"type":"Point","coordinates":[93.35898319158038,24.988229037849308]}},{"type":"Feature","id":"in-manipur-t-1893","properties":{"id":"in-manipur-t-1893","name":"Tengnoupal","region":"in-manipur","level":"tehsil","parent":"in-manipur-d-716","district":"Tengnoupal","source":"LGD via Bharatlas · 2024 snapshot","state_lgd":14,"district_lgd":716,"subdistrict_lgd":1893,"center":[94.24659404819792,24.339372547079044],"bbox":[94.0703378,24.1062691,94.4086938,24.5246006]},"geometry":{"type":"Point","coordinates":[94.24659404819792,24.339372547079044]}},{"type":"Feature","id":"in-manipur-t-1869","properties":{"id":"in-manipur-t-1869","name":"Thanlon","region":"in-manipur","level":"tehsil","parent":"in-manipur-d-715","district":"Pherzawl","source":"LGD via Bharatlas · 2024 snapshot","state_lgd":14,"district_lgd":715,"subdistrict_lgd":1869,"center":[93.31742706151888,24.294341900695336],"bbox":[93.1540116,24.0207124,93.496351,24.5749684]},"geometry":{"type":"Point","coordinates":[93.31742706151888,24.294341900695336]}},{"type":"Feature","id":"in-manipur-t-1877","properties":{"id":"in-manipur-t-1877","name":"Thoubal","region":"in-manipur","level":"tehsil","parent":"in-manipur-d-259","district":"Thoubal","source":"LGD via Bharatlas · 2024 snapshot","state_lgd":14,"district_lgd":259,"subdistrict_lgd":1877,"center":[94.02288736271016,24.603537564123208],"bbox":[93.9044099,24.512896,94.1321242,24.723633]},"geometry":{"type":"Point","coordinates":[94.02288736271016,24.603537564123208]}},{"type":"Feature","id":"in-manipur-t-1868","properties":{"id":"in-manipur-t-1868","name":"Tipaimukh","region":"in-manipur","level":"tehsil","parent":"in-manipur-d-715","district":"Pherzawl","source":"LGD via Bharatlas · 2024 snapshot","state_lgd":14,"district_lgd":715,"subdistrict_lgd":1868,"center":[93.11982576116705,24.347605173151358],"bbox":[92.9694338,24.0423367,93.2480407,24.7211378]},"geometry":{"type":"Point","coordinates":[93.11982576116705,24.347605173151358]}},{"type":"Feature","id":"in-manipur-t-1870","properties":{"id":"in-manipur-t-1870","name":"TUIBONG","region":"in-manipur","level":"tehsil","parent":"in-manipur-d-254","district":"Churachandpur","source":"LGD via Bharatlas · 2024 snapshot","state_lgd":14,"district_lgd":254,"subdistrict_lgd":1870,"center":[93.54189123883519,24.464909333229343],"bbox":[93.3650359,24.2747967,93.7111988,24.6121871]},"geometry":{"type":"Point","coordinates":[93.54189123883519,24.464909333229343]}},{"type":"Feature","id":"in-manipur-t-1888","properties":{"id":"in-manipur-t-1888","name":"Ukhrul","region":"in-manipur","level":"tehsil","parent":"in-manipur-d-260","district":"Ukhrul","source":"LGD via Bharatlas · 2024 snapshot","state_lgd":14,"district_lgd":260,"subdistrict_lgd":1888,"center":[94.37342387199715,25.085470625133148],"bbox":[94.1175451,24.8845154,94.7448901,25.2678025]},"geometry":{"type":"Point","coordinates":[94.37342387199715,25.085470625133148]}},{"type":"Feature","id":"in-manipur-t-1882","properties":{"id":"in-manipur-t-1882","name":"Wangoi","region":"in-manipur","level":"tehsil","parent":"in-manipur-d-256","district":"Imphal West","source":"LGD via Bharatlas · 2024 snapshot","state_lgd":14,"district_lgd":256,"subdistrict_lgd":1882,"center":[93.8750705582512,24.645174500642366],"bbox":[93.7973773,24.455898,93.9394388,24.785222]},"geometry":{"type":"Point","coordinates":[93.8750705582512,24.645174500642366]}}]}
