{"type":"FeatureCollection","features":[{"type":"Feature","id":"in-mizoram-d-261","properties":{"id":"in-mizoram-d-261","name":"Aizawl","region":"in-mizoram","level":"district","parent":"","source":"LGD via Bharatlas · 2024 snapshot","state_lgd":15,"district_lgd":261,"center":[92.85048126223393,23.806562307076845],"bbox":[92.5993923,23.318872,93.0408747,24.412909]},"geometry":{"type":"Point","coordinates":[92.85048126223393,23.806562307076845]}},{"type":"Feature","id":"in-mizoram-d-262","properties":{"id":"in-mizoram-d-262","name":"Champhai","region":"in-mizoram","level":"district","parent":"","source":"LGD via Bharatlas · 2024 snapshot","state_lgd":15,"district_lgd":262,"center":[93.27028789152287,23.191376831128977],"bbox":[93.1449202,23.0039106,93.4369062,23.8599069]},"geometry":{"type":"Point","coordinates":[93.27028789152287,23.191376831128977]}},{"type":"Feature","id":"in-mizoram-d-726","properties":{"id":"in-mizoram-d-726","name":"Hnahthial","region":"in-mizoram","level":"district","parent":"","source":"LGD via Bharatlas · 2024 snapshot","state_lgd":15,"district_lgd":726,"center":[92.9839736360588,22.944775818528797],"bbox":[92.8508046,22.7237472,93.164537,23.1891286]},"geometry":{"type":"Point","coordinates":[92.9839736360588,22.944775818528797]}},{"type":"Feature","id":"in-mizoram-d-728","properties":{"id":"in-mizoram-d-728","name":"Khawzawl","region":"in-mizoram","level":"district","parent":"","source":"LGD via Bharatlas · 2024 snapshot","state_lgd":15,"district_lgd":728,"center":[93.16305796435378,23.479509293050473],"bbox":[93.0051002,23.19905,93.4025118,23.7998137]},"geometry":{"type":"Point","coordinates":[93.16305796435378,23.479509293050473]}},{"type":"Feature","id":"in-mizoram-d-263","properties":{"id":"in-mizoram-d-263","name":"Kolasib","region":"in-mizoram","level":"district","parent":"","source":"LGD via Bharatlas · 2024 snapshot","state_lgd":15,"district_lgd":263,"center":[92.72771171876248,24.15593601569478],"bbox":[92.5268223,23.8458792,92.9002684,24.5211499]},"geometry":{"type":"Point","coordinates":[92.72771171876248,24.15593601569478]}},{"type":"Feature","id":"in-mizoram-d-264","properties":{"id":"in-mizoram-d-264","name":"Lawngtlai","region":"in-mizoram","level":"district","parent":"","source":"LGD via Bharatlas · 2024 snapshot","state_lgd":15,"district_lgd":264,"center":[92.70992627903742,22.383641232994815],"bbox":[92.5040708,21.9748883,93.1403282,22.8087597]},"geometry":{"type":"Point","coordinates":[92.70992627903742,22.383641232994815]}},{"type":"Feature","id":"in-mizoram-d-265","properties":{"id":"in-mizoram-d-265","name":"Lunglei","region":"in-mizoram","level":"district","parent":"","source":"LGD via Bharatlas · 2024 snapshot","state_lgd":15,"district_lgd":265,"center":[92.65009749290859,22.98069827897698],"bbox":[92.3467791,22.4968969,92.9518616,23.4071375]},"geometry":{"type":"Point","coordinates":[92.65009749290859,22.98069827897698]}},{"type":"Feature","id":"in-mizoram-d-266","properties":{"id":"in-mizoram-d-266","name":"Mamit","region":"in-mizoram","level":"district","parent":"","source":"LGD via Bharatlas · 2024 snapshot","state_lgd":15,"district_lgd":266,"center":[92.46183845995193,23.75438448750374],"bbox":[92.2570648,23.2565986,92.674442,24.2548561]},"geometry":{"type":"Point","coordinates":[92.46183845995193,23.75438448750374]}},{"type":"Feature","id":"in-mizoram-d-267","properties":{"id":"in-mizoram-d-267","name":"Saiha","region":"in-mizoram","level":"district","parent":"","source":"LGD via Bharatlas · 2024 snapshot","state_lgd":15,"district_lgd":267,"center":[93.0009806415956,22.291293319346156],"bbox":[92.8205531,21.9400395,93.2020416,22.6344267]},"geometry":{"type":"Point","coordinates":[93.0009806415956,22.291293319346156]}},{"type":"Feature","id":"in-mizoram-d-727","properties":{"id":"in-mizoram-d-727","name":"Saitual","region":"in-mizoram","level":"district","parent":"","source":"LGD via Bharatlas · 2024 snapshot","state_lgd":15,"district_lgd":727,"center":[93.16309058461795,23.897868159744792],"bbox":[92.9664634,23.6417019,93.3952761,24.1141997]},"geometry":{"type":"Point","coordinates":[93.16309058461795,23.897868159744792]}},{"type":"Feature","id":"in-mizoram-d-268","properties":{"id":"in-mizoram-d-268","name":"Serchhip","region":"in-mizoram","level":"district","parent":"","source":"LGD via Bharatlas · 2024 snapshot","state_lgd":15,"district_lgd":268,"center":[92.94291713301327,23.307394023881077],"bbox":[92.6830923,23.0063831,93.1798356,23.6000826]},"geometry":{"type":"Point","coordinates":[92.94291713301327,23.307394023881077]}}]}
