{"type":"FeatureCollection","features":[{"type":"Feature","id":"in-nagaland-t-1750","properties":{"id":"in-nagaland-t-1750","name":"Aboi","region":"in-nagaland","level":"tehsil","parent":"in-nagaland-d-247","district":"Mon","source":"LGD via Bharatlas · 2024 snapshot","state_lgd":13,"district_lgd":247,"subdistrict_lgd":1750,"center":[94.95130092205711,26.57373171011009],"bbox":[94.8794442,26.4943465,95.0327295,26.6531344]},"geometry":{"type":"Point","coordinates":[94.95130092205711,26.57373171011009]}},{"type":"Feature","id":"in-nagaland-t-1771","properties":{"id":"in-nagaland-t-1771","name":"Aghunato","region":"in-nagaland","level":"tehsil","parent":"in-nagaland-d-251","district":"Zunheboto","source":"LGD via Bharatlas · 2024 snapshot","state_lgd":13,"district_lgd":251,"subdistrict_lgd":1771,"center":[94.59966844588772,25.992193022346427],"bbox":[94.5186351,25.8535545,94.6936716,26.1112341]},"geometry":{"type":"Point","coordinates":[94.59966844588772,25.992193022346427]}},{"type":"Feature","id":"in-nagaland-t-1781","properties":{"id":"in-nagaland-t-1781","name":"Aitepyong","region":"in-nagaland","level":"tehsil","parent":"in-nagaland-d-250","district":"Wokha","source":"LGD via Bharatlas · 2024 snapshot","state_lgd":13,"district_lgd":250,"subdistrict_lgd":1781,"center":[94.29737683629087,26.360223312277157],"bbox":[94.2272017,26.3052963,94.358533,26.43444]},"geometry":{"type":"Point","coordinates":[94.29737683629087,26.360223312277157]}},{"type":"Feature","id":"in-nagaland-t-1774","properties":{"id":"in-nagaland-t-1774","name":"Akuhaito","region":"in-nagaland","level":"tehsil","parent":"in-nagaland-d-251","district":"Zunheboto","source":"LGD via Bharatlas · 2024 snapshot","state_lgd":13,"district_lgd":251,"subdistrict_lgd":1774,"center":[94.43130014337031,26.085614835427045],"bbox":[94.3711562,26.0324566,94.4955612,26.1369564]},"geometry":{"type":"Point","coordinates":[94.43130014337031,26.085614835427045]}},{"type":"Feature","id":"in-nagaland-t-1768","properties":{"id":"in-nagaland-t-1768","name":"Akuluto","region":"in-nagaland","level":"tehsil","parent":"in-nagaland-d-251","district":"Zunheboto","source":"LGD via Bharatlas · 2024 snapshot","state_lgd":13,"district_lgd":251,"subdistrict_lgd":1768,"center":[94.46632615625235,26.192847940191534],"bbox":[94.4131499,26.114749,94.515985,26.2935614]},"geometry":{"type":"Point","coordinates":[94.46632615625235,26.192847940191534]}},{"type":"Feature","id":"in-nagaland-t-1759","properties":{"id":"in-nagaland-t-1759","name":"Alongkima","region":"in-nagaland","level":"tehsil","parent":"in-nagaland-d-246","district":"Mokokchung","source":"LGD via Bharatlas · 2024 snapshot","state_lgd":13,"district_lgd":246,"subdistrict_lgd":1759,"center":[94.5092892084036,26.530424819651472],"bbox":[94.4329272,26.4245399,94.6040177,26.6207678]},"geometry":{"type":"Point","coordinates":[94.5092892084036,26.530424819651472]}},{"type":"Feature","id":"in-nagaland-t-1836","properties":{"id":"in-nagaland-t-1836","name":"Amahator","region":"in-nagaland","level":"tehsil","parent":"in-nagaland-d-614","district":"Kiphire","source":"LGD via Bharatlas · 2024 snapshot","state_lgd":13,"district_lgd":614,"subdistrict_lgd":1836,"center":[94.7409373237999,25.95980181254234],"bbox":[94.6752219,25.8885792,94.8088499,26.0238423]},"geometry":{"type":"Point","coordinates":[94.7409373237999,25.95980181254234]}},{"type":"Feature","id":"in-nagaland-t-1754","properties":{"id":"in-nagaland-t-1754","name":"Angjangyang","region":"in-nagaland","level":"tehsil","parent":"in-nagaland-d-247","district":"Mon","source":"LGD via Bharatlas · 2024 snapshot","state_lgd":13,"district_lgd":247,"subdistrict_lgd":1754,"center":[94.9513061675433,26.48349851795855],"bbox":[94.8891896,26.4349558,95.0286768,26.5324612]},"geometry":{"type":"Point","coordinates":[94.9513061675433,26.48349851795855]}},{"type":"Feature","id":"in-nagaland-t-1770","properties":{"id":"in-nagaland-t-1770","name":"Asuto","region":"in-nagaland","level":"tehsil","parent":"in-nagaland-d-251","district":"Zunheboto","source":"LGD via Bharatlas · 2024 snapshot","state_lgd":13,"district_lgd":251,"subdistrict_lgd":1770,"center":[94.66724872669867,26.147926052339177],"bbox":[94.6312598,26.0898819,94.7057375,26.2127143]},"geometry":{"type":"Point","coordinates":[94.66724872669867,26.147926052339177]}},{"type":"Feature","id":"in-nagaland-t-1853","properties":{"id":"in-nagaland-t-1853","name":"Athibung","region":"in-nagaland","level":"tehsil","parent":"in-nagaland-d-613","district":"Peren","source":"LGD via Bharatlas · 2024 snapshot","state_lgd":13,"district_lgd":613,"subdistrict_lgd":1853,"center":[93.51422264090523,25.583995700432514],"bbox":[93.3266867,25.4846306,93.6578175,25.7018024]},"geometry":{"type":"Point","coordinates":[93.51422264090523,25.583995700432514]}},{"type":"Feature","id":"in-nagaland-t-1773","properties":{"id":"in-nagaland-t-1773","name":"Atoizu","region":"in-nagaland","level":"tehsil","parent":"in-nagaland-d-251","district":"Zunheboto","source":"LGD via Bharatlas · 2024 snapshot","state_lgd":13,"district_lgd":251,"subdistrict_lgd":1773,"center":[94.50043555081183,26.103151246658598],"bbox":[94.4247839,26.0219745,94.5466987,26.1862935]},"geometry":{"type":"Point","coordinates":[94.50043555081183,26.103151246658598]}},{"type":"Feature","id":"in-nagaland-t-1783","properties":{"id":"in-nagaland-t-1783","name":"Baghty","region":"in-nagaland","level":"tehsil","parent":"in-nagaland-d-250","district":"Wokha","source":"LGD via Bharatlas · 2024 snapshot","state_lgd":13,"district_lgd":250,"subdistrict_lgd":1783,"center":[94.1896866283796,26.259033505237014],"bbox":[94.1531429,26.2284503,94.2218547,26.2941972]},"geometry":{"type":"Point","coordinates":[94.1896866283796,26.259033505237014]}},{"type":"Feature","id":"in-nagaland-t-1782","properties":{"id":"in-nagaland-t-1782","name":"Bhandari","region":"in-nagaland","level":"tehsil","parent":"in-nagaland-d-250","district":"Wokha","source":"LGD via Bharatlas · 2024 snapshot","state_lgd":13,"district_lgd":250,"subdistrict_lgd":1782,"center":[94.09582269288171,26.22070764186424],"bbox":[93.9861288,26.0671672,94.2377483,26.3633908]},"geometry":{"type":"Point","coordinates":[94.09582269288171,26.22070764186424]}},{"type":"Feature","id":"in-nagaland-t-1846","properties":{"id":"in-nagaland-t-1846","name":"Botsa","region":"in-nagaland","level":"tehsil","parent":"in-nagaland-d-245","district":"Kohima","source":"LGD via Bharatlas · 2024 snapshot","state_lgd":13,"district_lgd":245,"subdistrict_lgd":1846,"center":[94.15229973339275,25.851149753891924],"bbox":[94.0627821,25.7827888,94.2606215,25.9167363]},"geometry":{"type":"Point","coordinates":[94.15229973339275,25.851149753891924]}},{"type":"Feature","id":"in-nagaland-t-1780","properties":{"id":"in-nagaland-t-1780","name":"Changpang","region":"in-nagaland","level":"tehsil","parent":"in-nagaland-d-250","district":"Wokha","source":"LGD via Bharatlas · 2024 snapshot","state_lgd":13,"district_lgd":250,"subdistrict_lgd":1780,"center":[94.23845101897746,26.44022253241445],"bbox":[94.1713933,26.3517424,94.3155922,26.5613978]},"geometry":{"type":"Point","coordinates":[94.23845101897746,26.44022253241445]}},{"type":"Feature","id":"in-nagaland-t-1761","properties":{"id":"in-nagaland-t-1761","name":"Changtongya","region":"in-nagaland","level":"tehsil","parent":"in-nagaland-d-246","district":"Mokokchung","source":"LGD via Bharatlas · 2024 snapshot","state_lgd":13,"district_lgd":246,"subdistrict_lgd":1761,"center":[94.68738474200623,26.568729629420144],"bbox":[94.6257083,26.5229827,94.7335627,26.6231627]},"geometry":{"type":"Point","coordinates":[94.68738474200623,26.568729629420144]}},{"type":"Feature","id":"in-nagaland-t-1815","properties":{"id":"in-nagaland-t-1815","name":"Chare","region":"in-nagaland","level":"tehsil","parent":"in-nagaland-d-249","district":"Tuensang","source":"LGD via Bharatlas · 2024 snapshot","state_lgd":13,"district_lgd":249,"subdistrict_lgd":1815,"center":[94.61392762349737,26.278687008426182],"bbox":[94.5592312,26.2189188,94.6678511,26.3342129]},"geometry":{"type":"Point","coordinates":[94.61392762349737,26.278687008426182]}},{"type":"Feature","id":"in-nagaland-t-1753","properties":{"id":"in-nagaland-t-1753","name":"Chen","region":"in-nagaland","level":"tehsil","parent":"in-nagaland-d-247","district":"Mon","source":"LGD via Bharatlas · 2024 snapshot","state_lgd":13,"district_lgd":247,"subdistrict_lgd":1753,"center":[95.07070521375583,26.55705161737467],"bbox":[95.0080427,26.4725175,95.1541943,26.6382741]},"geometry":{"type":"Point","coordinates":[95.07070521375583,26.55705161737467]}},{"type":"Feature","id":"in-nagaland-t-1827","properties":{"id":"in-nagaland-t-1827","name":"Chessore","region":"in-nagaland","level":"tehsil","parent":"in-nagaland-d-249","district":"Tuensang","source":"LGD via Bharatlas · 2024 snapshot","state_lgd":13,"district_lgd":249,"subdistrict_lgd":1827,"center":[94.72032202048597,26.082555641104385],"bbox":[94.6705468,26.0316484,94.7731832,26.1408992]},"geometry":{"type":"Point","coordinates":[94.72032202048597,26.082555641104385]}},{"type":"Feature","id":"in-nagaland-t-1807","properties":{"id":"in-nagaland-t-1807","name":"Chetheba","region":"in-nagaland","level":"tehsil","parent":"in-nagaland-d-248","district":"Phek","source":"LGD via Bharatlas · 2024 snapshot","state_lgd":13,"district_lgd":248,"subdistrict_lgd":1807,"center":[94.25394472610559,25.645879414083982],"bbox":[94.193823,25.5530024,94.3322873,25.7356507]},"geometry":{"type":"Point","coordinates":[94.25394472610559,25.645879414083982]}},{"type":"Feature","id":"in-nagaland-t-1845","properties":{"id":"in-nagaland-t-1845","name":"Chiephobozou","region":"in-nagaland","level":"tehsil","parent":"in-nagaland-d-245","district":"Kohima","source":"LGD via Bharatlas · 2024 snapshot","state_lgd":13,"district_lgd":245,"subdistrict_lgd":1845,"center":[94.10808119627352,25.790355924425356],"bbox":[93.9986915,25.7018875,94.229878,25.9223179]},"geometry":{"type":"Point","coordinates":[94.10808119627352,25.790355924425356]}},{"type":"Feature","id":"in-nagaland-t-1822","properties":{"id":"in-nagaland-t-1822","name":"Chingmei","region":"in-nagaland","level":"tehsil","parent":"in-nagaland-d-736","district":"Noklak","source":"LGD via Bharatlas · 2024 snapshot","state_lgd":13,"district_lgd":736,"subdistrict_lgd":1822,"center":[94.99717514399485,26.275578517090818],"bbox":[94.8849423,26.1941488,95.1284457,26.3394254]},"geometry":{"type":"Point","coordinates":[94.99717514399485,26.275578517090818]}},{"type":"Feature","id":"in-nagaland-t-1812","properties":{"id":"in-nagaland-t-1812","name":"Chizami","region":"in-nagaland","level":"tehsil","parent":"in-nagaland-d-248","district":"Phek","source":"LGD via Bharatlas · 2024 snapshot","state_lgd":13,"district_lgd":248,"subdistrict_lgd":1812,"center":[94.38281660973547,25.57540870190035],"bbox":[94.314742,25.5313359,94.4285142,25.6205754]},"geometry":{"type":"Point","coordinates":[94.38281660973547,25.57540870190035]}},{"type":"Feature","id":"in-nagaland-t-1806","properties":{"id":"in-nagaland-t-1806","name":"Chozuba","region":"in-nagaland","level":"tehsil","parent":"in-nagaland-d-248","district":"Phek","source":"LGD via Bharatlas · 2024 snapshot","state_lgd":13,"district_lgd":248,"subdistrict_lgd":1806,"center":[94.31223169012975,25.71685411925841],"bbox":[94.2440278,25.65283,94.3592122,25.7625184]},"geometry":{"type":"Point","coordinates":[94.31223169012975,25.71685411925841]}},{"type":"Feature","id":"in-nagaland-t-1762","properties":{"id":"in-nagaland-t-1762","name":"Chuchuyimlang","region":"in-nagaland","level":"tehsil","parent":"in-nagaland-d-246","district":"Mokokchung","source":"LGD via Bharatlas · 2024 snapshot","state_lgd":13,"district_lgd":246,"subdistrict_lgd":1762,"center":[94.63839283350232,26.457659819171038],"bbox":[94.5677855,26.361615,94.7117161,26.5776407]},"geometry":{"type":"Point","coordinates":[94.63839283350232,26.457659819171038]}},{"type":"Feature","id":"in-nagaland-t-1791","properties":{"id":"in-nagaland-t-1791","name":"Chukitong","region":"in-nagaland","level":"tehsil","parent":"in-nagaland-d-250","district":"Wokha","source":"LGD via Bharatlas · 2024 snapshot","state_lgd":13,"district_lgd":250,"subdistrict_lgd":1791,"center":[94.33079742648059,26.094031599176535],"bbox":[94.2714211,25.9981288,94.3906082,26.18211]},"geometry":{"type":"Point","coordinates":[94.33079742648059,26.094031599176535]}},{"type":"Feature","id":"in-nagaland-t-1797","properties":{"id":"in-nagaland-t-1797","name":"Chumukedima","region":"in-nagaland","level":"tehsil","parent":"in-nagaland-d-758","district":"Chumoukedima","source":"LGD via Bharatlas · 2024 snapshot","state_lgd":13,"district_lgd":758,"subdistrict_lgd":1797,"center":[93.74444087471018,25.7964649682185],"bbox":[93.6726874,25.7205079,93.8071407,25.8593818]},"geometry":{"type":"Point","coordinates":[93.74444087471018,25.7964649682185]}},{"type":"Feature","id":"in-nagaland-t-1798","properties":{"id":"in-nagaland-t-1798","name":"Dhansiripar","region":"in-nagaland","level":"tehsil","parent":"in-nagaland-d-758","district":"Chumoukedima","source":"LGD via Bharatlas · 2024 snapshot","state_lgd":13,"district_lgd":758,"subdistrict_lgd":1798,"center":[93.6441809691118,25.7339760679027],"bbox":[93.5395518,25.6609468,93.7430006,25.8276399]},"geometry":{"type":"Point","coordinates":[93.6441809691118,25.7339760679027]}},{"type":"Feature","id":"in-nagaland-t-1796","properties":{"id":"in-nagaland-t-1796","name":"Dimapur Sadar","region":"in-nagaland","level":"tehsil","parent":"in-nagaland-d-244","district":"Dimapur","source":"LGD via Bharatlas · 2024 snapshot","state_lgd":13,"district_lgd":244,"subdistrict_lgd":1796,"center":[93.7456044314556,25.896736111821486],"bbox":[93.681505,25.8464274,93.7961106,25.9704842]},"geometry":{"type":"Point","coordinates":[93.7456044314556,25.896736111821486]}},{"type":"Feature","id":"in-nagaland-t-1790","properties":{"id":"in-nagaland-t-1790","name":"Englan","region":"in-nagaland","level":"tehsil","parent":"in-nagaland-d-250","district":"Wokha","source":"LGD via Bharatlas · 2024 snapshot","state_lgd":13,"district_lgd":250,"subdistrict_lgd":1790,"center":[94.26773394463422,26.190323466047655],"bbox":[94.2000513,26.1378567,94.3315995,26.2354568]},"geometry":{"type":"Point","coordinates":[94.26773394463422,26.190323466047655]}},{"type":"Feature","id":"in-nagaland-t-1776","properties":{"id":"in-nagaland-t-1776","name":"Ghathashi","region":"in-nagaland","level":"tehsil","parent":"in-nagaland-d-251","district":"Zunheboto","source":"LGD via Bharatlas · 2024 snapshot","state_lgd":13,"district_lgd":251,"subdistrict_lgd":1776,"center":[94.35305599659377,25.84576874997757],"bbox":[94.2582166,25.7491581,94.4588002,25.9242897]},"geometry":{"type":"Point","coordinates":[94.35305599659377,25.84576874997757]}},{"type":"Feature","id":"in-nagaland-t-1746","properties":{"id":"in-nagaland-t-1746","name":"Hunta","region":"in-nagaland","level":"tehsil","parent":"in-nagaland-d-247","district":"Mon","source":"LGD via Bharatlas · 2024 snapshot","state_lgd":13,"district_lgd":247,"subdistrict_lgd":1746,"center":[95.17085092655279,26.9362293186435],"bbox":[95.1018466,26.8565303,95.230758,27.0352068]},"geometry":{"type":"Point","coordinates":[95.17085092655279,26.9362293186435]}},{"type":"Feature","id":"in-nagaland-t-1848","properties":{"id":"in-nagaland-t-1848","name":"Jakhama","region":"in-nagaland","level":"tehsil","parent":"in-nagaland-d-245","district":"Kohima","source":"LGD via Bharatlas · 2024 snapshot","state_lgd":13,"district_lgd":245,"subdistrict_lgd":1848,"center":[94.1136453777095,25.59036257370992],"bbox":[94.0141587,25.519016,94.188549,25.6609084]},"geometry":{"type":"Point","coordinates":[94.1136453777095,25.59036257370992]}},{"type":"Feature","id":"in-nagaland-t-1852","properties":{"id":"in-nagaland-t-1852","name":"Jalukie","region":"in-nagaland","level":"tehsil","parent":"in-nagaland-d-613","district":"Peren","source":"LGD via Bharatlas · 2024 snapshot","state_lgd":13,"district_lgd":613,"subdistrict_lgd":1852,"center":[93.66854566129413,25.65008458581309],"bbox":[93.6315775,25.5805635,93.7058962,25.7009761]},"geometry":{"type":"Point","coordinates":[93.66854566129413,25.65008458581309]}},{"type":"Feature","id":"in-nagaland-t-1854","properties":{"id":"in-nagaland-t-1854","name":"Kebai Khelma","region":"in-nagaland","level":"tehsil","parent":"in-nagaland-d-613","district":"Peren","source":"LGD via Bharatlas · 2024 snapshot","state_lgd":13,"district_lgd":613,"subdistrict_lgd":1854,"center":[93.48767104289499,25.459759863553995],"bbox":[93.3844576,25.3743955,93.5675413,25.5294412]},"geometry":{"type":"Point","coordinates":[93.48767104289499,25.459759863553995]}},{"type":"Feature","id":"in-nagaland-t-1847","properties":{"id":"in-nagaland-t-1847","name":"Kezocha","region":"in-nagaland","level":"tehsil","parent":"in-nagaland-d-245","district":"Kohima","source":"LGD via Bharatlas · 2024 snapshot","state_lgd":13,"district_lgd":245,"subdistrict_lgd":1847,"center":[94.21318394147963,25.683513948962293],"bbox":[94.1632321,25.5422804,94.2822656,25.8134038]},"geometry":{"type":"Point","coordinates":[94.21318394147963,25.683513948962293]}},{"type":"Feature","id":"in-nagaland-t-1811","properties":{"id":"in-nagaland-t-1811","name":"Khezhakeno","region":"in-nagaland","level":"tehsil","parent":"in-nagaland-d-248","district":"Phek","source":"LGD via Bharatlas · 2024 snapshot","state_lgd":13,"district_lgd":248,"subdistrict_lgd":1811,"center":[94.22322662305676,25.51422724041451],"bbox":[94.1859527,25.4910987,94.2644896,25.5484494]},"geometry":{"type":"Point","coordinates":[94.22322662305676,25.51422724041451]}},{"type":"Feature","id":"in-nagaland-t-1842","properties":{"id":"in-nagaland-t-1842","name":"Khongsa","region":"in-nagaland","level":"tehsil","parent":"in-nagaland-d-614","district":"Kiphire","source":"LGD via Bharatlas · 2024 snapshot","state_lgd":13,"district_lgd":614,"subdistrict_lgd":1842,"center":[94.927894266035,25.735050211919138],"bbox":[94.8236339,25.5850859,95.050022,25.8444769]},"geometry":{"type":"Point","coordinates":[94.927894266035,25.735050211919138]}},{"type":"Feature","id":"in-nagaland-t-1802","properties":{"id":"in-nagaland-t-1802","name":"Khuza","region":"in-nagaland","level":"tehsil","parent":"in-nagaland-d-248","district":"Phek","source":"LGD via Bharatlas · 2024 snapshot","state_lgd":13,"district_lgd":248,"subdistrict_lgd":1802,"center":[94.48480636239951,25.79417978796933],"bbox":[94.4214128,25.7533574,94.5422933,25.8331021]},"geometry":{"type":"Point","coordinates":[94.48480636239951,25.79417978796933]}},{"type":"Feature","id":"in-nagaland-t-1837","properties":{"id":"in-nagaland-t-1837","name":"Kiphire Sadar","region":"in-nagaland","level":"tehsil","parent":"in-nagaland-d-614","district":"Kiphire","source":"LGD via Bharatlas · 2024 snapshot","state_lgd":13,"district_lgd":614,"subdistrict_lgd":1837,"center":[94.79957450671421,25.92078942287845],"bbox":[94.7331207,25.8275569,94.8701836,25.9958827]},"geometry":{"type":"Point","coordinates":[94.79957450671421,25.92078942287845]}},{"type":"Feature","id":"in-nagaland-t-1838","properties":{"id":"in-nagaland-t-1838","name":"Kiusam","region":"in-nagaland","level":"tehsil","parent":"in-nagaland-d-614","district":"Kiphire","source":"LGD via Bharatlas · 2024 snapshot","state_lgd":13,"district_lgd":614,"subdistrict_lgd":1838,"center":[94.92067079052879,25.890239478232644],"bbox":[94.8115482,25.815845,95.0335453,25.9774329]},"geometry":{"type":"Point","coordinates":[94.92067079052879,25.890239478232644]}},{"type":"Feature","id":"in-nagaland-t-1849","properties":{"id":"in-nagaland-t-1849","name":"Kohima Sadar","region":"in-nagaland","level":"tehsil","parent":"in-nagaland-d-245","district":"Kohima","source":"LGD via Bharatlas · 2024 snapshot","state_lgd":13,"district_lgd":245,"subdistrict_lgd":1849,"center":[94.12822934295761,25.67979947760482],"bbox":[94.0604905,25.6165935,94.2056215,25.7338763]},"geometry":{"type":"Point","coordinates":[94.12822934295761,25.67979947760482]}},{"type":"Feature","id":"in-nagaland-t-1763","properties":{"id":"in-nagaland-t-1763","name":"Kubolong","region":"in-nagaland","level":"tehsil","parent":"in-nagaland-d-246","district":"Mokokchung","source":"LGD via Bharatlas · 2024 snapshot","state_lgd":13,"district_lgd":246,"subdistrict_lgd":1763,"center":[94.54518708249022,26.437481837676827],"bbox":[94.4770665,26.3615103,94.5970809,26.5458354]},"geometry":{"type":"Point","coordinates":[94.54518708249022,26.437481837676827]}},{"type":"Feature","id":"in-nagaland-t-1794","properties":{"id":"in-nagaland-t-1794","name":"Kuhoboto","region":"in-nagaland","level":"tehsil","parent":"in-nagaland-d-764","district":"Niuland","source":"LGD via Bharatlas · 2024 snapshot","state_lgd":13,"district_lgd":764,"subdistrict_lgd":1794,"center":[93.8503350438546,25.83752618128237],"bbox":[93.8228726,25.8147824,93.8861937,25.85829]},"geometry":{"type":"Point","coordinates":[93.8503350438546,25.83752618128237]}},{"type":"Feature","id":"in-nagaland-t-1758","properties":{"id":"in-nagaland-t-1758","name":"Longchem","region":"in-nagaland","level":"tehsil","parent":"in-nagaland-d-246","district":"Mokokchung","source":"LGD via Bharatlas · 2024 snapshot","state_lgd":13,"district_lgd":246,"subdistrict_lgd":1758,"center":[94.47950134544804,26.61775368165646],"bbox":[94.4012254,26.5303871,94.568506,26.7063213]},"geometry":{"type":"Point","coordinates":[94.47950134544804,26.61775368165646]}},{"type":"Feature","id":"in-nagaland-t-1816","properties":{"id":"in-nagaland-t-1816","name":"Longkhim","region":"in-nagaland","level":"tehsil","parent":"in-nagaland-d-249","district":"Tuensang","source":"LGD via Bharatlas · 2024 snapshot","state_lgd":13,"district_lgd":249,"subdistrict_lgd":1816,"center":[94.68674726724092,26.243755934301603],"bbox":[94.5834007,26.1893356,94.761112,26.3070394]},"geometry":{"type":"Point","coordinates":[94.68674726724092,26.243755934301603]}},{"type":"Feature","id":"in-nagaland-t-1833","properties":{"id":"in-nagaland-t-1833","name":"Longleng","region":"in-nagaland","level":"tehsil","parent":"in-nagaland-d-615","district":"Longleng","source":"LGD via Bharatlas · 2024 snapshot","state_lgd":13,"district_lgd":615,"subdistrict_lgd":1833,"center":[94.77766596904898,26.498094344010227],"bbox":[94.684935,26.4152426,94.8940978,26.5654499]},"geometry":{"type":"Point","coordinates":[94.77766596904898,26.498094344010227]}},{"type":"Feature","id":"in-nagaland-t-1840","properties":{"id":"in-nagaland-t-1840","name":"Longmatra","region":"in-nagaland","level":"tehsil","parent":"in-nagaland-d-614","district":"Kiphire","source":"LGD via Bharatlas · 2024 snapshot","state_lgd":13,"district_lgd":614,"subdistrict_lgd":1840,"center":[94.762604372257,25.79979227668345],"bbox":[94.7019071,25.7217965,94.8191124,25.8635507]},"geometry":{"type":"Point","coordinates":[94.762604372257,25.79979227668345]}},{"type":"Feature","id":"in-nagaland-t-1751","properties":{"id":"in-nagaland-t-1751","name":"Longshen","region":"in-nagaland","level":"tehsil","parent":"in-nagaland-d-247","district":"Mon","source":"LGD via Bharatlas · 2024 snapshot","state_lgd":13,"district_lgd":247,"subdistrict_lgd":1751,"center":[95.11009003180143,26.67082067724409],"bbox":[95.040223,26.5920383,95.1684829,26.7400967]},"geometry":{"type":"Point","coordinates":[95.11009003180143,26.67082067724409]}},{"type":"Feature","id":"in-nagaland-t-1786","properties":{"id":"in-nagaland-t-1786","name":"Lotsu","region":"in-nagaland","level":"tehsil","parent":"in-nagaland-d-250","district":"Wokha","source":"LGD via Bharatlas · 2024 snapshot","state_lgd":13,"district_lgd":250,"subdistrict_lgd":1786,"center":[94.07986369902808,26.07854963546113],"bbox":[94.0048953,26.0051651,94.1366025,26.1660188]},"geometry":{"type":"Point","coordinates":[94.07986369902808,26.07854963546113]}},{"type":"Feature","id":"in-nagaland-t-1828","properties":{"id":"in-nagaland-t-1828","name":"Mangko","region":"in-nagaland","level":"tehsil","parent":"in-nagaland-d-249","district":"Tuensang","source":"LGD via Bharatlas · 2024 snapshot","state_lgd":13,"district_lgd":249,"subdistrict_lgd":1828,"center":[94.7730511315809,26.051403413257148],"bbox":[94.6736406,26.0082851,94.8356437,26.1190628]},"geometry":{"type":"Point","coordinates":[94.7730511315809,26.051403413257148]}},{"type":"Feature","id":"in-nagaland-t-1764","properties":{"id":"in-nagaland-t-1764","name":"Mangkolemba","region":"in-nagaland","level":"tehsil","parent":"in-nagaland-d-246","district":"Mokokchung","source":"LGD via Bharatlas · 2024 snapshot","state_lgd":13,"district_lgd":246,"subdistrict_lgd":1764,"center":[94.38149937854267,26.453909683525517],"bbox":[94.2985907,26.3557686,94.447775,26.546855]},"geometry":{"type":"Point","coordinates":[94.38149937854267,26.453909683525517]}},{"type":"Feature","id":"in-nagaland-t-1799","properties":{"id":"in-nagaland-t-1799","name":"Medziphema","region":"in-nagaland","level":"tehsil","parent":"in-nagaland-d-758","district":"Chumoukedima","source":"LGD via Bharatlas · 2024 snapshot","state_lgd":13,"district_lgd":758,"subdistrict_lgd":1799,"center":[93.89010291938624,25.759337982554033],"bbox":[93.7302381,25.6426093,94.0427299,25.880735]},"geometry":{"type":"Point","coordinates":[93.89010291938624,25.759337982554033]}},{"type":"Feature","id":"in-nagaland-t-1803","properties":{"id":"in-nagaland-t-1803","name":"Meluri","region":"in-nagaland","level":"tehsil","parent":"in-nagaland-d-248","district":"Phek","source":"LGD via Bharatlas · 2024 snapshot","state_lgd":13,"district_lgd":248,"subdistrict_lgd":1803,"center":[94.64672258900302,25.60585352356677],"bbox":[94.5511392,25.4493588,94.7514206,25.7785982]},"geometry":{"type":"Point","coordinates":[94.64672258900302,25.60585352356677]}},{"type":"Feature","id":"in-nagaland-t-1748","properties":{"id":"in-nagaland-t-1748","name":"Mon Sadar","region":"in-nagaland","level":"tehsil","parent":"in-nagaland-d-247","district":"Mon","source":"LGD via Bharatlas · 2024 snapshot","state_lgd":13,"district_lgd":247,"subdistrict_lgd":1748,"center":[95.0210581038866,26.75874717138563],"bbox":[94.917122,26.6190438,95.1607914,26.8854979]},"geometry":{"type":"Point","coordinates":[95.0210581038866,26.75874717138563]}},{"type":"Feature","id":"in-nagaland-t-1757","properties":{"id":"in-nagaland-t-1757","name":"Monyakshu","region":"in-nagaland","level":"tehsil","parent":"in-nagaland-d-247","district":"Mon","source":"LGD via Bharatlas · 2024 snapshot","state_lgd":13,"district_lgd":247,"subdistrict_lgd":1757,"center":[95.06292191432095,26.394728075157794],"bbox":[94.9901197,26.3230651,95.1321881,26.4725754]},"geometry":{"type":"Point","coordinates":[95.06292191432095,26.394728075157794]}},{"type":"Feature","id":"in-nagaland-t-1755","properties":{"id":"in-nagaland-t-1755","name":"Mopong","region":"in-nagaland","level":"tehsil","parent":"in-nagaland-d-247","district":"Mon","source":"LGD via Bharatlas · 2024 snapshot","state_lgd":13,"district_lgd":247,"subdistrict_lgd":1755,"center":[94.97460196656058,26.446888468985854],"bbox":[94.8925786,26.3965275,95.071859,26.4936801]},"geometry":{"type":"Point","coordinates":[94.97460196656058,26.446888468985854]}},{"type":"Feature","id":"in-nagaland-t-1744","properties":{"id":"in-nagaland-t-1744","name":"Naginimora","region":"in-nagaland","level":"tehsil","parent":"in-nagaland-d-247","district":"Mon","source":"LGD via Bharatlas · 2024 snapshot","state_lgd":13,"district_lgd":247,"subdistrict_lgd":1744,"center":[94.87866199526937,26.82460842239427],"bbox":[94.788781,26.7184224,94.959961,26.9465055]},"geometry":{"type":"Point","coordinates":[94.87866199526937,26.82460842239427]}},{"type":"Feature","id":"in-nagaland-t-1831","properties":{"id":"in-nagaland-t-1831","name":"Namsang","region":"in-nagaland","level":"tehsil","parent":"in-nagaland-d-615","district":"Longleng","source":"LGD via Bharatlas · 2024 snapshot","state_lgd":13,"district_lgd":615,"subdistrict_lgd":1831,"center":[94.78317999695935,26.741438997120834],"bbox":[94.7358811,26.6891963,94.8342171,26.79636]},"geometry":{"type":"Point","coordinates":[94.78317999695935,26.741438997120834]}},{"type":"Feature","id":"in-nagaland-t-1818","properties":{"id":"in-nagaland-t-1818","name":"Ngoungchung","region":"in-nagaland","level":"tehsil","parent":"in-nagaland-d-249","district":"Tuensang","source":"LGD via Bharatlas · 2024 snapshot","state_lgd":13,"district_lgd":249,"subdistrict_lgd":1818,"center":[94.83086576761671,26.331433210146315],"bbox":[94.7495486,26.2616907,94.9106446,26.3952467]},"geometry":{"type":"Point","coordinates":[94.83086576761671,26.331433210146315]}},{"type":"Feature","id":"in-nagaland-t-1795","properties":{"id":"in-nagaland-t-1795","name":"Nihokhu","region":"in-nagaland","level":"tehsil","parent":"in-nagaland-d-764","district":"Niuland","source":"LGD via Bharatlas · 2024 snapshot","state_lgd":13,"district_lgd":764,"subdistrict_lgd":1795,"center":[93.92115679570885,25.853079062735976],"bbox":[93.8412751,25.7945826,93.9955025,25.9062578]},"geometry":{"type":"Point","coordinates":[93.92115679570885,25.853079062735976]}},{"type":"Feature","id":"in-nagaland-t-1792","properties":{"id":"in-nagaland-t-1792","name":"Niuland","region":"in-nagaland","level":"tehsil","parent":"in-nagaland-d-250","district":"Wokha","source":"LGD via Bharatlas · 2024 snapshot","state_lgd":13,"district_lgd":250,"subdistrict_lgd":1792,"center":[94.00208208896878,25.964580696651065],"bbox":[93.9541516,25.9215487,94.0530885,25.9949779]},"geometry":{"type":"Point","coordinates":[94.00208208896878,25.964580696651065]}},{"type":"Feature","id":"in-nagaland-t-1823","properties":{"id":"in-nagaland-t-1823","name":"Nokhu","region":"in-nagaland","level":"tehsil","parent":"in-nagaland-d-736","district":"Noklak","source":"LGD via Bharatlas · 2024 snapshot","state_lgd":13,"district_lgd":736,"subdistrict_lgd":1823,"center":[95.07032500421019,26.156743179826613],"bbox":[94.9745481,26.062567,95.1557521,26.254941]},"geometry":{"type":"Point","coordinates":[95.07032500421019,26.156743179826613]}},{"type":"Feature","id":"in-nagaland-t-1821","properties":{"id":"in-nagaland-t-1821","name":"Noklak","region":"in-nagaland","level":"tehsil","parent":"in-nagaland-d-736","district":"Noklak","source":"LGD via Bharatlas · 2024 snapshot","state_lgd":13,"district_lgd":736,"subdistrict_lgd":1821,"center":[95.0351441080345,26.251316627278666],"bbox":[94.9489282,26.1900599,95.1286249,26.3121734]},"geometry":{"type":"Point","coordinates":[95.0351441080345,26.251316627278666]}},{"type":"Feature","id":"in-nagaland-t-1814","properties":{"id":"in-nagaland-t-1814","name":"Noksen","region":"in-nagaland","level":"tehsil","parent":"in-nagaland-d-249","district":"Tuensang","source":"LGD via Bharatlas · 2024 snapshot","state_lgd":13,"district_lgd":249,"subdistrict_lgd":1814,"center":[94.73671049111844,26.36509084614992],"bbox":[94.6376477,26.2820951,94.8194994,26.4583528]},"geometry":{"type":"Point","coordinates":[94.73671049111844,26.36509084614992]}},{"type":"Feature","id":"in-nagaland-t-1855","properties":{"id":"in-nagaland-t-1855","name":"Nsong","region":"in-nagaland","level":"tehsil","parent":"in-nagaland-d-613","district":"Peren","source":"LGD via Bharatlas · 2024 snapshot","state_lgd":13,"district_lgd":613,"subdistrict_lgd":1855,"center":[93.52802256896196,25.3113118082298],"bbox":[93.4484341,25.2202441,93.5979095,25.3967727]},"geometry":{"type":"Point","coordinates":[93.52802256896196,25.3113118082298]}},{"type":"Feature","id":"in-nagaland-t-1766","properties":{"id":"in-nagaland-t-1766","name":"Ongpangkong","region":"in-nagaland","level":"tehsil","parent":"in-nagaland-d-246","district":"Mokokchung","source":"LGD via Bharatlas · 2024 snapshot","state_lgd":13,"district_lgd":246,"subdistrict_lgd":1766,"center":[94.47727192074095,26.3079128275772],"bbox":[94.3350013,26.1779752,94.6575095,26.4562893]},"geometry":{"type":"Point","coordinates":[94.47727192074095,26.3079128275772]}},{"type":"Feature","id":"in-nagaland-t-1824","properties":{"id":"in-nagaland-t-1824","name":"Panso","region":"in-nagaland","level":"tehsil","parent":"in-nagaland-d-765","district":"Shamator","source":"LGD via Bharatlas · 2024 snapshot","state_lgd":13,"district_lgd":765,"subdistrict_lgd":1824,"center":[94.94883018988435,26.14495968166399],"bbox":[94.8903751,26.0488411,95.0092335,26.2182701]},"geometry":{"type":"Point","coordinates":[94.94883018988435,26.14495968166399]}},{"type":"Feature","id":"in-nagaland-t-1851","properties":{"id":"in-nagaland-t-1851","name":"Pedi (Ngwalwa)","region":"in-nagaland","level":"tehsil","parent":"in-nagaland-d-613","district":"Peren","source":"LGD via Bharatlas · 2024 snapshot","state_lgd":13,"district_lgd":613,"subdistrict_lgd":1851,"center":[93.79805059451786,25.61297415651866],"bbox":[93.6633316,25.531781,93.9411915,25.6969064]},"geometry":{"type":"Point","coordinates":[93.79805059451786,25.61297415651866]}},{"type":"Feature","id":"in-nagaland-t-1857","properties":{"id":"in-nagaland-t-1857","name":"Peren","region":"in-nagaland","level":"tehsil","parent":"in-nagaland-d-613","district":"Peren","source":"LGD via Bharatlas · 2024 snapshot","state_lgd":13,"district_lgd":613,"subdistrict_lgd":1857,"center":[93.72307838096161,25.488790210338085],"bbox":[93.6280799,25.3542361,93.816367,25.6050453]},"geometry":{"type":"Point","coordinates":[93.72307838096161,25.488790210338085]}},{"type":"Feature","id":"in-nagaland-t-1809","properties":{"id":"in-nagaland-t-1809","name":"Pfutsero","region":"in-nagaland","level":"tehsil","parent":"in-nagaland-d-248","district":"Phek","source":"LGD via Bharatlas · 2024 snapshot","state_lgd":13,"district_lgd":248,"subdistrict_lgd":1809,"center":[94.28654433596182,25.5707400426991],"bbox":[94.2370587,25.4887089,94.3343247,25.6153268]},"geometry":{"type":"Point","coordinates":[94.28654433596182,25.5707400426991]}},{"type":"Feature","id":"in-nagaland-t-1801","properties":{"id":"in-nagaland-t-1801","name":"Phek Sadar","region":"in-nagaland","level":"tehsil","parent":"in-nagaland-d-248","district":"Phek","source":"LGD via Bharatlas · 2024 snapshot","state_lgd":13,"district_lgd":248,"subdistrict_lgd":1801,"center":[94.47069833934192,25.69071548314107],"bbox":[94.3783822,25.5885895,94.5861164,25.7706109]},"geometry":{"type":"Point","coordinates":[94.47069833934192,25.69071548314107]}},{"type":"Feature","id":"in-nagaland-t-1805","properties":{"id":"in-nagaland-t-1805","name":"Phokhungri","region":"in-nagaland","level":"tehsil","parent":"in-nagaland-d-248","district":"Phek","source":"LGD via Bharatlas · 2024 snapshot","state_lgd":13,"district_lgd":248,"subdistrict_lgd":1805,"center":[94.79701408973285,25.606326365113432],"bbox":[94.7127898,25.480235,94.8985039,25.748901]},"geometry":{"type":"Point","coordinates":[94.79701408973285,25.606326365113432]}},{"type":"Feature","id":"in-nagaland-t-1752","properties":{"id":"in-nagaland-t-1752","name":"Phomching","region":"in-nagaland","level":"tehsil","parent":"in-nagaland-d-247","district":"Mon","source":"LGD via Bharatlas · 2024 snapshot","state_lgd":13,"district_lgd":247,"subdistrict_lgd":1752,"center":[95.19053573821174,26.71451014012293],"bbox":[95.1489933,26.6348606,95.2413504,26.7906834]},"geometry":{"type":"Point","coordinates":[95.19053573821174,26.71451014012293]}},{"type":"Feature","id":"in-nagaland-t-1804","properties":{"id":"in-nagaland-t-1804","name":"Phor","region":"in-nagaland","level":"tehsil","parent":"in-nagaland-d-248","district":"Phek","source":"LGD via Bharatlas · 2024 snapshot","state_lgd":13,"district_lgd":248,"subdistrict_lgd":1804,"center":[94.75367881362693,25.714069074275876],"bbox":[94.6930248,25.6246314,94.8308614,25.78237]},"geometry":{"type":"Point","coordinates":[94.75367881362693,25.714069074275876]}},{"type":"Feature","id":"in-nagaland-t-1775","properties":{"id":"in-nagaland-t-1775","name":"Pughoboto","region":"in-nagaland","level":"tehsil","parent":"in-nagaland-d-251","district":"Zunheboto","source":"LGD via Bharatlas · 2024 snapshot","state_lgd":13,"district_lgd":251,"subdistrict_lgd":1775,"center":[94.29404059290961,25.904719785186355],"bbox":[94.2105976,25.8032428,94.3728723,26.0184827]},"geometry":{"type":"Point","coordinates":[94.29404059290961,25.904719785186355]}},{"type":"Feature","id":"in-nagaland-t-1841","properties":{"id":"in-nagaland-t-1841","name":"Pungro","region":"in-nagaland","level":"tehsil","parent":"in-nagaland-d-614","district":"Kiphire","source":"LGD via Bharatlas · 2024 snapshot","state_lgd":13,"district_lgd":614,"subdistrict_lgd":1841,"center":[94.8580794945916,25.8334730812439],"bbox":[94.7953565,25.7583535,94.9464708,25.8856034]},"geometry":{"type":"Point","coordinates":[94.8580794945916,25.8334730812439]}},{"type":"Feature","id":"in-nagaland-t-1787","properties":{"id":"in-nagaland-t-1787","name":"Ralan","region":"in-nagaland","level":"tehsil","parent":"in-nagaland-d-250","district":"Wokha","source":"LGD via Bharatlas · 2024 snapshot","state_lgd":13,"district_lgd":250,"subdistrict_lgd":1787,"center":[93.99953265047021,26.02446078060599],"bbox":[93.9530008,25.9825507,94.0513502,26.0868067]},"geometry":{"type":"Point","coordinates":[93.99953265047021,26.02446078060599]}},{"type":"Feature","id":"in-nagaland-t-1813","properties":{"id":"in-nagaland-t-1813","name":"Razieba","region":"in-nagaland","level":"tehsil","parent":"in-nagaland-d-248","district":"Phek","source":"LGD via Bharatlas · 2024 snapshot","state_lgd":13,"district_lgd":248,"subdistrict_lgd":1813,"center":[94.33098623566376,25.53097019739215],"bbox":[94.2937158,25.4891548,94.3841418,25.5659133]},"geometry":{"type":"Point","coordinates":[94.33098623566376,25.53097019739215]}},{"type":"Feature","id":"in-nagaland-t-1808","properties":{"id":"in-nagaland-t-1808","name":"Sakraba","region":"in-nagaland","level":"tehsil","parent":"in-nagaland-d-248","district":"Phek","source":"LGD via Bharatlas · 2024 snapshot","state_lgd":13,"district_lgd":248,"subdistrict_lgd":1808,"center":[94.35319215086257,25.6431083548699],"bbox":[94.2928898,25.5835264,94.4054932,25.7090996]},"geometry":{"type":"Point","coordinates":[94.35319215086257,25.6431083548699]}},{"type":"Feature","id":"in-nagaland-t-1834","properties":{"id":"in-nagaland-t-1834","name":"Sakshi","region":"in-nagaland","level":"tehsil","parent":"in-nagaland-d-615","district":"Longleng","source":"LGD via Bharatlas · 2024 snapshot","state_lgd":13,"district_lgd":615,"subdistrict_lgd":1834,"center":[94.86378316284267,26.434048408726156],"bbox":[94.8020008,26.3718708,94.9161041,26.5100139]},"geometry":{"type":"Point","coordinates":[94.86378316284267,26.434048408726156]}},{"type":"Feature","id":"in-nagaland-t-1819","properties":{"id":"in-nagaland-t-1819","name":"Sangsangnyu","region":"in-nagaland","level":"tehsil","parent":"in-nagaland-d-249","district":"Tuensang","source":"LGD via Bharatlas · 2024 snapshot","state_lgd":13,"district_lgd":249,"subdistrict_lgd":1819,"center":[94.88104695117572,26.25596872444676],"bbox":[94.8171263,26.1705027,94.9423515,26.3386489]},"geometry":{"type":"Point","coordinates":[94.88104695117572,26.25596872444676]}},{"type":"Feature","id":"in-nagaland-t-1785","properties":{"id":"in-nagaland-t-1785","name":"Sanis","region":"in-nagaland","level":"tehsil","parent":"in-nagaland-d-250","district":"Wokha","source":"LGD via Bharatlas · 2024 snapshot","state_lgd":13,"district_lgd":250,"subdistrict_lgd":1785,"center":[94.20033040888055,26.225703651303586],"bbox":[94.0894186,26.1031454,94.3296095,26.3501072]},"geometry":{"type":"Point","coordinates":[94.20033040888055,26.225703651303586]}},{"type":"Feature","id":"in-nagaland-t-1778","properties":{"id":"in-nagaland-t-1778","name":"Saptiqa","region":"in-nagaland","level":"tehsil","parent":"in-nagaland-d-251","district":"Zunheboto","source":"LGD via Bharatlas · 2024 snapshot","state_lgd":13,"district_lgd":251,"subdistrict_lgd":1778,"center":[94.3984191253318,25.99773271415662],"bbox":[94.3419001,25.9381214,94.4738026,26.0594017]},"geometry":{"type":"Point","coordinates":[94.3984191253318,25.99773271415662]}},{"type":"Feature","id":"in-nagaland-t-1777","properties":{"id":"in-nagaland-t-1777","name":"Satakha","region":"in-nagaland","level":"tehsil","parent":"in-nagaland-d-251","district":"Zunheboto","source":"LGD via Bharatlas · 2024 snapshot","state_lgd":13,"district_lgd":251,"subdistrict_lgd":1777,"center":[94.46695190024997,25.919346875941496],"bbox":[94.3661587,25.8147644,94.5304508,26.0261079]},"geometry":{"type":"Point","coordinates":[94.46695190024997,25.919346875941496]}},{"type":"Feature","id":"in-nagaland-t-1779","properties":{"id":"in-nagaland-t-1779","name":"Satoi","region":"in-nagaland","level":"tehsil","parent":"in-nagaland-d-251","district":"Zunheboto","source":"LGD via Bharatlas · 2024 snapshot","state_lgd":13,"district_lgd":251,"subdistrict_lgd":1779,"center":[94.59136242873976,25.80655574323068],"bbox":[94.5166442,25.7320346,94.712968,25.8908345]},"geometry":{"type":"Point","coordinates":[94.59136242873976,25.80655574323068]}},{"type":"Feature","id":"in-nagaland-t-1850","properties":{"id":"in-nagaland-t-1850","name":"Sechu-Zubza","region":"in-nagaland","level":"tehsil","parent":"in-nagaland-d-245","district":"Kohima","source":"LGD via Bharatlas · 2024 snapshot","state_lgd":13,"district_lgd":245,"subdistrict_lgd":1850,"center":[93.99006309092876,25.663227023182362],"bbox":[93.8943116,25.5522949,94.0821851,25.7952362]},"geometry":{"type":"Point","coordinates":[93.99006309092876,25.663227023182362]}},{"type":"Feature","id":"in-nagaland-t-1800","properties":{"id":"in-nagaland-t-1800","name":"Sekruzu","region":"in-nagaland","level":"tehsil","parent":"in-nagaland-d-248","district":"Phek","source":"LGD via Bharatlas · 2024 snapshot","state_lgd":13,"district_lgd":248,"subdistrict_lgd":1800,"center":[94.38105030041243,25.785577334717473],"bbox":[94.315731,25.6972048,94.4652202,25.8493076]},"geometry":{"type":"Point","coordinates":[94.38105030041243,25.785577334717473]}},{"type":"Feature","id":"in-nagaland-t-1835","properties":{"id":"in-nagaland-t-1835","name":"Seyochung","region":"in-nagaland","level":"tehsil","parent":"in-nagaland-d-614","district":"Kiphire","source":"LGD via Bharatlas · 2024 snapshot","state_lgd":13,"district_lgd":614,"subdistrict_lgd":1835,"center":[94.65402892148467,25.933540118837385],"bbox":[94.5698202,25.8305423,94.7490144,26.0266271]},"geometry":{"type":"Point","coordinates":[94.65402892148467,25.933540118837385]}},{"type":"Feature","id":"in-nagaland-t-1825","properties":{"id":"in-nagaland-t-1825","name":"Shamator","region":"in-nagaland","level":"tehsil","parent":"in-nagaland-d-249","district":"Tuensang","source":"LGD via Bharatlas · 2024 snapshot","state_lgd":13,"district_lgd":249,"subdistrict_lgd":1825,"center":[94.8660475409286,26.101319183756846],"bbox":[94.7944844,26.0112078,94.9313229,26.1982871]},"geometry":{"type":"Point","coordinates":[94.8660475409286,26.101319183756846]}},{"type":"Feature","id":"in-nagaland-t-1747","properties":{"id":"in-nagaland-t-1747","name":"Shangnyu","region":"in-nagaland","level":"tehsil","parent":"in-nagaland-d-247","district":"Mon","source":"LGD via Bharatlas · 2024 snapshot","state_lgd":13,"district_lgd":247,"subdistrict_lgd":1747,"center":[95.16180759657608,26.820293078352734],"bbox":[95.113892,26.7825562,95.214142,26.8661671]},"geometry":{"type":"Point","coordinates":[95.16180759657608,26.820293078352734]}},{"type":"Feature","id":"in-nagaland-t-1839","properties":{"id":"in-nagaland-t-1839","name":"Sitimi","region":"in-nagaland","level":"tehsil","parent":"in-nagaland-d-614","district":"Kiphire","source":"LGD via Bharatlas · 2024 snapshot","state_lgd":13,"district_lgd":614,"subdistrict_lgd":1839,"center":[94.69532954385782,25.84234898034275],"bbox":[94.6028495,25.7826455,94.7702809,25.8994952]},"geometry":{"type":"Point","coordinates":[94.69532954385782,25.84234898034275]}},{"type":"Feature","id":"in-nagaland-t-1820","properties":{"id":"in-nagaland-t-1820","name":"Sotokur","region":"in-nagaland","level":"tehsil","parent":"in-nagaland-d-249","district":"Tuensang","source":"LGD via Bharatlas · 2024 snapshot","state_lgd":13,"district_lgd":249,"subdistrict_lgd":1820,"center":[94.77356483931213,26.1508018843712],"bbox":[94.6930789,26.1092689,94.8564995,26.1950034]},"geometry":{"type":"Point","coordinates":[94.77356483931213,26.1508018843712]}},{"type":"Feature","id":"in-nagaland-t-1784","properties":{"id":"in-nagaland-t-1784","name":"Sungro","region":"in-nagaland","level":"tehsil","parent":"in-nagaland-d-250","district":"Wokha","source":"LGD via Bharatlas · 2024 snapshot","state_lgd":13,"district_lgd":250,"subdistrict_lgd":1784,"center":[94.32618636285109,26.25079695573976],"bbox":[94.2493714,26.1767886,94.3847851,26.3370824]},"geometry":{"type":"Point","coordinates":[94.32618636285109,26.25079695573976]}},{"type":"Feature","id":"in-nagaland-t-1769","properties":{"id":"in-nagaland-t-1769","name":"Suruhuto","region":"in-nagaland","level":"tehsil","parent":"in-nagaland-d-251","district":"Zunheboto","source":"LGD via Bharatlas · 2024 snapshot","state_lgd":13,"district_lgd":251,"subdistrict_lgd":1769,"center":[94.59315855053188,26.15338668784321],"bbox":[94.5191622,26.0922596,94.6564507,26.2173627]},"geometry":{"type":"Point","coordinates":[94.59315855053188,26.15338668784321]}},{"type":"Feature","id":"in-nagaland-t-1830","properties":{"id":"in-nagaland-t-1830","name":"Tamlu","region":"in-nagaland","level":"tehsil","parent":"in-nagaland-d-615","district":"Longleng","source":"LGD via Bharatlas · 2024 snapshot","state_lgd":13,"district_lgd":615,"subdistrict_lgd":1830,"center":[94.73688804051902,26.66353417505914],"bbox":[94.6669026,26.607979,94.7900965,26.7043633]},"geometry":{"type":"Point","coordinates":[94.73688804051902,26.66353417505914]}},{"type":"Feature","id":"in-nagaland-t-1856","properties":{"id":"in-nagaland-t-1856","name":"Tening","region":"in-nagaland","level":"tehsil","parent":"in-nagaland-d-613","district":"Peren","source":"LGD via Bharatlas · 2024 snapshot","state_lgd":13,"district_lgd":613,"subdistrict_lgd":1856,"center":[93.62144098931938,25.384787229534776],"bbox":[93.547465,25.1983559,93.7068473,25.5164678]},"geometry":{"type":"Point","coordinates":[93.62144098931938,25.384787229534776]}},{"type":"Feature","id":"in-nagaland-t-1829","properties":{"id":"in-nagaland-t-1829","name":"Thonoknyu","region":"in-nagaland","level":"tehsil","parent":"in-nagaland-d-736","district":"Noklak","source":"LGD via Bharatlas · 2024 snapshot","state_lgd":13,"district_lgd":736,"subdistrict_lgd":1829,"center":[95.01585299311692,26.00265167656619],"bbox":[94.8685067,25.8756657,95.1858881,26.1036857]},"geometry":{"type":"Point","coordinates":[95.01585299311692,26.00265167656619]}},{"type":"Feature","id":"in-nagaland-t-1745","properties":{"id":"in-nagaland-t-1745","name":"Tizit","region":"in-nagaland","level":"tehsil","parent":"in-nagaland-d-247","district":"Mon","source":"LGD via Bharatlas · 2024 snapshot","state_lgd":13,"district_lgd":247,"subdistrict_lgd":1745,"center":[95.0561101785538,26.89161091748598],"bbox":[94.931335,26.7920111,95.1400703,26.9618128]},"geometry":{"type":"Point","coordinates":[95.0561101785538,26.89161091748598]}},{"type":"Feature","id":"in-nagaland-t-1756","properties":{"id":"in-nagaland-t-1756","name":"Tobu","region":"in-nagaland","level":"tehsil","parent":"in-nagaland-d-247","district":"Mon","source":"LGD via Bharatlas · 2024 snapshot","state_lgd":13,"district_lgd":247,"subdistrict_lgd":1756,"center":[94.97297733473728,26.352733985142724],"bbox":[94.8965823,26.2853478,95.0461494,26.4340948]},"geometry":{"type":"Point","coordinates":[94.97297733473728,26.352733985142724]}},{"type":"Feature","id":"in-nagaland-t-1843","properties":{"id":"in-nagaland-t-1843","name":"Tseminyu","region":"in-nagaland","level":"tehsil","parent":"in-nagaland-d-757","district":"Tseminyu","source":"LGD via Bharatlas · 2024 snapshot","state_lgd":13,"district_lgd":757,"subdistrict_lgd":1843,"center":[94.2383055509344,25.97743468111934],"bbox":[94.1603155,25.9402616,94.3004845,26.0217653]},"geometry":{"type":"Point","coordinates":[94.2383055509344,25.97743468111934]}},{"type":"Feature","id":"in-nagaland-t-1844","properties":{"id":"in-nagaland-t-1844","name":"Tsogin","region":"in-nagaland","level":"tehsil","parent":"in-nagaland-d-757","district":"Tseminyu","source":"LGD via Bharatlas · 2024 snapshot","state_lgd":13,"district_lgd":757,"subdistrict_lgd":1844,"center":[94.13377351020117,25.92562458694851],"bbox":[93.9669453,25.8592436,94.2987727,25.9914874]},"geometry":{"type":"Point","coordinates":[94.13377351020117,25.92562458694851]}},{"type":"Feature","id":"in-nagaland-t-1826","properties":{"id":"in-nagaland-t-1826","name":"Tsurungto","region":"in-nagaland","level":"tehsil","parent":"in-nagaland-d-249","district":"Tuensang","source":"LGD via Bharatlas · 2024 snapshot","state_lgd":13,"district_lgd":249,"subdistrict_lgd":1826,"center":[94.8424965547656,26.00941009082611],"bbox":[94.7998102,25.9801616,94.8880571,26.0433182]},"geometry":{"type":"Point","coordinates":[94.8424965547656,26.00941009082611]}},{"type":"Feature","id":"in-nagaland-t-1817","properties":{"id":"in-nagaland-t-1817","name":"Tuensang Sadar","region":"in-nagaland","level":"tehsil","parent":"in-nagaland-d-249","district":"Tuensang","source":"LGD via Bharatlas · 2024 snapshot","state_lgd":13,"district_lgd":249,"subdistrict_lgd":1817,"center":[94.78975634351434,26.23257013708325],"bbox":[94.6887197,26.1582027,94.9026225,26.3496294]},"geometry":{"type":"Point","coordinates":[94.78975634351434,26.23257013708325]}},{"type":"Feature","id":"in-nagaland-t-1760","properties":{"id":"in-nagaland-t-1760","name":"Tuli","region":"in-nagaland","level":"tehsil","parent":"in-nagaland-d-246","district":"Mokokchung","source":"LGD via Bharatlas · 2024 snapshot","state_lgd":13,"district_lgd":246,"subdistrict_lgd":1760,"center":[94.64024004802492,26.65321958434318],"bbox":[94.528457,26.5278009,94.7566632,26.7638695]},"geometry":{"type":"Point","coordinates":[94.64024004802492,26.65321958434318]}},{"type":"Feature","id":"in-nagaland-t-1767","properties":{"id":"in-nagaland-t-1767","name":"V.K.","region":"in-nagaland","level":"tehsil","parent":"in-nagaland-d-251","district":"Zunheboto","source":"LGD via Bharatlas · 2024 snapshot","state_lgd":13,"district_lgd":251,"subdistrict_lgd":1767,"center":[94.38959808348262,26.16325384023933],"bbox":[94.3348094,26.1083565,94.4277043,26.2126588]},"geometry":{"type":"Point","coordinates":[94.38959808348262,26.16325384023933]}},{"type":"Feature","id":"in-nagaland-t-1749","properties":{"id":"in-nagaland-t-1749","name":"Wakching","region":"in-nagaland","level":"tehsil","parent":"in-nagaland-d-247","district":"Mon","source":"LGD via Bharatlas · 2024 snapshot","state_lgd":13,"district_lgd":247,"subdistrict_lgd":1749,"center":[94.87388332595391,26.683227569286583],"bbox":[94.77949,26.6089547,94.9657628,26.7536811]},"geometry":{"type":"Point","coordinates":[94.87388332595391,26.683227569286583]}},{"type":"Feature","id":"in-nagaland-t-1789","properties":{"id":"in-nagaland-t-1789","name":"Wokha Sadar","region":"in-nagaland","level":"tehsil","parent":"in-nagaland-d-250","district":"Wokha","source":"LGD via Bharatlas · 2024 snapshot","state_lgd":13,"district_lgd":250,"subdistrict_lgd":1789,"center":[94.2216956463525,26.086553951924202],"bbox":[94.102471,26.0018536,94.3167116,26.1832678]},"geometry":{"type":"Point","coordinates":[94.2216956463525,26.086553951924202]}},{"type":"Feature","id":"in-nagaland-t-1788","properties":{"id":"in-nagaland-t-1788","name":"Wozhuro","region":"in-nagaland","level":"tehsil","parent":"in-nagaland-d-250","district":"Wokha","source":"LGD via Bharatlas · 2024 snapshot","state_lgd":13,"district_lgd":250,"subdistrict_lgd":1788,"center":[94.13535541993194,26.013282598477897],"bbox":[94.0449044,25.9592834,94.2229066,26.0757762]},"geometry":{"type":"Point","coordinates":[94.13535541993194,26.013282598477897]}},{"type":"Feature","id":"in-nagaland-t-1832","properties":{"id":"in-nagaland-t-1832","name":"Yongnyah","region":"in-nagaland","level":"tehsil","parent":"in-nagaland-d-615","district":"Longleng","source":"LGD via Bharatlas · 2024 snapshot","state_lgd":13,"district_lgd":615,"subdistrict_lgd":1832,"center":[94.80471282399553,26.58724433165108],"bbox":[94.724749,26.5337368,94.894808,26.6576563]},"geometry":{"type":"Point","coordinates":[94.80471282399553,26.58724433165108]}},{"type":"Feature","id":"in-nagaland-t-1810","properties":{"id":"in-nagaland-t-1810","name":"Zuketsa","region":"in-nagaland","level":"tehsil","parent":"in-nagaland-d-248","district":"Phek","source":"LGD via Bharatlas · 2024 snapshot","state_lgd":13,"district_lgd":248,"subdistrict_lgd":1810,"center":[94.24592769612201,25.534389817516356],"bbox":[94.1918776,25.4975889,94.2893383,25.566835]},"geometry":{"type":"Point","coordinates":[94.24592769612201,25.534389817516356]}},{"type":"Feature","id":"in-nagaland-t-1772","properties":{"id":"in-nagaland-t-1772","name":"Zunheboto Sadar","region":"in-nagaland","level":"tehsil","parent":"in-nagaland-d-251","district":"Zunheboto","source":"LGD via Bharatlas · 2024 snapshot","state_lgd":13,"district_lgd":251,"subdistrict_lgd":1772,"center":[94.53838562816634,26.0390361078631],"bbox":[94.464247,25.9451501,94.6209137,26.1048171]},"geometry":{"type":"Point","coordinates":[94.53838562816634,26.0390361078631]}}]}
