{"type":"FeatureCollection","features":[{"type":"Feature","id":"in-nagaland-d-758","properties":{"id":"in-nagaland-d-758","name":"Chumoukedima","region":"in-nagaland","level":"district","parent":"","source":"LGD via Bharatlas · 2024 snapshot","state_lgd":13,"district_lgd":758,"center":[93.79046228568355,25.75833591536056],"bbox":[93.5395518,25.6426093,94.0426763,25.880735]},"geometry":{"type":"Point","coordinates":[93.79046228568355,25.75833591536056]}},{"type":"Feature","id":"in-nagaland-d-244","properties":{"id":"in-nagaland-d-244","name":"Dimapur","region":"in-nagaland","level":"district","parent":"","source":"LGD via Bharatlas · 2024 snapshot","state_lgd":13,"district_lgd":244,"center":[93.74560550853761,25.8967370540344],"bbox":[93.681505,25.8464274,93.7961106,25.9704842]},"geometry":{"type":"Point","coordinates":[93.74560550853761,25.8967370540344]}},{"type":"Feature","id":"in-nagaland-d-614","properties":{"id":"in-nagaland-d-614","name":"Kiphire","region":"in-nagaland","level":"district","parent":"","source":"LGD via Bharatlas · 2024 snapshot","state_lgd":13,"district_lgd":614,"center":[94.82301850262888,25.843630637080732],"bbox":[94.5698202,25.5850859,95.050022,26.0266271]},"geometry":{"type":"Point","coordinates":[94.82301850262888,25.843630637080732]}},{"type":"Feature","id":"in-nagaland-d-245","properties":{"id":"in-nagaland-d-245","name":"Kohima","region":"in-nagaland","level":"district","parent":"","source":"LGD via Bharatlas · 2024 snapshot","state_lgd":13,"district_lgd":245,"center":[94.09246282230188,25.712357772013593],"bbox":[93.8943116,25.519016,94.2822656,25.9223179]},"geometry":{"type":"Point","coordinates":[94.09246282230188,25.712357772013593]}},{"type":"Feature","id":"in-nagaland-d-615","properties":{"id":"in-nagaland-d-615","name":"Longleng","region":"in-nagaland","level":"district","parent":"","source":"LGD via Bharatlas · 2024 snapshot","state_lgd":13,"district_lgd":615,"center":[94.79707000041525,26.55583147708016],"bbox":[94.6669026,26.3718708,94.9161041,26.79636]},"geometry":{"type":"Point","coordinates":[94.79707000041525,26.55583147708016]}},{"type":"Feature","id":"in-nagaland-d-246","properties":{"id":"in-nagaland-d-246","name":"Mokokchung","region":"in-nagaland","level":"district","parent":"","source":"LGD via Bharatlas · 2024 snapshot","state_lgd":13,"district_lgd":246,"center":[94.5305847416311,26.469490188987788],"bbox":[94.2985907,26.178089,94.7566632,26.7638695]},"geometry":{"type":"Point","coordinates":[94.5305847416311,26.469490188987788]}},{"type":"Feature","id":"in-nagaland-d-247","properties":{"id":"in-nagaland-d-247","name":"Mon","region":"in-nagaland","level":"district","parent":"","source":"LGD via Bharatlas · 2024 snapshot","state_lgd":13,"district_lgd":247,"center":[95.01671806709409,26.677812494647792],"bbox":[94.77949,26.2853478,95.2413504,27.0352068]},"geometry":{"type":"Point","coordinates":[95.01671806709409,26.677812494647792]}},{"type":"Feature","id":"in-nagaland-d-764","properties":{"id":"in-nagaland-d-764","name":"Niuland","region":"in-nagaland","level":"district","parent":"","source":"LGD via Bharatlas · 2024 snapshot","state_lgd":13,"district_lgd":764,"center":[93.90563311545337,25.849671034177597],"bbox":[93.8228726,25.7945826,93.9955025,25.9062578]},"geometry":{"type":"Point","coordinates":[93.90563311545337,25.849671034177597]}},{"type":"Feature","id":"in-nagaland-d-736","properties":{"id":"in-nagaland-d-736","name":"Noklak","region":"in-nagaland","level":"district","parent":"","source":"LGD via Bharatlas · 2024 snapshot","state_lgd":13,"district_lgd":736,"center":[95.03007132474374,26.10557976917275],"bbox":[94.8685067,25.8756657,95.1858881,26.3394254]},"geometry":{"type":"Point","coordinates":[95.03007132474374,26.10557976917275]}},{"type":"Feature","id":"in-nagaland-d-613","properties":{"id":"in-nagaland-d-613","name":"Peren","region":"in-nagaland","level":"district","parent":"","source":"LGD via Bharatlas · 2024 snapshot","state_lgd":13,"district_lgd":613,"center":[93.6145247814231,25.498002595456427],"bbox":[93.3266867,25.1983559,93.9411915,25.7018024]},"geometry":{"type":"Point","coordinates":[93.6145247814231,25.498002595456427]}},{"type":"Feature","id":"in-nagaland-d-248","properties":{"id":"in-nagaland-d-248","name":"Phek","region":"in-nagaland","level":"district","parent":"","source":"LGD via Bharatlas · 2024 snapshot","state_lgd":13,"district_lgd":248,"center":[94.53474511241697,25.64611321080692],"bbox":[94.1859527,25.4493588,94.8985039,25.8493076]},"geometry":{"type":"Point","coordinates":[94.53474511241697,25.64611321080692]}},{"type":"Feature","id":"in-nagaland-d-765","properties":{"id":"in-nagaland-d-765","name":"Shamator","region":"in-nagaland","level":"district","parent":"","source":"LGD via Bharatlas · 2024 snapshot","state_lgd":13,"district_lgd":765,"center":[94.9488331385122,26.144955804147067],"bbox":[94.8903751,26.0488411,95.0092335,26.2182701]},"geometry":{"type":"Point","coordinates":[94.9488331385122,26.144955804147067]}},{"type":"Feature","id":"in-nagaland-d-757","properties":{"id":"in-nagaland-d-757","name":"Tseminyu","region":"in-nagaland","level":"district","parent":"","source":"LGD via Bharatlas · 2024 snapshot","state_lgd":13,"district_lgd":757,"center":[94.16210733465327,25.939669409654943],"bbox":[93.9669453,25.8593487,94.3004845,26.0213888]},"geometry":{"type":"Point","coordinates":[94.16210733465327,25.939669409654943]}},{"type":"Feature","id":"in-nagaland-d-249","properties":{"id":"in-nagaland-d-249","name":"Tuensang","region":"in-nagaland","level":"district","parent":"","source":"LGD via Bharatlas · 2024 snapshot","state_lgd":13,"district_lgd":249,"center":[94.77415767292455,26.219983261516997],"bbox":[94.5592312,25.9801616,94.9423515,26.4583528]},"geometry":{"type":"Point","coordinates":[94.77415767292455,26.219983261516997]}},{"type":"Feature","id":"in-nagaland-d-250","properties":{"id":"in-nagaland-d-250","name":"Wokha","region":"in-nagaland","level":"district","parent":"","source":"LGD via Bharatlas · 2024 snapshot","state_lgd":13,"district_lgd":250,"center":[94.19147770418458,26.187663560366772],"bbox":[93.9530008,25.9215487,94.3906082,26.5613978]},"geometry":{"type":"Point","coordinates":[94.19147770418458,26.187663560366772]}},{"type":"Feature","id":"in-nagaland-d-251","properties":{"id":"in-nagaland-d-251","name":"Zunheboto","region":"in-nagaland","level":"district","parent":"","source":"LGD via Bharatlas · 2024 snapshot","state_lgd":13,"district_lgd":251,"center":[94.4828089432238,25.994870121378842],"bbox":[94.2105976,25.7320346,94.712968,26.2935614]},"geometry":{"type":"Point","coordinates":[94.4828089432238,25.994870121378842]}}]}
