{"type":"FeatureCollection","features":[{"type":"Feature","id":"in-odisha-d-344","properties":{"id":"in-odisha-d-344","name":"Anugul","region":"in-odisha","level":"district","parent":"","source":"LGD via Bharatlas · 2024 snapshot","state_lgd":21,"district_lgd":344,"center":[84.9052083322675,20.98634436648611],"bbox":[84.2617313,20.5280312,85.3932776,21.6801551]},"geometry":{"type":"Point","coordinates":[84.9052083322675,20.98634436648611]}},{"type":"Feature","id":"in-odisha-d-345","properties":{"id":"in-odisha-d-345","name":"Balangir","region":"in-odisha","level":"district","parent":"","source":"LGD via Bharatlas · 2024 snapshot","state_lgd":21,"district_lgd":345,"center":[83.17165051621626,20.58942673325103],"bbox":[82.683305,20.1473579,83.6772409,21.0711543]},"geometry":{"type":"Point","coordinates":[83.17165051621626,20.58942673325103]}},{"type":"Feature","id":"in-odisha-d-346","properties":{"id":"in-odisha-d-346","name":"Baleshwar","region":"in-odisha","level":"district","parent":"","source":"LGD via Bharatlas · 2024 snapshot","state_lgd":21,"district_lgd":346,"center":[86.90618165950505,21.49442147784575],"bbox":[86.3528977,21.0623708,87.4861351,21.9799379]},"geometry":{"type":"Point","coordinates":[86.90618165950505,21.49442147784575]}},{"type":"Feature","id":"in-odisha-d-347","properties":{"id":"in-odisha-d-347","name":"Bargarh","region":"in-odisha","level":"district","parent":"","source":"LGD via Bharatlas · 2024 snapshot","state_lgd":21,"district_lgd":347,"center":[83.34914230492308,21.219615255638058],"bbox":[82.6356394,20.7223014,83.9126999,21.7443887]},"geometry":{"type":"Point","coordinates":[83.34914230492308,21.219615255638058]}},{"type":"Feature","id":"in-odisha-d-348","properties":{"id":"in-odisha-d-348","name":"Bhadrak","region":"in-odisha","level":"district","parent":"","source":"LGD via Bharatlas · 2024 snapshot","state_lgd":21,"district_lgd":348,"center":[86.6245194925347,20.983292471821173],"bbox":[86.2706095,20.727459,87.1020168,21.2375179]},"geometry":{"type":"Point","coordinates":[86.6245194925347,20.983292471821173]}},{"type":"Feature","id":"in-odisha-d-349","properties":{"id":"in-odisha-d-349","name":"Boudh","region":"in-odisha","level":"district","parent":"","source":"LGD via Bharatlas · 2024 snapshot","state_lgd":21,"district_lgd":349,"center":[84.17287346121678,20.644443852280002],"bbox":[83.5694634,20.3842691,84.7912989,20.8960976]},"geometry":{"type":"Point","coordinates":[84.17287346121678,20.644443852280002]}},{"type":"Feature","id":"in-odisha-d-350","properties":{"id":"in-odisha-d-350","name":"Cuttack","region":"in-odisha","level":"district","parent":"","source":"LGD via Bharatlas · 2024 snapshot","state_lgd":21,"district_lgd":350,"center":[85.6964622230488,20.453339930589483],"bbox":[84.8485166,20.0390845,86.2800281,20.7028061]},"geometry":{"type":"Point","coordinates":[85.6964622230488,20.453339930589483]}},{"type":"Feature","id":"in-odisha-d-351","properties":{"id":"in-odisha-d-351","name":"Deogarh","region":"in-odisha","level":"district","parent":"","source":"LGD via Bharatlas · 2024 snapshot","state_lgd":21,"district_lgd":351,"center":[84.78531223702899,21.467001983845723],"bbox":[84.3921097,21.1309078,85.2128606,21.7642849]},"geometry":{"type":"Point","coordinates":[84.78531223702899,21.467001983845723]}},{"type":"Feature","id":"in-odisha-d-352","properties":{"id":"in-odisha-d-352","name":"Dhenkanal","region":"in-odisha","level":"district","parent":"","source":"LGD via Bharatlas · 2024 snapshot","state_lgd":21,"district_lgd":352,"center":[85.5238953860325,20.826874876949045],"bbox":[85.1131339,20.4844717,86.0318474,21.1864478]},"geometry":{"type":"Point","coordinates":[85.5238953860325,20.826874876949045]}},{"type":"Feature","id":"in-odisha-d-353","properties":{"id":"in-odisha-d-353","name":"Gajapati","region":"in-odisha","level":"district","parent":"","source":"LGD via Bharatlas · 2024 snapshot","state_lgd":21,"district_lgd":353,"center":[84.161126384072,19.184250876784212],"bbox":[83.7934806,18.7567804,84.4394657,19.6376205]},"geometry":{"type":"Point","coordinates":[84.161126384072,19.184250876784212]}},{"type":"Feature","id":"in-odisha-d-354","properties":{"id":"in-odisha-d-354","name":"Ganjam","region":"in-odisha","level":"district","parent":"","source":"LGD via Bharatlas · 2024 snapshot","state_lgd":21,"district_lgd":354,"center":[84.6724655568205,19.624456100797666],"bbox":[84.1301627,18.9393237,85.1827491,20.2811367]},"geometry":{"type":"Point","coordinates":[84.6724655568205,19.624456100797666]}},{"type":"Feature","id":"in-odisha-d-355","properties":{"id":"in-odisha-d-355","name":"Jagatsinghapur","region":"in-odisha","level":"district","parent":"","source":"LGD via Bharatlas · 2024 snapshot","state_lgd":21,"district_lgd":355,"center":[86.33521139798673,20.218649464408806],"bbox":[86.0108844,19.9668335,86.7797166,20.4024393]},"geometry":{"type":"Point","coordinates":[86.33521139798673,20.218649464408806]}},{"type":"Feature","id":"in-odisha-d-356","properties":{"id":"in-odisha-d-356","name":"Jajapur","region":"in-odisha","level":"district","parent":"","source":"LGD via Bharatlas · 2024 snapshot","state_lgd":21,"district_lgd":356,"center":[86.14944134102717,20.856144130377228],"bbox":[85.6812355,20.5791825,86.6246356,21.1703501]},"geometry":{"type":"Point","coordinates":[86.14944134102717,20.856144130377228]}},{"type":"Feature","id":"in-odisha-d-357","properties":{"id":"in-odisha-d-357","name":"Jharsuguda","region":"in-odisha","level":"district","parent":"","source":"LGD via Bharatlas · 2024 snapshot","state_lgd":21,"district_lgd":357,"center":[83.9547356033725,21.805883936524953],"bbox":[83.4186934,21.5643444,84.390871,22.0395348]},"geometry":{"type":"Point","coordinates":[83.9547356033725,21.805883936524953]}},{"type":"Feature","id":"in-odisha-d-358","properties":{"id":"in-odisha-d-358","name":"Kalahandi","region":"in-odisha","level":"district","parent":"","source":"LGD via Bharatlas · 2024 snapshot","state_lgd":21,"district_lgd":358,"center":[83.10793759333872,19.867583390341526],"bbox":[82.5245147,19.1983362,83.7907887,20.4542431]},"geometry":{"type":"Point","coordinates":[83.10793759333872,19.867583390341526]}},{"type":"Feature","id":"in-odisha-d-359","properties":{"id":"in-odisha-d-359","name":"Kandhamal","region":"in-odisha","level":"district","parent":"","source":"LGD via Bharatlas · 2024 snapshot","state_lgd":21,"district_lgd":359,"center":[84.0459359671878,20.128179530624795],"bbox":[83.4951637,19.5732818,84.5875888,20.6896993]},"geometry":{"type":"Point","coordinates":[84.0459359671878,20.128179530624795]}},{"type":"Feature","id":"in-odisha-d-360","properties":{"id":"in-odisha-d-360","name":"Kendrapara","region":"in-odisha","level":"district","parent":"","source":"LGD via Bharatlas · 2024 snapshot","state_lgd":21,"district_lgd":360,"center":[86.60894929730983,20.55311909460612],"bbox":[86.245667,20.2968441,87.0582481,20.7987582]},"geometry":{"type":"Point","coordinates":[86.60894929730983,20.55311909460612]}},{"type":"Feature","id":"in-odisha-d-361","properties":{"id":"in-odisha-d-361","name":"Kendujhar","region":"in-odisha","level":"district","parent":"","source":"LGD via Bharatlas · 2024 snapshot","state_lgd":21,"district_lgd":361,"center":[85.70238654711454,21.537820366850614],"bbox":[85.1842176,21.0157643,86.3722424,22.1632023]},"geometry":{"type":"Point","coordinates":[85.70238654711454,21.537820366850614]}},{"type":"Feature","id":"in-odisha-d-362","properties":{"id":"in-odisha-d-362","name":"Khordha","region":"in-odisha","level":"district","parent":"","source":"LGD via Bharatlas · 2024 snapshot","state_lgd":21,"district_lgd":362,"center":[85.5142761108447,20.091063032585904],"bbox":[84.9357345,19.6722342,86.0791708,20.435671]},"geometry":{"type":"Point","coordinates":[85.5142761108447,20.091063032585904]}},{"type":"Feature","id":"in-odisha-d-363","properties":{"id":"in-odisha-d-363","name":"Koraput","region":"in-odisha","level":"district","parent":"","source":"LGD via Bharatlas · 2024 snapshot","state_lgd":21,"district_lgd":363,"center":[82.71971775023609,18.8128728189748],"bbox":[82.0887407,18.2366522,83.4148477,19.2112979]},"geometry":{"type":"Point","coordinates":[82.71971775023609,18.8128728189748]}},{"type":"Feature","id":"in-odisha-d-364","properties":{"id":"in-odisha-d-364","name":"Malkangiri","region":"in-odisha","level":"district","parent":"","source":"LGD via Bharatlas · 2024 snapshot","state_lgd":21,"district_lgd":364,"center":[81.95049301462294,18.257715411427064],"bbox":[81.3883784,17.8124499,82.43044,18.7384775]},"geometry":{"type":"Point","coordinates":[81.95049301462294,18.257715411427064]}},{"type":"Feature","id":"in-odisha-d-365","properties":{"id":"in-odisha-d-365","name":"Mayurbhanj","region":"in-odisha","level":"district","parent":"","source":"LGD via Bharatlas · 2024 snapshot","state_lgd":21,"district_lgd":365,"center":[86.4085686350663,21.895371297334236],"bbox":[85.6621518,21.2647846,87.1837407,22.5675074]},"geometry":{"type":"Point","coordinates":[86.4085686350663,21.895371297334236]}},{"type":"Feature","id":"in-odisha-d-366","properties":{"id":"in-odisha-d-366","name":"Nabarangpur","region":"in-odisha","level":"district","parent":"","source":"LGD via Bharatlas · 2024 snapshot","state_lgd":21,"district_lgd":366,"center":[82.33452223272766,19.576483401166907],"bbox":[81.8448823,19.1142381,82.8564231,20.1051695]},"geometry":{"type":"Point","coordinates":[82.33452223272766,19.576483401166907]}},{"type":"Feature","id":"in-odisha-d-367","properties":{"id":"in-odisha-d-367","name":"Nayagarh","region":"in-odisha","level":"district","parent":"","source":"LGD via Bharatlas · 2024 snapshot","state_lgd":21,"district_lgd":367,"center":[84.99780166060972,20.21317682938746],"bbox":[84.4832176,19.8974092,85.455036,20.5812702]},"geometry":{"type":"Point","coordinates":[84.99780166060972,20.21317682938746]}},{"type":"Feature","id":"in-odisha-d-368","properties":{"id":"in-odisha-d-368","name":"Nuapada","region":"in-odisha","level":"district","parent":"","source":"LGD via Bharatlas · 2024 snapshot","state_lgd":21,"district_lgd":368,"center":[82.57687907023175,20.466045182066015],"bbox":[82.3322101,19.9901362,82.8608705,21.0908594]},"geometry":{"type":"Point","coordinates":[82.57687907023175,20.466045182066015]}},{"type":"Feature","id":"in-odisha-d-369","properties":{"id":"in-odisha-d-369","name":"Puri","region":"in-odisha","level":"district","parent":"","source":"LGD via Bharatlas · 2024 snapshot","state_lgd":21,"district_lgd":369,"center":[85.72573166742916,19.87907967503847],"bbox":[85.1354376,19.466829,86.4117013,20.2035914]},"geometry":{"type":"Point","coordinates":[85.72573166742916,19.87907967503847]}},{"type":"Feature","id":"in-odisha-d-370","properties":{"id":"in-odisha-d-370","name":"Rayagada","region":"in-odisha","level":"district","parent":"","source":"LGD via Bharatlas · 2024 snapshot","state_lgd":21,"district_lgd":370,"center":[83.51244055076356,19.363490841498525],"bbox":[82.8697608,18.9113634,84.0337763,19.9737546]},"geometry":{"type":"Point","coordinates":[83.51244055076356,19.363490841498525]}},{"type":"Feature","id":"in-odisha-d-371","properties":{"id":"in-odisha-d-371","name":"Sambalpur","region":"in-odisha","level":"district","parent":"","source":"LGD via Bharatlas · 2024 snapshot","state_lgd":21,"district_lgd":371,"center":[84.27417340489873,21.449255259554242],"bbox":[83.79828,20.9223233,84.7683728,22.1899973]},"geometry":{"type":"Point","coordinates":[84.27417340489873,21.449255259554242]}},{"type":"Feature","id":"in-odisha-d-372","properties":{"id":"in-odisha-d-372","name":"Sonepur","region":"in-odisha","level":"district","parent":"","source":"LGD via Bharatlas · 2024 snapshot","state_lgd":21,"district_lgd":372,"center":[83.82236823694512,20.93081495453704],"bbox":[83.4454785,20.527721,84.2789312,21.1777007]},"geometry":{"type":"Point","coordinates":[83.82236823694512,20.93081495453704]}},{"type":"Feature","id":"in-odisha-d-373","properties":{"id":"in-odisha-d-373","name":"Sundargarh","region":"in-odisha","level":"district","parent":"","source":"LGD via Bharatlas · 2024 snapshot","state_lgd":21,"district_lgd":373,"center":[84.41482502719242,22.24859518],"bbox":[83.5364433,21.5895533,85.376572,22.5310417]},"geometry":{"type":"Point","coordinates":[84.41482502719242,22.24859518]}}]}
