{"type":"FeatureCollection","features":[{"type":"Feature","id":"in-puducherry-t-5912","properties":{"id":"in-puducherry-t-5912","name":"Bahour Taluk","region":"in-puducherry","level":"tehsil","parent":"in-puducherry-d-600","district":"Pondicherry","source":"LGD via Bharatlas · 2024 snapshot","state_lgd":34,"district_lgd":600,"subdistrict_lgd":5912,"center":[79.76057749672648,11.807764794248857],"bbox":[79.5994093,11.7752321,79.8070581,11.8908008]},"geometry":{"type":"Point","coordinates":[79.76057749672648,11.807764794248857]}},{"type":"Feature","id":"in-puducherry-t-5914","properties":{"id":"in-puducherry-t-5914","name":"Karaikal Taluk","region":"in-puducherry","level":"tehsil","parent":"in-puducherry-d-598","district":"Karaikal","source":"LGD via Bharatlas · 2024 snapshot","state_lgd":34,"district_lgd":598,"subdistrict_lgd":5914,"center":[79.82958409684444,10.920912315966087],"bbox":[79.7821135,10.8273827,79.8538164,11.0038676]},"geometry":{"type":"Point","coordinates":[79.82958409684444,10.920912315966087]}},{"type":"Feature","id":"in-puducherry-t-5913","properties":{"id":"in-puducherry-t-5913","name":"Mahe Taluk","region":"in-puducherry","level":"tehsil","parent":"in-puducherry-d-599","district":"Mahe","source":"LGD via Bharatlas · 2024 snapshot","state_lgd":34,"district_lgd":599,"subdistrict_lgd":5913,"center":[75.54009096545134,11.73170849572314],"bbox":[75.5265559,11.6935422,75.555615,11.7628615]},"geometry":{"type":"Point","coordinates":[75.54009096545134,11.73170849572314]}},{"type":"Feature","id":"in-puducherry-t-5910","properties":{"id":"in-puducherry-t-5910","name":"Ozhukarai Taluk","region":"in-puducherry","level":"tehsil","parent":"in-puducherry-d-600","district":"Pondicherry","source":"LGD via Bharatlas · 2024 snapshot","state_lgd":34,"district_lgd":600,"subdistrict_lgd":5910,"center":[79.80041565132167,11.945769375899525],"bbox":[79.7670516,11.9194442,79.8736494,12.0513117]},"geometry":{"type":"Point","coordinates":[79.80041565132167,11.945769375899525]}},{"type":"Feature","id":"in-puducherry-t-5909","properties":{"id":"in-puducherry-t-5909","name":"Puducherry Taluk","region":"in-puducherry","level":"tehsil","parent":"in-puducherry-d-600","district":"Pondicherry","source":"LGD via Bharatlas · 2024 snapshot","state_lgd":34,"district_lgd":600,"subdistrict_lgd":5909,"center":[79.80548969432395,11.893241645713248],"bbox":[79.7621704,11.8365717,79.8406359,11.957122]},"geometry":{"type":"Point","coordinates":[79.80548969432395,11.893241645713248]}},{"type":"Feature","id":"in-puducherry-t-5915","properties":{"id":"in-puducherry-t-5915","name":"Thirunallar Taluk","region":"in-puducherry","level":"tehsil","parent":"in-puducherry-d-598","district":"Karaikal","source":"LGD via Bharatlas · 2024 snapshot","state_lgd":34,"district_lgd":598,"subdistrict_lgd":5915,"center":[79.7715961963324,10.948060924002771],"bbox":[79.7183422,10.8914732,79.8137973,11.0037869]},"geometry":{"type":"Point","coordinates":[79.7715961963324,10.948060924002771]}},{"type":"Feature","id":"in-puducherry-t-5911","properties":{"id":"in-puducherry-t-5911","name":"Villianur Taluk","region":"in-puducherry","level":"tehsil","parent":"in-puducherry-d-600","district":"Pondicherry","source":"LGD via Bharatlas · 2024 snapshot","state_lgd":34,"district_lgd":600,"subdistrict_lgd":5911,"center":[79.73697559378652,11.931445897339378],"bbox":[79.6171782,11.8678515,79.795187,12.0348189]},"geometry":{"type":"Point","coordinates":[79.73697559378652,11.931445897339378]}},{"type":"Feature","id":"in-puducherry-t-5908","properties":{"id":"in-puducherry-t-5908","name":"Yanam Taluk","region":"in-puducherry","level":"tehsil","parent":"in-puducherry-d-601","district":"Yanam","source":"LGD via Bharatlas · 2024 snapshot","state_lgd":34,"district_lgd":601,"subdistrict_lgd":5908,"center":[82.2528239675623,16.727659069702398],"bbox":[82.1824473,16.7019151,82.3106161,16.7636952]},"geometry":{"type":"Point","coordinates":[82.2528239675623,16.727659069702398]}}]}
