{"type":"FeatureCollection","features":[{"type":"Feature","id":"in-puducherry-d-598","properties":{"id":"in-puducherry-d-598","name":"Karaikal","region":"in-puducherry","level":"district","parent":"","source":"LGD via Bharatlas · 2024 snapshot","state_lgd":34,"district_lgd":598,"center":[79.80290287325649,10.933398061637027],"bbox":[79.7183422,10.8273827,79.8538164,11.0038676]},"geometry":{"type":"Point","coordinates":[79.80290287325649,10.933398061637027]}},{"type":"Feature","id":"in-puducherry-d-599","properties":{"id":"in-puducherry-d-599","name":"Mahe","region":"in-puducherry","level":"district","parent":"","source":"LGD via Bharatlas · 2024 snapshot","state_lgd":34,"district_lgd":599,"center":[75.54009837986341,11.73172234926009],"bbox":[75.5265559,11.6935422,75.555615,11.7628615]},"geometry":{"type":"Point","coordinates":[75.54009837986341,11.73172234926009]}},{"type":"Feature","id":"in-puducherry-d-600","properties":{"id":"in-puducherry-d-600","name":"Pondicherry","region":"in-puducherry","level":"district","parent":"","source":"LGD via Bharatlas · 2024 snapshot","state_lgd":34,"district_lgd":600,"center":[79.76722162496318,11.915465030064386],"bbox":[79.5994093,11.7752321,79.8736494,12.0513117]},"geometry":{"type":"Point","coordinates":[79.76722162496318,11.915465030064386]}},{"type":"Feature","id":"in-puducherry-d-601","properties":{"id":"in-puducherry-d-601","name":"Yanam","region":"in-puducherry","level":"district","parent":"","source":"LGD via Bharatlas · 2024 snapshot","state_lgd":34,"district_lgd":601,"center":[82.25282396608206,16.7276590688023],"bbox":[82.1824473,16.7019151,82.3106161,16.7636952]},"geometry":{"type":"Point","coordinates":[82.25282396608206,16.7276590688023]}}]}
