{"type":"FeatureCollection","features":[{"type":"Feature","id":"in-d-36","properties":{"id":"in-d-36","name":"Ludhiana","region":"in-punjab","level":"district","parent":"","source":"Esri India IAB2024","center":[75.8269723540071,30.789407006337797],"bbox":[75.35616286799325,30.560445668391377,76.3237120881026,31.018272485577295]},"geometry":{"type":"Point","coordinates":[75.8269723540071,30.789407006337797]}},{"type":"Feature","id":"in-d-42","properties":{"id":"in-d-42","name":"Rupnagar","region":"in-punjab","level":"district","parent":"","source":"Esri India IAB2024","center":[76.52884261538372,31.091852137104816],"bbox":[76.28659960069757,30.74551598910282,76.73771668219102,31.438191904956327]},"geometry":{"type":"Point","coordinates":[76.52884261538372,31.091852137104816]}},{"type":"Feature","id":"in-d-37","properties":{"id":"in-d-37","name":"Mansa","region":"in-punjab","level":"district","parent":"","source":"Esri India IAB2024","center":[75.48897114252104,29.87609304897272],"bbox":[75.16756580605568,29.542070143897313,75.77575621743412,30.20980275657331]},"geometry":{"type":"Point","coordinates":[75.48897114252104,29.87609304897272]}},{"type":"Feature","id":"in-d-39","properties":{"id":"in-d-39","name":"Sri Muktsar Sahib","region":"in-punjab","level":"district","parent":"","source":"Esri India IAB2024","center":[74.52622342534394,30.286716141703796],"bbox":[74.24428594044016,29.90453962519225,74.82169887452703,30.669251449131792]},"geometry":{"type":"Point","coordinates":[74.52622342534394,30.286716141703796]}},{"type":"Feature","id":"in-d-608","properties":{"id":"in-d-608","name":"S A S Nagar","region":"in-punjab","level":"district","parent":"","source":"Esri India IAB2024","center":[76.74153537716319,30.648369118470583],"bbox":[76.52153037888957,30.35881867571911,76.9414614975722,30.93837001195489]},"geometry":{"type":"Point","coordinates":[76.74153537716319,30.648369118470583]}},{"type":"Feature","id":"in-d-34","properties":{"id":"in-d-34","name":"Jalandhar","region":"in-punjab","level":"district","parent":"","source":"Esri India IAB2024","center":[75.56799015005336,31.29216013175042],"bbox":[75.07614195720875,30.96609393630402,75.9580916229894,31.618131094820676]},"geometry":{"type":"Point","coordinates":[75.56799015005336,31.29216013175042]}},{"type":"Feature","id":"in-d-29","properties":{"id":"in-d-29","name":"Faridkot","region":"in-punjab","level":"district","parent":"","source":"Esri India IAB2024","center":[74.7950175816776,30.601450692214993],"bbox":[74.46883143037975,30.36627376185824,75.0540929585787,30.836432661002686]},"geometry":{"type":"Point","coordinates":[74.7950175816776,30.601450692214993]}},{"type":"Feature","id":"in-d-38","properties":{"id":"in-d-38","name":"Moga","region":"in-punjab","level":"district","parent":"","source":"Esri India IAB2024","center":[75.15948622899586,30.78789813490662],"bbox":[74.90179079586504,30.486364693456935,75.41961621519836,31.089508323226987]},"geometry":{"type":"Point","coordinates":[75.15948622899586,30.78789813490662]}},{"type":"Feature","id":"in-d-33","properties":{"id":"in-d-33","name":"Hoshiarpur","region":"in-punjab","level":"district","parent":"","source":"Esri India IAB2024","center":[75.84642415551608,31.609219596154738],"bbox":[75.47139028152698,31.13274061841763,76.34936009259538,32.085740888784045]},"geometry":{"type":"Point","coordinates":[75.84642415551608,31.609219596154738]}},{"type":"Feature","id":"in-d-28","properties":{"id":"in-d-28","name":"Bathinda","region":"in-punjab","level":"district","parent":"","source":"Esri India IAB2024","center":[75.04726349831094,30.17871971019124],"bbox":[74.62974009850568,29.775523390603002,75.37707362929311,30.58238460020955]},"geometry":{"type":"Point","coordinates":[75.04726349831094,30.17871971019124]}},{"type":"Feature","id":"in-d-41","properties":{"id":"in-d-41","name":"Patiala","region":"in-punjab","level":"district","parent":"","source":"Esri India IAB2024","center":[76.3401900977164,30.209446568832767],"bbox":[75.92929393646429,29.790911643519344,76.78803710460838,30.627856539659696]},"geometry":{"type":"Point","coordinates":[76.3401900977164,30.209446568832767]}},{"type":"Feature","id":"in-d-40","properties":{"id":"in-d-40","name":"Shahid Bhagat Singh Nagar","region":"in-punjab","level":"district","parent":"","source":"Esri India IAB2024","center":[76.15989883059602,31.126968935184802],"bbox":[75.78795836272172,30.969042963759602,76.51865654971803,31.284582622521114]},"geometry":{"type":"Point","coordinates":[76.15989883059602,31.126968935184802]}},{"type":"Feature","id":"in-d-605","properties":{"id":"in-d-605","name":"Barnala","region":"in-punjab","level":"district","parent":"","source":"Esri India IAB2024","center":[75.50398867541129,30.371680221986],"bbox":[75.25365054855413,30.13761965766472,75.73114628466664,30.605786929067524]},"geometry":{"type":"Point","coordinates":[75.50398867541129,30.371680221986]}},{"type":"Feature","id":"in-d-35","properties":{"id":"in-d-35","name":"Kapurthala","region":"in-punjab","level":"district","parent":"","source":"Esri India IAB2024","center":[75.30507242617082,31.385696002099188],"bbox":[74.95985482179563,31.119738003320656,75.91025295464796,31.651567343611102]},"geometry":{"type":"Point","coordinates":[75.30507242617082,31.385696002099188]}},{"type":"Feature","id":"in-d-30","properties":{"id":"in-d-30","name":"Fatehgarh Sahib","region":"in-punjab","level":"district","parent":"","source":"Esri India IAB2024","center":[76.38030000408074,30.663404181746934],"bbox":[76.07579695299611,30.448264362985732,76.63388836230172,30.878785542468833]},"geometry":{"type":"Point","coordinates":[76.38030000408074,30.663404181746934]}},{"type":"Feature","id":"in-d-737","properties":{"id":"in-d-737","name":"Malerkotla","region":"in-punjab","level":"district","parent":"","source":"Esri India IAB2024","center":[75.90930476301081,30.53539665453949],"bbox":[75.65217814496928,30.378269540775506,76.08903189585742,30.692320417516846]},"geometry":{"type":"Point","coordinates":[75.90930476301081,30.53539665453949]}},{"type":"Feature","id":"in-d-43","properties":{"id":"in-d-43","name":"Sangrur","region":"in-punjab","level":"district","parent":"","source":"Esri India IAB2024","center":[75.85318872676024,30.13610603133042],"bbox":[75.55534451122567,29.727107840577975,76.20349035150795,30.54516606145229]},"geometry":{"type":"Point","coordinates":[75.85318872676024,30.13610603133042]}},{"type":"Feature","id":"in-d-27","properties":{"id":"in-d-27","name":"Amritsar","region":"in-punjab","level":"district","parent":"","source":"Esri India IAB2024","center":[74.83152910633842,31.768348175268173],"bbox":[74.4865964730143,31.48169278088897,75.40427132556738,32.05520605531023]},"geometry":{"type":"Point","coordinates":[74.83152910633842,31.768348175268173]}},{"type":"Feature","id":"in-d-31","properties":{"id":"in-d-31","name":"Ferozepur","region":"in-punjab","level":"district","parent":"","source":"Esri India IAB2024","center":[74.65246116977548,30.87509200657761],"bbox":[74.2131887293828,30.588033955425956,75.15006485284329,31.162294207236286]},"geometry":{"type":"Point","coordinates":[74.65246116977548,30.87509200657761]}},{"type":"Feature","id":"in-d-32","properties":{"id":"in-d-32","name":"Gurdaspur","region":"in-punjab","level":"district","parent":"","source":"Esri India IAB2024","center":[75.2275586781716,31.9037264151506],"bbox":[74.88869213551716,31.59354749823895,75.60075910272242,32.213897130289]},"geometry":{"type":"Point","coordinates":[75.2275586781716,31.9037264151506]}},{"type":"Feature","id":"in-d-609","properties":{"id":"in-d-609","name":"Tarn Taran","region":"in-punjab","level":"district","parent":"","source":"Esri India IAB2024","center":[74.84163356037237,31.321239581691394],"bbox":[74.5100325441049,31.071985950031824,75.27988167105742,31.57081569348164]},"geometry":{"type":"Point","coordinates":[74.84163356037237,31.321239581691394]}},{"type":"Feature","id":"in-d-651","properties":{"id":"in-d-651","name":"Fazilka","region":"in-punjab","level":"district","parent":"","source":"Esri India IAB2024","center":[74.12171938317266,30.31980391667596],"bbox":[73.8797759592065,29.94717619328905,74.46291376317426,30.692439947120548]},"geometry":{"type":"Point","coordinates":[74.12171938317266,30.31980391667596]}},{"type":"Feature","id":"in-d-662","properties":{"id":"in-d-662","name":"Pathankot","region":"in-punjab","level":"district","parent":"","source":"Esri India IAB2024","center":[75.65917183518236,32.30240743677128],"bbox":[75.32049648763429,32.09305753955189,75.9379892133929,32.51156257420011]},"geometry":{"type":"Point","coordinates":[75.65917183518236,32.30240743677128]}}]}