{"type":"FeatureCollection","features":[{"type":"Feature","id":"in-t-202","properties":{"id":"in-t-202","name":"Gurdaspur","region":"in-punjab","level":"tehsil","parent":"in-d-32","district":"Gurdaspur","source":"LGD via Bharatlas \u00b7 2024 snapshot","center":[75.34200685396165,31.99520225],"bbox":[75.0902159,31.7764827,75.6007591,32.2138971]},"geometry":{"type":"Point","coordinates":[75.34200685396165,31.99520225]}},{"type":"Feature","id":"in-t-206","properties":{"id":"in-t-206","name":"Kapurthala","region":"in-punjab","level":"tehsil","parent":"in-d-35","district":"Kapurthala","source":"LGD via Bharatlas \u00b7 2024 snapshot","center":[75.31111593204074,31.4019592],"bbox":[75.1758538,31.2258377,75.4909857,31.5789101]},"geometry":{"type":"Point","coordinates":[75.31111593204074,31.4019592]}},{"type":"Feature","id":"in-t-258","properties":{"id":"in-t-258","name":"Baba Bakala","region":"in-punjab","level":"tehsil","parent":"in-d-27","district":"Amritsar","source":"LGD via Bharatlas \u00b7 2024 snapshot","center":[75.22475240430978,31.61541855],"bbox":[75.0299734,31.4816928,75.4042713,31.7490137]},"geometry":{"type":"Point","coordinates":[75.22475240430978,31.61541855]}},{"type":"Feature","id":"in-t-203","properties":{"id":"in-t-203","name":"Batala","region":"in-punjab","level":"tehsil","parent":"in-d-32","district":"Gurdaspur","source":"LGD via Bharatlas \u00b7 2024 snapshot","center":[75.32136888927283,31.77235995],"bbox":[74.9163543,31.5935475,75.5427054,31.951286]},"geometry":{"type":"Point","coordinates":[75.32136888927283,31.77235995]}},{"type":"Feature","id":"in-t-256","properties":{"id":"in-t-256","name":"Amritsar -I","region":"in-punjab","level":"tehsil","parent":"in-d-27","district":"Amritsar","source":"LGD via Bharatlas \u00b7 2024 snapshot","center":[75.0414495501739,31.67098645],"bbox":[74.8707722,31.4964263,75.1522547,31.8452399]},"geometry":{"type":"Point","coordinates":[75.0414495501739,31.67098645]}},{"type":"Feature","id":"in-t-257","properties":{"id":"in-t-257","name":"Amritsar- II","region":"in-punjab","level":"tehsil","parent":"in-d-27","district":"Amritsar","source":"LGD via Bharatlas \u00b7 2024 snapshot","center":[74.82799276402663,31.622880549999998],"bbox":[74.5448278,31.496291,75.0329623,31.749516]},"geometry":{"type":"Point","coordinates":[74.82799276402663,31.622880549999998]}},{"type":"Feature","id":"in-t-255","properties":{"id":"in-t-255","name":"Ajnala","region":"in-punjab","level":"tehsil","parent":"in-d-27","district":"Amritsar","source":"LGD via Bharatlas \u00b7 2024 snapshot","center":[74.7514077480324,31.833438800000003],"bbox":[74.4865965,31.6110561,74.9740274,32.0552061]},"geometry":{"type":"Point","coordinates":[74.7514077480324,31.833438800000003]}},{"type":"Feature","id":"in-t-204","properties":{"id":"in-t-204","name":"Dera Baba Nanak","region":"in-punjab","level":"tehsil","parent":"in-d-32","district":"Gurdaspur","source":"LGD via Bharatlas \u00b7 2024 snapshot","center":[75.0243875083971,31.97722375],"bbox":[74.8886921,31.887238,75.1465886,32.067191]},"geometry":{"type":"Point","coordinates":[75.0243875083971,31.97722375]}},{"type":"Feature","id":"in-t-238","properties":{"id":"in-t-238","name":"Abohar","region":"in-punjab","level":"tehsil","parent":"in-d-651","district":"Fazilka","source":"LGD via Bharatlas \u00b7 2024 snapshot","center":[74.16365026133109,30.106984750000002],"bbox":[73.8861312,29.9471762,74.4629138,30.2668105]},"geometry":{"type":"Point","coordinates":[74.16365026133109,30.106984750000002]}},{"type":"Feature","id":"in-t-239","properties":{"id":"in-t-239","name":"Malout","region":"in-punjab","level":"tehsil","parent":"in-d-39","district":"Sri Muktsar Sahib","source":"LGD via Bharatlas \u00b7 2024 snapshot","center":[74.46699751801916,30.14705085],"bbox":[74.2630405,29.9045396,74.7171473,30.3890762]},"geometry":{"type":"Point","coordinates":[74.46699751801916,30.14705085]}},{"type":"Feature","id":"in-t-237","properties":{"id":"in-t-237","name":"Fazilka","region":"in-punjab","level":"tehsil","parent":"in-d-651","district":"Fazilka","source":"LGD via Bharatlas \u00b7 2024 snapshot","center":[74.11795662705234,30.335279049999997],"bbox":[73.879776,30.1209909,74.3583968,30.5498271]},"geometry":{"type":"Point","coordinates":[74.11795662705234,30.335279049999997]}},{"type":"Feature","id":"in-t-6011","properties":{"id":"in-t-6011","name":"GURUHARSAHAI","region":"in-punjab","level":"tehsil","parent":"in-d-31","district":"Ferozepur","source":"LGD via Bharatlas \u00b7 2024 snapshot","center":[74.37790278172011,30.73626865],"bbox":[74.2131887,30.588034,74.5353525,30.8846114]},"geometry":{"type":"Point","coordinates":[74.37790278172011,30.73626865]}},{"type":"Feature","id":"in-t-236","properties":{"id":"in-t-236","name":"Jalalabad","region":"in-punjab","level":"tehsil","parent":"in-d-651","district":"Fazilka","source":"LGD via Bharatlas \u00b7 2024 snapshot","center":[74.23182006887265,30.56838785],"bbox":[74.0734204,30.4451649,74.4011007,30.6924399]},"geometry":{"type":"Point","coordinates":[74.23182006887265,30.56838785]}},{"type":"Feature","id":"in-t-241","properties":{"id":"in-t-241","name":"Muktsar","region":"in-punjab","level":"tehsil","parent":"in-d-39","district":"Sri Muktsar Sahib","source":"LGD via Bharatlas \u00b7 2024 snapshot","center":[74.55530064409837,30.498549349999998],"bbox":[74.2442859,30.3272819,74.7628949,30.6692514]},"geometry":{"type":"Point","coordinates":[74.55530064409837,30.498549349999998]}},{"type":"Feature","id":"in-t-242","properties":{"id":"in-t-242","name":"Faridkot","region":"in-punjab","level":"tehsil","parent":"in-d-29","district":"Faridkot","source":"LGD via Bharatlas \u00b7 2024 snapshot","center":[74.77446579432863,30.65623115],"bbox":[74.4688314,30.4756716,74.9583747,30.8364327]},"geometry":{"type":"Point","coordinates":[74.77446579432863,30.65623115]}},{"type":"Feature","id":"in-t-243","properties":{"id":"in-t-243","name":"Jaitu","region":"in-punjab","level":"tehsil","parent":"in-d-29","district":"Faridkot","source":"LGD via Bharatlas \u00b7 2024 snapshot","center":[74.91365228168337,30.48014655],"bbox":[74.7293622,30.3662738,75.054093,30.5944276]},"geometry":{"type":"Point","coordinates":[74.91365228168337,30.48014655]}},{"type":"Feature","id":"in-t-235","properties":{"id":"in-t-235","name":"Firozpur","region":"in-punjab","level":"tehsil","parent":"in-d-31","district":"Ferozepur","source":"LGD via Bharatlas \u00b7 2024 snapshot","center":[74.6255754501733,30.93327795],"bbox":[74.3507081,30.7365843,74.9479228,31.130007]},"geometry":{"type":"Point","coordinates":[74.6255754501733,30.93327795]}},{"type":"Feature","id":"in-t-260","properties":{"id":"in-t-260","name":"Patti","region":"in-punjab","level":"tehsil","parent":"in-d-609","district":"Tarn Taran","source":"LGD via Bharatlas \u00b7 2024 snapshot","center":[74.71227825035963,31.25222625],"bbox":[74.5100325,31.071986,74.9834098,31.432643]},"geometry":{"type":"Point","coordinates":[74.71227825035963,31.25222625]}},{"type":"Feature","id":"in-t-259","properties":{"id":"in-t-259","name":"Tarn Taran","region":"in-punjab","level":"tehsil","parent":"in-d-609","district":"Tarn Taran","source":"LGD via Bharatlas \u00b7 2024 snapshot","center":[74.9027829190633,31.36484885],"bbox":[74.610878,31.1588837,75.0814508,31.5708157]},"geometry":{"type":"Point","coordinates":[74.9027829190633,31.36484885]}},{"type":"Feature","id":"in-t-234","properties":{"id":"in-t-234","name":"Zira","region":"in-punjab","level":"tehsil","parent":"in-d-31","district":"Ferozepur","source":"LGD via Bharatlas \u00b7 2024 snapshot","center":[74.94593478857487,31.01914945],"bbox":[74.7850987,30.8752587,75.1500649,31.1622942]},"geometry":{"type":"Point","coordinates":[74.94593478857487,31.01914945]}},{"type":"Feature","id":"in-t-5996","properties":{"id":"in-t-5996","name":"DHARAMKOT","region":"in-punjab","level":"tehsil","parent":"in-d-38","district":"Moga","source":"LGD via Bharatlas \u00b7 2024 snapshot","center":[75.23464401899628,30.973939350000002],"bbox":[75.0304105,30.858513,75.4063281,31.0895083]},"geometry":{"type":"Point","coordinates":[75.23464401899628,30.973939350000002]}},{"type":"Feature","id":"in-t-209","properties":{"id":"in-t-209","name":"Shahkot","region":"in-punjab","level":"tehsil","parent":"in-d-34","district":"Jalandhar","source":"LGD via Bharatlas \u00b7 2024 snapshot","center":[75.26478644425723,31.1102967],"bbox":[75.076142,30.98853,75.4282482,31.2319276]},"geometry":{"type":"Point","coordinates":[75.26478644425723,31.1102967]}},{"type":"Feature","id":"in-t-261","properties":{"id":"in-t-261","name":"Khadur Sahib","region":"in-punjab","level":"tehsil","parent":"in-d-609","district":"Tarn Taran","source":"LGD via Bharatlas \u00b7 2024 snapshot","center":[75.11317644296034,31.393314150000002],"bbox":[75.0008497,31.2574425,75.2798817,31.5292796]},"geometry":{"type":"Point","coordinates":[75.11317644296034,31.393314150000002]}},{"type":"Feature","id":"in-t-207","properties":{"id":"in-t-207","name":"Sultanpur Lodhi","region":"in-punjab","level":"tehsil","parent":"in-d-35","district":"Kapurthala","source":"LGD via Bharatlas \u00b7 2024 snapshot","center":[75.1796914650401,31.257925800000002],"bbox":[74.9598548,31.119738,75.3446883,31.3960512]},"geometry":{"type":"Point","coordinates":[75.1796914650401,31.257925800000002]}},{"type":"Feature","id":"in-t-210","properties":{"id":"in-t-210","name":"Nakodar","region":"in-punjab","level":"tehsil","parent":"in-d-34","district":"Jalandhar","source":"LGD via Bharatlas \u00b7 2024 snapshot","center":[75.46789931145159,31.107951149999998],"bbox":[75.3431108,30.9660939,75.6148808,31.2497231]},"geometry":{"type":"Point","coordinates":[75.46789931145159,31.107951149999998]}},{"type":"Feature","id":"in-t-233","properties":{"id":"in-t-233","name":"Moga","region":"in-punjab","level":"tehsil","parent":"in-d-38","district":"Moga","source":"LGD via Bharatlas \u00b7 2024 snapshot","center":[75.19299329340257,30.78795155],"bbox":[74.9280007,30.6790372,75.3960532,30.8968751]},"geometry":{"type":"Point","coordinates":[75.19299329340257,30.78795155]}},{"type":"Feature","id":"in-t-232","properties":{"id":"in-t-232","name":"Bagha Purana","region":"in-punjab","level":"tehsil","parent":"in-d-38","district":"Moga","source":"LGD via Bharatlas \u00b7 2024 snapshot","center":[75.05971877990211,30.639037700000003],"bbox":[74.9017908,30.4863647,75.1962002,30.7917657]},"geometry":{"type":"Point","coordinates":[75.05971877990211,30.639037700000003]}},{"type":"Feature","id":"in-t-231","properties":{"id":"in-t-231","name":"Nihal Singhwala","region":"in-punjab","level":"tehsil","parent":"in-d-38","district":"Moga","source":"LGD via Bharatlas \u00b7 2024 snapshot","center":[75.28942472503556,30.615288999999997],"bbox":[75.1518124,30.5068822,75.4196162,30.7235102]},"geometry":{"type":"Point","coordinates":[75.28942472503556,30.615288999999997]}},{"type":"Feature","id":"in-t-276","properties":{"id":"in-t-276","name":"Tapa","region":"in-punjab","level":"tehsil","parent":"in-d-605","district":"Barnala","source":"LGD via Bharatlas \u00b7 2024 snapshot","center":[75.37720678027253,30.39211165],"bbox":[75.2536505,30.1791516,75.509613,30.6057869]},"geometry":{"type":"Point","coordinates":[75.37720678027253,30.39211165]}},{"type":"Feature","id":"in-t-249","properties":{"id":"in-t-249","name":"Mansa","region":"in-punjab","level":"tehsil","parent":"in-d-37","district":"Mansa","source":"LGD via Bharatlas \u00b7 2024 snapshot","center":[75.42810894639106,30.0384903],"bbox":[75.1716541,29.8673244,75.6548693,30.2098028]},"geometry":{"type":"Point","coordinates":[75.42810894639106,30.0384903]}},{"type":"Feature","id":"in-t-244","properties":{"id":"in-t-244","name":"Rampura Phul","region":"in-punjab","level":"tehsil","parent":"in-d-28","district":"Bathinda","source":"LGD via Bharatlas \u00b7 2024 snapshot","center":[75.25104106952453,30.345734399999998],"bbox":[75.0202304,30.1096544,75.3770736,30.5823846]},"geometry":{"type":"Point","coordinates":[75.25104106952453,30.345734399999998]}},{"type":"Feature","id":"in-t-240","properties":{"id":"in-t-240","name":"Gidderbaha","region":"in-punjab","level":"tehsil","parent":"in-d-39","district":"Sri Muktsar Sahib","source":"LGD via Bharatlas \u00b7 2024 snapshot","center":[74.63751412998917,30.287771900000003],"bbox":[74.4805432,30.0934404,74.8216989,30.4825425]},"geometry":{"type":"Point","coordinates":[74.63751412998917,30.287771900000003]}},{"type":"Feature","id":"in-t-245","properties":{"id":"in-t-245","name":"Bathinda","region":"in-punjab","level":"tehsil","parent":"in-d-28","district":"Bathinda","source":"LGD via Bharatlas \u00b7 2024 snapshot","center":[74.94160551612528,30.189070700000002],"bbox":[74.6297401,29.9614079,75.2230849,30.4172471]},"geometry":{"type":"Point","coordinates":[74.94160551612528,30.189070700000002]}},{"type":"Feature","id":"in-t-246","properties":{"id":"in-t-246","name":"Talwandi Sabo","region":"in-punjab","level":"tehsil","parent":"in-d-28","district":"Bathinda","source":"LGD via Bharatlas \u00b7 2024 snapshot","center":[75.01150716741844,29.97054465],"bbox":[74.7991707,29.7755234,75.3262003,30.1658436]},"geometry":{"type":"Point","coordinates":[75.01150716741844,29.97054465]}},{"type":"Feature","id":"in-t-247","properties":{"id":"in-t-247","name":"Sardulgarh","region":"in-punjab","level":"tehsil","parent":"in-d-37","district":"Mansa","source":"LGD via Bharatlas \u00b7 2024 snapshot","center":[75.31531891893957,29.736482199999998],"bbox":[75.1675658,29.5420701,75.4335285,29.9307433]},"geometry":{"type":"Point","coordinates":[75.31531891893957,29.736482199999998]}},{"type":"Feature","id":"in-t-248","properties":{"id":"in-t-248","name":"Budhlada","region":"in-punjab","level":"tehsil","parent":"in-d-37","district":"Mansa","source":"LGD via Bharatlas \u00b7 2024 snapshot","center":[75.60561996133649,29.9051409],"bbox":[75.3744808,29.7390913,75.7757562,30.0706331]},"geometry":{"type":"Point","coordinates":[75.60561996133649,29.9051409]}},{"type":"Feature","id":"in-t-273","properties":{"id":"in-t-273","name":"Lehra","region":"in-punjab","level":"tehsil","parent":"in-d-43","district":"Sangrur","source":"LGD via Bharatlas \u00b7 2024 snapshot","center":[75.84697130218426,29.9206717],"bbox":[75.6410712,29.8041602,75.9978101,30.0371905]},"geometry":{"type":"Point","coordinates":[75.84697130218426,29.9206717]}},{"type":"Feature","id":"in-t-251","properties":{"id":"in-t-251","name":"Patran","region":"in-punjab","level":"tehsil","parent":"in-d-41","district":"Patiala","source":"LGD via Bharatlas \u00b7 2024 snapshot","center":[76.0828168507072,29.9415287],"bbox":[75.9292939,29.7909116,76.247052,30.0925678]},"geometry":{"type":"Point","coordinates":[76.0828168507072,29.9415287]}},{"type":"Feature","id":"in-t-274","properties":{"id":"in-t-274","name":"Moonak","region":"in-punjab","level":"tehsil","parent":"in-d-43","district":"Sangrur","source":"LGD via Bharatlas \u00b7 2024 snapshot","center":[75.97063429317835,29.822402949999997],"bbox":[75.8166381,29.7271078,76.1224587,29.9176694]},"geometry":{"type":"Point","coordinates":[75.97063429317835,29.822402949999997]}},{"type":"Feature","id":"in-t-250","properties":{"id":"in-t-250","name":"Samana","region":"in-punjab","level":"tehsil","parent":"in-d-41","district":"Patiala","source":"LGD via Bharatlas \u00b7 2024 snapshot","center":[76.13518983205594,30.14571405],"bbox":[76.0493217,30.0317125,76.3022651,30.2600964]},"geometry":{"type":"Point","coordinates":[76.13518983205594,30.14571405]}},{"type":"Feature","id":"in-t-252","properties":{"id":"in-t-252","name":"Nabha","region":"in-punjab","level":"tehsil","parent":"in-d-41","district":"Patiala","source":"LGD via Bharatlas \u00b7 2024 snapshot","center":[76.18044405435143,30.42771535],"bbox":[75.9846013,30.285743,76.3389061,30.5700802]},"geometry":{"type":"Point","coordinates":[76.18044405435143,30.42771535]}},{"type":"Feature","id":"in-t-270","properties":{"id":"in-t-270","name":"Dhuri","region":"in-punjab","level":"tehsil","parent":"in-d-43","district":"Sangrur","source":"LGD via Bharatlas \u00b7 2024 snapshot","center":[75.82755914605656,30.4096226],"bbox":[75.6463819,30.2743419,76.014145,30.5451661]},"geometry":{"type":"Point","coordinates":[75.82755914605656,30.4096226]}},{"type":"Feature","id":"in-t-271","properties":{"id":"in-t-271","name":"Sangrur","region":"in-punjab","level":"tehsil","parent":"in-d-43","district":"Sangrur","source":"LGD via Bharatlas \u00b7 2024 snapshot","center":[75.92635922004155,30.247913500000003],"bbox":[75.5553445,30.1278726,76.2034904,30.3678957]},"geometry":{"type":"Point","coordinates":[75.92635922004155,30.247913500000003]}},{"type":"Feature","id":"in-t-272","properties":{"id":"in-t-272","name":"Sunam","region":"in-punjab","level":"tehsil","parent":"in-d-43","district":"Sangrur","source":"LGD via Bharatlas \u00b7 2024 snapshot","center":[75.86299172011036,30.0722728],"bbox":[75.6223422,29.941256,76.1048028,30.2033408]},"geometry":{"type":"Point","coordinates":[75.86299172011036,30.0722728]}},{"type":"Feature","id":"in-t-275","properties":{"id":"in-t-275","name":"Barnala","region":"in-punjab","level":"tehsil","parent":"in-d-605","district":"Barnala","source":"LGD via Bharatlas \u00b7 2024 snapshot","center":[75.56228356780892,30.3693162],"bbox":[75.413926,30.1376197,75.7311463,30.600862]},"geometry":{"type":"Point","coordinates":[75.56228356780892,30.3693162]}},{"type":"Feature","id":"in-t-269","properties":{"id":"in-t-269","name":"Malerkotla","region":"in-punjab","level":"tehsil","parent":"in-d-737","district":"Malerkotla","source":"LGD via Bharatlas \u00b7 2024 snapshot","center":[75.909304788387,30.53539665],"bbox":[75.6521781,30.3782695,76.0890319,30.6923204]},"geometry":{"type":"Point","coordinates":[75.909304788387,30.53539665]}},{"type":"Feature","id":"in-t-227","properties":{"id":"in-t-227","name":"Ludhiana (East)","region":"in-punjab","level":"tehsil","parent":"in-d-36","district":"Ludhiana","source":"LGD via Bharatlas \u00b7 2024 snapshot","center":[75.98141170225654,30.8374731],"bbox":[75.7236592,30.656753,76.1537047,31.0182725]},"geometry":{"type":"Point","coordinates":[75.98141170225654,30.8374731]}},{"type":"Feature","id":"in-t-228","properties":{"id":"in-t-228","name":"Ludhiana (West)","region":"in-punjab","level":"tehsil","parent":"in-d-36","district":"Ludhiana","source":"LGD via Bharatlas \u00b7 2024 snapshot","center":[75.79551175845926,30.87434825],"bbox":[75.625966,30.7353847,75.9579256,31.0130527]},"geometry":{"type":"Point","coordinates":[75.79551175845926,30.87434825]}},{"type":"Feature","id":"in-t-229","properties":{"id":"in-t-229","name":"Raikot","region":"in-punjab","level":"tehsil","parent":"in-d-36","district":"Ludhiana","source":"LGD via Bharatlas \u00b7 2024 snapshot","center":[75.65136575458726,30.6946157],"bbox":[75.4516631,30.5672775,75.7973923,30.8220557]},"geometry":{"type":"Point","coordinates":[75.65136575458726,30.6946157]}},{"type":"Feature","id":"in-t-230","properties":{"id":"in-t-230","name":"Jagraon","region":"in-punjab","level":"tehsil","parent":"in-d-36","district":"Ludhiana","source":"LGD via Bharatlas \u00b7 2024 snapshot","center":[75.52057490930642,30.79096485],"bbox":[75.3561629,30.5832794,75.68827,30.9985117]},"geometry":{"type":"Point","coordinates":[75.52057490930642,30.79096485]}},{"type":"Feature","id":"in-t-212","properties":{"id":"in-t-212","name":"Jalandhar - I","region":"in-punjab","level":"tehsil","parent":"in-d-34","district":"Jalandhar","source":"LGD via Bharatlas \u00b7 2024 snapshot","center":[75.64605589207177,31.3502949],"bbox":[75.5052682,31.2024927,75.8204639,31.4977012]},"geometry":{"type":"Point","coordinates":[75.64605589207177,31.3502949]}},{"type":"Feature","id":"in-t-208","properties":{"id":"in-t-208","name":"Phagwara","region":"in-punjab","level":"tehsil","parent":"in-d-35","district":"Kapurthala","source":"LGD via Bharatlas \u00b7 2024 snapshot","center":[75.75945285736313,31.26705165],"bbox":[75.6704137,31.1599669,75.910253,31.3739889]},"geometry":{"type":"Point","coordinates":[75.75945285736313,31.26705165]}},{"type":"Feature","id":"in-t-211","properties":{"id":"in-t-211","name":"Phillaur","region":"in-punjab","level":"tehsil","parent":"in-d-34","district":"Jalandhar","source":"LGD via Bharatlas \u00b7 2024 snapshot","center":[75.7298357972943,31.0955308],"bbox":[75.5103413,30.9685638,75.9580916,31.2225683]},"geometry":{"type":"Point","coordinates":[75.7298357972943,31.0955308]}},{"type":"Feature","id":"in-t-218","properties":{"id":"in-t-218","name":"Nawanshahr","region":"in-punjab","level":"tehsil","parent":"in-d-40","district":"Shahid Bhagat Singh Nagar","source":"LGD via Bharatlas \u00b7 2024 snapshot","center":[76.03518033782444,31.13536395],"bbox":[75.7879584,30.9857748,76.2637068,31.2845826]},"geometry":{"type":"Point","coordinates":[76.03518033782444,31.13536395]}},{"type":"Feature","id":"in-t-217","properties":{"id":"in-t-217","name":"Garhshankar","region":"in-punjab","level":"tehsil","parent":"in-d-33","district":"Hoshiarpur","source":"LGD via Bharatlas \u00b7 2024 snapshot","center":[76.02552774659442,31.321513600000003],"bbox":[75.852939,31.1327406,76.3493601,31.5102005]},"geometry":{"type":"Point","coordinates":[76.02552774659442,31.321513600000003]}},{"type":"Feature","id":"in-t-263","properties":{"id":"in-t-263","name":"Nangal","region":"in-punjab","level":"tehsil","parent":"in-d-42","district":"Rupnagar","source":"LGD via Bharatlas \u00b7 2024 snapshot","center":[76.3703926688082,31.333027100000002],"bbox":[76.2865996,31.228633,76.4635215,31.4381919]},"geometry":{"type":"Point","coordinates":[76.3703926688082,31.333027100000002]}},{"type":"Feature","id":"in-t-219","properties":{"id":"in-t-219","name":"Balachaur","region":"in-punjab","level":"tehsil","parent":"in-d-40","district":"Shahid Bhagat Singh Nagar","source":"LGD via Bharatlas \u00b7 2024 snapshot","center":[76.3273157159723,31.106817749999998],"bbox":[76.1909527,30.969043,76.5186565,31.2450681]},"geometry":{"type":"Point","coordinates":[76.3273157159723,31.106817749999998]}},{"type":"Feature","id":"in-t-223","properties":{"id":"in-t-223","name":"Khamanon","region":"in-punjab","level":"tehsil","parent":"in-d-30","district":"Fatehgarh Sahib","source":"LGD via Bharatlas \u00b7 2024 snapshot","center":[76.35611001976582,30.79527665],"bbox":[76.2618674,30.711871,76.4446913,30.8787855]},"geometry":{"type":"Point","coordinates":[76.35611001976582,30.79527665]}},{"type":"Feature","id":"in-t-225","properties":{"id":"in-t-225","name":"Khanna","region":"in-punjab","level":"tehsil","parent":"in-d-36","district":"Ludhiana","source":"LGD via Bharatlas \u00b7 2024 snapshot","center":[76.20563603004557,30.705327349999997],"bbox":[76.0613041,30.6006868,76.3233406,30.8099028]},"geometry":{"type":"Point","coordinates":[76.20563603004557,30.705327349999997]}},{"type":"Feature","id":"in-t-224","properties":{"id":"in-t-224","name":"Samrala","region":"in-punjab","level":"tehsil","parent":"in-d-36","district":"Ludhiana","source":"LGD via Bharatlas \u00b7 2024 snapshot","center":[76.20376598739693,30.87153815],"bbox":[76.0728435,30.7277017,76.3237121,31.0154121]},"geometry":{"type":"Point","coordinates":[76.20376598739693,30.87153815]}},{"type":"Feature","id":"in-t-226","properties":{"id":"in-t-226","name":"Payal","region":"in-punjab","level":"tehsil","parent":"in-d-36","district":"Ludhiana","source":"LGD via Bharatlas \u00b7 2024 snapshot","center":[76.00448356037305,30.70581335],"bbox":[75.8597436,30.5604457,76.1254833,30.8511447]},"geometry":{"type":"Point","coordinates":[76.00448356037305,30.70581335]}},{"type":"Feature","id":"in-t-222","properties":{"id":"in-t-222","name":"Amloh","region":"in-punjab","level":"tehsil","parent":"in-d-30","district":"Fatehgarh Sahib","source":"LGD via Bharatlas \u00b7 2024 snapshot","center":[76.21587289734667,30.6244828],"bbox":[76.075797,30.5235323,76.3513699,30.7251446]},"geometry":{"type":"Point","coordinates":[76.21587289734667,30.6244828]}},{"type":"Feature","id":"in-t-221","properties":{"id":"in-t-221","name":"Fatehgarh Sahib","region":"in-punjab","level":"tehsil","parent":"in-d-30","district":"Fatehgarh Sahib","source":"LGD via Bharatlas \u00b7 2024 snapshot","center":[76.43688750472883,30.572548],"bbox":[76.2644867,30.4482644,76.5983871,30.6968609]},"geometry":{"type":"Point","coordinates":[76.43688750472883,30.572548]}},{"type":"Feature","id":"in-t-220","properties":{"id":"in-t-220","name":"Bassi Pathana","region":"in-punjab","level":"tehsil","parent":"in-d-30","district":"Fatehgarh Sahib","source":"LGD via Bharatlas \u00b7 2024 snapshot","center":[76.48473754967264,30.67646745],"bbox":[76.3428256,30.5918853,76.6338884,30.7608781]},"geometry":{"type":"Point","coordinates":[76.48473754967264,30.67646745]}},{"type":"Feature","id":"in-t-254","properties":{"id":"in-t-254","name":"Rajpura","region":"in-punjab","level":"tehsil","parent":"in-d-41","district":"Patiala","source":"LGD via Bharatlas \u00b7 2024 snapshot","center":[76.62592040764844,30.4560385],"bbox":[76.4897595,30.2843116,76.7880371,30.6278565]},"geometry":{"type":"Point","coordinates":[76.62592040764844,30.4560385]}},{"type":"Feature","id":"in-t-268","properties":{"id":"in-t-268","name":"Dera Bassi","region":"in-punjab","level":"tehsil","parent":"in-d-608","district":"S.A.S Nagar","source":"LGD via Bharatlas \u00b7 2024 snapshot","center":[76.85746159563763,30.520549000000003],"bbox":[76.7462407,30.3588187,76.9414615,30.6821336]},"geometry":{"type":"Point","coordinates":[76.85746159563763,30.520549000000003]}},{"type":"Feature","id":"in-t-267","properties":{"id":"in-t-267","name":"SAS Nagar (Mohali)","region":"in-punjab","level":"tehsil","parent":"in-d-608","district":"S.A.S Nagar","source":"LGD via Bharatlas \u00b7 2024 snapshot","center":[76.70912006981845,30.67709155],"bbox":[76.6290505,30.5702959,76.7967967,30.7839052]},"geometry":{"type":"Point","coordinates":[76.70912006981845,30.67709155]}},{"type":"Feature","id":"in-t-266","properties":{"id":"in-t-266","name":"Kharar","region":"in-punjab","level":"tehsil","parent":"in-d-608","district":"S.A.S Nagar","source":"LGD via Bharatlas \u00b7 2024 snapshot","center":[76.60741774299706,30.778648099999998],"bbox":[76.5215304,30.6189278,76.8569871,30.93837]},"geometry":{"type":"Point","coordinates":[76.60741774299706,30.778648099999998]}},{"type":"Feature","id":"in-t-265","properties":{"id":"in-t-265","name":"Chamkaur Sahib","region":"in-punjab","level":"tehsil","parent":"in-d-42","district":"Rupnagar","source":"LGD via Bharatlas \u00b7 2024 snapshot","center":[76.44659801029383,30.8705056],"bbox":[76.3056048,30.745516,76.5839791,30.9956024]},"geometry":{"type":"Point","coordinates":[76.44659801029383,30.8705056]}},{"type":"Feature","id":"in-t-264","properties":{"id":"in-t-264","name":"Rup Nagar","region":"in-punjab","level":"tehsil","parent":"in-d-42","district":"Rupnagar","source":"LGD via Bharatlas \u00b7 2024 snapshot","center":[76.58115567654133,31.0147256],"bbox":[76.4574798,30.8511893,76.7377167,31.1781854]},"geometry":{"type":"Point","coordinates":[76.58115567654133,31.0147256]}},{"type":"Feature","id":"in-t-262","properties":{"id":"in-t-262","name":"Anandpur Sahib","region":"in-punjab","level":"tehsil","parent":"in-d-42","district":"Rupnagar","source":"LGD via Bharatlas \u00b7 2024 snapshot","center":[76.47384378990498,31.1520273],"bbox":[76.3272391,30.9954006,76.6455985,31.308668]},"geometry":{"type":"Point","coordinates":[76.47384378990498,31.1520273]}},{"type":"Feature","id":"in-t-253","properties":{"id":"in-t-253","name":"Patiala","region":"in-punjab","level":"tehsil","parent":"in-d-41","district":"Patiala","source":"LGD via Bharatlas \u00b7 2024 snapshot","center":[76.41765284625478,30.2827445],"bbox":[76.1684306,30.0703063,76.6571279,30.4951514]},"geometry":{"type":"Point","coordinates":[76.41765284625478,30.2827445]}},{"type":"Feature","id":"in-t-216","properties":{"id":"in-t-216","name":"Hoshiarpur","region":"in-punjab","level":"tehsil","parent":"in-d-33","district":"Hoshiarpur","source":"LGD via Bharatlas \u00b7 2024 snapshot","center":[75.89520111878059,31.5899558],"bbox":[75.6798151,31.3498463,76.1067315,31.8300121]},"geometry":{"type":"Point","coordinates":[75.89520111878059,31.5899558]}},{"type":"Feature","id":"in-t-213","properties":{"id":"in-t-213","name":"Jalandhar - II","region":"in-punjab","level":"tehsil","parent":"in-d-34","district":"Jalandhar","source":"LGD via Bharatlas \u00b7 2024 snapshot","center":[75.53109143867874,31.418346],"bbox":[75.4316288,31.218255,75.7548602,31.6181311]},"geometry":{"type":"Point","coordinates":[75.53109143867874,31.418346]}},{"type":"Feature","id":"in-t-205","properties":{"id":"in-t-205","name":"Bhulath","region":"in-punjab","level":"tehsil","parent":"in-d-35","district":"Kapurthala","source":"LGD via Bharatlas \u00b7 2024 snapshot","center":[75.48803424920666,31.55550195],"bbox":[75.375295,31.4593484,75.603077,31.6515673]},"geometry":{"type":"Point","coordinates":[75.48803424920666,31.55550195]}},{"type":"Feature","id":"in-t-214","properties":{"id":"in-t-214","name":"Dasua","region":"in-punjab","level":"tehsil","parent":"in-d-33","district":"Hoshiarpur","source":"LGD via Bharatlas \u00b7 2024 snapshot","center":[75.71358495461607,31.750507300000002],"bbox":[75.4713903,31.5850687,75.9124389,31.9159339]},"geometry":{"type":"Point","coordinates":[75.71358495461607,31.750507300000002]}},{"type":"Feature","id":"in-t-215","properties":{"id":"in-t-215","name":"Mukerian","region":"in-punjab","level":"tehsil","parent":"in-d-33","district":"Hoshiarpur","source":"LGD via Bharatlas \u00b7 2024 snapshot","center":[75.72093296334373,31.9427113],"bbox":[75.5310196,31.7998821,75.9869826,32.0857409]},"geometry":{"type":"Point","coordinates":[75.72093296334373,31.9427113]}},{"type":"Feature","id":"in-t-201","properties":{"id":"in-t-201","name":"Pathankot","region":"in-punjab","level":"tehsil","parent":"in-d-662","district":"Pathankot","source":"LGD via Bharatlas \u00b7 2024 snapshot","center":[75.50021097711831,32.2427104],"bbox":[75.3204965,32.0930575,75.7810816,32.3922413]},"geometry":{"type":"Point","coordinates":[75.50021097711831,32.2427104]}},{"type":"Feature","id":"in-t-200","properties":{"id":"in-t-200","name":"Dhar Kalan","region":"in-punjab","level":"tehsil","parent":"in-d-662","district":"Pathankot","source":"LGD via Bharatlas \u00b7 2024 snapshot","center":[75.82236307518116,32.410345899999996],"bbox":[75.6652118,32.3091564,75.9379892,32.5115626]},"geometry":{"type":"Point","coordinates":[75.82236307518116,32.410345899999996]}}]}