{"type":"FeatureCollection","features":[{"type":"Feature","id":"in-rajasthan-d-86","properties":{"id":"in-rajasthan-d-86","name":"Ajmer","region":"in-rajasthan","level":"district","parent":"","source":"LGD via Bharatlas · 2024 snapshot","state_lgd":8,"district_lgd":86,"center":[74.75987738810586,26.47846919305477],"bbox":[74.2521007,26.1564388,75.1745423,26.978673]},"geometry":{"type":"Point","coordinates":[74.75987738810586,26.47846919305477]}},{"type":"Feature","id":"in-rajasthan-d-87","properties":{"id":"in-rajasthan-d-87","name":"Alwar","region":"in-rajasthan","level":"district","parent":"","source":"LGD via Bharatlas · 2024 snapshot","state_lgd":8,"district_lgd":87,"center":[76.64451600610218,27.378630314832293],"bbox":[76.1139723,27.054583,77.210751,27.7745422]},"geometry":{"type":"Point","coordinates":[76.64451600610218,27.378630314832293]}},{"type":"Feature","id":"in-rajasthan-d-776","properties":{"id":"in-rajasthan-d-776","name":"Anoopgarh","region":"in-rajasthan","level":"district","parent":"","source":"LGD via Bharatlas · 2024 snapshot","state_lgd":8,"district_lgd":776,"center":[73.06858149633995,28.934533905160503],"bbox":[72.2039447,28.3294209,73.7256686,29.72913]},"geometry":{"type":"Point","coordinates":[73.06858149633995,28.934533905160503]}},{"type":"Feature","id":"in-rajasthan-d-775","properties":{"id":"in-rajasthan-d-775","name":"Balotra","region":"in-rajasthan","level":"district","parent":"","source":"LGD via Bharatlas · 2024 snapshot","state_lgd":8,"district_lgd":775,"center":[72.12950284454867,25.87452856317808],"bbox":[71.4437897,25.3138032,72.8497417,26.3745324]},"geometry":{"type":"Point","coordinates":[72.12950284454867,25.87452856317808]}},{"type":"Feature","id":"in-rajasthan-d-88","properties":{"id":"in-rajasthan-d-88","name":"Banswara","region":"in-rajasthan","level":"district","parent":"","source":"LGD via Bharatlas · 2024 snapshot","state_lgd":8,"district_lgd":88,"center":[74.36198790222883,23.476390364437748],"bbox":[73.9574983,23.0586612,74.7711575,23.9251833]},"geometry":{"type":"Point","coordinates":[74.36198790222883,23.476390364437748]}},{"type":"Feature","id":"in-rajasthan-d-89","properties":{"id":"in-rajasthan-d-89","name":"Baran","region":"in-rajasthan","level":"district","parent":"","source":"LGD via Bharatlas · 2024 snapshot","state_lgd":8,"district_lgd":89,"center":[76.74783535888918,24.9956299701382],"bbox":[76.1974008,24.4032169,77.4266189,25.4383309]},"geometry":{"type":"Point","coordinates":[76.74783535888918,24.9956299701382]}},{"type":"Feature","id":"in-rajasthan-d-90","properties":{"id":"in-rajasthan-d-90","name":"Barmer","region":"in-rajasthan","level":"district","parent":"","source":"LGD via Bharatlas · 2024 snapshot","state_lgd":8,"district_lgd":90,"center":[71.10743120732909,25.65668790120936],"bbox":[70.0833872,24.6496991,71.9471529,26.5135265]},"geometry":{"type":"Point","coordinates":[71.10743120732909,25.65668790120936]}},{"type":"Feature","id":"in-rajasthan-d-774","properties":{"id":"in-rajasthan-d-774","name":"Beawar","region":"in-rajasthan","level":"district","parent":"","source":"LGD via Bharatlas · 2024 snapshot","state_lgd":8,"district_lgd":774,"center":[74.1915870493546,26.09479722730027],"bbox":[73.7835978,25.6477108,74.7128217,26.4611228]},"geometry":{"type":"Point","coordinates":[74.1915870493546,26.09479722730027]}},{"type":"Feature","id":"in-rajasthan-d-91","properties":{"id":"in-rajasthan-d-91","name":"Bharatpur","region":"in-rajasthan","level":"district","parent":"","source":"LGD via Bharatlas · 2024 snapshot","state_lgd":8,"district_lgd":91,"center":[77.3196309881802,27.04861383604627],"bbox":[76.9567736,26.7060623,77.7629765,27.3427405]},"geometry":{"type":"Point","coordinates":[77.3196309881802,27.04861383604627]}},{"type":"Feature","id":"in-rajasthan-d-92","properties":{"id":"in-rajasthan-d-92","name":"Bhilwara","region":"in-rajasthan","level":"district","parent":"","source":"LGD via Bharatlas · 2024 snapshot","state_lgd":8,"district_lgd":92,"center":[74.40520295971132,25.473583313794755],"bbox":[74.0125681,25.0140163,75.4526985,25.9281081]},"geometry":{"type":"Point","coordinates":[74.40520295971132,25.473583313794755]}},{"type":"Feature","id":"in-rajasthan-d-93","properties":{"id":"in-rajasthan-d-93","name":"Bikaner","region":"in-rajasthan","level":"district","parent":"","source":"LGD via Bharatlas · 2024 snapshot","state_lgd":8,"district_lgd":93,"center":[73.22507659172611,28.102766821958195],"bbox":[71.8826458,27.1830735,74.3589183,29.049595]},"geometry":{"type":"Point","coordinates":[73.22507659172611,28.102766821958195]}},{"type":"Feature","id":"in-rajasthan-d-94","properties":{"id":"in-rajasthan-d-94","name":"Bundi","region":"in-rajasthan","level":"district","parent":"","source":"LGD via Bharatlas · 2024 snapshot","state_lgd":8,"district_lgd":94,"center":[75.79062935881593,25.485609220538546],"bbox":[75.2599912,24.9948451,76.3561801,25.8808152]},"geometry":{"type":"Point","coordinates":[75.79062935881593,25.485609220538546]}},{"type":"Feature","id":"in-rajasthan-d-95","properties":{"id":"in-rajasthan-d-95","name":"Chittorgarh","region":"in-rajasthan","level":"district","parent":"","source":"LGD via Bharatlas · 2024 snapshot","state_lgd":8,"district_lgd":95,"center":[74.58606379624591,24.816955680568494],"bbox":[74.1049655,24.2176994,75.8157265,25.2157775]},"geometry":{"type":"Point","coordinates":[74.58606379624591,24.816955680568494]}},{"type":"Feature","id":"in-rajasthan-d-96","properties":{"id":"in-rajasthan-d-96","name":"Churu","region":"in-rajasthan","level":"district","parent":"","source":"LGD via Bharatlas · 2024 snapshot","state_lgd":8,"district_lgd":96,"center":[74.69640356676427,28.345117023900254],"bbox":[73.8577336,27.4110852,75.6713256,28.999842]},"geometry":{"type":"Point","coordinates":[74.69640356676427,28.345117023900254]}},{"type":"Feature","id":"in-rajasthan-d-97","properties":{"id":"in-rajasthan-d-97","name":"Dausa","region":"in-rajasthan","level":"district","parent":"","source":"LGD via Bharatlas · 2024 snapshot","state_lgd":8,"district_lgd":97,"center":[76.51027269505653,26.85754147658649],"bbox":[76.1447647,26.3787415,77.07539,27.2323369]},"geometry":{"type":"Point","coordinates":[76.51027269505653,26.85754147658649]}},{"type":"Feature","id":"in-rajasthan-d-767","properties":{"id":"in-rajasthan-d-767","name":"Deeg","region":"in-rajasthan","level":"district","parent":"","source":"LGD via Bharatlas · 2024 snapshot","state_lgd":8,"district_lgd":767,"center":[77.2193668891352,27.512722721736225],"bbox":[76.8797219,27.1934347,77.6227095,27.8237581]},"geometry":{"type":"Point","coordinates":[77.2193668891352,27.512722721736225]}},{"type":"Feature","id":"in-rajasthan-d-98","properties":{"id":"in-rajasthan-d-98","name":"Dholpur","region":"in-rajasthan","level":"district","parent":"","source":"LGD via Bharatlas · 2024 snapshot","state_lgd":8,"district_lgd":98,"center":[77.70214115013673,26.680863181099472],"bbox":[77.2272343,26.3565188,78.2720038,26.9499188]},"geometry":{"type":"Point","coordinates":[77.70214115013673,26.680863181099472]}},{"type":"Feature","id":"in-rajasthan-d-768","properties":{"id":"in-rajasthan-d-768","name":"Didwana Kuchaman","region":"in-rajasthan","level":"district","parent":"","source":"LGD via Bharatlas · 2024 snapshot","state_lgd":8,"district_lgd":768,"center":[74.66574317787946,27.18937178067546],"bbox":[74.1914622,26.5577191,75.3650623,27.7076233]},"geometry":{"type":"Point","coordinates":[74.66574317787946,27.18937178067546]}},{"type":"Feature","id":"in-rajasthan-d-769","properties":{"id":"in-rajasthan-d-769","name":"Dudu","region":"in-rajasthan","level":"district","parent":"","source":"LGD via Bharatlas · 2024 snapshot","state_lgd":8,"district_lgd":769,"center":[75.39611331589857,26.650794495712333],"bbox":[74.914346,26.4402585,75.7979825,26.9066606]},"geometry":{"type":"Point","coordinates":[75.39611331589857,26.650794495712333]}},{"type":"Feature","id":"in-rajasthan-d-99","properties":{"id":"in-rajasthan-d-99","name":"Dungarpur","region":"in-rajasthan","level":"district","parent":"","source":"LGD via Bharatlas · 2024 snapshot","state_lgd":8,"district_lgd":99,"center":[73.8531379034854,23.731871327097657],"bbox":[73.351844,23.3338407,74.3808478,24.0111467]},"geometry":{"type":"Point","coordinates":[73.8531379034854,23.731871327097657]}},{"type":"Feature","id":"in-rajasthan-d-100","properties":{"id":"in-rajasthan-d-100","name":"Ganganagar","region":"in-rajasthan","level":"district","parent":"","source":"LGD via Bharatlas · 2024 snapshot","state_lgd":8,"district_lgd":100,"center":[73.81015421099988,29.551596854295703],"bbox":[73.3237078,28.901619,74.2975039,30.1981481]},"geometry":{"type":"Point","coordinates":[73.81015421099988,29.551596854295703]}},{"type":"Feature","id":"in-rajasthan-d-771","properties":{"id":"in-rajasthan-d-771","name":"Gangapurcity","region":"in-rajasthan","level":"district","parent":"","source":"LGD via Bharatlas · 2024 snapshot","state_lgd":8,"district_lgd":771,"center":[76.69847090189496,26.6327580588923],"bbox":[76.401242,26.2916713,76.9984942,26.999665]},"geometry":{"type":"Point","coordinates":[76.69847090189496,26.6327580588923]}},{"type":"Feature","id":"in-rajasthan-d-101","properties":{"id":"in-rajasthan-d-101","name":"Hanumangarh","region":"in-rajasthan","level":"district","parent":"","source":"LGD via Bharatlas · 2024 snapshot","state_lgd":8,"district_lgd":101,"center":[74.5614633629884,29.26597872794073],"bbox":[73.8311822,28.7762904,75.5280303,29.9554415]},"geometry":{"type":"Point","coordinates":[74.5614633629884,29.26597872794073]}},{"type":"Feature","id":"in-rajasthan-d-102","properties":{"id":"in-rajasthan-d-102","name":"Jaipur","region":"in-rajasthan","level":"district","parent":"","source":"LGD via Bharatlas · 2024 snapshot","state_lgd":8,"district_lgd":102,"center":[75.7416170383692,26.957206886665112],"bbox":[75.4815511,26.6720827,76.0084954,27.2770155]},"geometry":{"type":"Point","coordinates":[75.7416170383692,26.957206886665112]}},{"type":"Feature","id":"in-rajasthan-d-783","properties":{"id":"in-rajasthan-d-783","name":"Jaipur Gramin","region":"in-rajasthan","level":"district","parent":"","source":"LGD via Bharatlas · 2024 snapshot","state_lgd":8,"district_lgd":783,"center":[75.59605942057252,27.20874587],"bbox":[74.9284906,26.4858775,76.2831073,27.5185466]},"geometry":{"type":"Point","coordinates":[75.59605942057252,27.20874587]}},{"type":"Feature","id":"in-rajasthan-d-103","properties":{"id":"in-rajasthan-d-103","name":"Jaisalmer","region":"in-rajasthan","level":"district","parent":"","source":"LGD via Bharatlas · 2024 snapshot","state_lgd":8,"district_lgd":103,"center":[70.9010369528632,27.075201584038034],"bbox":[69.4844257,26.0175984,72.3378591,28.037038]},"geometry":{"type":"Point","coordinates":[70.9010369528632,27.075201584038034]}},{"type":"Feature","id":"in-rajasthan-d-104","properties":{"id":"in-rajasthan-d-104","name":"Jalore","region":"in-rajasthan","level":"district","parent":"","source":"LGD via Bharatlas · 2024 snapshot","state_lgd":8,"district_lgd":104,"center":[72.2116828503752,25.09951767889746],"bbox":[71.1878264,24.6093626,73.091231,25.8097599]},"geometry":{"type":"Point","coordinates":[72.2116828503752,25.09951767889746]}},{"type":"Feature","id":"in-rajasthan-d-105","properties":{"id":"in-rajasthan-d-105","name":"Jhalawar","region":"in-rajasthan","level":"district","parent":"","source":"LGD via Bharatlas · 2024 snapshot","state_lgd":8,"district_lgd":105,"center":[76.19344350365539,24.335985555152323],"bbox":[75.459339,23.7559393,76.9473987,24.8706283]},"geometry":{"type":"Point","coordinates":[76.19344350365539,24.335985555152323]}},{"type":"Feature","id":"in-rajasthan-d-106","properties":{"id":"in-rajasthan-d-106","name":"Jhunjhunu","region":"in-rajasthan","level":"district","parent":"","source":"LGD via Bharatlas · 2024 snapshot","state_lgd":8,"district_lgd":106,"center":[75.50700260845316,28.144581944849868],"bbox":[75.0242925,27.6435068,76.0958951,28.5181963]},"geometry":{"type":"Point","coordinates":[75.50700260845316,28.144581944849868]}},{"type":"Feature","id":"in-rajasthan-d-107","properties":{"id":"in-rajasthan-d-107","name":"Jodhpur","region":"in-rajasthan","level":"district","parent":"","source":"LGD via Bharatlas · 2024 snapshot","state_lgd":8,"district_lgd":107,"center":[73.05682245445078,26.344140283535392],"bbox":[72.7092834,26.174508,73.3882991,26.4934726]},"geometry":{"type":"Point","coordinates":[73.05682245445078,26.344140283535392]}},{"type":"Feature","id":"in-rajasthan-d-778","properties":{"id":"in-rajasthan-d-778","name":"Jodhpur Gramin","region":"in-rajasthan","level":"district","parent":"","source":"LGD via Bharatlas · 2024 snapshot","state_lgd":8,"district_lgd":778,"center":[72.90890246703879,26.52528386],"bbox":[72.0280045,25.8526805,73.8700669,26.9736861]},"geometry":{"type":"Point","coordinates":[72.90890246703879,26.52528386]}},{"type":"Feature","id":"in-rajasthan-d-108","properties":{"id":"in-rajasthan-d-108","name":"Karauli","region":"in-rajasthan","level":"district","parent":"","source":"LGD via Bharatlas · 2024 snapshot","state_lgd":8,"district_lgd":108,"center":[77.0187673024915,26.44602131082993],"bbox":[76.5513819,26.0321012,77.3949158,26.874184]},"geometry":{"type":"Point","coordinates":[77.0187673024915,26.44602131082993]}},{"type":"Feature","id":"in-rajasthan-d-781","properties":{"id":"in-rajasthan-d-781","name":"Kekri","region":"in-rajasthan","level":"district","parent":"","source":"LGD via Bharatlas · 2024 snapshot","state_lgd":8,"district_lgd":781,"center":[75.12869884232425,26.028339723142917],"bbox":[74.5959668,25.6845461,75.6909638,26.3021251]},"geometry":{"type":"Point","coordinates":[75.12869884232425,26.028339723142917]}},{"type":"Feature","id":"in-rajasthan-d-770","properties":{"id":"in-rajasthan-d-770","name":"Khairthal-Tijara","region":"in-rajasthan","level":"district","parent":"","source":"LGD via Bharatlas · 2024 snapshot","state_lgd":8,"district_lgd":770,"center":[76.7092561418204,27.922537572221703],"bbox":[76.3413993,27.6690936,76.9705488,28.2216151]},"geometry":{"type":"Point","coordinates":[76.7092561418204,27.922537572221703]}},{"type":"Feature","id":"in-rajasthan-d-109","properties":{"id":"in-rajasthan-d-109","name":"Kota","region":"in-rajasthan","level":"district","parent":"","source":"LGD via Bharatlas · 2024 snapshot","state_lgd":8,"district_lgd":109,"center":[76.10608508168689,25.109266478890053],"bbox":[75.6165666,24.5409593,76.57579,25.8483477]},"geometry":{"type":"Point","coordinates":[76.10608508168689,25.109266478890053]}},{"type":"Feature","id":"in-rajasthan-d-782","properties":{"id":"in-rajasthan-d-782","name":"Kotputli-Behror","region":"in-rajasthan","level":"district","parent":"","source":"LGD via Bharatlas · 2024 snapshot","state_lgd":8,"district_lgd":782,"center":[76.24246726939305,27.698520245282037],"bbox":[75.9394838,27.2504274,76.5103106,28.1792164]},"geometry":{"type":"Point","coordinates":[76.24246726939305,27.698520245282037]}},{"type":"Feature","id":"in-rajasthan-d-110","properties":{"id":"in-rajasthan-d-110","name":"Nagaur","region":"in-rajasthan","level":"district","parent":"","source":"LGD via Bharatlas · 2024 snapshot","state_lgd":8,"district_lgd":110,"center":[73.87194985759022,26.98955682294876],"bbox":[73.085731,26.4100706,74.5353362,27.5661328]},"geometry":{"type":"Point","coordinates":[73.87194985759022,26.98955682294876]}},{"type":"Feature","id":"in-rajasthan-d-773","properties":{"id":"in-rajasthan-d-773","name":"Neem Ka Thana","region":"in-rajasthan","level":"district","parent":"","source":"LGD via Bharatlas · 2024 snapshot","state_lgd":8,"district_lgd":773,"center":[75.75812185425359,27.718593816805722],"bbox":[75.3781316,27.2803725,76.0920689,28.1136603]},"geometry":{"type":"Point","coordinates":[75.75812185425359,27.718593816805722]}},{"type":"Feature","id":"in-rajasthan-d-111","properties":{"id":"in-rajasthan-d-111","name":"Pali","region":"in-rajasthan","level":"district","parent":"","source":"LGD via Bharatlas · 2024 snapshot","state_lgd":8,"district_lgd":111,"center":[73.38475246608996,25.583805350105834],"bbox":[72.7776738,24.7483653,74.0490983,26.1605732]},"geometry":{"type":"Point","coordinates":[73.38475246608996,25.583805350105834]}},{"type":"Feature","id":"in-rajasthan-d-772","properties":{"id":"in-rajasthan-d-772","name":"Phalodi","region":"in-rajasthan","level":"district","parent":"","source":"LGD via Bharatlas · 2024 snapshot","state_lgd":8,"district_lgd":772,"center":[72.47542981332212,27.16610583403817],"bbox":[71.8069802,26.5379702,73.138296,27.6202845]},"geometry":{"type":"Point","coordinates":[72.47542981332212,27.16610583403817]}},{"type":"Feature","id":"in-rajasthan-d-629","properties":{"id":"in-rajasthan-d-629","name":"Pratapgarh","region":"in-rajasthan","level":"district","parent":"","source":"LGD via Bharatlas · 2024 snapshot","state_lgd":8,"district_lgd":629,"center":[74.65030408819288,24.029242414063702],"bbox":[74.1704875,23.5330842,74.9822982,24.5127585]},"geometry":{"type":"Point","coordinates":[74.65030408819288,24.029242414063702]}},{"type":"Feature","id":"in-rajasthan-d-112","properties":{"id":"in-rajasthan-d-112","name":"Rajsamand","region":"in-rajasthan","level":"district","parent":"","source":"LGD via Bharatlas · 2024 snapshot","state_lgd":8,"district_lgd":112,"center":[73.87871756686668,25.20540951689775],"bbox":[73.4727051,24.7155181,74.3916293,26.0242465]},"geometry":{"type":"Point","coordinates":[73.87871756686668,25.20540951689775]}},{"type":"Feature","id":"in-rajasthan-d-777","properties":{"id":"in-rajasthan-d-777","name":"Salumbar","region":"in-rajasthan","level":"district","parent":"","source":"LGD via Bharatlas · 2024 snapshot","state_lgd":8,"district_lgd":777,"center":[74.02471774298029,24.197295862016897],"bbox":[73.6598407,23.9074778,74.4318282,24.4682591]},"geometry":{"type":"Point","coordinates":[74.02471774298029,24.197295862016897]}},{"type":"Feature","id":"in-rajasthan-d-779","properties":{"id":"in-rajasthan-d-779","name":"Sanchor","region":"in-rajasthan","level":"district","parent":"","source":"LGD via Bharatlas · 2024 snapshot","state_lgd":8,"district_lgd":779,"center":[71.82734960786102,24.885457112399486],"bbox":[71.1878264,24.6093626,72.3517587,25.4121586]},"geometry":{"type":"Point","coordinates":[71.82734960786102,24.885457112399486]}},{"type":"Feature","id":"in-rajasthan-d-113","properties":{"id":"in-rajasthan-d-113","name":"Sawai Madhopur","region":"in-rajasthan","level":"district","parent":"","source":"LGD via Bharatlas · 2024 snapshot","state_lgd":8,"district_lgd":113,"center":[76.39417315147111,26.10660078338162],"bbox":[75.9796289,25.7410361,76.8514195,26.4865767]},"geometry":{"type":"Point","coordinates":[76.39417315147111,26.10660078338162]}},{"type":"Feature","id":"in-rajasthan-d-780","properties":{"id":"in-rajasthan-d-780","name":"Shahpura","region":"in-rajasthan","level":"district","parent":"","source":"LGD via Bharatlas · 2024 snapshot","state_lgd":8,"district_lgd":780,"center":[74.97128327503984,25.56452996449343],"bbox":[74.5144742,25.1444141,75.4609938,25.8978995]},"geometry":{"type":"Point","coordinates":[74.97128327503984,25.56452996449343]}},{"type":"Feature","id":"in-rajasthan-d-114","properties":{"id":"in-rajasthan-d-114","name":"Sikar","region":"in-rajasthan","level":"district","parent":"","source":"LGD via Bharatlas · 2024 snapshot","state_lgd":8,"district_lgd":114,"center":[75.12248247462597,27.645011376939287],"bbox":[74.6805656,27.1211143,75.7437973,28.2038135]},"geometry":{"type":"Point","coordinates":[75.12248247462597,27.645011376939287]}},{"type":"Feature","id":"in-rajasthan-d-115","properties":{"id":"in-rajasthan-d-115","name":"Sirohi","region":"in-rajasthan","level":"district","parent":"","source":"LGD via Bharatlas · 2024 snapshot","state_lgd":8,"district_lgd":115,"center":[72.77677804225624,24.76184009734613],"bbox":[72.2462717,24.3372119,73.1718847,25.2852032]},"geometry":{"type":"Point","coordinates":[72.77677804225624,24.76184009734613]}},{"type":"Feature","id":"in-rajasthan-d-116","properties":{"id":"in-rajasthan-d-116","name":"Tonk","region":"in-rajasthan","level":"district","parent":"","source":"LGD via Bharatlas · 2024 snapshot","state_lgd":8,"district_lgd":116,"center":[75.69830642477189,26.15888854364803],"bbox":[75.112018,25.6802218,76.3169793,26.5645246]},"geometry":{"type":"Point","coordinates":[75.69830642477189,26.15888854364803]}},{"type":"Feature","id":"in-rajasthan-d-117","properties":{"id":"in-rajasthan-d-117","name":"Udaipur","region":"in-rajasthan","level":"district","parent":"","source":"LGD via Bharatlas · 2024 snapshot","state_lgd":8,"district_lgd":117,"center":[73.59811290129049,24.47897608332815],"bbox":[73.0009826,23.8028051,74.3665063,25.1044939]},"geometry":{"type":"Point","coordinates":[73.59811290129049,24.47897608332815]}}]}
