{"type":"FeatureCollection","features":[{"type":"Feature","id":"in-sikkim-t-1547","properties":{"id":"in-sikkim-t-1547","name":"Chungthang","region":"in-sikkim","level":"tehsil","parent":"in-sikkim-d-226","district":"Mangan","source":"LGD via Bharatlas · 2024 snapshot","state_lgd":11,"district_lgd":226,"subdistrict_lgd":1547,"center":[88.55431079955892,27.82220627914967],"bbox":[88.1195404,27.5068924,88.8876738,28.1286913]},"geometry":{"type":"Point","coordinates":[88.55431079955892,27.82220627914967]}},{"type":"Feature","id":"in-sikkim-t-1553","properties":{"id":"in-sikkim-t-1553","name":"Gangtok","region":"in-sikkim","level":"tehsil","parent":"in-sikkim-d-225","district":"Gangtok","source":"LGD via Bharatlas · 2024 snapshot","state_lgd":11,"district_lgd":225,"subdistrict_lgd":1553,"center":[88.64328048320375,27.320819455726234],"bbox":[88.4415161,27.1721747,88.9192603,27.4228978]},"geometry":{"type":"Point","coordinates":[88.64328048320375,27.320819455726234]}},{"type":"Feature","id":"in-sikkim-t-1549","properties":{"id":"in-sikkim-t-1549","name":"Gyalshing","region":"in-sikkim","level":"tehsil","parent":"in-sikkim-d-228","district":"Gyalshing","source":"LGD via Bharatlas · 2024 snapshot","state_lgd":11,"district_lgd":228,"subdistrict_lgd":1549,"center":[88.1755642792174,27.404659767753422],"bbox":[88.0302961,27.2367836,88.3583164,27.610231]},"geometry":{"type":"Point","coordinates":[88.1755642792174,27.404659767753422]}},{"type":"Feature","id":"in-sikkim-t-1548","properties":{"id":"in-sikkim-t-1548","name":"Mangan","region":"in-sikkim","level":"tehsil","parent":"in-sikkim-d-226","district":"Mangan","source":"LGD via Bharatlas · 2024 snapshot","state_lgd":11,"district_lgd":226,"subdistrict_lgd":1548,"center":[88.45974696826123,27.535866666584244],"bbox":[88.1125593,27.36517,88.809042,27.6996139]},"geometry":{"type":"Point","coordinates":[88.45974696826123,27.535866666584244]}},{"type":"Feature","id":"in-sikkim-t-1551","properties":{"id":"in-sikkim-t-1551","name":"Namchi","region":"in-sikkim","level":"tehsil","parent":"in-sikkim-d-227","district":"Namchi","source":"LGD via Bharatlas · 2024 snapshot","state_lgd":11,"district_lgd":227,"subdistrict_lgd":1551,"center":[88.41216912728335,27.17068281557347],"bbox":[88.2800525,27.0792596,88.5335201,27.2739199]},"geometry":{"type":"Point","coordinates":[88.41216912728335,27.17068281557347]}},{"type":"Feature","id":"in-sikkim-t-1554","properties":{"id":"in-sikkim-t-1554","name":"Pakyong","region":"in-sikkim","level":"tehsil","parent":"in-sikkim-d-741","district":"Pakyong","source":"LGD via Bharatlas · 2024 snapshot","state_lgd":11,"district_lgd":741,"subdistrict_lgd":1554,"center":[88.65583050338813,27.262723228003466],"bbox":[88.556748,27.1915216,88.7535736,27.3316477]},"geometry":{"type":"Point","coordinates":[88.65583050338813,27.262723228003466]}},{"type":"Feature","id":"in-sikkim-t-1552","properties":{"id":"in-sikkim-t-1552","name":"Ravong","region":"in-sikkim","level":"tehsil","parent":"in-sikkim-d-227","district":"Namchi","source":"LGD via Bharatlas · 2024 snapshot","state_lgd":11,"district_lgd":227,"subdistrict_lgd":1552,"center":[88.37090439604276,27.364750771817793],"bbox":[88.2776906,27.1923797,88.4882329,27.528044]},"geometry":{"type":"Point","coordinates":[88.37090439604276,27.364750771817793]}},{"type":"Feature","id":"in-sikkim-t-1555","properties":{"id":"in-sikkim-t-1555","name":"Rongli","region":"in-sikkim","level":"tehsil","parent":"in-sikkim-d-741","district":"Pakyong","source":"LGD via Bharatlas · 2024 snapshot","state_lgd":11,"district_lgd":741,"subdistrict_lgd":1555,"center":[88.75428930941199,27.234581337311766],"bbox":[88.596956,27.1353606,88.9151128,27.3150193]},"geometry":{"type":"Point","coordinates":[88.75428930941199,27.234581337311766]}},{"type":"Feature","id":"in-sikkim-t-1550","properties":{"id":"in-sikkim-t-1550","name":"Soreng","region":"in-sikkim","level":"tehsil","parent":"in-sikkim-d-742","district":"Soreng","source":"LGD via Bharatlas · 2024 snapshot","state_lgd":11,"district_lgd":742,"subdistrict_lgd":1550,"center":[88.18390195992924,27.190648502275618],"bbox":[88.0123317,27.1095764,88.3343608,27.2547725]},"geometry":{"type":"Point","coordinates":[88.18390195992924,27.190648502275618]}}]}
