{"type":"FeatureCollection","features":[{"type":"Feature","id":"in-sikkim-d-225","properties":{"id":"in-sikkim-d-225","name":"Gangtok","region":"in-sikkim","level":"district","parent":"","source":"LGD via Bharatlas · 2024 snapshot","state_lgd":11,"district_lgd":225,"center":[88.6432808352679,27.320820636971558],"bbox":[88.4415161,27.1721747,88.9192603,27.4228978]},"geometry":{"type":"Point","coordinates":[88.6432808352679,27.320820636971558]}},{"type":"Feature","id":"in-sikkim-d-228","properties":{"id":"in-sikkim-d-228","name":"Gyalshing","region":"in-sikkim","level":"district","parent":"","source":"LGD via Bharatlas · 2024 snapshot","state_lgd":11,"district_lgd":228,"center":[88.17556222418102,27.404657493657076],"bbox":[88.0302961,27.2367836,88.3583164,27.610231]},"geometry":{"type":"Point","coordinates":[88.17556222418102,27.404657493657076]}},{"type":"Feature","id":"in-sikkim-d-226","properties":{"id":"in-sikkim-d-226","name":"Mangan","region":"in-sikkim","level":"district","parent":"","source":"LGD via Bharatlas · 2024 snapshot","state_lgd":11,"district_lgd":226,"center":[88.52755397546366,27.741188783107443],"bbox":[88.1125593,27.36517,88.8876738,28.1286913]},"geometry":{"type":"Point","coordinates":[88.52755397546366,27.741188783107443]}},{"type":"Feature","id":"in-sikkim-d-227","properties":{"id":"in-sikkim-d-227","name":"Namchi","region":"in-sikkim","level":"district","parent":"","source":"LGD via Bharatlas · 2024 snapshot","state_lgd":11,"district_lgd":227,"center":[88.3890631831564,27.27934980622765],"bbox":[88.2776906,27.0792596,88.5335201,27.528044]},"geometry":{"type":"Point","coordinates":[88.3890631831564,27.27934980622765]}},{"type":"Feature","id":"in-sikkim-d-741","properties":{"id":"in-sikkim-d-741","name":"Pakyong","region":"in-sikkim","level":"district","parent":"","source":"LGD via Bharatlas · 2024 snapshot","state_lgd":11,"district_lgd":741,"center":[88.72303010873948,27.243515465218298],"bbox":[88.556748,27.1353667,88.9151128,27.3316477]},"geometry":{"type":"Point","coordinates":[88.72303010873948,27.243515465218298]}},{"type":"Feature","id":"in-sikkim-d-742","properties":{"id":"in-sikkim-d-742","name":"Soreng","region":"in-sikkim","level":"district","parent":"","source":"LGD via Bharatlas · 2024 snapshot","state_lgd":11,"district_lgd":742,"center":[88.18390308422651,27.190647310663174],"bbox":[88.0123317,27.1095764,88.3343608,27.2547725]},"geometry":{"type":"Point","coordinates":[88.18390308422651,27.190647310663174]}}]}
