{"type":"FeatureCollection","features":[{"type":"Feature","id":"in-tripura-t-6695","properties":{"id":"in-tripura-t-6695","name":"Amarpur","region":"in-tripura","level":"tehsil","parent":"in-tripura-d-654","district":"Gomati","source":"LGD via Bharatlas · 2024 snapshot","state_lgd":16,"district_lgd":654,"subdistrict_lgd":6695,"center":[91.68720413842873,23.58288904757132],"bbox":[91.5682931,23.4033173,91.8258584,23.768952]},"geometry":{"type":"Point","coordinates":[91.68720413842873,23.58288904757132]}},{"type":"Feature","id":"in-tripura-t-6697","properties":{"id":"in-tripura-t-6697","name":"Ambassa","region":"in-tripura","level":"tehsil","parent":"in-tripura-d-269","district":"Dhalai","source":"LGD via Bharatlas · 2024 snapshot","state_lgd":16,"district_lgd":269,"subdistrict_lgd":6697,"center":[91.86376007854258,23.830209930127246],"bbox":[91.7549266,23.6647611,91.9782684,23.995425]},"geometry":{"type":"Point","coordinates":[91.86376007854258,23.830209930127246]}},{"type":"Feature","id":"in-tripura-t-6687","properties":{"id":"in-tripura-t-6687","name":"Belonia","region":"in-tripura","level":"tehsil","parent":"in-tripura-d-271","district":"South Tripura","source":"LGD via Bharatlas · 2024 snapshot","state_lgd":16,"district_lgd":271,"subdistrict_lgd":6687,"center":[91.45331790421172,23.219767879472357],"bbox":[91.3097855,23.055324,91.5907449,23.38047]},"geometry":{"type":"Point","coordinates":[91.45331790421172,23.219767879472357]}},{"type":"Feature","id":"in-tripura-t-6699","properties":{"id":"in-tripura-t-6699","name":"Bishalgarh","region":"in-tripura","level":"tehsil","parent":"in-tripura-d-653","district":"Sepahijala","source":"LGD via Bharatlas · 2024 snapshot","state_lgd":16,"district_lgd":653,"subdistrict_lgd":6699,"center":[91.27169047337593,23.661199342850914],"bbox":[91.1491985,23.5653612,91.4002471,23.7510932]},"geometry":{"type":"Point","coordinates":[91.27169047337593,23.661199342850914]}},{"type":"Feature","id":"in-tripura-t-6691","properties":{"id":"in-tripura-t-6691","name":"Dharmanagar","region":"in-tripura","level":"tehsil","parent":"in-tripura-d-270","district":"North Tripura","source":"LGD via Bharatlas · 2024 snapshot","state_lgd":16,"district_lgd":270,"subdistrict_lgd":6691,"center":[92.17223247350117,24.39494432482393],"bbox":[92.0726105,24.2703048,92.2740899,24.5318671]},"geometry":{"type":"Point","coordinates":[92.17223247350117,24.39494432482393]}},{"type":"Feature","id":"in-tripura-t-6686","properties":{"id":"in-tripura-t-6686","name":"Gandacherra","region":"in-tripura","level":"tehsil","parent":"in-tripura-d-269","district":"Dhalai","source":"LGD via Bharatlas · 2024 snapshot","state_lgd":16,"district_lgd":269,"subdistrict_lgd":6686,"center":[91.86628345874497,23.56925988708835],"bbox":[91.7502423,23.4000448,91.9728251,23.7124381]},"geometry":{"type":"Point","coordinates":[91.86628345874497,23.56925988708835]}},{"type":"Feature","id":"in-tripura-t-6677","properties":{"id":"in-tripura-t-6677","name":"Jampuijala","region":"in-tripura","level":"tehsil","parent":"in-tripura-d-653","district":"Sepahijala","source":"LGD via Bharatlas · 2024 snapshot","state_lgd":16,"district_lgd":653,"subdistrict_lgd":6677,"center":[91.43419961582555,23.695858217557742],"bbox":[91.3153987,23.5856557,91.5765125,23.787093]},"geometry":{"type":"Point","coordinates":[91.43419961582555,23.695858217557742]}},{"type":"Feature","id":"in-tripura-t-6679","properties":{"id":"in-tripura-t-6679","name":"Jirania","region":"in-tripura","level":"tehsil","parent":"in-tripura-d-272","district":"West Tripura","source":"LGD via Bharatlas · 2024 snapshot","state_lgd":16,"district_lgd":272,"subdistrict_lgd":6679,"center":[91.45189816543218,23.83704168187235],"bbox":[91.3171559,23.7409745,91.5676277,23.939087]},"geometry":{"type":"Point","coordinates":[91.45189816543218,23.83704168187235]}},{"type":"Feature","id":"in-tripura-t-6682","properties":{"id":"in-tripura-t-6682","name":"Kailashahar","region":"in-tripura","level":"tehsil","parent":"in-tripura-d-655","district":"Unakoti","source":"LGD via Bharatlas · 2024 snapshot","state_lgd":16,"district_lgd":655,"subdistrict_lgd":6682,"center":[92.00193108483028,24.290587170922578],"bbox":[91.9113578,24.1650502,92.0837965,24.3937077]},"geometry":{"type":"Point","coordinates":[92.00193108483028,24.290587170922578]}},{"type":"Feature","id":"in-tripura-t-6681","properties":{"id":"in-tripura-t-6681","name":"Kamalpur","region":"in-tripura","level":"tehsil","parent":"in-tripura-d-269","district":"Dhalai","source":"LGD via Bharatlas · 2024 snapshot","state_lgd":16,"district_lgd":269,"subdistrict_lgd":6681,"center":[91.82598942474029,24.094412656394198],"bbox":[91.7450285,23.9586212,91.9165402,24.2469748]},"geometry":{"type":"Point","coordinates":[91.82598942474029,24.094412656394198]}},{"type":"Feature","id":"in-tripura-t-6685","properties":{"id":"in-tripura-t-6685","name":"Kanchanpur","region":"in-tripura","level":"tehsil","parent":"in-tripura-d-270","district":"North Tripura","source":"LGD via Bharatlas · 2024 snapshot","state_lgd":16,"district_lgd":270,"subdistrict_lgd":6685,"center":[92.22620429404019,23.986803077624742],"bbox":[92.0914382,23.6518996,92.3320574,24.2523534]},"geometry":{"type":"Point","coordinates":[92.22620429404019,23.986803077624742]}},{"type":"Feature","id":"in-tripura-t-6690","properties":{"id":"in-tripura-t-6690","name":"Karbook","region":"in-tripura","level":"tehsil","parent":"in-tripura-d-654","district":"Gomati","source":"LGD via Bharatlas · 2024 snapshot","state_lgd":16,"district_lgd":654,"subdistrict_lgd":6690,"center":[91.75904931798107,23.329431576048677],"bbox":[91.6308625,23.0836312,91.843269,23.4725807]},"geometry":{"type":"Point","coordinates":[91.75904931798107,23.329431576048677]}},{"type":"Feature","id":"in-tripura-t-6684","properties":{"id":"in-tripura-t-6684","name":"Khowai","region":"in-tripura","level":"tehsil","parent":"in-tripura-d-652","district":"Khowai","source":"LGD via Bharatlas · 2024 snapshot","state_lgd":16,"district_lgd":652,"subdistrict_lgd":6684,"center":[91.63768887836092,24.048669815165155],"bbox":[91.473083,23.9359498,91.7614148,24.2335293]},"geometry":{"type":"Point","coordinates":[91.63768887836092,24.048669815165155]}},{"type":"Feature","id":"in-tripura-t-6694","properties":{"id":"in-tripura-t-6694","name":"Kumarghat","region":"in-tripura","level":"tehsil","parent":"in-tripura-d-655","district":"Unakoti","source":"LGD via Bharatlas · 2024 snapshot","state_lgd":16,"district_lgd":655,"subdistrict_lgd":6694,"center":[92.06614807013779,24.15164604068657],"bbox":[91.9027029,24.0100426,92.2034075,24.2758639]},"geometry":{"type":"Point","coordinates":[92.06614807013779,24.15164604068657]}},{"type":"Feature","id":"in-tripura-t-6692","properties":{"id":"in-tripura-t-6692","name":"Longtharai Valley","region":"in-tripura","level":"tehsil","parent":"in-tripura-d-269","district":"Dhalai","source":"LGD via Bharatlas · 2024 snapshot","state_lgd":16,"district_lgd":269,"subdistrict_lgd":6692,"center":[92.03299998550514,23.88531966164688],"bbox":[91.9008226,23.6450154,92.1735677,24.1244641]},"geometry":{"type":"Point","coordinates":[92.03299998550514,23.88531966164688]}},{"type":"Feature","id":"in-tripura-t-6689","properties":{"id":"in-tripura-t-6689","name":"Mohanpur","region":"in-tripura","level":"tehsil","parent":"in-tripura-d-272","district":"West Tripura","source":"LGD via Bharatlas · 2024 snapshot","state_lgd":16,"district_lgd":272,"subdistrict_lgd":6689,"center":[91.3903902764753,23.97422616516194],"bbox":[91.2284697,23.8462744,91.5269109,24.1114986]},"geometry":{"type":"Point","coordinates":[91.3903902764753,23.97422616516194]}},{"type":"Feature","id":"in-tripura-t-6678","properties":{"id":"in-tripura-t-6678","name":"Panisagar","region":"in-tripura","level":"tehsil","parent":"in-tripura-d-270","district":"North Tripura","source":"LGD via Bharatlas · 2024 snapshot","state_lgd":16,"district_lgd":270,"subdistrict_lgd":6678,"center":[92.1867402892324,24.299472121972876],"bbox":[92.1137147,24.2021294,92.2595305,24.3783766]},"geometry":{"type":"Point","coordinates":[92.1867402892324,24.299472121972876]}},{"type":"Feature","id":"in-tripura-t-6688","properties":{"id":"in-tripura-t-6688","name":"Sabroom","region":"in-tripura","level":"tehsil","parent":"in-tripura-d-271","district":"South Tripura","source":"LGD via Bharatlas · 2024 snapshot","state_lgd":16,"district_lgd":271,"subdistrict_lgd":6688,"center":[91.67389513533759,23.07885536350282],"bbox":[91.5304897,22.9383515,91.8244597,23.263195]},"geometry":{"type":"Point","coordinates":[91.67389513533759,23.07885536350282]}},{"type":"Feature","id":"in-tripura-t-6696","properties":{"id":"in-tripura-t-6696","name":"Sadar","region":"in-tripura","level":"tehsil","parent":"in-tripura-d-272","district":"West Tripura","source":"LGD via Bharatlas · 2024 snapshot","state_lgd":16,"district_lgd":272,"subdistrict_lgd":6696,"center":[91.29179123104619,23.796258546371433],"bbox":[91.221502,23.7258541,91.3879315,23.8927828]},"geometry":{"type":"Point","coordinates":[91.29179123104619,23.796258546371433]}},{"type":"Feature","id":"in-tripura-t-6683","properties":{"id":"in-tripura-t-6683","name":"Santirbazar","region":"in-tripura","level":"tehsil","parent":"in-tripura-d-271","district":"South Tripura","source":"LGD via Bharatlas · 2024 snapshot","state_lgd":16,"district_lgd":271,"subdistrict_lgd":6683,"center":[91.618393120348,23.295584873376498],"bbox":[91.4598912,23.1608775,91.7600651,23.4255043]},"geometry":{"type":"Point","coordinates":[91.618393120348,23.295584873376498]}},{"type":"Feature","id":"in-tripura-t-6680","properties":{"id":"in-tripura-t-6680","name":"Sonamura","region":"in-tripura","level":"tehsil","parent":"in-tripura-d-653","district":"Sepahijala","source":"LGD via Bharatlas · 2024 snapshot","state_lgd":16,"district_lgd":653,"subdistrict_lgd":6680,"center":[91.30513692009558,23.474383188091874],"bbox":[91.1562988,23.276504,91.4227634,23.6707174]},"geometry":{"type":"Point","coordinates":[91.30513692009558,23.474383188091874]}},{"type":"Feature","id":"in-tripura-t-6698","properties":{"id":"in-tripura-t-6698","name":"Teliamura","region":"in-tripura","level":"tehsil","parent":"in-tripura-d-652","district":"Khowai","source":"LGD via Bharatlas · 2024 snapshot","state_lgd":16,"district_lgd":652,"subdistrict_lgd":6698,"center":[91.67602276458189,23.857731428714402],"bbox":[91.5253072,23.6750985,91.8071089,23.9845714]},"geometry":{"type":"Point","coordinates":[91.67602276458189,23.857731428714402]}},{"type":"Feature","id":"in-tripura-t-6693","properties":{"id":"in-tripura-t-6693","name":"Udaipur","region":"in-tripura","level":"tehsil","parent":"in-tripura-d-654","district":"Gomati","source":"LGD via Bharatlas · 2024 snapshot","state_lgd":16,"district_lgd":654,"subdistrict_lgd":6693,"center":[91.50374821891248,23.529726539860736],"bbox":[91.3752638,23.3653708,91.6288097,23.7361657]},"geometry":{"type":"Point","coordinates":[91.50374821891248,23.529726539860736]}}]}
