{"type":"FeatureCollection","features":[{"type":"Feature","id":"in-telangana-d-501","properties":{"id":"in-telangana-d-501","name":"Adilabad","region":"in-telangana","level":"district","parent":"","source":"LGD via Bharatlas · 2024 snapshot","state_lgd":36,"district_lgd":501,"center":[78.56598191894983,19.519915661838546],"bbox":[78.1717295,19.172403,78.9775655,19.916807]},"geometry":{"type":"Point","coordinates":[78.56598191894983,19.519915661838546]}},{"type":"Feature","id":"in-telangana-d-690","properties":{"id":"in-telangana-d-690","name":"Bhadradri Kothagudem","region":"in-telangana","level":"district","parent":"","source":"LGD via Bharatlas · 2024 snapshot","state_lgd":36,"district_lgd":690,"center":[80.71649227467377,17.690454401049443],"bbox":[80.2018988,17.1903299,81.3226374,18.2389198]},"geometry":{"type":"Point","coordinates":[80.71649227467377,17.690454401049443]}},{"type":"Feature","id":"in-telangana-d-686","properties":{"id":"in-telangana-d-686","name":"Hanumakonda","region":"in-telangana","level":"district","parent":"","source":"LGD via Bharatlas · 2024 snapshot","state_lgd":36,"district_lgd":686,"center":[79.53288870971987,18.06228992843],"bbox":[79.2286529,17.7866026,79.8419969,18.285261]},"geometry":{"type":"Point","coordinates":[79.53288870971987,18.06228992843]}},{"type":"Feature","id":"in-telangana-d-507","properties":{"id":"in-telangana-d-507","name":"Hyderabad","region":"in-telangana","level":"district","parent":"","source":"LGD via Bharatlas · 2024 snapshot","state_lgd":36,"district_lgd":507,"center":[78.47016855073784,17.39511156678229],"bbox":[78.3675295,17.2975193,78.5489825,17.4830218]},"geometry":{"type":"Point","coordinates":[78.47016855073784,17.39511156678229]}},{"type":"Feature","id":"in-telangana-d-681","properties":{"id":"in-telangana-d-681","name":"Jagitial","region":"in-telangana","level":"district","parent":"","source":"LGD via Bharatlas · 2024 snapshot","state_lgd":36,"district_lgd":681,"center":[78.87789647804726,18.83223822437344],"bbox":[78.514117,18.5505281,79.3074434,19.0777005]},"geometry":{"type":"Point","coordinates":[78.87789647804726,18.83223822437344]}},{"type":"Feature","id":"in-telangana-d-689","properties":{"id":"in-telangana-d-689","name":"Jangoan","region":"in-telangana","level":"district","parent":"","source":"LGD via Bharatlas · 2024 snapshot","state_lgd":36,"district_lgd":689,"center":[79.28177798301239,17.726356559378363],"bbox":[78.8659147,17.4508117,79.6025957,18.0016331]},"geometry":{"type":"Point","coordinates":[79.28177798301239,17.726356559378363]}},{"type":"Feature","id":"in-telangana-d-687","properties":{"id":"in-telangana-d-687","name":"Jayashankar Bhupalapally","region":"in-telangana","level":"district","parent":"","source":"LGD via Bharatlas · 2024 snapshot","state_lgd":36,"district_lgd":687,"center":[79.92436544358964,18.506029989012365],"bbox":[79.5597709,18.1324526,80.3440039,18.871957]},"geometry":{"type":"Point","coordinates":[79.92436544358964,18.506029989012365]}},{"type":"Feature","id":"in-telangana-d-695","properties":{"id":"in-telangana-d-695","name":"Jogulamba Gadwal","region":"in-telangana","level":"district","parent":"","source":"LGD via Bharatlas · 2024 snapshot","state_lgd":36,"district_lgd":695,"center":[77.78099476048133,16.071696979403352],"bbox":[77.486152,15.8360033,78.2536239,16.3639588]},"geometry":{"type":"Point","coordinates":[77.78099476048133,16.071696979403352]}},{"type":"Feature","id":"in-telangana-d-685","properties":{"id":"in-telangana-d-685","name":"Kamareddy","region":"in-telangana","level":"district","parent":"","source":"LGD via Bharatlas · 2024 snapshot","state_lgd":36,"district_lgd":685,"center":[78.06168148108667,18.324814475266958],"bbox":[77.5202063,18.059867,78.569496,18.5567887]},"geometry":{"type":"Point","coordinates":[78.06168148108667,18.324814475266958]}},{"type":"Feature","id":"in-telangana-d-508","properties":{"id":"in-telangana-d-508","name":"Karimnagar","region":"in-telangana","level":"district","parent":"","source":"LGD via Bharatlas · 2024 snapshot","state_lgd":36,"district_lgd":508,"center":[79.24534884480896,18.380031912503902],"bbox":[78.9225076,18.1299871,79.5804799,18.6783148]},"geometry":{"type":"Point","coordinates":[79.24534884480896,18.380031912503902]}},{"type":"Feature","id":"in-telangana-d-509","properties":{"id":"in-telangana-d-509","name":"Khammam","region":"in-telangana","level":"district","parent":"","source":"LGD via Bharatlas · 2024 snapshot","state_lgd":36,"district_lgd":509,"center":[80.36513268372961,17.205948102829993],"bbox":[79.8015252,16.768009,80.9264528,17.5730899]},"geometry":{"type":"Point","coordinates":[80.36513268372961,17.205948102829993]}},{"type":"Feature","id":"in-telangana-d-699","properties":{"id":"in-telangana-d-699","name":"Kumuram Bheem Asifabad","region":"in-telangana","level":"district","parent":"","source":"LGD via Bharatlas · 2024 snapshot","state_lgd":36,"district_lgd":699,"center":[79.41980211029511,19.35709513250798],"bbox":[78.8090486,19.0294736,79.9797173,19.6166889]},"geometry":{"type":"Point","coordinates":[79.41980211029511,19.35709513250798]}},{"type":"Feature","id":"in-telangana-d-688","properties":{"id":"in-telangana-d-688","name":"Mahabubabad","region":"in-telangana","level":"district","parent":"","source":"LGD via Bharatlas · 2024 snapshot","state_lgd":36,"district_lgd":688,"center":[79.99627633039462,17.675221661748626],"bbox":[79.5772815,17.3243116,80.3161784,18.1170271]},"geometry":{"type":"Point","coordinates":[79.99627633039462,17.675221661748626]}},{"type":"Feature","id":"in-telangana-d-512","properties":{"id":"in-telangana-d-512","name":"Mahabubnagar","region":"in-telangana","level":"district","parent":"","source":"LGD via Bharatlas · 2024 snapshot","state_lgd":36,"district_lgd":512,"center":[78.01324768020217,16.75149083317355],"bbox":[77.6743724,16.3708891,78.4937176,17.0134428]},"geometry":{"type":"Point","coordinates":[78.01324768020217,16.75149083317355]}},{"type":"Feature","id":"in-telangana-d-684","properties":{"id":"in-telangana-d-684","name":"Mancherial","region":"in-telangana","level":"district","parent":"","source":"LGD via Bharatlas · 2024 snapshot","state_lgd":36,"district_lgd":684,"center":[79.5123149677634,18.9914634983868],"bbox":[78.8773274,18.6704652,79.961672,19.2649067]},"geometry":{"type":"Point","coordinates":[79.5123149677634,18.9914634983868]}},{"type":"Feature","id":"in-telangana-d-513","properties":{"id":"in-telangana-d-513","name":"Medak","region":"in-telangana","level":"district","parent":"","source":"LGD via Bharatlas · 2024 snapshot","state_lgd":36,"district_lgd":513,"center":[78.26503751344777,17.95321007695666],"bbox":[77.8512636,17.6633786,78.5878844,18.2175149]},"geometry":{"type":"Point","coordinates":[78.26503751344777,17.95321007695666]}},{"type":"Feature","id":"in-telangana-d-700","properties":{"id":"in-telangana-d-700","name":"Medchal Malkajgiri","region":"in-telangana","level":"district","parent":"","source":"LGD via Bharatlas · 2024 snapshot","state_lgd":36,"district_lgd":700,"center":[78.5576972773897,17.54421385708427],"bbox":[78.3476359,17.3605751,78.7606735,17.7079349]},"geometry":{"type":"Point","coordinates":[78.5576972773897,17.54421385708427]}},{"type":"Feature","id":"in-telangana-d-720","properties":{"id":"in-telangana-d-720","name":"Mulugu","region":"in-telangana","level":"district","parent":"","source":"LGD via Bharatlas · 2024 snapshot","state_lgd":36,"district_lgd":720,"center":[80.33745883536615,18.29148781387585],"bbox":[79.8144942,17.9959655,80.7942845,18.6311125]},"geometry":{"type":"Point","coordinates":[80.33745883536615,18.29148781387585]}},{"type":"Feature","id":"in-telangana-d-694","properties":{"id":"in-telangana-d-694","name":"Nagarkurnool","region":"in-telangana","level":"district","parent":"","source":"LGD via Bharatlas · 2024 snapshot","state_lgd":36,"district_lgd":694,"center":[78.59598783222894,16.382246501999333],"bbox":[78.0998931,16.0081518,79.2342959,16.8324079]},"geometry":{"type":"Point","coordinates":[78.59598783222894,16.382246501999333]}},{"type":"Feature","id":"in-telangana-d-514","properties":{"id":"in-telangana-d-514","name":"Nalgonda","region":"in-telangana","level":"district","parent":"","source":"LGD via Bharatlas · 2024 snapshot","state_lgd":36,"district_lgd":514,"center":[79.1930644342591,16.876524928743283],"bbox":[78.6618843,16.3561747,79.6998293,17.3601601]},"geometry":{"type":"Point","coordinates":[79.1930644342591,16.876524928743283]}},{"type":"Feature","id":"in-telangana-d-721","properties":{"id":"in-telangana-d-721","name":"Narayanpet","region":"in-telangana","level":"district","parent":"","source":"LGD via Bharatlas · 2024 snapshot","state_lgd":36,"district_lgd":721,"center":[77.58029605780393,16.643293805043015],"bbox":[77.235761,16.3407355,77.798898,17.0402335]},"geometry":{"type":"Point","coordinates":[77.58029605780393,16.643293805043015]}},{"type":"Feature","id":"in-telangana-d-680","properties":{"id":"in-telangana-d-680","name":"Nirmal","region":"in-telangana","level":"district","parent":"","source":"LGD via Bharatlas · 2024 snapshot","state_lgd":36,"district_lgd":680,"center":[78.31494113389313,19.113180655387847],"bbox":[77.7617902,18.8432892,78.9543607,19.342741]},"geometry":{"type":"Point","coordinates":[78.31494113389313,19.113180655387847]}},{"type":"Feature","id":"in-telangana-d-516","properties":{"id":"in-telangana-d-516","name":"Nizamabad","region":"in-telangana","level":"district","parent":"","source":"LGD via Bharatlas · 2024 snapshot","state_lgd":36,"district_lgd":516,"center":[78.21136416495098,18.701603848953507],"bbox":[77.7299742,18.4361486,78.669888,19.0163404]},"geometry":{"type":"Point","coordinates":[78.21136416495098,18.701603848953507]}},{"type":"Feature","id":"in-telangana-d-682","properties":{"id":"in-telangana-d-682","name":"Peddapalli","region":"in-telangana","level":"district","parent":"","source":"LGD via Bharatlas · 2024 snapshot","state_lgd":36,"district_lgd":682,"center":[79.45368123770214,18.620154544782597],"bbox":[79.1105418,18.3852238,79.832423,18.857061]},"geometry":{"type":"Point","coordinates":[79.45368123770214,18.620154544782597]}},{"type":"Feature","id":"in-telangana-d-683","properties":{"id":"in-telangana-d-683","name":"Rajanna Sircilla","region":"in-telangana","level":"district","parent":"","source":"LGD via Bharatlas · 2024 snapshot","state_lgd":36,"district_lgd":683,"center":[78.7634476673357,18.414095814969393],"bbox":[78.5212057,18.2065477,79.0247383,18.6418391]},"geometry":{"type":"Point","coordinates":[78.7634476673357,18.414095814969393]}},{"type":"Feature","id":"in-telangana-d-518","properties":{"id":"in-telangana-d-518","name":"Ranga Reddy","region":"in-telangana","level":"district","parent":"","source":"LGD via Bharatlas · 2024 snapshot","state_lgd":36,"district_lgd":518,"center":[78.41250443080813,17.130962622716652],"bbox":[77.922744,16.7460768,78.8442066,17.5224728]},"geometry":{"type":"Point","coordinates":[78.41250443080813,17.130962622716652]}},{"type":"Feature","id":"in-telangana-d-691","properties":{"id":"in-telangana-d-691","name":"Sangareddy","region":"in-telangana","level":"district","parent":"","source":"LGD via Bharatlas · 2024 snapshot","state_lgd":36,"district_lgd":691,"center":[77.87413113974014,17.785340302226174],"bbox":[77.4431003,17.4274146,78.4500306,18.2860743]},"geometry":{"type":"Point","coordinates":[77.87413113974014,17.785340302226174]}},{"type":"Feature","id":"in-telangana-d-692","properties":{"id":"in-telangana-d-692","name":"Siddipet","region":"in-telangana","level":"district","parent":"","source":"LGD via Bharatlas · 2024 snapshot","state_lgd":36,"district_lgd":692,"center":[78.8571214303273,18.021667347692784],"bbox":[78.4991574,17.6678486,79.3012096,18.4247249]},"geometry":{"type":"Point","coordinates":[78.8571214303273,18.021667347692784]}},{"type":"Feature","id":"in-telangana-d-696","properties":{"id":"in-telangana-d-696","name":"Suryapet","region":"in-telangana","level":"district","parent":"","source":"LGD via Bharatlas · 2024 snapshot","state_lgd":36,"district_lgd":696,"center":[79.75439535368528,17.080642699689463],"bbox":[79.3629704,16.6312778,80.073254,17.528909]},"geometry":{"type":"Point","coordinates":[79.75439535368528,17.080642699689463]}},{"type":"Feature","id":"in-telangana-d-698","properties":{"id":"in-telangana-d-698","name":"Vikarabad","region":"in-telangana","level":"district","parent":"","source":"LGD via Bharatlas · 2024 snapshot","state_lgd":36,"district_lgd":698,"center":[77.75081162490159,17.246309560545118],"bbox":[77.3624456,16.8468237,78.0729705,17.6387198]},"geometry":{"type":"Point","coordinates":[77.75081162490159,17.246309560545118]}},{"type":"Feature","id":"in-telangana-d-693","properties":{"id":"in-telangana-d-693","name":"Wanaparthy","region":"in-telangana","level":"district","parent":"","source":"LGD via Bharatlas · 2024 snapshot","state_lgd":36,"district_lgd":693,"center":[78.042441195089,16.28960955121784],"bbox":[77.6646795,15.9430621,78.3150422,16.6262115]},"geometry":{"type":"Point","coordinates":[78.042441195089,16.28960955121784]}},{"type":"Feature","id":"in-telangana-d-522","properties":{"id":"in-telangana-d-522","name":"Warangal","region":"in-telangana","level":"district","parent":"","source":"LGD via Bharatlas · 2024 snapshot","state_lgd":36,"district_lgd":522,"center":[79.75116262134674,17.866235968863172],"bbox":[79.4809967,17.6178016,79.9944437,18.1119718]},"geometry":{"type":"Point","coordinates":[79.75116262134674,17.866235968863172]}},{"type":"Feature","id":"in-telangana-d-697","properties":{"id":"in-telangana-d-697","name":"Yadadri Bhuvanagiri","region":"in-telangana","level":"district","parent":"","source":"LGD via Bharatlas · 2024 snapshot","state_lgd":36,"district_lgd":697,"center":[78.97869740896509,17.45123938462319],"bbox":[78.6765132,17.0436009,79.4537002,17.8123732]},"geometry":{"type":"Point","coordinates":[78.97869740896509,17.45123938462319]}}]}
