{"type":"FeatureCollection","features":[{"type":"Feature","id":"in-tripura-d-269","properties":{"id":"in-tripura-d-269","name":"Dhalai","region":"in-tripura","level":"district","parent":"","source":"LGD via Bharatlas · 2024 snapshot","state_lgd":16,"district_lgd":269,"center":[91.92276099176057,23.83666956943559],"bbox":[91.7450285,23.4000448,92.1735677,24.2469748]},"geometry":{"type":"Point","coordinates":[91.92276099176057,23.83666956943559]}},{"type":"Feature","id":"in-tripura-d-654","properties":{"id":"in-tripura-d-654","name":"Gomati","region":"in-tripura","level":"district","parent":"","source":"LGD via Bharatlas · 2024 snapshot","state_lgd":16,"district_lgd":654,"center":[91.62472093464699,23.519903096906503],"bbox":[91.3752638,23.0836312,91.843269,23.7688903]},"geometry":{"type":"Point","coordinates":[91.62472093464699,23.519903096906503]}},{"type":"Feature","id":"in-tripura-d-652","properties":{"id":"in-tripura-d-652","name":"Khowai","region":"in-tripura","level":"district","parent":"","source":"LGD via Bharatlas · 2024 snapshot","state_lgd":16,"district_lgd":652,"center":[91.65810784382859,23.94696547196275],"bbox":[91.473083,23.6750985,91.8071089,24.2335293]},"geometry":{"type":"Point","coordinates":[91.65810784382859,23.94696547196275]}},{"type":"Feature","id":"in-tripura-d-270","properties":{"id":"in-tripura-d-270","name":"North Tripura","region":"in-tripura","level":"district","parent":"","source":"LGD via Bharatlas · 2024 snapshot","state_lgd":16,"district_lgd":270,"center":[92.21174767350793,24.097472544569076],"bbox":[92.0726105,23.6518996,92.3320574,24.5318104]},"geometry":{"type":"Point","coordinates":[92.21174767350793,24.097472544569076]}},{"type":"Feature","id":"in-tripura-d-653","properties":{"id":"in-tripura-d-653","name":"Sepahijala","region":"in-tripura","level":"district","parent":"","source":"LGD via Bharatlas · 2024 snapshot","state_lgd":16,"district_lgd":653,"center":[91.33152549670478,23.58504850297717],"bbox":[91.1491985,23.276504,91.5765125,23.787093]},"geometry":{"type":"Point","coordinates":[91.33152549670478,23.58504850297717]}},{"type":"Feature","id":"in-tripura-d-271","properties":{"id":"in-tripura-d-271","name":"South Tripura","region":"in-tripura","level":"district","parent":"","source":"LGD via Bharatlas · 2024 snapshot","state_lgd":16,"district_lgd":271,"center":[91.58175500000515,23.199725318964415],"bbox":[91.3098561,22.9383515,91.8244597,23.4255043]},"geometry":{"type":"Point","coordinates":[91.58175500000515,23.199725318964415]}},{"type":"Feature","id":"in-tripura-d-655","properties":{"id":"in-tripura-d-655","name":"Unakoti","region":"in-tripura","level":"district","parent":"","source":"LGD via Bharatlas · 2024 snapshot","state_lgd":16,"district_lgd":655,"center":[92.0432802664004,24.201118993128333],"bbox":[91.9027029,24.0100426,92.2034075,24.3937077]},"geometry":{"type":"Point","coordinates":[92.0432802664004,24.201118993128333]}},{"type":"Feature","id":"in-tripura-d-272","properties":{"id":"in-tripura-d-272","name":"West Tripura","region":"in-tripura","level":"district","parent":"","source":"LGD via Bharatlas · 2024 snapshot","state_lgd":16,"district_lgd":272,"center":[91.39930209914712,23.886597011392922],"bbox":[91.221502,23.7258541,91.5676277,24.1114986]},"geometry":{"type":"Point","coordinates":[91.39930209914712,23.886597011392922]}}]}
