{"type":"FeatureCollection","features":[{"type":"Feature","id":"in-tamil-nadu-d-610","properties":{"id":"in-tamil-nadu-d-610","name":"Ariyalur","region":"in-tamil-nadu","level":"district","parent":"","source":"LGD via Bharatlas · 2024 snapshot","state_lgd":33,"district_lgd":610,"center":[79.24297337143817,11.162552444950677],"bbox":[78.9462121,10.8864818,79.5102115,11.419696]},"geometry":{"type":"Point","coordinates":[79.24297337143817,11.162552444950677]}},{"type":"Feature","id":"in-tamil-nadu-d-730","properties":{"id":"in-tamil-nadu-d-730","name":"Chengalpattu","region":"in-tamil-nadu","level":"district","parent":"","source":"LGD via Bharatlas · 2024 snapshot","state_lgd":33,"district_lgd":730,"center":[79.99917146113444,12.582978795984085],"bbox":[79.6403907,12.2288317,80.2552754,13.045694]},"geometry":{"type":"Point","coordinates":[79.99917146113444,12.582978795984085]}},{"type":"Feature","id":"in-tamil-nadu-d-568","properties":{"id":"in-tamil-nadu-d-568","name":"Chennai","region":"in-tamil-nadu","level":"district","parent":"","source":"LGD via Bharatlas · 2024 snapshot","state_lgd":33,"district_lgd":568,"center":[80.23489453401473,13.100427277830192],"bbox":[80.1343891,12.965084,80.3334251,13.2354405]},"geometry":{"type":"Point","coordinates":[80.23489453401473,13.100427277830192]}},{"type":"Feature","id":"in-tamil-nadu-d-569","properties":{"id":"in-tamil-nadu-d-569","name":"Coimbatore","region":"in-tamil-nadu","level":"district","parent":"","source":"LGD via Bharatlas · 2024 snapshot","state_lgd":33,"district_lgd":569,"center":[76.97574769924488,10.878060532709256],"bbox":[76.6557971,10.2201204,77.2990296,11.4064229]},"geometry":{"type":"Point","coordinates":[76.97574769924488,10.878060532709256]}},{"type":"Feature","id":"in-tamil-nadu-d-570","properties":{"id":"in-tamil-nadu-d-570","name":"Cuddalore","region":"in-tamil-nadu","level":"district","parent":"","source":"LGD via Bharatlas · 2024 snapshot","state_lgd":33,"district_lgd":570,"center":[79.44989723762797,11.535308542298951],"bbox":[78.877634,11.1505547,79.812879,11.9049868]},"geometry":{"type":"Point","coordinates":[79.44989723762797,11.535308542298951]}},{"type":"Feature","id":"in-tamil-nadu-d-571","properties":{"id":"in-tamil-nadu-d-571","name":"Dharmapuri","region":"in-tamil-nadu","level":"district","parent":"","source":"LGD via Bharatlas · 2024 snapshot","state_lgd":33,"district_lgd":571,"center":[78.19324668728449,12.100517832020277],"bbox":[77.6740206,11.7759813,78.7452172,12.513678]},"geometry":{"type":"Point","coordinates":[78.19324668728449,12.100517832020277]}},{"type":"Feature","id":"in-tamil-nadu-d-572","properties":{"id":"in-tamil-nadu-d-572","name":"Dindigul","region":"in-tamil-nadu","level":"district","parent":"","source":"LGD via Bharatlas · 2024 snapshot","state_lgd":33,"district_lgd":572,"center":[77.81966433950396,10.391668226887335],"bbox":[77.2665827,10.0180522,78.3398929,10.8351511]},"geometry":{"type":"Point","coordinates":[77.81966433950396,10.391668226887335]}},{"type":"Feature","id":"in-tamil-nadu-d-573","properties":{"id":"in-tamil-nadu-d-573","name":"Erode","region":"in-tamil-nadu","level":"district","parent":"","source":"LGD via Bharatlas · 2024 snapshot","state_lgd":33,"district_lgd":573,"center":[77.37738174114317,11.47480500589091],"bbox":[76.8303139,11.0232532,77.9331271,11.8484757]},"geometry":{"type":"Point","coordinates":[77.37738174114317,11.47480500589091]}},{"type":"Feature","id":"in-tamil-nadu-d-729","properties":{"id":"in-tamil-nadu-d-729","name":"Kallakurichi","region":"in-tamil-nadu","level":"district","parent":"","source":"LGD via Bharatlas · 2024 snapshot","state_lgd":33,"district_lgd":729,"center":[79.03457907678563,11.802079277411474],"bbox":[78.6268217,11.5045754,79.4826909,12.0810783]},"geometry":{"type":"Point","coordinates":[79.03457907678563,11.802079277411474]}},{"type":"Feature","id":"in-tamil-nadu-d-574","properties":{"id":"in-tamil-nadu-d-574","name":"Kanchipuram","region":"in-tamil-nadu","level":"district","parent":"","source":"LGD via Bharatlas · 2024 snapshot","state_lgd":33,"district_lgd":574,"center":[79.82710456537276,12.826607661916356],"bbox":[79.5562641,12.5318941,80.2678269,13.0561761]},"geometry":{"type":"Point","coordinates":[79.82710456537276,12.826607661916356]}},{"type":"Feature","id":"in-tamil-nadu-d-575","properties":{"id":"in-tamil-nadu-d-575","name":"Kanniyakumari","region":"in-tamil-nadu","level":"district","parent":"","source":"LGD via Bharatlas · 2024 snapshot","state_lgd":33,"district_lgd":575,"center":[77.35959142180216,8.308117650499932],"bbox":[77.0960708,8.0777044,77.5886196,8.578948]},"geometry":{"type":"Point","coordinates":[77.35959142180216,8.308117650499932]}},{"type":"Feature","id":"in-tamil-nadu-d-576","properties":{"id":"in-tamil-nadu-d-576","name":"Karur","region":"in-tamil-nadu","level":"district","parent":"","source":"LGD via Bharatlas · 2024 snapshot","state_lgd":33,"district_lgd":576,"center":[78.13462360066268,10.844322572774782],"bbox":[77.7501749,10.5466887,78.5878144,11.096876]},"geometry":{"type":"Point","coordinates":[78.13462360066268,10.844322572774782]}},{"type":"Feature","id":"in-tamil-nadu-d-577","properties":{"id":"in-tamil-nadu-d-577","name":"Krishnagiri","region":"in-tamil-nadu","level":"district","parent":"","source":"LGD via Bharatlas · 2024 snapshot","state_lgd":33,"district_lgd":577,"center":[78.03235398851075,12.490160151215017],"bbox":[77.4711182,12.1392305,78.6886472,12.8909156]},"geometry":{"type":"Point","coordinates":[78.03235398851075,12.490160151215017]}},{"type":"Feature","id":"in-tamil-nadu-d-578","properties":{"id":"in-tamil-nadu-d-578","name":"Madurai","region":"in-tamil-nadu","level":"district","parent":"","source":"LGD via Bharatlas · 2024 snapshot","state_lgd":33,"district_lgd":578,"center":[78.00521359130181,9.922722443768698],"bbox":[77.4641478,9.5630811,78.4736965,10.310319]},"geometry":{"type":"Point","coordinates":[78.00521359130181,9.922722443768698]}},{"type":"Feature","id":"in-tamil-nadu-d-735","properties":{"id":"in-tamil-nadu-d-735","name":"Mayiladuthurai","region":"in-tamil-nadu","level":"district","parent":"","source":"LGD via Bharatlas · 2024 snapshot","state_lgd":33,"district_lgd":735,"center":[79.70975137334085,11.15263610775965],"bbox":[79.5085602,10.9595568,79.8584345,11.4226876]},"geometry":{"type":"Point","coordinates":[79.70975137334085,11.15263610775965]}},{"type":"Feature","id":"in-tamil-nadu-d-579","properties":{"id":"in-tamil-nadu-d-579","name":"Nagapattinam","region":"in-tamil-nadu","level":"district","parent":"","source":"LGD via Bharatlas · 2024 snapshot","state_lgd":33,"district_lgd":579,"center":[79.76179150955637,10.57695148456407],"bbox":[79.6274199,10.2717838,79.8816029,10.9315342]},"geometry":{"type":"Point","coordinates":[79.76179150955637,10.57695148456407]}},{"type":"Feature","id":"in-tamil-nadu-d-580","properties":{"id":"in-tamil-nadu-d-580","name":"Namakkal","region":"in-tamil-nadu","level":"district","parent":"","source":"LGD via Bharatlas · 2024 snapshot","state_lgd":33,"district_lgd":580,"center":[78.13566761055506,11.31877795980294],"bbox":[77.6830551,11.0127259,78.489911,11.5981129]},"geometry":{"type":"Point","coordinates":[78.13566761055506,11.31877795980294]}},{"type":"Feature","id":"in-tamil-nadu-d-581","properties":{"id":"in-tamil-nadu-d-581","name":"Perambalur","region":"in-tamil-nadu","level":"district","parent":"","source":"LGD via Bharatlas · 2024 snapshot","state_lgd":33,"district_lgd":581,"center":[78.8916457193247,11.275074749389987],"bbox":[78.6342472,11.0555973,79.1681475,11.5234779]},"geometry":{"type":"Point","coordinates":[78.8916457193247,11.275074749389987]}},{"type":"Feature","id":"in-tamil-nadu-d-582","properties":{"id":"in-tamil-nadu-d-582","name":"Pudukkottai","region":"in-tamil-nadu","level":"district","parent":"","source":"LGD via Bharatlas · 2024 snapshot","state_lgd":33,"district_lgd":582,"center":[78.87970453973064,10.36049504000975],"bbox":[78.4456264,9.8490741,79.2661118,10.7346383]},"geometry":{"type":"Point","coordinates":[78.87970453973064,10.36049504000975]}},{"type":"Feature","id":"in-tamil-nadu-d-583","properties":{"id":"in-tamil-nadu-d-583","name":"Ramanathapuram","region":"in-tamil-nadu","level":"district","parent":"","source":"LGD via Bharatlas · 2024 snapshot","state_lgd":33,"district_lgd":583,"center":[78.68449187949741,9.438426246000391],"bbox":[78.2150439,9.0863661,79.4969814,9.9440099]},"geometry":{"type":"Point","coordinates":[78.68449187949741,9.438426246000391]}},{"type":"Feature","id":"in-tamil-nadu-d-731","properties":{"id":"in-tamil-nadu-d-731","name":"Ranipet","region":"in-tamil-nadu","level":"district","parent":"","source":"LGD via Bharatlas · 2024 snapshot","state_lgd":33,"district_lgd":731,"center":[79.46168671690086,12.949901995153516],"bbox":[79.1778902,12.628267,79.7920208,13.2105459]},"geometry":{"type":"Point","coordinates":[79.46168671690086,12.949901995153516]}},{"type":"Feature","id":"in-tamil-nadu-d-584","properties":{"id":"in-tamil-nadu-d-584","name":"Salem","region":"in-tamil-nadu","level":"district","parent":"","source":"LGD via Bharatlas · 2024 snapshot","state_lgd":33,"district_lgd":584,"center":[78.12892046530023,11.691193084123832],"bbox":[77.4153936,11.3152463,78.8430473,11.9792782]},"geometry":{"type":"Point","coordinates":[78.12892046530023,11.691193084123832]}},{"type":"Feature","id":"in-tamil-nadu-d-585","properties":{"id":"in-tamil-nadu-d-585","name":"Sivaganga","region":"in-tamil-nadu","level":"district","parent":"","source":"LGD via Bharatlas · 2024 snapshot","state_lgd":33,"district_lgd":585,"center":[78.59607584704106,9.9165018564639],"bbox":[78.1232312,9.5200533,79.0139222,10.4098838]},"geometry":{"type":"Point","coordinates":[78.59607584704106,9.9165018564639]}},{"type":"Feature","id":"in-tamil-nadu-d-733","properties":{"id":"in-tamil-nadu-d-733","name":"Tenkasi","region":"in-tamil-nadu","level":"district","parent":"","source":"LGD via Bharatlas · 2024 snapshot","state_lgd":33,"district_lgd":733,"center":[77.45992412815805,9.092519065515637],"bbox":[77.1465553,8.7638705,77.7448607,9.4201367]},"geometry":{"type":"Point","coordinates":[77.45992412815805,9.092519065515637]}},{"type":"Feature","id":"in-tamil-nadu-d-586","properties":{"id":"in-tamil-nadu-d-586","name":"Thanjavur","region":"in-tamil-nadu","level":"district","parent":"","source":"LGD via Bharatlas · 2024 snapshot","state_lgd":33,"district_lgd":586,"center":[79.24147524226072,10.670724933254693],"bbox":[78.7757693,10.1357905,79.5727821,11.1837265]},"geometry":{"type":"Point","coordinates":[79.24147524226072,10.670724933254693]}},{"type":"Feature","id":"in-tamil-nadu-d-587","properties":{"id":"in-tamil-nadu-d-587","name":"The Nilgiris","region":"in-tamil-nadu","level":"district","parent":"","source":"LGD via Bharatlas · 2024 snapshot","state_lgd":33,"district_lgd":587,"center":[76.62604381554524,11.453299028616485],"bbox":[76.2329831,11.1876815,77.0123158,11.7049786]},"geometry":{"type":"Point","coordinates":[76.62604381554524,11.453299028616485]}},{"type":"Feature","id":"in-tamil-nadu-d-588","properties":{"id":"in-tamil-nadu-d-588","name":"Theni","region":"in-tamil-nadu","level":"district","parent":"","source":"LGD via Bharatlas · 2024 snapshot","state_lgd":33,"district_lgd":588,"center":[77.4384065483136,9.891793254190825],"bbox":[77.1657299,9.519123,77.7297159,10.2187462]},"geometry":{"type":"Point","coordinates":[77.4384065483136,9.891793254190825]}},{"type":"Feature","id":"in-tamil-nadu-d-589","properties":{"id":"in-tamil-nadu-d-589","name":"Thiruvallur","region":"in-tamil-nadu","level":"district","parent":"","source":"LGD via Bharatlas · 2024 snapshot","state_lgd":33,"district_lgd":589,"center":[79.93277259302069,13.244040607701091],"bbox":[79.2840176,12.9450516,80.3465467,13.5646282]},"geometry":{"type":"Point","coordinates":[79.93277259302069,13.244040607701091]}},{"type":"Feature","id":"in-tamil-nadu-d-590","properties":{"id":"in-tamil-nadu-d-590","name":"Thiruvarur","region":"in-tamil-nadu","level":"district","parent":"","source":"LGD via Bharatlas · 2024 snapshot","state_lgd":33,"district_lgd":590,"center":[79.53355466175509,10.679374989550936],"bbox":[79.2678976,10.2807752,79.7704336,11.0172582]},"geometry":{"type":"Point","coordinates":[79.53355466175509,10.679374989550936]}},{"type":"Feature","id":"in-tamil-nadu-d-591","properties":{"id":"in-tamil-nadu-d-591","name":"Tiruchirappalli","region":"in-tamil-nadu","level":"district","parent":"","source":"LGD via Bharatlas · 2024 snapshot","state_lgd":33,"district_lgd":591,"center":[78.57039715972672,10.891008207884699],"bbox":[78.1626542,10.2937059,79.01232,11.408908]},"geometry":{"type":"Point","coordinates":[78.57039715972672,10.891008207884699]}},{"type":"Feature","id":"in-tamil-nadu-d-592","properties":{"id":"in-tamil-nadu-d-592","name":"Tirunelveli","region":"in-tamil-nadu","level":"district","parent":"","source":"LGD via Bharatlas · 2024 snapshot","state_lgd":33,"district_lgd":592,"center":[77.59040681519542,8.57500711910643],"bbox":[77.1697672,8.142107,77.9736117,8.9570082]},"geometry":{"type":"Point","coordinates":[77.59040681519542,8.57500711910643]}},{"type":"Feature","id":"in-tamil-nadu-d-732","properties":{"id":"in-tamil-nadu-d-732","name":"Tirupathur","region":"in-tamil-nadu","level":"district","parent":"","source":"LGD via Bharatlas · 2024 snapshot","state_lgd":33,"district_lgd":732,"center":[78.65536425718862,12.593695639198609],"bbox":[78.4067328,12.258377,78.9179781,12.9106736]},"geometry":{"type":"Point","coordinates":[78.65536425718862,12.593695639198609]}},{"type":"Feature","id":"in-tamil-nadu-d-634","properties":{"id":"in-tamil-nadu-d-634","name":"Tiruppur","region":"in-tamil-nadu","level":"district","parent":"","source":"LGD via Bharatlas · 2024 snapshot","state_lgd":33,"district_lgd":634,"center":[77.40726582908701,10.838975872558791],"bbox":[77.0417983,10.2302741,77.8929925,11.3526132]},"geometry":{"type":"Point","coordinates":[77.40726582908701,10.838975872558791]}},{"type":"Feature","id":"in-tamil-nadu-d-593","properties":{"id":"in-tamil-nadu-d-593","name":"Tiruvannamalai","region":"in-tamil-nadu","level":"district","parent":"","source":"LGD via Bharatlas · 2024 snapshot","state_lgd":33,"district_lgd":593,"center":[79.16610301462384,12.431519374956743],"bbox":[78.6302989,11.9841274,79.7561505,12.8743191]},"geometry":{"type":"Point","coordinates":[79.16610301462384,12.431519374956743]}},{"type":"Feature","id":"in-tamil-nadu-d-594","properties":{"id":"in-tamil-nadu-d-594","name":"Tuticorin","region":"in-tamil-nadu","level":"district","parent":"","source":"LGD via Bharatlas · 2024 snapshot","state_lgd":33,"district_lgd":594,"center":[77.99755910456045,8.901459192681612],"bbox":[77.6731579,8.3211457,78.3848873,9.3719744]},"geometry":{"type":"Point","coordinates":[77.99755910456045,8.901459192681612]}},{"type":"Feature","id":"in-tamil-nadu-d-595","properties":{"id":"in-tamil-nadu-d-595","name":"Vellore","region":"in-tamil-nadu","level":"district","parent":"","source":"LGD via Bharatlas · 2024 snapshot","state_lgd":33,"district_lgd":595,"center":[78.966119231092,12.914309511890856],"bbox":[78.5092717,12.6316556,79.2945438,13.171967]},"geometry":{"type":"Point","coordinates":[78.966119231092,12.914309511890856]}},{"type":"Feature","id":"in-tamil-nadu-d-596","properties":{"id":"in-tamil-nadu-d-596","name":"Villupuram","region":"in-tamil-nadu","level":"district","parent":"","source":"LGD via Bharatlas · 2024 snapshot","state_lgd":33,"district_lgd":596,"center":[79.5424633789401,12.134567297943496],"bbox":[79.1673526,11.7984707,80.0086387,12.4507759]},"geometry":{"type":"Point","coordinates":[79.5424633789401,12.134567297943496]}},{"type":"Feature","id":"in-tamil-nadu-d-597","properties":{"id":"in-tamil-nadu-d-597","name":"Virudhunagar","region":"in-tamil-nadu","level":"district","parent":"","source":"LGD via Bharatlas · 2024 snapshot","state_lgd":33,"district_lgd":597,"center":[77.90572196454424,9.492325307690091],"bbox":[77.3393749,9.2000552,78.4294613,9.7864317]},"geometry":{"type":"Point","coordinates":[77.90572196454424,9.492325307690091]}}]}
