{"type":"FeatureCollection","features":[{"type":"Feature","id":"in-uttarakhand-t-330","properties":{"id":"in-uttarakhand-t-330","name":"Almora","region":"in-uttarakhand","level":"tehsil","parent":"in-uttarakhand-d-45","district":"Almora","source":"LGD via Bharatlas · 2024 snapshot","state_lgd":5,"district_lgd":45,"subdistrict_lgd":330,"center":[79.70436358187831,29.641130690132787],"bbox":[79.5226654,29.5214184,79.9703919,29.809661]},"geometry":{"type":"Point","coordinates":[79.70436358187831,29.641130690132787]}},{"type":"Feature","id":"in-uttarakhand-t-323","properties":{"id":"in-uttarakhand-t-323","name":"Bageshwar","region":"in-uttarakhand","level":"tehsil","parent":"in-uttarakhand-d-46","district":"Bageshwar","source":"LGD via Bharatlas · 2024 snapshot","state_lgd":5,"district_lgd":46,"subdistrict_lgd":323,"center":[79.78540231097787,29.848649700895148],"bbox":[79.6525333,29.7674558,79.9058641,29.917401]},"geometry":{"type":"Point","coordinates":[79.78540231097787,29.848649700895148]}},{"type":"Feature","id":"in-uttarakhand-t-348","properties":{"id":"in-uttarakhand-t-348","name":"Bajpur","region":"in-uttarakhand","level":"tehsil","parent":"in-uttarakhand-d-56","district":"Udam Singh Nagar","source":"LGD via Bharatlas · 2024 snapshot","state_lgd":5,"district_lgd":56,"subdistrict_lgd":348,"center":[79.16685035930527,29.18229546734143],"bbox":[79.02986,29.0462466,79.2950749,29.2752562]},"geometry":{"type":"Point","coordinates":[79.16685035930527,29.18229546734143]}},{"type":"Feature","id":"in-uttarakhand-t-6377","properties":{"id":"in-uttarakhand-t-6377","name":"Barakot","region":"in-uttarakhand","level":"tehsil","parent":"in-uttarakhand-d-48","district":"Champawat","source":"LGD via Bharatlas · 2024 snapshot","state_lgd":5,"district_lgd":48,"subdistrict_lgd":6377,"center":[80.08461198331554,29.465781764635214],"bbox":[79.9808377,29.4141307,80.1871084,29.5235505]},"geometry":{"type":"Point","coordinates":[80.08461198331554,29.465781764635214]}},{"type":"Feature","id":"in-uttarakhand-t-318","properties":{"id":"in-uttarakhand-t-318","name":"Berinag","region":"in-uttarakhand","level":"tehsil","parent":"in-uttarakhand-d-53","district":"Pithoragarh","source":"LGD via Bharatlas · 2024 snapshot","state_lgd":5,"district_lgd":53,"subdistrict_lgd":318,"center":[80.07988573692599,29.800118814109304],"bbox":[79.9765923,29.6656749,80.1624559,29.9065414]},"geometry":{"type":"Point","coordinates":[80.07988573692599,29.800118814109304]}},{"type":"Feature","id":"in-uttarakhand-t-339","properties":{"id":"in-uttarakhand-t-339","name":"Betalghat","region":"in-uttarakhand","level":"tehsil","parent":"in-uttarakhand-d-51","district":"Nainital","source":"LGD via Bharatlas · 2024 snapshot","state_lgd":5,"district_lgd":51,"subdistrict_lgd":339,"center":[79.33517403260461,29.534350011573967],"bbox":[79.2312841,29.4632509,79.4669476,29.6119888]},"geometry":{"type":"Point","coordinates":[79.33517403260461,29.534350011573967]}},{"type":"Feature","id":"in-uttarakhand-t-333","properties":{"id":"in-uttarakhand-t-333","name":"Bhanoli","region":"in-uttarakhand","level":"tehsil","parent":"in-uttarakhand-d-45","district":"Almora","source":"LGD via Bharatlas · 2024 snapshot","state_lgd":5,"district_lgd":45,"subdistrict_lgd":333,"center":[79.91587306630436,29.567278701837314],"bbox":[79.7807135,29.472363,80.0779149,29.6648331]},"geometry":{"type":"Point","coordinates":[79.91587306630436,29.567278701837314]}},{"type":"Feature","id":"in-uttarakhand-t-283","properties":{"id":"in-uttarakhand-t-283","name":"Bhatwari","region":"in-uttarakhand","level":"tehsil","parent":"in-uttarakhand-d-57","district":"Uttar Kashi","source":"LGD via Bharatlas · 2024 snapshot","state_lgd":5,"district_lgd":57,"subdistrict_lgd":283,"center":[78.9126331910949,31.00517449899844],"bbox":[78.3507339,30.6532046,79.4105293,31.4620795]},"geometry":{"type":"Point","coordinates":[78.9126331910949,31.00517449899844]}},{"type":"Feature","id":"in-uttarakhand-t-325","properties":{"id":"in-uttarakhand-t-325","name":"Bhikiasain","region":"in-uttarakhand","level":"tehsil","parent":"in-uttarakhand-d-45","district":"Almora","source":"LGD via Bharatlas · 2024 snapshot","state_lgd":5,"district_lgd":45,"subdistrict_lgd":325,"center":[79.24088408404158,29.774257245009075],"bbox":[79.1283512,29.558194,79.34329,29.9791615]},"geometry":{"type":"Point","coordinates":[79.24088408404158,29.774257245009075]}},{"type":"Feature","id":"in-uttarakhand-t-300","properties":{"id":"in-uttarakhand-t-300","name":"Chakrata","region":"in-uttarakhand","level":"tehsil","parent":"in-uttarakhand-d-49","district":"Dehradun","source":"LGD via Bharatlas · 2024 snapshot","state_lgd":5,"district_lgd":49,"subdistrict_lgd":300,"center":[77.93236973440669,30.713974217137967],"bbox":[77.7453981,30.6102807,78.0837061,30.8596007]},"geometry":{"type":"Point","coordinates":[77.93236973440669,30.713974217137967]}},{"type":"Feature","id":"in-uttarakhand-t-285","properties":{"id":"in-uttarakhand-t-285","name":"Chamoli","region":"in-uttarakhand","level":"tehsil","parent":"in-uttarakhand-d-47","district":"Chamoli","source":"LGD via Bharatlas · 2024 snapshot","state_lgd":5,"district_lgd":47,"subdistrict_lgd":285,"center":[79.47698791060165,30.359541359226583],"bbox":[79.2247992,30.1680064,79.7744005,30.6253637]},"geometry":{"type":"Point","coordinates":[79.47698791060165,30.359541359226583]}},{"type":"Feature","id":"in-uttarakhand-t-334","properties":{"id":"in-uttarakhand-t-334","name":"Champawat","region":"in-uttarakhand","level":"tehsil","parent":"in-uttarakhand-d-48","district":"Champawat","source":"LGD via Bharatlas · 2024 snapshot","state_lgd":5,"district_lgd":48,"subdistrict_lgd":334,"center":[80.1166001512133,29.283890362884875],"bbox":[79.9129475,29.1952533,80.3185156,29.3755605]},"geometry":{"type":"Point","coordinates":[80.1166001512133,29.283890362884875]}},{"type":"Feature","id":"in-uttarakhand-t-312","properties":{"id":"in-uttarakhand-t-312","name":"Chaubatta Khal","region":"in-uttarakhand","level":"tehsil","parent":"in-uttarakhand-d-52","district":"Pauri Garhwal","source":"LGD via Bharatlas · 2024 snapshot","state_lgd":5,"district_lgd":52,"subdistrict_lgd":312,"center":[78.86812145147402,29.933382041521202],"bbox":[78.7129111,29.8095367,78.9925841,30.0662776]},"geometry":{"type":"Point","coordinates":[78.86812145147402,29.933382041521202]}},{"type":"Feature","id":"in-uttarakhand-t-326","properties":{"id":"in-uttarakhand-t-326","name":"Chaukhutiya","region":"in-uttarakhand","level":"tehsil","parent":"in-uttarakhand-d-45","district":"Almora","source":"LGD via Bharatlas · 2024 snapshot","state_lgd":5,"district_lgd":45,"subdistrict_lgd":326,"center":[79.38251391509986,29.87488905354103],"bbox":[79.251308,29.7727352,79.5205236,29.9797052]},"geometry":{"type":"Point","coordinates":[79.38251391509986,29.87488905354103]}},{"type":"Feature","id":"in-uttarakhand-t-282","properties":{"id":"in-uttarakhand-t-282","name":"Chinyali Saur","region":"in-uttarakhand","level":"tehsil","parent":"in-uttarakhand-d-57","district":"Uttar Kashi","source":"LGD via Bharatlas · 2024 snapshot","state_lgd":5,"district_lgd":57,"subdistrict_lgd":282,"center":[78.30240190865497,30.606626748661373],"bbox":[78.154419,30.468224,78.4537301,30.7178084]},"geometry":{"type":"Point","coordinates":[78.30240190865497,30.606626748661373]}},{"type":"Feature","id":"in-uttarakhand-t-304","properties":{"id":"in-uttarakhand-t-304","name":"Dehradun","region":"in-uttarakhand","level":"tehsil","parent":"in-uttarakhand-d-49","district":"Dehradun","source":"LGD via Bharatlas · 2024 snapshot","state_lgd":5,"district_lgd":49,"subdistrict_lgd":304,"center":[78.07276223316721,30.305135039244043],"bbox":[77.9306946,30.1045002,78.2395026,30.4839402]},"geometry":{"type":"Point","coordinates":[78.07276223316721,30.305135039244043]}},{"type":"Feature","id":"in-uttarakhand-t-294","properties":{"id":"in-uttarakhand-t-294","name":"Devprayag","region":"in-uttarakhand","level":"tehsil","parent":"in-uttarakhand-d-55","district":"Tehri Garhwal","source":"LGD via Bharatlas · 2024 snapshot","state_lgd":5,"district_lgd":55,"subdistrict_lgd":294,"center":[78.68929718798351,30.25258960007341],"bbox":[78.5076258,30.0524506,78.9203675,30.3806569]},"geometry":{"type":"Point","coordinates":[78.68929718798351,30.25258960007341]}},{"type":"Feature","id":"in-uttarakhand-t-298","properties":{"id":"in-uttarakhand-t-298","name":"Dhanaulti","region":"in-uttarakhand","level":"tehsil","parent":"in-uttarakhand-d-55","district":"Tehri Garhwal","source":"LGD via Bharatlas · 2024 snapshot","state_lgd":5,"district_lgd":55,"subdistrict_lgd":298,"center":[78.17677779976083,30.483616281208977],"bbox":[77.9361332,30.2754799,78.3584499,30.6406206]},"geometry":{"type":"Point","coordinates":[78.17677779976083,30.483616281208977]}},{"type":"Feature","id":"in-uttarakhand-t-316","properties":{"id":"in-uttarakhand-t-316","name":"Dharchula","region":"in-uttarakhand","level":"tehsil","parent":"in-uttarakhand-d-53","district":"Pithoragarh","source":"LGD via Bharatlas · 2024 snapshot","state_lgd":5,"district_lgd":53,"subdistrict_lgd":316,"center":[80.58742907666101,30.197201355913553],"bbox":[80.247028,29.7498381,81.0466055,30.5721934]},"geometry":{"type":"Point","coordinates":[80.58742907666101,30.197201355913553]}},{"type":"Feature","id":"in-uttarakhand-t-341","properties":{"id":"in-uttarakhand-t-341","name":"Dhari","region":"in-uttarakhand","level":"tehsil","parent":"in-uttarakhand-d-51","district":"Nainital","source":"LGD via Bharatlas · 2024 snapshot","state_lgd":5,"district_lgd":51,"subdistrict_lgd":341,"center":[79.75586711409599,29.31542399332694],"bbox":[79.5979278,29.1494974,79.9267833,29.4757757]},"geometry":{"type":"Point","coordinates":[79.75586711409599,29.31542399332694]}},{"type":"Feature","id":"in-uttarakhand-t-309","properties":{"id":"in-uttarakhand-t-309","name":"Dhoomakot","region":"in-uttarakhand","level":"tehsil","parent":"in-uttarakhand-d-52","district":"Pauri Garhwal","source":"LGD via Bharatlas · 2024 snapshot","state_lgd":5,"district_lgd":52,"subdistrict_lgd":309,"center":[79.00517300189664,29.70776643305429],"bbox":[78.8541717,29.5706108,79.1211272,29.8475928]},"geometry":{"type":"Point","coordinates":[79.00517300189664,29.70776643305429]}},{"type":"Feature","id":"in-uttarakhand-t-317","properties":{"id":"in-uttarakhand-t-317","name":"Didihat","region":"in-uttarakhand","level":"tehsil","parent":"in-uttarakhand-d-53","district":"Pithoragarh","source":"LGD via Bharatlas · 2024 snapshot","state_lgd":5,"district_lgd":53,"subdistrict_lgd":317,"center":[80.25804170346032,29.7558106945408],"bbox":[80.1197948,29.6196532,80.4208866,29.8999548]},"geometry":{"type":"Point","coordinates":[80.25804170346032,29.7558106945408]}},{"type":"Feature","id":"in-uttarakhand-t-281","properties":{"id":"in-uttarakhand-t-281","name":"Dunda","region":"in-uttarakhand","level":"tehsil","parent":"in-uttarakhand-d-57","district":"Uttar Kashi","source":"LGD via Bharatlas · 2024 snapshot","state_lgd":5,"district_lgd":57,"subdistrict_lgd":281,"center":[78.39938799752754,30.68664394607139],"bbox":[78.2242852,30.5270184,78.6000601,30.8478677]},"geometry":{"type":"Point","coordinates":[78.39938799752754,30.68664394607139]}},{"type":"Feature","id":"in-uttarakhand-t-329","properties":{"id":"in-uttarakhand-t-329","name":"Dwarahat","region":"in-uttarakhand","level":"tehsil","parent":"in-uttarakhand-d-45","district":"Almora","source":"LGD via Bharatlas · 2024 snapshot","state_lgd":5,"district_lgd":45,"subdistrict_lgd":329,"center":[79.42357839101828,29.7633076617641],"bbox":[79.2919054,29.6818595,79.5500806,29.8436902]},"geometry":{"type":"Point","coordinates":[79.42357839101828,29.7633076617641]}},{"type":"Feature","id":"in-uttarakhand-t-350","properties":{"id":"in-uttarakhand-t-350","name":"Gadarpur","region":"in-uttarakhand","level":"tehsil","parent":"in-uttarakhand-d-56","district":"Udam Singh Nagar","source":"LGD via Bharatlas · 2024 snapshot","state_lgd":5,"district_lgd":56,"subdistrict_lgd":350,"center":[79.29911244696717,29.082065888804596],"bbox":[79.1621761,28.9664676,79.4205801,29.2225732]},"geometry":{"type":"Point","coordinates":[79.29911244696717,29.082065888804596]}},{"type":"Feature","id":"in-uttarakhand-t-289","properties":{"id":"in-uttarakhand-t-289","name":"Gairsain","region":"in-uttarakhand","level":"tehsil","parent":"in-uttarakhand-d-47","district":"Chamoli","source":"LGD via Bharatlas · 2024 snapshot","state_lgd":5,"district_lgd":47,"subdistrict_lgd":289,"center":[79.28652761247413,30.054474839780973],"bbox":[79.0946181,29.9255743,79.483989,30.2239375]},"geometry":{"type":"Point","coordinates":[79.28652761247413,30.054474839780973]}},{"type":"Feature","id":"in-uttarakhand-t-319","properties":{"id":"in-uttarakhand-t-319","name":"Gangolihat","region":"in-uttarakhand","level":"tehsil","parent":"in-uttarakhand-d-53","district":"Pithoragarh","source":"LGD via Bharatlas · 2024 snapshot","state_lgd":5,"district_lgd":53,"subdistrict_lgd":319,"center":[80.00418402911204,29.668182671594028],"bbox":[79.820948,29.5193541,80.1484828,29.7985249]},"geometry":{"type":"Point","coordinates":[80.00418402911204,29.668182671594028]}},{"type":"Feature","id":"in-uttarakhand-t-324","properties":{"id":"in-uttarakhand-t-324","name":"Garud","region":"in-uttarakhand","level":"tehsil","parent":"in-uttarakhand-d-46","district":"Bageshwar","source":"LGD via Bharatlas · 2024 snapshot","state_lgd":5,"district_lgd":46,"subdistrict_lgd":324,"center":[79.60691248584565,29.938262525690753],"bbox":[79.470598,29.8405533,79.7564708,30.0233467]},"geometry":{"type":"Point","coordinates":[79.60691248584565,29.938262525690753]}},{"type":"Feature","id":"in-uttarakhand-t-293","properties":{"id":"in-uttarakhand-t-293","name":"Ghansali","region":"in-uttarakhand","level":"tehsil","parent":"in-uttarakhand-d-55","district":"Tehri Garhwal","source":"LGD via Bharatlas · 2024 snapshot","state_lgd":5,"district_lgd":55,"subdistrict_lgd":293,"center":[78.75960927951006,30.586884634831964],"bbox":[78.5306155,30.3287814,79.0353167,30.8786276]},"geometry":{"type":"Point","coordinates":[78.75960927951006,30.586884634831964]}},{"type":"Feature","id":"in-uttarakhand-t-342","properties":{"id":"in-uttarakhand-t-342","name":"Haldwani","region":"in-uttarakhand","level":"tehsil","parent":"in-uttarakhand-d-51","district":"Nainital","source":"LGD via Bharatlas · 2024 snapshot","state_lgd":5,"district_lgd":51,"subdistrict_lgd":342,"center":[79.4529314034547,29.19085968111489],"bbox":[79.3662615,29.0835491,79.5503628,29.2986985]},"geometry":{"type":"Point","coordinates":[79.4529314034547,29.19085968111489]}},{"type":"Feature","id":"in-uttarakhand-t-354","properties":{"id":"in-uttarakhand-t-354","name":"Hardwar","region":"in-uttarakhand","level":"tehsil","parent":"in-uttarakhand-d-50","district":"Haridwar","source":"LGD via Bharatlas · 2024 snapshot","state_lgd":5,"district_lgd":50,"subdistrict_lgd":354,"center":[78.11672350143596,29.89738016989963],"bbox":[77.9028022,29.7342506,78.3356586,30.1047767]},"geometry":{"type":"Point","coordinates":[78.11672350143596,29.89738016989963]}},{"type":"Feature","id":"in-uttarakhand-t-332","properties":{"id":"in-uttarakhand-t-332","name":"Jainti","region":"in-uttarakhand","level":"tehsil","parent":"in-uttarakhand-d-45","district":"Almora","source":"LGD via Bharatlas · 2024 snapshot","state_lgd":5,"district_lgd":45,"subdistrict_lgd":332,"center":[79.78451982396425,29.490487120888147],"bbox":[79.6713078,29.4254811,79.8942666,29.5580357]},"geometry":{"type":"Point","coordinates":[79.78451982396425,29.490487120888147]}},{"type":"Feature","id":"in-uttarakhand-t-296","properties":{"id":"in-uttarakhand-t-296","name":"Jakhani Dhar","region":"in-uttarakhand","level":"tehsil","parent":"in-uttarakhand-d-55","district":"Tehri Garhwal","source":"LGD via Bharatlas · 2024 snapshot","state_lgd":5,"district_lgd":55,"subdistrict_lgd":296,"center":[78.54591984996087,30.31749806807601],"bbox":[78.4762929,30.247964,78.623682,30.3839589]},"geometry":{"type":"Point","coordinates":[78.54591984996087,30.31749806807601]}},{"type":"Feature","id":"in-uttarakhand-t-292","properties":{"id":"in-uttarakhand-t-292","name":"Jakholi*","region":"in-uttarakhand","level":"tehsil","parent":"in-uttarakhand-d-54","district":"Rudra Prayag","source":"LGD via Bharatlas · 2024 snapshot","state_lgd":5,"district_lgd":54,"subdistrict_lgd":292,"center":[78.9252191849014,30.436791310336403],"bbox":[78.8168525,30.2525503,79.047508,30.6295777]},"geometry":{"type":"Point","coordinates":[78.9252191849014,30.436791310336403]}},{"type":"Feature","id":"in-uttarakhand-t-347","properties":{"id":"in-uttarakhand-t-347","name":"Jaspur","region":"in-uttarakhand","level":"tehsil","parent":"in-uttarakhand-d-56","district":"Udam Singh Nagar","source":"LGD via Bharatlas · 2024 snapshot","state_lgd":5,"district_lgd":56,"subdistrict_lgd":347,"center":[78.86755849893424,29.281568691288417],"bbox":[78.7183684,29.1816727,78.9761629,29.368364]},"geometry":{"type":"Point","coordinates":[78.86755849893424,29.281568691288417]}},{"type":"Feature","id":"in-uttarakhand-t-284","properties":{"id":"in-uttarakhand-t-284","name":"Joshimath","region":"in-uttarakhand","level":"tehsil","parent":"in-uttarakhand-d-47","district":"Chamoli","source":"LGD via Bharatlas · 2024 snapshot","state_lgd":5,"district_lgd":47,"subdistrict_lgd":284,"center":[79.67493849865797,30.685154456220914],"bbox":[79.2248214,30.2710593,80.1020386,31.0753981]},"geometry":{"type":"Point","coordinates":[79.67493849865797,30.685154456220914]}},{"type":"Feature","id":"in-uttarakhand-t-6332","properties":{"id":"in-uttarakhand-t-6332","name":"Kafligair","region":"in-uttarakhand","level":"tehsil","parent":"in-uttarakhand-d-46","district":"Bageshwar","source":"LGD via Bharatlas · 2024 snapshot","state_lgd":5,"district_lgd":46,"subdistrict_lgd":6332,"center":[79.77840507117739,29.753615659250407],"bbox":[79.6953431,29.7008814,79.8940267,29.8229741]},"geometry":{"type":"Point","coordinates":[79.77840507117739,29.753615659250407]}},{"type":"Feature","id":"in-uttarakhand-t-344","properties":{"id":"in-uttarakhand-t-344","name":"Kaladhungi","region":"in-uttarakhand","level":"tehsil","parent":"in-uttarakhand-d-51","district":"Nainital","source":"LGD via Bharatlas · 2024 snapshot","state_lgd":5,"district_lgd":51,"subdistrict_lgd":344,"center":[79.28255436407117,29.29168995987947],"bbox":[79.1316366,29.1549661,79.416478,29.4142521]},"geometry":{"type":"Point","coordinates":[79.28255436407117,29.29168995987947]}},{"type":"Feature","id":"in-uttarakhand-t-302","properties":{"id":"in-uttarakhand-t-302","name":"Kalsi","region":"in-uttarakhand","level":"tehsil","parent":"in-uttarakhand-d-49","district":"Dehradun","source":"LGD via Bharatlas · 2024 snapshot","state_lgd":5,"district_lgd":49,"subdistrict_lgd":302,"center":[77.88584938890581,30.581721668282594],"bbox":[77.742818,30.5080679,78.0143905,30.6601782]},"geometry":{"type":"Point","coordinates":[77.88584938890581,30.581721668282594]}},{"type":"Feature","id":"in-uttarakhand-t-322","properties":{"id":"in-uttarakhand-t-322","name":"Kanda","region":"in-uttarakhand","level":"tehsil","parent":"in-uttarakhand-d-46","district":"Bageshwar","source":"LGD via Bharatlas · 2024 snapshot","state_lgd":5,"district_lgd":46,"subdistrict_lgd":322,"center":[79.95622841601006,29.843774238825063],"bbox":[79.8622397,29.759604,80.0402491,29.9333548]},"geometry":{"type":"Point","coordinates":[79.95622841601006,29.843774238825063]}},{"type":"Feature","id":"in-uttarakhand-t-321","properties":{"id":"in-uttarakhand-t-321","name":"Kapkot","region":"in-uttarakhand","level":"tehsil","parent":"in-uttarakhand-d-46","district":"Bageshwar","source":"LGD via Bharatlas · 2024 snapshot","state_lgd":5,"district_lgd":46,"subdistrict_lgd":321,"center":[79.9387300501943,30.088902559415935],"bbox":[79.7151342,29.8833856,80.1586321,30.3167014]},"geometry":{"type":"Point","coordinates":[79.9387300501943,30.088902559415935]}},{"type":"Feature","id":"in-uttarakhand-t-287","properties":{"id":"in-uttarakhand-t-287","name":"Karnaprayag","region":"in-uttarakhand","level":"tehsil","parent":"in-uttarakhand-d-47","district":"Chamoli","source":"LGD via Bharatlas · 2024 snapshot","state_lgd":5,"district_lgd":47,"subdistrict_lgd":287,"center":[79.24582638896698,30.238047728349628],"bbox":[79.0759905,30.1432471,79.4030357,30.3284822]},"geometry":{"type":"Point","coordinates":[79.24582638896698,30.238047728349628]}},{"type":"Feature","id":"in-uttarakhand-t-346","properties":{"id":"in-uttarakhand-t-346","name":"Kashipur","region":"in-uttarakhand","level":"tehsil","parent":"in-uttarakhand-d-56","district":"Udam Singh Nagar","source":"LGD via Bharatlas · 2024 snapshot","state_lgd":5,"district_lgd":56,"subdistrict_lgd":346,"center":[78.99212043831679,29.209734673368093],"bbox":[78.8999775,29.1119111,79.0903718,29.3254087]},"geometry":{"type":"Point","coordinates":[78.99212043831679,29.209734673368093]}},{"type":"Feature","id":"in-uttarakhand-t-352","properties":{"id":"in-uttarakhand-t-352","name":"Khatima","region":"in-uttarakhand","level":"tehsil","parent":"in-uttarakhand-d-56","district":"Udam Singh Nagar","source":"LGD via Bharatlas · 2024 snapshot","state_lgd":5,"district_lgd":56,"subdistrict_lgd":352,"center":[79.96241903594729,28.898532106291256],"bbox":[79.8066831,28.722831,80.0771659,29.0930203]},"geometry":{"type":"Point","coordinates":[79.96241903594729,28.898532106291256]}},{"type":"Feature","id":"in-uttarakhand-t-349","properties":{"id":"in-uttarakhand-t-349","name":"Kichha","region":"in-uttarakhand","level":"tehsil","parent":"in-uttarakhand-d-56","district":"Udam Singh Nagar","source":"LGD via Bharatlas · 2024 snapshot","state_lgd":5,"district_lgd":56,"subdistrict_lgd":349,"center":[79.49516084180044,28.969739613716605],"bbox":[79.313095,28.8462727,79.6326196,29.0971816]},"geometry":{"type":"Point","coordinates":[79.49516084180044,28.969739613716605]}},{"type":"Feature","id":"in-uttarakhand-t-338","properties":{"id":"in-uttarakhand-t-338","name":"Kosya Kutauli","region":"in-uttarakhand","level":"tehsil","parent":"in-uttarakhand-d-51","district":"Nainital","source":"LGD via Bharatlas · 2024 snapshot","state_lgd":5,"district_lgd":51,"subdistrict_lgd":338,"center":[79.5484363167609,29.46934592736792],"bbox":[79.396638,29.3562657,79.6971603,29.5568862]},"geometry":{"type":"Point","coordinates":[79.5484363167609,29.46934592736792]}},{"type":"Feature","id":"in-uttarakhand-t-313","properties":{"id":"in-uttarakhand-t-313","name":"Kotdwara","region":"in-uttarakhand","level":"tehsil","parent":"in-uttarakhand-d-52","district":"Pauri Garhwal","source":"LGD via Bharatlas · 2024 snapshot","state_lgd":5,"district_lgd":52,"subdistrict_lgd":313,"center":[78.6281201342305,29.695952025430362],"bbox":[78.3171523,29.4342593,78.9708795,29.9691464]},"geometry":{"type":"Point","coordinates":[78.6281201342305,29.695952025430362]}},{"type":"Feature","id":"in-uttarakhand-t-355","properties":{"id":"in-uttarakhand-t-355","name":"Laksar","region":"in-uttarakhand","level":"tehsil","parent":"in-uttarakhand-d-50","district":"Haridwar","source":"LGD via Bharatlas · 2024 snapshot","state_lgd":5,"district_lgd":50,"subdistrict_lgd":355,"center":[78.04836679502607,29.704845432662747],"bbox":[77.9333023,29.5800651,78.2039218,29.8300966]},"geometry":{"type":"Point","coordinates":[78.04836679502607,29.704845432662747]}},{"type":"Feature","id":"in-uttarakhand-t-345","properties":{"id":"in-uttarakhand-t-345","name":"Lalkuan","region":"in-uttarakhand","level":"tehsil","parent":"in-uttarakhand-d-51","district":"Nainital","source":"LGD via Bharatlas · 2024 snapshot","state_lgd":5,"district_lgd":51,"subdistrict_lgd":345,"center":[79.69839605988533,29.115097152057697],"bbox":[79.4159539,28.9783945,79.9768109,29.2788584]},"geometry":{"type":"Point","coordinates":[79.69839605988533,29.115097152057697]}},{"type":"Feature","id":"in-uttarakhand-t-310","properties":{"id":"in-uttarakhand-t-310","name":"Lansdowne","region":"in-uttarakhand","level":"tehsil","parent":"in-uttarakhand-d-52","district":"Pauri Garhwal","source":"LGD via Bharatlas · 2024 snapshot","state_lgd":5,"district_lgd":52,"subdistrict_lgd":310,"center":[78.76425144813686,29.75805014957477],"bbox":[78.5054916,29.5389499,79.0074243,30.0523901]},"geometry":{"type":"Point","coordinates":[78.76425144813686,29.75805014957477]}},{"type":"Feature","id":"in-uttarakhand-t-336","properties":{"id":"in-uttarakhand-t-336","name":"Lohaghat","region":"in-uttarakhand","level":"tehsil","parent":"in-uttarakhand-d-48","district":"Champawat","source":"LGD via Bharatlas · 2024 snapshot","state_lgd":5,"district_lgd":48,"subdistrict_lgd":336,"center":[80.15376615184749,29.382960044258915],"bbox":[79.9789767,29.2898365,80.3002866,29.4590995]},"geometry":{"type":"Point","coordinates":[80.15376615184749,29.382960044258915]}},{"type":"Feature","id":"in-uttarakhand-t-279","properties":{"id":"in-uttarakhand-t-279","name":"Mori","region":"in-uttarakhand","level":"tehsil","parent":"in-uttarakhand-d-57","district":"Uttar Kashi","source":"LGD via Bharatlas · 2024 snapshot","state_lgd":5,"district_lgd":57,"subdistrict_lgd":279,"center":[78.21495314324713,31.100784245145025],"bbox":[77.8113573,30.9182909,78.6252046,31.2863344]},"geometry":{"type":"Point","coordinates":[78.21495314324713,31.100784245145025]}},{"type":"Feature","id":"in-uttarakhand-t-315","properties":{"id":"in-uttarakhand-t-315","name":"Munsiari","region":"in-uttarakhand","level":"tehsil","parent":"in-uttarakhand-d-53","district":"Pithoragarh","source":"LGD via Bharatlas · 2024 snapshot","state_lgd":5,"district_lgd":53,"subdistrict_lgd":315,"center":[80.21333734771476,30.28928540402712],"bbox":[79.9794805,29.857382,80.4909704,30.8058846]},"geometry":{"type":"Point","coordinates":[80.21333734771476,30.28928540402712]}},{"type":"Feature","id":"in-uttarakhand-t-340","properties":{"id":"in-uttarakhand-t-340","name":"Nainital","region":"in-uttarakhand","level":"tehsil","parent":"in-uttarakhand-d-51","district":"Nainital","source":"LGD via Bharatlas · 2024 snapshot","state_lgd":5,"district_lgd":51,"subdistrict_lgd":340,"center":[79.4360472856029,29.36881346258372],"bbox":[79.1085909,29.2252027,79.6774671,29.5528178]},"geometry":{"type":"Point","coordinates":[79.4360472856029,29.36881346258372]}},{"type":"Feature","id":"in-uttarakhand-t-299","properties":{"id":"in-uttarakhand-t-299","name":"Narendra Nagar","region":"in-uttarakhand","level":"tehsil","parent":"in-uttarakhand-d-55","district":"Tehri Garhwal","source":"LGD via Bharatlas · 2024 snapshot","state_lgd":5,"district_lgd":55,"subdistrict_lgd":299,"center":[78.4102067579235,30.195446724415397],"bbox":[78.233732,30.054933,78.5870142,30.3174883]},"geometry":{"type":"Point","coordinates":[78.4102067579235,30.195446724415397]}},{"type":"Feature","id":"in-uttarakhand-t-335","properties":{"id":"in-uttarakhand-t-335","name":"Pati","region":"in-uttarakhand","level":"tehsil","parent":"in-uttarakhand-d-48","district":"Champawat","source":"LGD via Bharatlas · 2024 snapshot","state_lgd":5,"district_lgd":48,"subdistrict_lgd":335,"center":[79.91139353695957,29.368890079522515],"bbox":[79.7935217,29.2057093,80.020755,29.4999386]},"geometry":{"type":"Point","coordinates":[79.91139353695957,29.368890079522515]}},{"type":"Feature","id":"in-uttarakhand-t-307","properties":{"id":"in-uttarakhand-t-307","name":"Pauri","region":"in-uttarakhand","level":"tehsil","parent":"in-uttarakhand-d-52","district":"Pauri Garhwal","source":"LGD via Bharatlas · 2024 snapshot","state_lgd":5,"district_lgd":52,"subdistrict_lgd":307,"center":[78.78025511722035,30.080969627017645],"bbox":[78.5789749,29.9224185,79.0312498,30.2067397]},"geometry":{"type":"Point","coordinates":[78.78025511722035,30.080969627017645]}},{"type":"Feature","id":"in-uttarakhand-t-320","properties":{"id":"in-uttarakhand-t-320","name":"Pithoragarh","region":"in-uttarakhand","level":"tehsil","parent":"in-uttarakhand-d-53","district":"Pithoragarh","source":"LGD via Bharatlas · 2024 snapshot","state_lgd":5,"district_lgd":53,"subdistrict_lgd":320,"center":[80.23863271299597,29.56577813724126],"bbox":[80.0971457,29.4437867,80.4089349,29.6700993]},"geometry":{"type":"Point","coordinates":[80.23863271299597,29.56577813724126]}},{"type":"Feature","id":"in-uttarakhand-t-286","properties":{"id":"in-uttarakhand-t-286","name":"Pokhari","region":"in-uttarakhand","level":"tehsil","parent":"in-uttarakhand-d-47","district":"Chamoli","source":"LGD via Bharatlas · 2024 snapshot","state_lgd":5,"district_lgd":47,"subdistrict_lgd":286,"center":[79.21322156573322,30.36461298109626],"bbox":[79.1078047,30.2634558,79.3037732,30.4981395]},"geometry":{"type":"Point","coordinates":[79.21322156573322,30.36461298109626]}},{"type":"Feature","id":"in-uttarakhand-t-337","properties":{"id":"in-uttarakhand-t-337","name":"Poornagiri","region":"in-uttarakhand","level":"tehsil","parent":"in-uttarakhand-d-48","district":"Champawat","source":"LGD via Bharatlas · 2024 snapshot","state_lgd":5,"district_lgd":48,"subdistrict_lgd":337,"center":[80.07160696867741,29.138183020607325],"bbox":[79.8778298,28.9448671,80.2728749,29.2618735]},"geometry":{"type":"Point","coordinates":[80.07160696867741,29.138183020607325]}},{"type":"Feature","id":"in-uttarakhand-t-295","properties":{"id":"in-uttarakhand-t-295","name":"Pratapnagar","region":"in-uttarakhand","level":"tehsil","parent":"in-uttarakhand-d-55","district":"Tehri Garhwal","source":"LGD via Bharatlas · 2024 snapshot","state_lgd":5,"district_lgd":55,"subdistrict_lgd":295,"center":[78.49255647974859,30.48528516424214],"bbox":[78.4111673,30.3670142,78.5846315,30.6253144]},"geometry":{"type":"Point","coordinates":[78.49255647974859,30.48528516424214]}},{"type":"Feature","id":"in-uttarakhand-t-278","properties":{"id":"in-uttarakhand-t-278","name":"Puraula","region":"in-uttarakhand","level":"tehsil","parent":"in-uttarakhand-d-57","district":"Uttar Kashi","source":"LGD via Bharatlas · 2024 snapshot","state_lgd":5,"district_lgd":57,"subdistrict_lgd":278,"center":[78.12655819881894,30.897275199911245],"bbox":[77.9739934,30.7407878,78.3255147,31.0280111]},"geometry":{"type":"Point","coordinates":[78.12655819881894,30.897275199911245]}},{"type":"Feature","id":"in-uttarakhand-t-280","properties":{"id":"in-uttarakhand-t-280","name":"Rajgarhi","region":"in-uttarakhand","level":"tehsil","parent":"in-uttarakhand-d-57","district":"Uttar Kashi","source":"LGD via Bharatlas · 2024 snapshot","state_lgd":5,"district_lgd":57,"subdistrict_lgd":280,"center":[78.28570248785415,30.857628268144747],"bbox":[78.008086,30.6018891,78.5782703,31.0443355]},"geometry":{"type":"Point","coordinates":[78.28570248785415,30.857628268144747]}},{"type":"Feature","id":"in-uttarakhand-t-343","properties":{"id":"in-uttarakhand-t-343","name":"Ramnagar","region":"in-uttarakhand","level":"tehsil","parent":"in-uttarakhand-d-51","district":"Nainital","source":"LGD via Bharatlas · 2024 snapshot","state_lgd":5,"district_lgd":51,"subdistrict_lgd":343,"center":[79.07444960037432,29.41885602518022],"bbox":[78.8508894,29.254175,79.3144696,29.5892328]},"geometry":{"type":"Point","coordinates":[79.07444960037432,29.41885602518022]}},{"type":"Feature","id":"in-uttarakhand-t-328","properties":{"id":"in-uttarakhand-t-328","name":"Ranikhet","region":"in-uttarakhand","level":"tehsil","parent":"in-uttarakhand-d-45","district":"Almora","source":"LGD via Bharatlas · 2024 snapshot","state_lgd":5,"district_lgd":45,"subdistrict_lgd":328,"center":[79.45075674343687,29.630766354155288],"bbox":[79.3020947,29.4966529,79.574977,29.7657912]},"geometry":{"type":"Point","coordinates":[79.45075674343687,29.630766354155288]}},{"type":"Feature","id":"in-uttarakhand-t-305","properties":{"id":"in-uttarakhand-t-305","name":"Rishikesh","region":"in-uttarakhand","level":"tehsil","parent":"in-uttarakhand-d-49","district":"Dehradun","source":"LGD via Bharatlas · 2024 snapshot","state_lgd":5,"district_lgd":49,"subdistrict_lgd":305,"center":[78.18915310247743,30.124652333964274],"bbox":[78.035529,29.9621668,78.3104149,30.3094283]},"geometry":{"type":"Point","coordinates":[78.18915310247743,30.124652333964274]}},{"type":"Feature","id":"in-uttarakhand-t-353","properties":{"id":"in-uttarakhand-t-353","name":"Roorkee","region":"in-uttarakhand","level":"tehsil","parent":"in-uttarakhand-d-50","district":"Haridwar","source":"LGD via Bharatlas · 2024 snapshot","state_lgd":5,"district_lgd":50,"subdistrict_lgd":353,"center":[77.87482181379421,29.932381842851797],"bbox":[77.7141329,29.6682995,78.0366418,30.2423693]},"geometry":{"type":"Point","coordinates":[77.87482181379421,29.932381842851797]}},{"type":"Feature","id":"in-uttarakhand-t-291","properties":{"id":"in-uttarakhand-t-291","name":"Rudraprayag","region":"in-uttarakhand","level":"tehsil","parent":"in-uttarakhand-d-54","district":"Rudra Prayag","source":"LGD via Bharatlas · 2024 snapshot","state_lgd":5,"district_lgd":54,"subdistrict_lgd":291,"center":[79.02670927852186,30.288269835283273],"bbox":[78.89076,30.1747148,79.1705353,30.4302993]},"geometry":{"type":"Point","coordinates":[79.02670927852186,30.288269835283273]}},{"type":"Feature","id":"in-uttarakhand-t-311","properties":{"id":"in-uttarakhand-t-311","name":"Satpuli","region":"in-uttarakhand","level":"tehsil","parent":"in-uttarakhand-d-52","district":"Pauri Garhwal","source":"LGD via Bharatlas · 2024 snapshot","state_lgd":5,"district_lgd":52,"subdistrict_lgd":311,"center":[78.74960998604783,29.876272287763232],"bbox":[78.6378121,29.8151649,78.8647595,29.957061]},"geometry":{"type":"Point","coordinates":[78.74960998604783,29.876272287763232]}},{"type":"Feature","id":"in-uttarakhand-t-351","properties":{"id":"in-uttarakhand-t-351","name":"Sitarganj","region":"in-uttarakhand","level":"tehsil","parent":"in-uttarakhand-d-56","district":"Udam Singh Nagar","source":"LGD via Bharatlas · 2024 snapshot","state_lgd":5,"district_lgd":56,"subdistrict_lgd":351,"center":[79.71670387520932,28.952049887750906],"bbox":[79.5721305,28.8410092,79.8760922,29.0773856]},"geometry":{"type":"Point","coordinates":[79.71670387520932,28.952049887750906]}},{"type":"Feature","id":"in-uttarakhand-t-331","properties":{"id":"in-uttarakhand-t-331","name":"Someshwar","region":"in-uttarakhand","level":"tehsil","parent":"in-uttarakhand-d-45","district":"Almora","source":"LGD via Bharatlas · 2024 snapshot","state_lgd":5,"district_lgd":45,"subdistrict_lgd":331,"center":[79.60626476356522,29.78202037485187],"bbox":[79.5082529,29.6534666,79.7085307,29.872649]},"geometry":{"type":"Point","coordinates":[79.60626476356522,29.78202037485187]}},{"type":"Feature","id":"in-uttarakhand-t-306","properties":{"id":"in-uttarakhand-t-306","name":"Srinagar","region":"in-uttarakhand","level":"tehsil","parent":"in-uttarakhand-d-52","district":"Pauri Garhwal","source":"LGD via Bharatlas · 2024 snapshot","state_lgd":5,"district_lgd":52,"subdistrict_lgd":306,"center":[78.80882997849754,30.20291350419205],"bbox":[78.6186019,30.1410402,78.9154966,30.2602465]},"geometry":{"type":"Point","coordinates":[78.80882997849754,30.20291350419205]}},{"type":"Feature","id":"in-uttarakhand-t-327","properties":{"id":"in-uttarakhand-t-327","name":"Sult","region":"in-uttarakhand","level":"tehsil","parent":"in-uttarakhand-d-45","district":"Almora","source":"LGD via Bharatlas · 2024 snapshot","state_lgd":5,"district_lgd":45,"subdistrict_lgd":327,"center":[79.1563612942685,29.679019716714127],"bbox":[79.0370968,29.5215691,79.268604,29.9155279]},"geometry":{"type":"Point","coordinates":[79.1563612942685,29.679019716714127]}},{"type":"Feature","id":"in-uttarakhand-t-297","properties":{"id":"in-uttarakhand-t-297","name":"Tehri","region":"in-uttarakhand","level":"tehsil","parent":"in-uttarakhand-d-55","district":"Tehri Garhwal","source":"LGD via Bharatlas · 2024 snapshot","state_lgd":5,"district_lgd":55,"subdistrict_lgd":297,"center":[78.3816624792857,30.39591169884866],"bbox":[78.2708035,30.2784993,78.4895757,30.5252047]},"geometry":{"type":"Point","coordinates":[78.3816624792857,30.39591169884866]}},{"type":"Feature","id":"in-uttarakhand-t-308","properties":{"id":"in-uttarakhand-t-308","name":"Thailisain","region":"in-uttarakhand","level":"tehsil","parent":"in-uttarakhand-d-52","district":"Pauri Garhwal","source":"LGD via Bharatlas · 2024 snapshot","state_lgd":5,"district_lgd":52,"subdistrict_lgd":308,"center":[79.06701340876369,29.993204509783403],"bbox":[78.907043,29.769847,79.2318712,30.2204576]},"geometry":{"type":"Point","coordinates":[79.06701340876369,29.993204509783403]}},{"type":"Feature","id":"in-uttarakhand-t-288","properties":{"id":"in-uttarakhand-t-288","name":"Tharali","region":"in-uttarakhand","level":"tehsil","parent":"in-uttarakhand-d-47","district":"Chamoli","source":"LGD via Bharatlas · 2024 snapshot","state_lgd":5,"district_lgd":47,"subdistrict_lgd":288,"center":[79.57821228314208,30.123678210516086],"bbox":[79.2892308,29.9958326,79.8293136,30.2997713]},"geometry":{"type":"Point","coordinates":[79.57821228314208,30.123678210516086]}},{"type":"Feature","id":"in-uttarakhand-t-301","properties":{"id":"in-uttarakhand-t-301","name":"Tyuni","region":"in-uttarakhand","level":"tehsil","parent":"in-uttarakhand-d-49","district":"Dehradun","source":"LGD via Bharatlas · 2024 snapshot","state_lgd":5,"district_lgd":49,"subdistrict_lgd":301,"center":[77.85874850065174,30.861426231240564],"bbox":[77.7024338,30.7157118,78.0205619,31.0330855]},"geometry":{"type":"Point","coordinates":[77.85874850065174,30.861426231240564]}},{"type":"Feature","id":"in-uttarakhand-t-290","properties":{"id":"in-uttarakhand-t-290","name":"Ukhimath","region":"in-uttarakhand","level":"tehsil","parent":"in-uttarakhand-d-54","district":"Rudra Prayag","source":"LGD via Bharatlas · 2024 snapshot","state_lgd":5,"district_lgd":54,"subdistrict_lgd":290,"center":[79.11750902202218,30.606992243400306],"bbox":[78.9052922,30.3619889,79.3560231,30.8074506]},"geometry":{"type":"Point","coordinates":[79.11750902202218,30.606992243400306]}},{"type":"Feature","id":"in-uttarakhand-t-303","properties":{"id":"in-uttarakhand-t-303","name":"Vikas Nagar","region":"in-uttarakhand","level":"tehsil","parent":"in-uttarakhand-d-49","district":"Dehradun","source":"LGD via Bharatlas · 2024 snapshot","state_lgd":5,"district_lgd":49,"subdistrict_lgd":303,"center":[77.84110909914503,30.399330130550393],"bbox":[77.5723157,30.2392525,78.0267333,30.5398637]},"geometry":{"type":"Point","coordinates":[77.84110909914503,30.399330130550393]}},{"type":"Feature","id":"in-uttarakhand-t-314","properties":{"id":"in-uttarakhand-t-314","name":"Yamkeshwar","region":"in-uttarakhand","level":"tehsil","parent":"in-uttarakhand-d-52","district":"Pauri Garhwal","source":"LGD via Bharatlas · 2024 snapshot","state_lgd":5,"district_lgd":52,"subdistrict_lgd":314,"center":[78.38124010380072,29.998023413207985],"bbox":[78.202092,29.8481042,78.6031972,30.1377081]},"geometry":{"type":"Point","coordinates":[78.38124010380072,29.998023413207985]}}]}
