{"type":"FeatureCollection","features":[{"type":"Feature","id":"in-uttar-pradesh-d-118","properties":{"id":"in-uttar-pradesh-d-118","name":"Agra","region":"in-uttar-pradesh","level":"district","parent":"","source":"LGD via Bharatlas · 2024 snapshot","state_lgd":9,"district_lgd":118,"center":[78.07640000564972,27.036250885158875],"bbox":[77.397872,26.7417093,78.8539488,27.4093943]},"geometry":{"type":"Point","coordinates":[78.07640000564972,27.036250885158875]}},{"type":"Feature","id":"in-uttar-pradesh-d-119","properties":{"id":"in-uttar-pradesh-d-119","name":"Aligarh","region":"in-uttar-pradesh","level":"district","parent":"","source":"LGD via Bharatlas · 2024 snapshot","state_lgd":9,"district_lgd":119,"center":[78.06530230374213,27.926464507044866],"bbox":[77.4756063,27.5712188,78.6077205,28.1797205]},"geometry":{"type":"Point","coordinates":[78.06530230374213,27.926464507044866]}},{"type":"Feature","id":"in-uttar-pradesh-d-121","properties":{"id":"in-uttar-pradesh-d-121","name":"Ambedkar Nagar","region":"in-uttar-pradesh","level":"district","parent":"","source":"LGD via Bharatlas · 2024 snapshot","state_lgd":9,"district_lgd":121,"center":[82.66610554570774,26.418558775126993],"bbox":[82.2200053,26.1566454,83.1321726,26.6525251]},"geometry":{"type":"Point","coordinates":[82.66610554570774,26.418558775126993]}},{"type":"Feature","id":"in-uttar-pradesh-d-640","properties":{"id":"in-uttar-pradesh-d-640","name":"Amethi","region":"in-uttar-pradesh","level":"district","parent":"","source":"LGD via Bharatlas · 2024 snapshot","state_lgd":9,"district_lgd":640,"center":[81.6687054946204,26.32381470138722],"bbox":[81.344025,26.0269372,82.0704825,26.6662546]},"geometry":{"type":"Point","coordinates":[81.6687054946204,26.32381470138722]}},{"type":"Feature","id":"in-uttar-pradesh-d-154","properties":{"id":"in-uttar-pradesh-d-154","name":"Amroha","region":"in-uttar-pradesh","level":"district","parent":"","source":"LGD via Bharatlas · 2024 snapshot","state_lgd":9,"district_lgd":154,"center":[78.3682475012704,28.83564204540118],"bbox":[78.0495623,28.4331943,78.7190057,29.1591532]},"geometry":{"type":"Point","coordinates":[78.3682475012704,28.83564204540118]}},{"type":"Feature","id":"in-uttar-pradesh-d-122","properties":{"id":"in-uttar-pradesh-d-122","name":"Auraiya","region":"in-uttar-pradesh","level":"district","parent":"","source":"LGD via Bharatlas · 2024 snapshot","state_lgd":9,"district_lgd":122,"center":[79.47911549714277,26.65817757053616],"bbox":[79.205065,26.3642398,79.7568646,26.9473822]},"geometry":{"type":"Point","coordinates":[79.47911549714277,26.65817757053616]}},{"type":"Feature","id":"in-uttar-pradesh-d-140","properties":{"id":"in-uttar-pradesh-d-140","name":"Ayodhya","region":"in-uttar-pradesh","level":"district","parent":"","source":"LGD via Bharatlas · 2024 snapshot","state_lgd":9,"district_lgd":140,"center":[81.99710467738925,26.657554021800337],"bbox":[81.5431298,26.4074193,82.4770991,26.8698864]},"geometry":{"type":"Point","coordinates":[81.99710467738925,26.657554021800337]}},{"type":"Feature","id":"in-uttar-pradesh-d-123","properties":{"id":"in-uttar-pradesh-d-123","name":"Azamgarh","region":"in-uttar-pradesh","level":"district","parent":"","source":"LGD via Bharatlas · 2024 snapshot","state_lgd":9,"district_lgd":123,"center":[83.06729599756359,26.045500339338588],"bbox":[82.664862,25.6358579,83.4682939,26.4117595]},"geometry":{"type":"Point","coordinates":[83.06729599756359,26.045500339338588]}},{"type":"Feature","id":"in-uttar-pradesh-d-124","properties":{"id":"in-uttar-pradesh-d-124","name":"Baghpat","region":"in-uttar-pradesh","level":"district","parent":"","source":"LGD via Bharatlas · 2024 snapshot","state_lgd":9,"district_lgd":124,"center":[77.30850824161449,29.056937731415246],"bbox":[77.1314142,28.776643,77.5045022,29.2981479]},"geometry":{"type":"Point","coordinates":[77.30850824161449,29.056937731415246]}},{"type":"Feature","id":"in-uttar-pradesh-d-125","properties":{"id":"in-uttar-pradesh-d-125","name":"Bahraich","region":"in-uttar-pradesh","level":"district","parent":"","source":"LGD via Bharatlas · 2024 snapshot","state_lgd":9,"district_lgd":125,"center":[81.4928065140828,27.69822975493379],"bbox":[81.0385728,27.059049,81.9904106,28.4038615]},"geometry":{"type":"Point","coordinates":[81.4928065140828,27.69822975493379]}},{"type":"Feature","id":"in-uttar-pradesh-d-126","properties":{"id":"in-uttar-pradesh-d-126","name":"Ballia","region":"in-uttar-pradesh","level":"district","parent":"","source":"LGD via Bharatlas · 2024 snapshot","state_lgd":9,"district_lgd":126,"center":[84.10261618951291,25.876253784756162],"bbox":[83.6759739,25.5574765,84.6346601,26.1916787]},"geometry":{"type":"Point","coordinates":[84.10261618951291,25.876253784756162]}},{"type":"Feature","id":"in-uttar-pradesh-d-127","properties":{"id":"in-uttar-pradesh-d-127","name":"Balrampur","region":"in-uttar-pradesh","level":"district","parent":"","source":"LGD via Bharatlas · 2024 snapshot","state_lgd":9,"district_lgd":127,"center":[82.37522967974176,27.48368402627203],"bbox":[82.0216595,27.0517013,82.7646824,27.8435285]},"geometry":{"type":"Point","coordinates":[82.37522967974176,27.48368402627203]}},{"type":"Feature","id":"in-uttar-pradesh-d-128","properties":{"id":"in-uttar-pradesh-d-128","name":"Banda","region":"in-uttar-pradesh","level":"district","parent":"","source":"LGD via Bharatlas · 2024 snapshot","state_lgd":9,"district_lgd":128,"center":[80.55739651254754,25.470941000212818],"bbox":[80.1037089,24.9739308,81.0366178,25.9137466]},"geometry":{"type":"Point","coordinates":[80.55739651254754,25.470941000212818]}},{"type":"Feature","id":"in-uttar-pradesh-d-129","properties":{"id":"in-uttar-pradesh-d-129","name":"Barabanki","region":"in-uttar-pradesh","level":"district","parent":"","source":"LGD via Bharatlas · 2024 snapshot","state_lgd":9,"district_lgd":129,"center":[81.33241720057956,26.93903654735961],"bbox":[80.9239271,26.5252729,81.7611507,27.3593078]},"geometry":{"type":"Point","coordinates":[81.33241720057956,26.93903654735961]}},{"type":"Feature","id":"in-uttar-pradesh-d-130","properties":{"id":"in-uttar-pradesh-d-130","name":"Bareilly","region":"in-uttar-pradesh","level":"district","parent":"","source":"LGD via Bharatlas · 2024 snapshot","state_lgd":9,"district_lgd":130,"center":[79.431399513352,28.457976575761776],"bbox":[78.969497,28.015352,79.7914271,28.9011901]},"geometry":{"type":"Point","coordinates":[79.431399513352,28.457976575761776]}},{"type":"Feature","id":"in-uttar-pradesh-d-131","properties":{"id":"in-uttar-pradesh-d-131","name":"Basti","region":"in-uttar-pradesh","level":"district","parent":"","source":"LGD via Bharatlas · 2024 snapshot","state_lgd":9,"district_lgd":131,"center":[82.6257082379027,26.82003742322187],"bbox":[82.2286657,26.5530123,82.9776219,27.124294]},"geometry":{"type":"Point","coordinates":[82.6257082379027,26.82003742322187]}},{"type":"Feature","id":"in-uttar-pradesh-d-179","properties":{"id":"in-uttar-pradesh-d-179","name":"Bhadohi","region":"in-uttar-pradesh","level":"district","parent":"","source":"LGD via Bharatlas · 2024 snapshot","state_lgd":9,"district_lgd":179,"center":[82.4641268443508,25.347931776817074],"bbox":[82.195598,25.1781789,82.7105956,25.5365896]},"geometry":{"type":"Point","coordinates":[82.4641268443508,25.347931776817074]}},{"type":"Feature","id":"in-uttar-pradesh-d-132","properties":{"id":"in-uttar-pradesh-d-132","name":"Bijnor","region":"in-uttar-pradesh","level":"district","parent":"","source":"LGD via Bharatlas · 2024 snapshot","state_lgd":9,"district_lgd":132,"center":[78.38885274648202,29.386207057241137],"bbox":[77.985954,29.0174025,78.9431179,29.7966056]},"geometry":{"type":"Point","coordinates":[78.38885274648202,29.386207057241137]}},{"type":"Feature","id":"in-uttar-pradesh-d-133","properties":{"id":"in-uttar-pradesh-d-133","name":"Budaun","region":"in-uttar-pradesh","level":"district","parent":"","source":"LGD via Bharatlas · 2024 snapshot","state_lgd":9,"district_lgd":133,"center":[79.0415693859739,28.077853565643522],"bbox":[78.5719679,27.6578044,79.5100412,28.4722547]},"geometry":{"type":"Point","coordinates":[79.0415693859739,28.077853565643522]}},{"type":"Feature","id":"in-uttar-pradesh-d-134","properties":{"id":"in-uttar-pradesh-d-134","name":"Bulandshahr","region":"in-uttar-pradesh","level":"district","parent":"","source":"LGD via Bharatlas · 2024 snapshot","state_lgd":9,"district_lgd":134,"center":[78.0145038149144,28.362547619215963],"bbox":[77.6215904,28.059198,78.4774771,28.7153555]},"geometry":{"type":"Point","coordinates":[78.0145038149144,28.362547619215963]}},{"type":"Feature","id":"in-uttar-pradesh-d-135","properties":{"id":"in-uttar-pradesh-d-135","name":"Chandauli","region":"in-uttar-pradesh","level":"district","parent":"","source":"LGD via Bharatlas · 2024 snapshot","state_lgd":9,"district_lgd":135,"center":[83.25810498282497,25.141544246341],"bbox":[83.0091232,24.7164749,83.5542629,25.5352687]},"geometry":{"type":"Point","coordinates":[83.25810498282497,25.141544246341]}},{"type":"Feature","id":"in-uttar-pradesh-d-136","properties":{"id":"in-uttar-pradesh-d-136","name":"Chitrakoot","region":"in-uttar-pradesh","level":"district","parent":"","source":"LGD via Bharatlas · 2024 snapshot","state_lgd":9,"district_lgd":136,"center":[81.07746267894326,25.20622662583412],"bbox":[80.6840501,24.8875274,81.5621995,25.5468798]},"geometry":{"type":"Point","coordinates":[81.07746267894326,25.20622662583412]}},{"type":"Feature","id":"in-uttar-pradesh-d-137","properties":{"id":"in-uttar-pradesh-d-137","name":"Deoria","region":"in-uttar-pradesh","level":"district","parent":"","source":"LGD via Bharatlas · 2024 snapshot","state_lgd":9,"district_lgd":137,"center":[83.83458532849308,26.42535127038251],"bbox":[83.4767505,26.0894695,84.1859735,26.7591765]},"geometry":{"type":"Point","coordinates":[83.83458532849308,26.42535127038251]}},{"type":"Feature","id":"in-uttar-pradesh-d-138","properties":{"id":"in-uttar-pradesh-d-138","name":"Etah","region":"in-uttar-pradesh","level":"district","parent":"","source":"LGD via Bharatlas · 2024 snapshot","state_lgd":9,"district_lgd":138,"center":[78.71741979843692,27.51553997482996],"bbox":[78.1738501,27.3236757,79.2772342,27.7861849]},"geometry":{"type":"Point","coordinates":[78.71741979843692,27.51553997482996]}},{"type":"Feature","id":"in-uttar-pradesh-d-139","properties":{"id":"in-uttar-pradesh-d-139","name":"Etawah","region":"in-uttar-pradesh","level":"district","parent":"","source":"LGD via Bharatlas · 2024 snapshot","state_lgd":9,"district_lgd":139,"center":[79.09485421024903,26.764069507071845],"bbox":[78.741334,26.4249921,79.3496534,27.0064476]},"geometry":{"type":"Point","coordinates":[79.09485421024903,26.764069507071845]}},{"type":"Feature","id":"in-uttar-pradesh-d-141","properties":{"id":"in-uttar-pradesh-d-141","name":"Farrukhabad","region":"in-uttar-pradesh","level":"district","parent":"","source":"LGD via Bharatlas · 2024 snapshot","state_lgd":9,"district_lgd":141,"center":[79.45866759347263,27.431333903727417],"bbox":[79.1202028,27.1567829,79.7371968,27.7153259]},"geometry":{"type":"Point","coordinates":[79.45866759347263,27.431333903727417]}},{"type":"Feature","id":"in-uttar-pradesh-d-142","properties":{"id":"in-uttar-pradesh-d-142","name":"Fatehpur","region":"in-uttar-pradesh","level":"district","parent":"","source":"LGD via Bharatlas · 2024 snapshot","state_lgd":9,"district_lgd":142,"center":[80.80771004136625,25.87489323192475],"bbox":[80.2129874,25.43836,81.3383734,26.2312317]},"geometry":{"type":"Point","coordinates":[80.80771004136625,25.87489323192475]}},{"type":"Feature","id":"in-uttar-pradesh-d-143","properties":{"id":"in-uttar-pradesh-d-143","name":"Firozabad","region":"in-uttar-pradesh","level":"district","parent":"","source":"LGD via Bharatlas · 2024 snapshot","state_lgd":9,"district_lgd":143,"center":[78.52642822362066,27.187235424711634],"bbox":[78.193984,26.8780124,78.8214228,27.5107243]},"geometry":{"type":"Point","coordinates":[78.52642822362066,27.187235424711634]}},{"type":"Feature","id":"in-uttar-pradesh-d-144","properties":{"id":"in-uttar-pradesh-d-144","name":"Gautam Buddha Nagar","region":"in-uttar-pradesh","level":"district","parent":"","source":"LGD via Bharatlas · 2024 snapshot","state_lgd":9,"district_lgd":144,"center":[77.55597175251287,28.394058365945934],"bbox":[77.2970945,28.0851175,77.7379186,28.6544427]},"geometry":{"type":"Point","coordinates":[77.55597175251287,28.394058365945934]}},{"type":"Feature","id":"in-uttar-pradesh-d-145","properties":{"id":"in-uttar-pradesh-d-145","name":"Ghaziabad","region":"in-uttar-pradesh","level":"district","parent":"","source":"LGD via Bharatlas · 2024 snapshot","state_lgd":9,"district_lgd":145,"center":[77.47601332077944,28.767747772683553],"bbox":[77.1991295,28.6076951,77.7095278,28.9277798]},"geometry":{"type":"Point","coordinates":[77.47601332077944,28.767747772683553]}},{"type":"Feature","id":"in-uttar-pradesh-d-146","properties":{"id":"in-uttar-pradesh-d-146","name":"Ghazipur","region":"in-uttar-pradesh","level":"district","parent":"","source":"LGD via Bharatlas · 2024 snapshot","state_lgd":9,"district_lgd":146,"center":[83.5555429436981,25.62396195371125],"bbox":[83.0628074,25.306102,83.9625753,25.9000409]},"geometry":{"type":"Point","coordinates":[83.5555429436981,25.62396195371125]}},{"type":"Feature","id":"in-uttar-pradesh-d-147","properties":{"id":"in-uttar-pradesh-d-147","name":"Gonda","region":"in-uttar-pradesh","level":"district","parent":"","source":"LGD via Bharatlas · 2024 snapshot","state_lgd":9,"district_lgd":147,"center":[82.02529427229629,27.083388224072905],"bbox":[81.5148531,26.7811032,82.6139419,27.4396479]},"geometry":{"type":"Point","coordinates":[82.02529427229629,27.083388224072905]}},{"type":"Feature","id":"in-uttar-pradesh-d-148","properties":{"id":"in-uttar-pradesh-d-148","name":"Gorakhpur","region":"in-uttar-pradesh","level":"district","parent":"","source":"LGD via Bharatlas · 2024 snapshot","state_lgd":9,"district_lgd":148,"center":[83.3590323946811,26.6560693530937],"bbox":[83.067767,26.218752,83.671043,27.1162122]},"geometry":{"type":"Point","coordinates":[83.3590323946811,26.6560693530937]}},{"type":"Feature","id":"in-uttar-pradesh-d-149","properties":{"id":"in-uttar-pradesh-d-149","name":"Hamirpur","region":"in-uttar-pradesh","level":"district","parent":"","source":"LGD via Bharatlas · 2024 snapshot","state_lgd":9,"district_lgd":149,"center":[79.86534981709833,25.751017884457948],"bbox":[79.3552686,25.4766178,80.3515129,26.1626665]},"geometry":{"type":"Point","coordinates":[79.86534981709833,25.751017884457948]}},{"type":"Feature","id":"in-uttar-pradesh-d-661","properties":{"id":"in-uttar-pradesh-d-661","name":"Hapur","region":"in-uttar-pradesh","level":"district","parent":"","source":"LGD via Bharatlas · 2024 snapshot","state_lgd":9,"district_lgd":661,"center":[77.89312863814374,28.722382601675914],"bbox":[77.5443714,28.5495382,78.2121753,28.8838551]},"geometry":{"type":"Point","coordinates":[77.89312863814374,28.722382601675914]}},{"type":"Feature","id":"in-uttar-pradesh-d-150","properties":{"id":"in-uttar-pradesh-d-150","name":"Hardoi","region":"in-uttar-pradesh","level":"district","parent":"","source":"LGD via Bharatlas · 2024 snapshot","state_lgd":9,"district_lgd":150,"center":[80.16158079461535,27.330335702893578],"bbox":[79.6843428,26.8897329,80.826911,27.7844573]},"geometry":{"type":"Point","coordinates":[80.16158079461535,27.330335702893578]}},{"type":"Feature","id":"in-uttar-pradesh-d-163","properties":{"id":"in-uttar-pradesh-d-163","name":"Hathras","region":"in-uttar-pradesh","level":"district","parent":"","source":"LGD via Bharatlas · 2024 snapshot","state_lgd":9,"district_lgd":163,"center":[78.16443705846544,27.58171587048257],"bbox":[77.87384,27.2969515,78.5272823,27.8479366]},"geometry":{"type":"Point","coordinates":[78.16443705846544,27.58171587048257]}},{"type":"Feature","id":"in-uttar-pradesh-d-151","properties":{"id":"in-uttar-pradesh-d-151","name":"Jalaun","region":"in-uttar-pradesh","level":"district","parent":"","source":"LGD via Bharatlas · 2024 snapshot","state_lgd":9,"district_lgd":151,"center":[79.38579877223111,26.091193862514853],"bbox":[78.9304981,25.766405,79.9544047,26.4426083]},"geometry":{"type":"Point","coordinates":[79.38579877223111,26.091193862514853]}},{"type":"Feature","id":"in-uttar-pradesh-d-152","properties":{"id":"in-uttar-pradesh-d-152","name":"Jaunpur","region":"in-uttar-pradesh","level":"district","parent":"","source":"LGD via Bharatlas · 2024 snapshot","state_lgd":9,"district_lgd":152,"center":[82.57497587865143,25.746298885133765],"bbox":[82.1225216,25.392657,83.0901201,26.2012264]},"geometry":{"type":"Point","coordinates":[82.57497587865143,25.746298885133765]}},{"type":"Feature","id":"in-uttar-pradesh-d-153","properties":{"id":"in-uttar-pradesh-d-153","name":"Jhansi","region":"in-uttar-pradesh","level":"district","parent":"","source":"LGD via Bharatlas · 2024 snapshot","state_lgd":9,"district_lgd":153,"center":[78.95085761948538,25.508103314015713],"bbox":[78.3005327,25.1071945,79.4200072,25.9527567]},"geometry":{"type":"Point","coordinates":[78.95085761948538,25.508103314015713]}},{"type":"Feature","id":"in-uttar-pradesh-d-155","properties":{"id":"in-uttar-pradesh-d-155","name":"Kannauj","region":"in-uttar-pradesh","level":"district","parent":"","source":"LGD via Bharatlas · 2024 snapshot","state_lgd":9,"district_lgd":155,"center":[79.68868938948434,27.01360064810701],"bbox":[79.3163758,26.7689276,80.0216033,27.2286887]},"geometry":{"type":"Point","coordinates":[79.68868938948434,27.01360064810701]}},{"type":"Feature","id":"in-uttar-pradesh-d-156","properties":{"id":"in-uttar-pradesh-d-156","name":"Kanpur Dehat","region":"in-uttar-pradesh","level":"district","parent":"","source":"LGD via Bharatlas · 2024 snapshot","state_lgd":9,"district_lgd":156,"center":[79.85293365151198,26.439636926297915],"bbox":[79.5057887,26.0901017,80.189744,26.8276125]},"geometry":{"type":"Point","coordinates":[79.85293365151198,26.439636926297915]}},{"type":"Feature","id":"in-uttar-pradesh-d-157","properties":{"id":"in-uttar-pradesh-d-157","name":"Kanpur Nagar","region":"in-uttar-pradesh","level":"district","parent":"","source":"LGD via Bharatlas · 2024 snapshot","state_lgd":9,"district_lgd":157,"center":[80.20819938094661,26.39107962371984],"bbox":[79.8907731,25.9196862,80.5914346,26.9633769]},"geometry":{"type":"Point","coordinates":[80.20819938094661,26.39107962371984]}},{"type":"Feature","id":"in-uttar-pradesh-d-633","properties":{"id":"in-uttar-pradesh-d-633","name":"Kasganj","region":"in-uttar-pradesh","level":"district","parent":"","source":"LGD via Bharatlas · 2024 snapshot","state_lgd":9,"district_lgd":633,"center":[78.84606893293504,27.773327121778358],"bbox":[78.4709308,27.5493006,79.2148606,28.0279454]},"geometry":{"type":"Point","coordinates":[78.84606893293504,27.773327121778358]}},{"type":"Feature","id":"in-uttar-pradesh-d-158","properties":{"id":"in-uttar-pradesh-d-158","name":"Kaushambi","region":"in-uttar-pradesh","level":"district","parent":"","source":"LGD via Bharatlas · 2024 snapshot","state_lgd":9,"district_lgd":158,"center":[81.41500946368666,25.498457789818733],"bbox":[81.1466622,25.2583375,81.7133553,25.8107025]},"geometry":{"type":"Point","coordinates":[81.41500946368666,25.498457789818733]}},{"type":"Feature","id":"in-uttar-pradesh-d-159","properties":{"id":"in-uttar-pradesh-d-159","name":"Kheri","region":"in-uttar-pradesh","level":"district","parent":"","source":"LGD via Bharatlas · 2024 snapshot","state_lgd":9,"district_lgd":159,"center":[80.66692711999545,28.120957060226402],"bbox":[80.0301038,27.6755201,81.3054911,28.6917419]},"geometry":{"type":"Point","coordinates":[80.66692711999545,28.120957060226402]}},{"type":"Feature","id":"in-uttar-pradesh-d-160","properties":{"id":"in-uttar-pradesh-d-160","name":"Kushi Nagar","region":"in-uttar-pradesh","level":"district","parent":"","source":"LGD via Bharatlas · 2024 snapshot","state_lgd":9,"district_lgd":160,"center":[83.93384728602157,26.86275338598988],"bbox":[83.5244069,26.55109,84.4197087,27.2972451]},"geometry":{"type":"Point","coordinates":[83.93384728602157,26.86275338598988]}},{"type":"Feature","id":"in-uttar-pradesh-d-161","properties":{"id":"in-uttar-pradesh-d-161","name":"Lalitpur","region":"in-uttar-pradesh","level":"district","parent":"","source":"LGD via Bharatlas · 2024 snapshot","state_lgd":9,"district_lgd":161,"center":[78.56195779132428,24.653500662501013],"bbox":[78.1688734,24.1768735,78.9936477,25.2247443]},"geometry":{"type":"Point","coordinates":[78.56195779132428,24.653500662501013]}},{"type":"Feature","id":"in-uttar-pradesh-d-162","properties":{"id":"in-uttar-pradesh-d-162","name":"Lucknow","region":"in-uttar-pradesh","level":"district","parent":"","source":"LGD via Bharatlas · 2024 snapshot","state_lgd":9,"district_lgd":162,"center":[80.90549118652956,26.84197757214831],"bbox":[80.560386,26.5037728,81.2175668,27.1586342]},"geometry":{"type":"Point","coordinates":[80.90549118652956,26.84197757214831]}},{"type":"Feature","id":"in-uttar-pradesh-d-164","properties":{"id":"in-uttar-pradesh-d-164","name":"Maharajganj","region":"in-uttar-pradesh","level":"district","parent":"","source":"LGD via Bharatlas · 2024 snapshot","state_lgd":9,"district_lgd":164,"center":[83.53043695926831,27.200550509794585],"bbox":[83.1196154,26.8885475,83.9344348,27.4797552]},"geometry":{"type":"Point","coordinates":[83.53043695926831,27.200550509794585]}},{"type":"Feature","id":"in-uttar-pradesh-d-165","properties":{"id":"in-uttar-pradesh-d-165","name":"Mahoba","region":"in-uttar-pradesh","level":"district","parent":"","source":"LGD via Bharatlas · 2024 snapshot","state_lgd":9,"district_lgd":165,"center":[79.73425461075061,25.367328831618458],"bbox":[79.2735427,25.032084,80.2266939,25.643245]},"geometry":{"type":"Point","coordinates":[79.73425461075061,25.367328831618458]}},{"type":"Feature","id":"in-uttar-pradesh-d-166","properties":{"id":"in-uttar-pradesh-d-166","name":"Mainpuri","region":"in-uttar-pradesh","level":"district","parent":"","source":"LGD via Bharatlas · 2024 snapshot","state_lgd":9,"district_lgd":166,"center":[79.05210787821284,27.18244585237247],"bbox":[78.6883852,26.9451393,79.436863,27.4733853]},"geometry":{"type":"Point","coordinates":[79.05210787821284,27.18244585237247]}},{"type":"Feature","id":"in-uttar-pradesh-d-167","properties":{"id":"in-uttar-pradesh-d-167","name":"Mathura","region":"in-uttar-pradesh","level":"district","parent":"","source":"LGD via Bharatlas · 2024 snapshot","state_lgd":9,"district_lgd":167,"center":[77.62589341141982,27.597491607671117],"bbox":[77.2829037,27.23314,77.9895642,27.9676592]},"geometry":{"type":"Point","coordinates":[77.62589341141982,27.597491607671117]}},{"type":"Feature","id":"in-uttar-pradesh-d-168","properties":{"id":"in-uttar-pradesh-d-168","name":"Mau","region":"in-uttar-pradesh","level":"district","parent":"","source":"LGD via Bharatlas · 2024 snapshot","state_lgd":9,"district_lgd":168,"center":[83.56178625134675,26.047454327958995],"bbox":[83.2954938,25.7972433,83.8611974,26.2807716]},"geometry":{"type":"Point","coordinates":[83.56178625134675,26.047454327958995]}},{"type":"Feature","id":"in-uttar-pradesh-d-169","properties":{"id":"in-uttar-pradesh-d-169","name":"Meerut","region":"in-uttar-pradesh","level":"district","parent":"","source":"LGD via Bharatlas · 2024 snapshot","state_lgd":9,"district_lgd":169,"center":[77.78269756380462,29.03637275003966],"bbox":[77.422611,28.7366824,78.1238583,29.2664838]},"geometry":{"type":"Point","coordinates":[77.78269756380462,29.03637275003966]}},{"type":"Feature","id":"in-uttar-pradesh-d-170","properties":{"id":"in-uttar-pradesh-d-170","name":"Mirzapur","region":"in-uttar-pradesh","level":"district","parent":"","source":"LGD via Bharatlas · 2024 snapshot","state_lgd":9,"district_lgd":170,"center":[82.60736162552269,24.98664880904745],"bbox":[82.0801358,24.5911984,83.1816562,25.2722226]},"geometry":{"type":"Point","coordinates":[82.60736162552269,24.98664880904745]}},{"type":"Feature","id":"in-uttar-pradesh-d-171","properties":{"id":"in-uttar-pradesh-d-171","name":"Moradabad","region":"in-uttar-pradesh","level":"district","parent":"","source":"LGD via Bharatlas · 2024 snapshot","state_lgd":9,"district_lgd":171,"center":[78.80292380736269,28.88559393664332],"bbox":[78.6182166,28.4910934,79.0010796,29.268161]},"geometry":{"type":"Point","coordinates":[78.80292380736269,28.88559393664332]}},{"type":"Feature","id":"in-uttar-pradesh-d-172","properties":{"id":"in-uttar-pradesh-d-172","name":"Muzaffarnagar","region":"in-uttar-pradesh","level":"district","parent":"","source":"LGD via Bharatlas · 2024 snapshot","state_lgd":9,"district_lgd":172,"center":[77.72528292246223,29.415637723948848],"bbox":[77.2771193,29.1849414,78.1148394,29.7144842]},"geometry":{"type":"Point","coordinates":[77.72528292246223,29.415637723948848]}},{"type":"Feature","id":"in-uttar-pradesh-d-173","properties":{"id":"in-uttar-pradesh-d-173","name":"Pilibhit","region":"in-uttar-pradesh","level":"district","parent":"","source":"LGD via Bharatlas · 2024 snapshot","state_lgd":9,"district_lgd":173,"center":[79.99458210027774,28.53075350427214],"bbox":[79.6215782,28.1008438,80.4499708,28.8878062]},"geometry":{"type":"Point","coordinates":[79.99458210027774,28.53075350427214]}},{"type":"Feature","id":"in-uttar-pradesh-d-174","properties":{"id":"in-uttar-pradesh-d-174","name":"Pratapgarh","region":"in-uttar-pradesh","level":"district","parent":"","source":"LGD via Bharatlas · 2024 snapshot","state_lgd":9,"district_lgd":174,"center":[81.82906847649399,25.872736100946778],"bbox":[81.3249699,25.5723808,82.434385,26.1806903]},"geometry":{"type":"Point","coordinates":[81.82906847649399,25.872736100946778]}},{"type":"Feature","id":"in-uttar-pradesh-d-120","properties":{"id":"in-uttar-pradesh-d-120","name":"Prayagraj","region":"in-uttar-pradesh","level":"district","parent":"","source":"LGD via Bharatlas · 2024 snapshot","state_lgd":9,"district_lgd":120,"center":[81.96016094169308,25.30401121960172],"bbox":[81.5170177,24.804612,82.3527339,25.7538991]},"geometry":{"type":"Point","coordinates":[81.96016094169308,25.30401121960172]}},{"type":"Feature","id":"in-uttar-pradesh-d-175","properties":{"id":"in-uttar-pradesh-d-175","name":"Rae Bareli","region":"in-uttar-pradesh","level":"district","parent":"","source":"LGD via Bharatlas · 2024 snapshot","state_lgd":9,"district_lgd":175,"center":[81.1909421198681,26.203740353736332],"bbox":[80.6700578,25.8107026,81.6182962,26.606635]},"geometry":{"type":"Point","coordinates":[81.1909421198681,26.203740353736332]}},{"type":"Feature","id":"in-uttar-pradesh-d-176","properties":{"id":"in-uttar-pradesh-d-176","name":"Rampur","region":"in-uttar-pradesh","level":"district","parent":"","source":"LGD via Bharatlas · 2024 snapshot","state_lgd":9,"district_lgd":176,"center":[79.11509584954976,28.809845651104638],"bbox":[78.8585102,28.4174752,79.4278649,29.1693921]},"geometry":{"type":"Point","coordinates":[79.11509584954976,28.809845651104638]}},{"type":"Feature","id":"in-uttar-pradesh-d-177","properties":{"id":"in-uttar-pradesh-d-177","name":"Saharanpur","region":"in-uttar-pradesh","level":"district","parent":"","source":"LGD via Bharatlas · 2024 snapshot","state_lgd":9,"district_lgd":177,"center":[77.54677987153919,29.95103340754626],"bbox":[77.1197768,29.5646485,77.9616973,30.4062758]},"geometry":{"type":"Point","coordinates":[77.54677987153919,29.95103340754626]}},{"type":"Feature","id":"in-uttar-pradesh-d-659","properties":{"id":"in-uttar-pradesh-d-659","name":"Sambhal","region":"in-uttar-pradesh","level":"district","parent":"","source":"LGD via Bharatlas · 2024 snapshot","state_lgd":9,"district_lgd":659,"center":[78.5580780517875,28.451890804307933],"bbox":[78.2584856,28.0438785,78.9594321,28.8103756]},"geometry":{"type":"Point","coordinates":[78.5580780517875,28.451890804307933]}},{"type":"Feature","id":"in-uttar-pradesh-d-178","properties":{"id":"in-uttar-pradesh-d-178","name":"Sant Kabeer Nagar","region":"in-uttar-pradesh","level":"district","parent":"","source":"LGD via Bharatlas · 2024 snapshot","state_lgd":9,"district_lgd":178,"center":[83.0272245156634,26.77554755555661],"bbox":[82.8193737,26.4081513,83.2265925,27.101758]},"geometry":{"type":"Point","coordinates":[83.0272245156634,26.77554755555661]}},{"type":"Feature","id":"in-uttar-pradesh-d-180","properties":{"id":"in-uttar-pradesh-d-180","name":"Shahjahanpur","region":"in-uttar-pradesh","level":"district","parent":"","source":"LGD via Bharatlas · 2024 snapshot","state_lgd":9,"district_lgd":180,"center":[79.82207193642927,27.95075990071022],"bbox":[79.3228867,27.4448347,80.3586763,28.3812255]},"geometry":{"type":"Point","coordinates":[79.82207193642927,27.95075990071022]}},{"type":"Feature","id":"in-uttar-pradesh-d-660","properties":{"id":"in-uttar-pradesh-d-660","name":"Shamli","region":"in-uttar-pradesh","level":"district","parent":"","source":"LGD via Bharatlas · 2024 snapshot","state_lgd":9,"district_lgd":660,"center":[77.28235952058388,29.50032766749432],"bbox":[77.0839482,29.264929,77.5023339,29.6972805]},"geometry":{"type":"Point","coordinates":[77.28235952058388,29.50032766749432]}},{"type":"Feature","id":"in-uttar-pradesh-d-181","properties":{"id":"in-uttar-pradesh-d-181","name":"Shravasti","region":"in-uttar-pradesh","level":"district","parent":"","source":"LGD via Bharatlas · 2024 snapshot","state_lgd":9,"district_lgd":181,"center":[81.90344296520834,27.71846502500686],"bbox":[81.607861,27.4044147,82.2087695,27.9528343]},"geometry":{"type":"Point","coordinates":[81.90344296520834,27.71846502500686]}},{"type":"Feature","id":"in-uttar-pradesh-d-182","properties":{"id":"in-uttar-pradesh-d-182","name":"Siddharth Nagar","region":"in-uttar-pradesh","level":"district","parent":"","source":"LGD via Bharatlas · 2024 snapshot","state_lgd":9,"district_lgd":182,"center":[82.8732523975548,27.270195764313343],"bbox":[82.4384197,26.9998223,83.2925233,27.5026597]},"geometry":{"type":"Point","coordinates":[82.8732523975548,27.270195764313343]}},{"type":"Feature","id":"in-uttar-pradesh-d-183","properties":{"id":"in-uttar-pradesh-d-183","name":"Sitapur","region":"in-uttar-pradesh","level":"district","parent":"","source":"LGD via Bharatlas · 2024 snapshot","state_lgd":9,"district_lgd":183,"center":[80.85222200423267,27.517096195606307],"bbox":[80.2986269,27.0994277,81.4164239,27.9062969]},"geometry":{"type":"Point","coordinates":[80.85222200423267,27.517096195606307]}},{"type":"Feature","id":"in-uttar-pradesh-d-184","properties":{"id":"in-uttar-pradesh-d-184","name":"Sonbhadra","region":"in-uttar-pradesh","level":"district","parent":"","source":"LGD via Bharatlas · 2024 snapshot","state_lgd":9,"district_lgd":184,"center":[83.05190898449278,24.407994196744625],"bbox":[82.5233169,23.8701099,83.5479792,24.960294]},"geometry":{"type":"Point","coordinates":[83.05190898449278,24.407994196744625]}},{"type":"Feature","id":"in-uttar-pradesh-d-185","properties":{"id":"in-uttar-pradesh-d-185","name":"Sultanpur","region":"in-uttar-pradesh","level":"district","parent":"","source":"LGD via Bharatlas · 2024 snapshot","state_lgd":9,"district_lgd":185,"center":[82.19386612852001,26.26194901658033],"bbox":[81.7162015,25.9736739,82.6925725,26.5472276]},"geometry":{"type":"Point","coordinates":[82.19386612852001,26.26194901658033]}},{"type":"Feature","id":"in-uttar-pradesh-d-186","properties":{"id":"in-uttar-pradesh-d-186","name":"Unnao","region":"in-uttar-pradesh","level":"district","parent":"","source":"LGD via Bharatlas · 2024 snapshot","state_lgd":9,"district_lgd":186,"center":[80.56056034743399,26.609368702155095],"bbox":[80.0439888,26.1035502,81.0498801,27.0313608]},"geometry":{"type":"Point","coordinates":[80.56056034743399,26.609368702155095]}},{"type":"Feature","id":"in-uttar-pradesh-d-187","properties":{"id":"in-uttar-pradesh-d-187","name":"Varanasi","region":"in-uttar-pradesh","level":"district","parent":"","source":"LGD via Bharatlas · 2024 snapshot","state_lgd":9,"district_lgd":187,"center":[82.91395915672526,25.388275501707337],"bbox":[82.666605,25.164354,83.1881762,25.5802416]},"geometry":{"type":"Point","coordinates":[82.91395915672526,25.388275501707337]}}]}
