{"type":"FeatureCollection","features":[{"type":"Feature","id":"in-uttarakhand-d-45","properties":{"id":"in-uttarakhand-d-45","name":"Almora","region":"in-uttarakhand","level":"district","parent":"","source":"LGD via Bharatlas · 2024 snapshot","state_lgd":5,"district_lgd":45,"center":[79.5040388506585,29.690750191672198],"bbox":[79.0370968,29.4254811,80.0779149,29.9797052]},"geometry":{"type":"Point","coordinates":[79.5040388506585,29.690750191672198]}},{"type":"Feature","id":"in-uttarakhand-d-46","properties":{"id":"in-uttarakhand-d-46","name":"Bageshwar","region":"in-uttarakhand","level":"district","parent":"","source":"LGD via Bharatlas · 2024 snapshot","state_lgd":5,"district_lgd":46,"center":[79.85893955834035,29.996405079302253],"bbox":[79.470598,29.7008814,80.1586321,30.3167014]},"geometry":{"type":"Point","coordinates":[79.85893955834035,29.996405079302253]}},{"type":"Feature","id":"in-uttarakhand-d-47","properties":{"id":"in-uttarakhand-d-47","name":"Chamoli","region":"in-uttarakhand","level":"district","parent":"","source":"LGD via Bharatlas · 2024 snapshot","state_lgd":5,"district_lgd":47,"center":[79.57704679292983,30.495148385241198],"bbox":[79.0759905,29.9255743,80.1020386,31.0753981]},"geometry":{"type":"Point","coordinates":[79.57704679292983,30.495148385241198]}},{"type":"Feature","id":"in-uttarakhand-d-48","properties":{"id":"in-uttarakhand-d-48","name":"Champawat","region":"in-uttarakhand","level":"district","parent":"","source":"LGD via Bharatlas · 2024 snapshot","state_lgd":5,"district_lgd":48,"center":[80.06905378899559,29.28112205525807],"bbox":[79.7935217,28.9448671,80.3185156,29.5235505]},"geometry":{"type":"Point","coordinates":[80.06905378899559,29.28112205525807]}},{"type":"Feature","id":"in-uttarakhand-d-49","properties":{"id":"in-uttarakhand-d-49","name":"Dehradun","region":"in-uttarakhand","level":"district","parent":"","source":"LGD via Bharatlas · 2024 snapshot","state_lgd":5,"district_lgd":49,"center":[77.96754892447629,30.472166503822038],"bbox":[77.5723157,29.9621668,78.3104149,31.0330855]},"geometry":{"type":"Point","coordinates":[77.96754892447629,30.472166503822038]}},{"type":"Feature","id":"in-uttarakhand-d-50","properties":{"id":"in-uttarakhand-d-50","name":"Haridwar","region":"in-uttarakhand","level":"district","parent":"","source":"LGD via Bharatlas · 2024 snapshot","state_lgd":5,"district_lgd":50,"center":[77.99604462103727,29.881397634400038],"bbox":[77.7141329,29.5800651,78.3356586,30.2423693]},"geometry":{"type":"Point","coordinates":[77.99604462103727,29.881397634400038]}},{"type":"Feature","id":"in-uttarakhand-d-51","properties":{"id":"in-uttarakhand-d-51","name":"Nainital","region":"in-uttarakhand","level":"district","parent":"","source":"LGD via Bharatlas · 2024 snapshot","state_lgd":5,"district_lgd":51,"center":[79.46320011572288,29.31729265267157],"bbox":[78.8508894,28.9783945,79.9768109,29.6119888]},"geometry":{"type":"Point","coordinates":[79.46320011572288,29.31729265267157]}},{"type":"Feature","id":"in-uttarakhand-d-52","properties":{"id":"in-uttarakhand-d-52","name":"Pauri Garhwal","region":"in-uttarakhand","level":"district","parent":"","source":"LGD via Bharatlas · 2024 snapshot","state_lgd":5,"district_lgd":52,"center":[78.7637656871249,29.87996143644497],"bbox":[78.202092,29.4342593,79.2318712,30.2602465]},"geometry":{"type":"Point","coordinates":[78.7637656871249,29.87996143644497]}},{"type":"Feature","id":"in-uttarakhand-d-53","properties":{"id":"in-uttarakhand-d-53","name":"Pithoragarh","region":"in-uttarakhand","level":"district","parent":"","source":"LGD via Bharatlas · 2024 snapshot","state_lgd":5,"district_lgd":53,"center":[80.34556511678866,30.11399661364685],"bbox":[79.820948,29.4437867,81.0466055,30.8058846]},"geometry":{"type":"Point","coordinates":[80.34556511678866,30.11399661364685]}},{"type":"Feature","id":"in-uttarakhand-d-54","properties":{"id":"in-uttarakhand-d-54","name":"Rudra Prayag","region":"in-uttarakhand","level":"district","parent":"","source":"LGD via Bharatlas · 2024 snapshot","state_lgd":5,"district_lgd":54,"center":[79.05245515720203,30.506914782378768],"bbox":[78.8168525,30.1747148,79.3560231,30.8074506]},"geometry":{"type":"Point","coordinates":[79.05245515720203,30.506914782378768]}},{"type":"Feature","id":"in-uttarakhand-d-55","properties":{"id":"in-uttarakhand-d-55","name":"Tehri Garhwal","region":"in-uttarakhand","level":"district","parent":"","source":"LGD via Bharatlas · 2024 snapshot","state_lgd":5,"district_lgd":55,"center":[78.53552824150641,30.43654949981171],"bbox":[77.9361332,30.0524506,79.0353167,30.8786276]},"geometry":{"type":"Point","coordinates":[78.53552824150641,30.43654949981171]}},{"type":"Feature","id":"in-uttarakhand-d-56","properties":{"id":"in-uttarakhand-d-56","name":"Udam Singh Nagar","region":"in-uttarakhand","level":"district","parent":"","source":"LGD via Bharatlas · 2024 snapshot","state_lgd":5,"district_lgd":56,"center":[79.47084399225692,29.041947441464533],"bbox":[78.718588,28.722831,80.0771659,29.368364]},"geometry":{"type":"Point","coordinates":[79.47084399225692,29.041947441464533]}},{"type":"Feature","id":"in-uttarakhand-d-57","properties":{"id":"in-uttarakhand-d-57","name":"Uttar Kashi","region":"in-uttarakhand","level":"district","parent":"","source":"LGD via Bharatlas · 2024 snapshot","state_lgd":5,"district_lgd":57,"center":[78.60701875322576,30.97187035038109],"bbox":[77.8113573,30.468224,79.4105293,31.4620795]},"geometry":{"type":"Point","coordinates":[78.60701875322576,30.97187035038109]}}]}
