{"type":"FeatureCollection","features":[{"type":"Feature","id":"in-west-bengal-d-303","properties":{"id":"in-west-bengal-d-303","name":"24 Paraganas North","region":"in-west-bengal","level":"district","parent":"","source":"LGD via Bharatlas · 2024 snapshot","state_lgd":19,"district_lgd":303,"center":[88.73013269968878,22.72714328057635],"bbox":[88.3317992,22.1201545,89.098708,23.2560878]},"geometry":{"type":"Point","coordinates":[88.73013269968878,22.72714328057635]}},{"type":"Feature","id":"in-west-bengal-d-304","properties":{"id":"in-west-bengal-d-304","name":"24 Paraganas South","region":"in-west-bengal","level":"district","parent":"","source":"LGD via Bharatlas · 2024 snapshot","state_lgd":19,"district_lgd":304,"center":[88.52920249351538,22.13871986915067],"bbox":[88.0095529,21.5271529,89.1512309,22.625066]},"geometry":{"type":"Point","coordinates":[88.52920249351538,22.13871986915067]}},{"type":"Feature","id":"in-west-bengal-d-664","properties":{"id":"in-west-bengal-d-664","name":"Alipurduar","region":"in-west-bengal","level":"district","parent":"","source":"LGD via Bharatlas · 2024 snapshot","state_lgd":19,"district_lgd":664,"center":[89.4630370804089,26.63268201073916],"bbox":[89.0449223,26.3953344,89.8826022,26.8621783]},"geometry":{"type":"Point","coordinates":[89.4630370804089,26.63268201073916]}},{"type":"Feature","id":"in-west-bengal-d-305","properties":{"id":"in-west-bengal-d-305","name":"Bankura","region":"in-west-bengal","level":"district","parent":"","source":"LGD via Bharatlas · 2024 snapshot","state_lgd":19,"district_lgd":305,"center":[87.13627456652318,23.139197776801577],"bbox":[86.6089485,22.6264208,87.7642602,23.6381391]},"geometry":{"type":"Point","coordinates":[87.13627456652318,23.139197776801577]}},{"type":"Feature","id":"in-west-bengal-d-307","properties":{"id":"in-west-bengal-d-307","name":"Birbhum","region":"in-west-bengal","level":"district","parent":"","source":"LGD via Bharatlas · 2024 snapshot","state_lgd":19,"district_lgd":307,"center":[87.66330348848182,23.95437375452377],"bbox":[87.0867074,23.540302,88.0250714,24.5832537]},"geometry":{"type":"Point","coordinates":[87.66330348848182,23.95437375452377]}},{"type":"Feature","id":"in-west-bengal-d-308","properties":{"id":"in-west-bengal-d-308","name":"Coochbehar","region":"in-west-bengal","level":"district","parent":"","source":"LGD via Bharatlas · 2024 snapshot","state_lgd":19,"district_lgd":308,"center":[89.34702347975116,26.292534780580343],"bbox":[88.7480029,25.9652165,89.8643079,26.5464946]},"geometry":{"type":"Point","coordinates":[89.34702347975116,26.292534780580343]}},{"type":"Feature","id":"in-west-bengal-d-309","properties":{"id":"in-west-bengal-d-309","name":"Darjeeling","region":"in-west-bengal","level":"district","parent":"","source":"LGD via Bharatlas · 2024 snapshot","state_lgd":19,"district_lgd":309,"center":[88.26203918287315,26.850569039691898],"bbox":[87.9868305,26.4515096,88.5124697,27.2210674]},"geometry":{"type":"Point","coordinates":[88.26203918287315,26.850569039691898]}},{"type":"Feature","id":"in-west-bengal-d-310","properties":{"id":"in-west-bengal-d-310","name":"Dinajpur Dakshin","region":"in-west-bengal","level":"district","parent":"","source":"LGD via Bharatlas · 2024 snapshot","state_lgd":19,"district_lgd":310,"center":[88.57549456187488,25.367224457307827],"bbox":[88.1652641,25.1649089,89.0094419,25.6070207]},"geometry":{"type":"Point","coordinates":[88.57549456187488,25.367224457307827]}},{"type":"Feature","id":"in-west-bengal-d-311","properties":{"id":"in-west-bengal-d-311","name":"Dinajpur Uttar","region":"in-west-bengal","level":"district","parent":"","source":"LGD via Bharatlas · 2024 snapshot","state_lgd":19,"district_lgd":311,"center":[88.2418232206317,25.62112748],"bbox":[87.8073546,25.2447008,88.5248399,26.4994564]},"geometry":{"type":"Point","coordinates":[88.2418232206317,25.62112748]}},{"type":"Feature","id":"in-west-bengal-d-312","properties":{"id":"in-west-bengal-d-312","name":"Hooghly","region":"in-west-bengal","level":"district","parent":"","source":"LGD via Bharatlas · 2024 snapshot","state_lgd":19,"district_lgd":312,"center":[88.0761928854259,22.88492052793454],"bbox":[87.5042173,22.5951599,88.5076636,23.2247469]},"geometry":{"type":"Point","coordinates":[88.0761928854259,22.88492052793454]}},{"type":"Feature","id":"in-west-bengal-d-313","properties":{"id":"in-west-bengal-d-313","name":"Howrah","region":"in-west-bengal","level":"district","parent":"","source":"LGD via Bharatlas · 2024 snapshot","state_lgd":19,"district_lgd":313,"center":[88.06339701637607,22.521490960334344],"bbox":[87.8433489,22.2057705,88.3661102,22.7822449]},"geometry":{"type":"Point","coordinates":[88.06339701637607,22.521490960334344]}},{"type":"Feature","id":"in-west-bengal-d-314","properties":{"id":"in-west-bengal-d-314","name":"Jalpaiguri","region":"in-west-bengal","level":"district","parent":"","source":"LGD via Bharatlas · 2024 snapshot","state_lgd":19,"district_lgd":314,"center":[88.76384679082109,26.68262550452448],"bbox":[88.3898324,26.2589048,89.1262829,26.9939272]},"geometry":{"type":"Point","coordinates":[88.76384679082109,26.68262550452448]}},{"type":"Feature","id":"in-west-bengal-d-703","properties":{"id":"in-west-bengal-d-703","name":"Jhargram","region":"in-west-bengal","level":"district","parent":"","source":"LGD via Bharatlas · 2024 snapshot","state_lgd":19,"district_lgd":703,"center":[86.95534471461974,22.363241814761157],"bbox":[86.5580063,21.8658726,87.2583364,22.7987719]},"geometry":{"type":"Point","coordinates":[86.95534471461974,22.363241814761157]}},{"type":"Feature","id":"in-west-bengal-d-702","properties":{"id":"in-west-bengal-d-702","name":"Kalimpong","region":"in-west-bengal","level":"district","parent":"","source":"LGD via Bharatlas · 2024 snapshot","state_lgd":19,"district_lgd":702,"center":[88.63088998179707,27.03454489815401],"bbox":[88.3914812,26.8654995,88.8811719,27.1912635]},"geometry":{"type":"Point","coordinates":[88.63088998179707,27.03454489815401]}},{"type":"Feature","id":"in-west-bengal-d-315","properties":{"id":"in-west-bengal-d-315","name":"Kolkata","region":"in-west-bengal","level":"district","parent":"","source":"LGD via Bharatlas · 2024 snapshot","state_lgd":19,"district_lgd":315,"center":[88.35600888921412,22.52674247568365],"bbox":[88.233628,22.4520292,88.4610776,22.6188255]},"geometry":{"type":"Point","coordinates":[88.35600888921412,22.52674247568365]}},{"type":"Feature","id":"in-west-bengal-d-316","properties":{"id":"in-west-bengal-d-316","name":"Maldah","region":"in-west-bengal","level":"district","parent":"","source":"LGD via Bharatlas · 2024 snapshot","state_lgd":19,"district_lgd":316,"center":[88.08888447224183,25.137485668924946],"bbox":[87.7130736,24.6552453,88.4639657,25.539771]},"geometry":{"type":"Point","coordinates":[88.08888447224183,25.137485668924946]}},{"type":"Feature","id":"in-west-bengal-d-317","properties":{"id":"in-west-bengal-d-317","name":"Medinipur East","region":"in-west-bengal","level":"district","parent":"","source":"LGD via Bharatlas · 2024 snapshot","state_lgd":19,"district_lgd":317,"center":[87.77265606001598,22.031316560643667],"bbox":[87.4259889,21.6112612,88.1905392,22.5193933]},"geometry":{"type":"Point","coordinates":[87.77265606001598,22.031316560643667]}},{"type":"Feature","id":"in-west-bengal-d-318","properties":{"id":"in-west-bengal-d-318","name":"Medinipur West","region":"in-west-bengal","level":"district","parent":"","source":"LGD via Bharatlas · 2024 snapshot","state_lgd":19,"district_lgd":318,"center":[87.41730400748776,22.439192444513974],"bbox":[87.0535095,21.7649905,87.8906373,22.955195]},"geometry":{"type":"Point","coordinates":[87.41730400748776,22.439192444513974]}},{"type":"Feature","id":"in-west-bengal-d-319","properties":{"id":"in-west-bengal-d-319","name":"Murshidabad","region":"in-west-bengal","level":"district","parent":"","source":"LGD via Bharatlas · 2024 snapshot","state_lgd":19,"district_lgd":319,"center":[88.23064864225151,24.162778006258172],"bbox":[87.8163649,23.7223208,88.7464907,24.8577684]},"geometry":{"type":"Point","coordinates":[88.23064864225151,24.162778006258172]}},{"type":"Feature","id":"in-west-bengal-d-320","properties":{"id":"in-west-bengal-d-320","name":"Nadia","region":"in-west-bengal","level":"district","parent":"","source":"LGD via Bharatlas · 2024 snapshot","state_lgd":19,"district_lgd":320,"center":[88.51669551172058,23.479816012520658],"bbox":[88.1343355,22.8752507,88.8014393,24.0947083]},"geometry":{"type":"Point","coordinates":[88.51669551172058,23.479816012520658]}},{"type":"Feature","id":"in-west-bengal-d-704","properties":{"id":"in-west-bengal-d-704","name":"Paschim Bardhaman","region":"in-west-bengal","level":"district","parent":"","source":"LGD via Bharatlas · 2024 snapshot","state_lgd":19,"district_lgd":704,"center":[87.19915390308944,23.636451701431852],"bbox":[86.7991284,23.318129,87.5782451,23.8824316]},"geometry":{"type":"Point","coordinates":[87.19915390308944,23.636451701431852]}},{"type":"Feature","id":"in-west-bengal-d-306","properties":{"id":"in-west-bengal-d-306","name":"Purba Bardhaman","region":"in-west-bengal","level":"district","parent":"","source":"LGD via Bharatlas · 2024 snapshot","state_lgd":19,"district_lgd":306,"center":[87.9637118910714,23.35616594734133],"bbox":[87.4751673,22.9321718,88.4150227,23.8446652]},"geometry":{"type":"Point","coordinates":[87.9637118910714,23.35616594734133]}},{"type":"Feature","id":"in-west-bengal-d-321","properties":{"id":"in-west-bengal-d-321","name":"Purulia","region":"in-west-bengal","level":"district","parent":"","source":"LGD via Bharatlas · 2024 snapshot","state_lgd":19,"district_lgd":321,"center":[86.42154706106061,23.276707093768284],"bbox":[85.8196735,22.7050108,86.906333,23.6992033]},"geometry":{"type":"Point","coordinates":[86.42154706106061,23.276707093768284]}}]}
