{"type":"FeatureCollection","features":[{"type":"Feature","id":"PK401","properties":{"id":"PK401","name":"Islamabad","region":"islamabad","level":"district","parent":"","district":"Islamabad","source":"WFP / OCHA \u00b7 2022","center":[72.9579625764102,33.65087509150007],"bbox":[72.81388102200009,33.48971101600017,73.38939666800019,33.81193160999999]},"geometry":{"type":"Polygon","coordinates":[[[73.16414642300015,33.81037902800017],[73.15866851800018,33.81193160999999],[73.15260314900002,33.81095123299997],[73.14566803000008,33.8047103880001],[73.14112854000018,33.80482101400003],[73.13843818200013,33.80311509700016],[73.13481903100012,33.80055999800004],[73.1310501100001,33.798870087000125],[73.12768932200004,33.79561525100013],[73.12500000000011,33.79301071200018],[73.12326812700007,33.78966903700018],[73.12180328400012,33.787429810000106],[73.11791229200003,33.78636932400008],[73.1154708860002,33.786460876000035],[73.09474945100015,33.783939362000126],[73.09339141800012,33.786449432000154],[73.09290313700012,33.78874969500015],[73.09223175000011,33.79127883900014],[73.08367157000004,33.79291915900012],[73.08146667500012,33.793548584000064],[73.07569122300009,33.789329529000156],[73.07087707500006,33.786949158000084],[73.06848907500017,33.78490066500018],[73.06368255600012,33.784389496000074],[73.05857849100016,33.78203964200014],[73.05581665000017,33.784088135000104],[73.05013275100015,33.78438186600016],[73.04762268100012,33.784931183000026],[73.04522705100015,33.785148621000076],[73.04192352300004,33.78443908700018],[73.03576766600003,33.78105114300013],[73.0344085690001,33.78028106700003],[73.03035386800013,33.7800768460001],[73.02739715600006,33.779888153],[73.01553344700017,33.77468109100016],[73.01370239300019,33.7693099980001],[73.01139831500018,33.76697158800005],[73.01140350300005,33.76695675400009],[73.01291656500018,33.76263046300011],[73.01196166800014,33.75814038000016],[73.01195838800004,33.758140510000146],[73.00993347200017,33.75822067300015],[73.00724792500012,33.76029968300003],[73.00042724600002,33.75683975200019],[72.99154663100006,33.757461548000094],[72.99154239700005,33.75743125500003],[72.99056243900014,33.750419617000034],[72.99055640100016,33.75041568300003],[72.98018646200006,33.74365997300009],[72.97863006600005,33.74158096300005],[72.9729232790001,33.740200043000186],[72.97083282500017,33.74005889900002],[72.96711731000016,33.73960113500016],[72.96376037600004,33.73870086700009],[72.96086883500016,33.73514175400004],[72.95883941700009,33.73437118500016],[72.95671844500015,33.73323059100011],[72.95671835700011,33.73320583100019],[72.956710815,33.731079102000024],[72.95670124800006,33.73107787700019],[72.95391082800006,33.73072051999998],[72.95147705100004,33.73062896700014],[72.94484710700004,33.729518890000065],[72.934028625,33.730178833000025],[72.93043953100005,33.72987111300017],[72.92752075200008,33.730468750000114],[72.92530822800012,33.730571747000056],[72.92234802200016,33.73060989400011],[72.9164199830002,33.72937011700009],[72.91578674300007,33.72906494100005],[72.91488647500017,33.72877121],[72.91350555400004,33.728435516000104],[72.91249847400019,33.728309631000116],[72.91172790500013,33.72822570799997],[72.9104995730001,33.72821807900016],[72.90943145800009,33.72826004000018],[72.90790557900004,33.72826004000018],[72.90693664600008,33.72818756100014],[72.90573883100018,33.72826004000018],[72.90449523900014,33.728057861000025],[72.90267944300018,33.72776794400011],[72.90142822300004,33.727313995000145],[72.90030670200008,33.726993561000086],[72.89907836900011,33.72642898600003],[72.8978576660001,33.72536468500016],[72.8971633910001,33.72425079300018],[72.89674377400013,33.723297119000165],[72.89674225600004,33.72328573100009],[72.89665985100004,33.722667694],[72.89640045200014,33.72181511000019],[72.89639957900016,33.7218141080001],[72.89602661100002,33.72138595600018],[72.89517974900014,33.72111129800004],[72.89302825900012,33.72066497800006],[72.89090728800005,33.72024536100008],[72.88962554900013,33.7200431820001],[72.88716125500014,33.71938705399998],[72.88465118400006,33.71906662000015],[72.88268280000005,33.71900177000009],[72.88152313200004,33.71910095200013],[72.8794403080002,33.719264984],[72.87715911900017,33.71957397500012],[72.87536621100014,33.71969604500009],[72.87436676000016,33.719650269],[72.87268829300012,33.719326019],[72.8701782230001,33.71844863900009],[72.86762237500017,33.718044281000175],[72.86641693100006,33.71792221100003],[72.8648071290001,33.718204498000034],[72.86285400400004,33.71852874800004],[72.86000061000004,33.71930694600013],[72.8579711910001,33.71985626200012],[72.85697937000003,33.719947815000126],[72.85557556200001,33.719802856000115],[72.85301971400014,33.719345093000186],[72.85063934300007,33.71846008300014],[72.84884643600014,33.71730423000014],[72.84610748300008,33.715240479000045],[72.84426879900019,33.713279724000074],[72.84356689500004,33.7120018010001],[72.84285736100014,33.71064376800007],[72.84284904100014,33.710616437000056],[72.84225463899998,33.708663940000065],[72.84196472200006,33.70706176800019],[72.84178924600013,33.706291199000134],[72.84178582700008,33.70628873200019],[72.84121320400004,33.70587552500018],[72.83930969200014,33.705383301000154],[72.83776855500008,33.70510864300013],[72.83600616500007,33.70456314100011],[72.8341827390002,33.70404815700016],[72.83189392100019,33.703578949000075],[72.82833099400017,33.70293426500018],[72.82415008500004,33.702564240000015],[72.82084655800014,33.702198029000044],[72.81846618700013,33.70192718500016],[72.81626129200004,33.701675415000125],[72.814888,33.70153045700005],[72.81388102200009,33.70140276200004],[72.81390225400003,33.70137676799999],[72.81491088900009,33.700141907000045],[72.81643676800013,33.69819259600018],[72.81828308100006,33.69593048100012],[72.81973266600016,33.693874359000176],[72.82144928000008,33.69169616700009],[72.82270050000005,33.69017791700003],[72.82926940900012,33.68178939800009],[72.83213806200007,33.67818069500004],[72.83696746800013,33.67169570900012],[72.84225463899998,33.664909363000106],[72.850401342,33.65449587699999],[72.85362243700018,33.650333405000026],[72.86254119900019,33.63899231000005],[72.86540222200006,33.635353088000045],[72.87440490700004,33.6238670350001],[72.87667083700012,33.62097549400005],[72.88192713500018,33.61417872300018],[72.88280487100013,33.613044739000145],[72.88740539600019,33.6072006230001],[72.8961486820001,33.59600067100013],[72.89839856300017,33.59291292800003],[72.89881134000012,33.592342377000136],[72.90802002000004,33.58061981200018],[72.91071319600007,33.577041626000096],[72.91382598899997,33.573074341000165],[72.9142150880001,33.572631836000085],[72.9170913700001,33.574241638000046],[72.92030334499998,33.575969696000186],[72.92133879200014,33.57630005000016],[72.92407226600017,33.57797241200018],[72.92874908400006,33.58045959500015],[72.93331909200003,33.582874298000036],[72.93769073500016,33.585208893000186],[72.9419784550002,33.58744812000009],[72.94667053199998,33.589893341],[72.95245361300005,33.59296035800003],[72.95735931400014,33.59553527800011],[72.96406555200008,33.59899520900012],[72.97192382800012,33.603179932000046],[72.98286438000014,33.60885620100015],[72.98572540300012,33.610374451000155],[72.98609832400018,33.61057166900014],[72.98612213100012,33.61058425900012],[72.98327636700003,33.61407089200003],[72.98162841800018,33.61647033700007],[72.97969055200008,33.61894226100014],[72.977462769,33.62133026099997],[72.97573089600019,33.622737885000106],[72.97460174600019,33.62355423000008],[72.97354126,33.62405777000015],[72.97161865200007,33.62488555900018],[72.96936035200014,33.62573623700001],[72.967643738,33.62628555300017],[72.96664428700018,33.62675094600007],[72.96652851200008,33.627168193000045],[72.96652797700017,33.62717012000013],[72.96690368700013,33.628200531000175],[72.96730311100015,33.628977528000064],[72.96778106700009,33.62984848000019],[72.96878051800007,33.631464005],[72.96924591100014,33.63152313200004],[72.9704818730001,33.63080596900011],[72.97313690200014,33.628662109000174],[72.97423553500016,33.62765502900015],[72.9746322630001,33.62741851800007],[72.97516632100007,33.627326965],[72.97632598900009,33.62755584700011],[72.97972869900008,33.6292114260001],[72.98225402800006,33.63038253800016],[72.98406982400019,33.631309509],[72.9869155880001,33.633342743000014],[72.98796081500018,33.633972168000184],[72.98841095,33.63402175900006],[72.98881530800008,33.63386917100007],[72.98963928200004,33.632858276000036],[72.99067688000008,33.63159942600015],[72.993728638,33.62821579000013],[72.99692535399998,33.62441635100009],[73.00087738000013,33.619873047000056],[73.00177764900013,33.618789673000094],[73.00453185999999,33.62033081100009],[73.00902557400019,33.62273025500019],[73.01329040500019,33.62493515000011],[73.02178192100007,33.62931823700012],[73.02494049100011,33.63104629500009],[73.03118001400009,33.634153125000125],[73.03321075400004,33.63536834700011],[73.03526840700005,33.63647245500016],[73.03714752200017,33.637481689000026],[73.04533386200018,33.64175796500018],[73.05010986300005,33.64426422100007],[73.05361804500006,33.64613225200014],[73.05745697000015,33.64817810100004],[73.0624694820001,33.650741577000076],[73.07090664300017,33.655204426000125],[73.07137298600014,33.65545272800006],[73.07719421400003,33.65848159800004],[73.08477020300012,33.662387848000094],[73.08771514900002,33.66396713300014],[73.08820092600018,33.66418929500003],[73.08980560300017,33.662170410000044],[73.09114074700017,33.66067504900002],[73.091964722,33.65995407100007],[73.09322357200011,33.65822219800003],[73.09402465800014,33.65719604500015],[73.09899085400014,33.65066335600005],[73.10463714600013,33.643287659000066],[73.10751500300012,33.639488192000044],[73.10968780500014,33.636619568000185],[73.11128997800012,33.634445190000065],[73.11528778100006,33.62951660200008],[73.11672392500003,33.62771167100004],[73.11837768599997,33.62563324000013],[73.12300109900019,33.619426727000075],[73.12432098400006,33.617809296000075],[73.12547627600009,33.616291905000026],[73.12757873500004,33.61352920500008],[73.13107299800004,33.60899353000019],[73.13539886500013,33.60334777800006],[73.13990783700018,33.59740448000019],[73.14246368400018,33.594005585000104],[73.14733123800005,33.587734222000165],[73.14842224100016,33.586334229000045],[73.15210723900003,33.58145141600005],[73.15449905400015,33.57836914100005],[73.15447653400008,33.57835578900017],[73.15160369900013,33.576652527000135],[73.14627075200019,33.57381057700019],[73.14302825900006,33.57205200200008],[73.13777923599997,33.569149017000086],[73.1315987530001,33.56575186400016],[73.12773132300003,33.56371688800016],[73.12365722700008,33.56175231900005],[73.11837005600006,33.55887985200013],[73.11198425300006,33.555561066000166],[73.10486602800006,33.55184936500012],[73.09994506800007,33.54935073900015],[73.09740448000014,33.54797363300008],[73.09137725800008,33.54469680800008],[73.08987225300018,33.54394566400015],[73.08687591600017,33.542419434000124],[73.08690271700016,33.54240809900017],[73.08920288100006,33.54143524200009],[73.09275054900013,33.53969955400015],[73.09735521300007,33.537556004000066],[73.10093689000007,33.53588867200017],[73.10441589400011,33.53430938700012],[73.10646057100013,33.53342056300016],[73.11489105200019,33.52952194200009],[73.12170410200008,33.52634811400003],[73.12380218500005,33.525318146000075],[73.13043212900004,33.52215576200007],[73.13651275600017,33.51942443799999],[73.14024353000013,33.51760864300013],[73.14773559600008,33.51415252700019],[73.15322876000005,33.511596680000025],[73.16028595000006,33.508178711000085],[73.16673278800005,33.50511932400019],[73.16955566399997,33.50382232700008],[73.17523193400018,33.501056671000185],[73.18146514900013,33.49812316900011],[73.1845016480001,33.49676513700001],[73.19131469700011,33.49362945600018],[73.19674682600004,33.49108886700003],[73.19972885400006,33.48971101600017],[73.20172119100016,33.491863251000154],[73.20419311500001,33.494544983000026],[73.20784759500009,33.49832153300002],[73.21018219000007,33.5007667540001],[73.21562194800003,33.506450653000115],[73.21791839600013,33.50882720900012],[73.22423689700003,33.515440737000176],[73.23085784900002,33.52231979400011],[73.2319030760001,33.52339553800016],[73.23635101300016,33.52810287500017],[73.23992919900007,33.531753540000125],[73.24218106400019,33.534069561000024],[73.24528503400012,33.537261963],[73.2467727660001,33.53886795000011],[73.25102233900009,33.5432357790001],[73.25851440400015,33.5500831600001],[73.25951385500014,33.55105590800008],[73.26616668700012,33.557167053000114],[73.26860809300013,33.55966186500012],[73.27351379400005,33.564674377000074],[73.27487945600006,33.56626892100019],[73.27585601800007,33.56727600100004],[73.27883148200004,33.57060241700009],[73.2799987790001,33.571651459000066],[73.280529452,33.57187777400003],[73.28204345700016,33.5735588070001],[73.28364563000008,33.57500457800012],[73.2866134640002,33.57844924900007],[73.28845977800017,33.58026123000019],[73.29027557400013,33.58178329500009],[73.29282379200009,33.58481597900004],[73.29341888400018,33.58547973600014],[73.29421234100016,33.586048126000094],[73.29508209200009,33.58685302700019],[73.29595184300001,33.58774185200008],[73.29656982400007,33.5887489320001],[73.29742782900013,33.58965576500009],[73.29872816300008,33.591254696000135],[73.29875183100006,33.59128379800006],[73.29660797100013,33.59140777600015],[73.29496765100015,33.59147262600004],[73.29330444300018,33.5918331150001],[73.29294586200007,33.59239959700005],[73.29288482700008,33.59308624300007],[73.2928619380001,33.594394684000065],[73.29306793200004,33.59553527800011],[73.29306793200004,33.59625625600006],[73.29309082000003,33.597679138],[73.29339599600002,33.59899902300009],[73.29370211600013,33.60013017500006],[73.2937088010001,33.600154877000136],[73.29418945300006,33.600994110000045],[73.29471588100006,33.60184860200019],[73.29546356200007,33.60376739500009],[73.29595947300015,33.60484695400015],[73.29664611800018,33.606052399000134],[73.29756164600008,33.6069946290001],[73.29886627200005,33.60783386200018],[73.30014801000004,33.60870742800017],[73.30142211900005,33.60944366500007],[73.30226898200004,33.61002349900008],[73.30260557600013,33.61056722600006],[73.30261612000015,33.61058425900012],[73.30253601099997,33.611763],[73.30211639400017,33.612655640000185],[73.30179595900006,33.613494873000036],[73.30163574200003,33.61459732100013],[73.30166626000005,33.61617660500008],[73.30192565900012,33.61707305900018],[73.30195999200004,33.61773109500007],[73.30121612500005,33.61974716200018],[73.30099487300004,33.62081909200009],[73.30094909700017,33.622520447000056],[73.30077362100019,33.624481201000094],[73.30056762700019,33.62539672899999],[73.3003921510001,33.626007080000136],[73.30028533900014,33.62697219800009],[73.30006408700012,33.629127502000074],[73.30009455500016,33.6309442160001],[73.30009460400004,33.63094711300005],[73.30075073200015,33.63278961200018],[73.30125894600013,33.63408290299998],[73.30126190200019,33.63409042400019],[73.30159759600008,33.63521003699998],[73.30164753500003,33.63579033900004],[73.301448822,33.63659858700015],[73.3011245730001,33.63727188100006],[73.30022430400015,33.638046265000185],[73.29965210000006,33.638515472],[73.299072266,33.63909149200009],[73.29873657200011,33.63965225200013],[73.29827880900018,33.64035797100013],[73.29799652100007,33.64113998400012],[73.29797363300014,33.642223358000024],[73.298202614,33.642947234000076],[73.29821014400011,33.642971038999974],[73.2985000610002,33.64379882800017],[73.29904174800015,33.644893646000185],[73.29944610600006,33.64558029200015],[73.300140381,33.64651107800006],[73.3011779790001,33.647312164000084],[73.30243682900016,33.64787674000007],[73.30340576200012,33.64841461200018],[73.30412704500003,33.64901880400009],[73.30414009100019,33.64902973200009],[73.30404663100012,33.64955520600006],[73.30355835000012,33.65031433100006],[73.30300140400004,33.65100860600006],[73.3024826050002,33.65190506000016],[73.30212402300003,33.652759552000134],[73.30178070100004,33.65363311800013],[73.3016796920001,33.654471118000174],[73.3016777040001,33.6544876100001],[73.30213165300012,33.65501022300009],[73.30294036900005,33.655181885000104],[73.30569458000014,33.65552902200017],[73.3068695070001,33.65589523300014],[73.3077392580002,33.65636444100005],[73.30841064500004,33.65728759800015],[73.30905151400003,33.65803527800006],[73.309440613,33.6584320070001],[73.31034088100006,33.65908050500008],[73.31140136700009,33.659549713],[73.31268310500008,33.660064697000166],[73.31360626200018,33.66043853800011],[73.31458282500006,33.66094589200014],[73.31585693400001,33.661651611000025],[73.316986084,33.662322998000036],[73.31824493400006,33.66283416699997],[73.31893508800016,33.663334669],[73.31895637500008,33.66335010600011],[73.31861114500009,33.66378021200018],[73.31805801400009,33.664205552000055],[73.3181399790002,33.6645957770001],[73.31814575200008,33.664623260000155],[73.31876373300014,33.66500854500015],[73.32019043000014,33.66548156700003],[73.32189941400014,33.66590881299999],[73.32315826400003,33.666320801000154],[73.32375335700016,33.66658783000014],[73.32424926800002,33.666652679000094],[73.32489013700007,33.666439056000115],[73.32534790000017,33.66616058300008],[73.32579803500005,33.66612625100004],[73.32621765100009,33.666263580000134],[73.32701873800005,33.66660690300006],[73.32769394000013,33.66674232500003],[73.32845306400003,33.666564941000104],[73.32888793900008,33.66622161900011],[73.32932281500018,33.66568756100003],[73.32986450200013,33.66539001500007],[73.33065033000014,33.66518783600014],[73.33210754400011,33.664764404000096],[73.33275604200009,33.664600372],[73.33587646500007,33.663959503],[73.33834838900015,33.66366958600008],[73.34101104700005,33.663539886000024],[73.34278869600013,33.6637268070001],[73.34378814700011,33.66402816800013],[73.34490966800013,33.66411590600006],[73.34658813500016,33.664443970000036],[73.34729003900014,33.66447830200002],[73.3478317260001,33.66433334400011],[73.3481674190001,33.66402816800013],[73.34834289600013,33.663539886000024],[73.34897774300015,33.66231480900018],[73.3493118290001,33.661937714000146],[73.34992981000016,33.66158676099997],[73.35069274900013,33.661331177000136],[73.35149383500016,33.66131210300017],[73.3523559570001,33.66155242900015],[73.35353851300005,33.66212081900011],[73.35454559300007,33.66249084499998],[73.3558731080002,33.66339874300019],[73.35694122300004,33.664367676000154],[73.35766601600005,33.665519714000084],[73.35809929200019,33.66671122300016],[73.35810852100019,33.66673660300012],[73.35822296100002,33.66791534400005],[73.35816955600018,33.669391632000156],[73.35797882100007,33.67039871200018],[73.35800120400006,33.67124554900016],[73.358001709,33.671264649000136],[73.35868072500006,33.67206573500016],[73.36031341600005,33.673629761000086],[73.36194610600018,33.675140381000176],[73.36441803000008,33.67730331399997],[73.36635589600019,33.678714752000076],[73.36780548100012,33.67956543000014],[73.36911773700018,33.68017959600013],[73.37023925800014,33.6807136540001],[73.3714141850001,33.68150711100009],[73.3724899290001,33.68228530900018],[73.37563324000001,33.684482574000185],[73.3780899050002,33.68638992300015],[73.37953186000004,33.68749618500004],[73.38067627000004,33.688686371000074],[73.38324737500005,33.69102859500009],[73.38366699200003,33.69140625000017],[73.38501739500015,33.69445037800017],[73.38624572800006,33.69762039200009],[73.38808441200013,33.69972229000007],[73.3892518470002,33.70212538800013],[73.38925933799999,33.70214080799997],[73.38933709400004,33.702658185000075],[73.38939666800019,33.70362854000018],[73.38724517800017,33.70431900000011],[73.38574218700006,33.704006195000034],[73.38448333700018,33.70411682100013],[73.38391113300008,33.70420837400019],[73.38184356700009,33.704311371000074],[73.37949371300016,33.70449829100011],[73.37748718300003,33.70468521100008],[73.37664032000004,33.70466613800005],[73.37595367400007,33.70452499400011],[73.37513732900015,33.704181671000185],[73.3731842040001,33.70319366500013],[73.37203216600017,33.70244979900008],[73.37126541100002,33.7020549770001],[73.37056732200011,33.70254135099998],[73.37001800500002,33.70312118500004],[73.36919403100006,33.70446014400005],[73.3685989380001,33.70518875100004],[73.3679275510001,33.705684662000124],[73.36712646500007,33.70597076400014],[73.36569976800007,33.70625305200008],[73.36418151900011,33.70631790200008],[73.36273956300016,33.706222534],[73.36178588900015,33.70612335200019],[73.36094665500013,33.70610809300007],[73.35957336400014,33.70615005500014],[73.35815429700006,33.70626068100006],[73.3562698360002,33.706546783000135],[73.35284423800005,33.70710372900004],[73.35070037800017,33.707599640000126],[73.34855651900011,33.708278656000175],[73.3472442630001,33.709033966000106],[73.34551239000007,33.71050643900003],[73.34297180200019,33.71299743700007],[73.34235382100013,33.713722229000155],[73.34210968000008,33.7141456600001],[73.34188079800015,33.71516799900007],[73.3413391110002,33.71704483000019],[73.34055155300018,33.720085862000076],[73.34043121299999,33.720550537000065],[73.33908539800012,33.72436718400013],[73.33847808800016,33.726089478000176],[73.33779144300007,33.72731780999999],[73.3373718260001,33.72781753500004],[73.33691406200006,33.72807693500005],[73.33540344200014,33.72863769500009],[73.33499145500008,33.7288475040001],[73.32852935800014,33.731906891],[73.32607269300019,33.73300170900018],[73.32437896700003,33.733673096000075],[73.32269287100013,33.73437881500007],[73.32015228300008,33.735530853],[73.31883239700011,33.73618698100012],[73.31738281200018,33.736618041999975],[73.31341552700007,33.738067627000135],[73.30921173100006,33.73994445800008],[73.30628203800006,33.74150149400009],[73.30547332800012,33.742141724000135],[73.3048400880001,33.74279785200008],[73.3043136600001,33.74362564100011],[73.30397796600005,33.74422454799998],[73.30355835000012,33.744808197000054],[73.30241394000012,33.74559402500006],[73.30110931399997,33.746486664000145],[73.30058288600014,33.74695587200006],[73.3002777100001,33.747398376000035],[73.30026245099998,33.74818801900011],[73.30033111600011,33.748958588],[73.30023193400007,33.749423981000064],[73.29952240000011,33.75035858200005],[73.29899597200011,33.750862122000115],[73.29747772200005,33.751628876000154],[73.29594421400003,33.752449036000144],[73.294303894,33.75349426300005],[73.2925109860002,33.7549057010001],[73.29107666000016,33.756408691000104],[73.28990173300019,33.757415771000126],[73.28562927200011,33.76079940800008],[73.28231048600014,33.763458252000135],[73.28050231900016,33.76487350500008],[73.27743530300006,33.76748657200005],[73.27605098000004,33.76836021500009],[73.27493286100014,33.769065857000044],[73.2742843630001,33.76950454700011],[73.27364349400011,33.77026748700018],[73.27190399200009,33.77179718000019],[73.26992034900019,33.77332305900006],[73.26862335200008,33.7745399480001],[73.26804351800007,33.77523040800003],[73.26718902600004,33.775764465000066],[73.26590728800005,33.77629852300004],[73.26450347900015,33.77692413300008],[73.26360321000004,33.77737045300006],[73.26240539600019,33.77798843400012],[73.26137542700019,33.77871704100011],[73.26067352299998,33.77901840200008],[73.25970459000001,33.7792663570001],[73.25846862800006,33.77931594800003],[73.25666046100014,33.77896118200016],[73.25530242900004,33.77858734100005],[73.25467681900017,33.77844238300014],[73.25418090800008,33.77844238300014],[73.25362396200018,33.77882766700003],[73.2524642940001,33.77991104100016],[73.25169372600016,33.78083801300011],[73.25088501000005,33.78143692000003],[73.25025939900002,33.781719208000084],[73.24947357200011,33.7819404600001],[73.24830627400019,33.782054901000095],[73.24724578900009,33.782203674000016],[73.2463989260001,33.78254699700011],[73.24539184600008,33.78325653100018],[73.24485015900012,33.783775330000026],[73.24428558300013,33.78466033899997],[73.24388885500014,33.784950256000116],[73.24291229200009,33.785434723000094],[73.24174499500003,33.78589630100009],[73.24071502700008,33.786247253],[73.23887634300019,33.78649139400005],[73.23776245100004,33.78666687000003],[73.23705291700014,33.78684997600004],[73.23619079600013,33.787281036000024],[73.23514556900005,33.78768158000014],[73.23459625200019,33.78780746500013],[73.23374175999999,33.787944794000055],[73.2332687380001,33.78789520300012],[73.23278808600014,33.787811279000096],[73.23205566400014,33.78791046100014],[73.23117828400018,33.78806686400003],[73.23030853300008,33.788341522],[73.22942352300004,33.7887382510001],[73.22859954800015,33.789066315000014],[73.22799682600004,33.789329529000156],[73.22732025500011,33.78948159300012],[73.22510528600003,33.7900505070001],[73.22348785400015,33.79042816200018],[73.22204589800003,33.79080963100006],[73.22092106200006,33.7912593210001],[73.22034343100012,33.79120711500008],[73.21940612800012,33.791435242000034],[73.21733856200012,33.791912079000156],[73.21585845900012,33.792350769],[73.2136535640002,33.79282379200015],[73.21100616500013,33.79329299900019],[73.21012878400006,33.79344558700018],[73.20832824700005,33.7940330510001],[73.20600128200016,33.79460907000009],[73.20311737100019,33.79527664200009],[73.19928741500019,33.796211243000016],[73.19611358600008,33.79693985],[73.19498443600008,33.79724121099997],[73.19403076200001,33.79747009300013],[73.19360351600005,33.7975387570001],[73.19311523400012,33.79771041900011],[73.19272613500016,33.79801940900006],[73.19212341300005,33.79828643800005],[73.19063568100006,33.799289703],[73.18965148900014,33.80004882800006],[73.18872070300006,33.80063629200015],[73.18818664600019,33.801002502000074],[73.18756866500013,33.80140304600019],[73.18629455600012,33.80208206200007],[73.18445587200006,33.80303192100001],[73.18269348100017,33.80379104600007],[73.1817932130001,33.804271698000036],[73.18090820300006,33.80461883500004],[73.1799926760001,33.80484390300006],[73.17926025400004,33.805027008000025],[73.17781066900011,33.805187225],[73.176254272,33.80532074000013],[73.1747360230001,33.805328369000165],[73.1726379390002,33.805240631000174],[73.17058563200015,33.804931641],[73.16847229000007,33.804508209000176],[73.16414642300015,33.81037902800017]]]}}]}