{"type":"FeatureCollection","features":[{"type":"Feature","properties":{"name":"Gilgit-Baltistan","note":"Admin. by Pakistan; Claimed by India","source":"Natural Earth · disputed areas · public domain"},"geometry":{"type":"Point","coordinates":[74.854045,35.9976]}},{"type":"Feature","properties":{"name":"Azad Jammu & Kashmir (PoK)","note":"Admin. by Pakistan; Claimed by India","source":"Natural Earth · disputed areas · public domain"},"geometry":{"type":"Point","coordinates":[73.792156,33.848664]}},{"type":"Feature","properties":{"name":"Aksai Chin","note":"Admin. by China; Claimed by India","source":"Natural Earth · disputed areas · public domain"},"geometry":{"type":"Point","coordinates":[79.172747,35.061522]}},{"type":"Feature","properties":{"name":"Shaksgam Valley","note":"Admin. by China; Ceded to China by Pakistan; Claimed by India","source":"Natural Earth · disputed areas · public domain"},"geometry":{"type":"Point","coordinates":[76.294273,36.068574]}},{"type":"Feature","properties":{"name":"Jammu & Kashmir","note":"Administered by India","source":"LGD via Bharatlas · 2024 snapshot"},"geometry":{"type":"Point","coordinates":[74.85928561536167,33.67561746504792]}},{"type":"Feature","properties":{"name":"Ladakh","note":"Administered by India","source":"LGD via Bharatlas · 2024 snapshot"},"geometry":{"type":"Point","coordinates":[78.25019525743059,33.35451901266983]}}]}
