{"type":"FeatureCollection","features":[{"type":"Feature","id":"ne-landform-1159103035","bbox":[100.043224,-5.29693,104.818858,0.430854],"properties":{"id":"ne-landform-1159103035","name":"Barisan Mountains","kind":"mountain","sourceClass":"Range/mtn"},"geometry":{"type":"Polygon","coordinates":[[[104.744884,-5.281427],[104.657115,-5.29693],[104.540294,-5.290704],[104.426158,-5.276422],[104.318492,-5.252862],[104.212901,-5.21856],[103.859508,-5.060846],[103.792003,-5.018487],[103.741222,-4.968072],[103.695811,-4.913995],[103.218272,-4.45379],[103.181041,-4.427057],[103.137218,-4.403009],[103.055919,-4.368829],[103.016612,-4.349054],[102.980601,-4.323053],[102.955943,-4.294732],[102.918468,-4.233209],[102.896251,-4.205377],[102.874522,-4.188409],[102.661021,-4.056817],[102.619273,-4.023736],[102.559825,-3.956231],[102.516246,-3.880792],[102.44337,-3.719781],[102.376842,-3.618829],[102.29359,-3.530572],[102.201671,-3.447198],[101.817271,-3.059137],[101.334972,-2.412408],[100.596934,-1.259576],[100.506847,-1.093683],[100.160289,-0.321466],[100.077037,-0.103997],[100.043224,0.136298],[100.043224,0.217231],[100.052013,0.306586],[100.083018,0.384406],[100.150157,0.430854],[100.236583,0.424262],[100.324474,0.375556],[100.404552,0.308112],[100.467174,0.245307],[100.577647,0.119452],[100.641246,0.035895],[100.909312,-0.395562],[100.938731,-0.451959],[101.0265,-0.654351],[101.066539,-0.716974],[101.599986,-1.406305],[101.747447,-1.654351],[101.966563,-2.08526],[102.038951,-2.190362],[102.684825,-2.919],[103.278453,-3.477472],[103.475597,-3.6242],[103.535655,-3.683038],[103.582774,-3.735406],[103.626109,-3.773492],[103.674937,-3.805108],[103.738658,-3.838067],[103.825816,-3.903375],[103.898814,-3.993707],[103.966075,-4.09234],[104.036143,-4.182794],[104.516978,-4.597589],[104.729625,-4.839166],[104.818858,-5.118341],[104.800182,-5.227594],[104.744884,-5.281427]]]}},{"type":"Feature","id":"ne-landform-1159103053","bbox":[66.305308,28.494208,67.608165,30.413825],"properties":{"id":"ne-landform-1159103053","name":"Central Brahui Range","kind":"mountain","sourceClass":"Range/mtn"},"geometry":{"type":"Polygon","coordinates":[[[66.895274,28.555426],[66.543712,28.494208],[66.454551,28.504732],[66.449596,28.505316],[66.367686,28.562262],[66.305308,28.731208],[66.31483,28.946845],[66.362926,29.164496],[66.41627,29.339301],[66.44684,29.41905],[66.491466,29.535468],[66.583385,29.724005],[66.794322,30.087287],[66.932506,30.288825],[67.077769,30.413092],[67.236095,30.413825],[67.435069,30.224311],[67.487559,30.198493],[67.508556,30.181952],[67.588512,30.008124],[67.608165,29.795111],[67.587657,29.578803],[67.492571,29.184725],[67.465953,29.074408],[67.412852,28.913031],[67.339,28.775946],[67.288541,28.730569],[67.217784,28.666938],[67.063121,28.597602],[66.895274,28.555426]]]}},{"type":"Feature","id":"ne-landform-1730071631","bbox":[72.098888,24.599982,74.524791,27.110419],"properties":{"id":"ne-landform-1730071631","name":"Aravalli Range","kind":"mountain","sourceClass":"Range/mtn"},"geometry":{"type":"Polygon","coordinates":[[[72.656505,24.627204],[72.456432,24.599982],[72.353038,24.604682],[72.308116,24.618354],[72.270763,24.64234],[72.222667,24.700873],[72.13026,24.871955],[72.105968,24.944403],[72.098888,25.002021],[72.109508,25.114997],[72.148082,25.222113],[72.207286,25.31977],[72.502818,25.622382],[72.550059,25.694831],[72.569713,25.745612],[72.602061,26.011176],[72.611095,26.038188],[72.61439,26.048041],[72.631602,26.082038],[72.65504,26.113105],[72.685557,26.141364],[72.717179,26.159103],[73.066905,26.355292],[73.569347,26.822272],[74.054698,27.100409],[74.094859,27.110053],[74.135753,27.110419],[74.177013,27.099555],[74.461436,26.943122],[74.496593,26.912787],[74.516978,26.880194],[74.524791,26.845771],[74.522227,26.81037],[74.511485,26.77442],[74.437266,26.636664],[74.436534,26.603583],[74.465709,26.507209],[74.470103,26.477545],[74.463756,26.449713],[74.125621,26.045661],[74.049205,25.920417],[73.398204,25.251105],[73.045177,25.030097],[72.896007,24.827643],[72.88441,24.804145],[72.870128,24.721381],[72.86671,24.712897],[72.850108,24.6883],[72.841441,24.679816],[72.832042,24.673407],[72.821544,24.66883],[72.656505,24.627204]]]}},{"type":"Feature","id":"ne-landform-1159103059","bbox":[68.925059,29.077094,70.640514,33.730658],"properties":{"id":"ne-landform-1159103059","name":"Sulaiman Mountains","kind":"mountain","sourceClass":"Range/mtn"},"geometry":{"type":"Polygon","coordinates":[[[70.436778,33.40235],[70.507945,33.302802],[70.562633,33.195624],[70.580455,33.136298],[70.587901,33.009223],[70.504161,32.460028],[70.369884,32.115241],[70.34901,31.940924],[70.388194,31.697699],[70.618663,30.998236],[70.640514,30.188666],[70.628429,30.152411],[70.606944,30.125495],[70.515758,30.05329],[70.486461,30.016425],[70.285167,29.486151],[70.232555,29.390998],[70.223033,29.351508],[70.209727,29.201361],[70.194957,29.170478],[70.16859,29.144171],[70.087901,29.097113],[70.018077,29.077094],[69.957164,29.080268],[69.902843,29.10279],[69.853038,29.140815],[69.511363,29.579169],[69.455211,29.700507],[69.430553,29.796576],[69.383433,31.266852],[69.358165,31.356269],[69.305186,32.293647],[69.286021,32.348822],[69.253917,32.395392],[69.09193,32.553473],[69.066783,32.60047],[69.048595,32.795172],[69.031139,32.859015],[68.946056,33.034186],[68.931773,33.08747],[68.925059,33.150519],[68.932017,33.214789],[68.952281,33.278327],[68.964366,33.303473],[68.976207,33.320868],[68.986583,33.327948],[68.994273,33.32215],[69.047252,33.384223],[69.368175,33.639228],[69.466685,33.6883],[69.695445,33.730658],[69.922008,33.718817],[70.037486,33.686164],[70.254893,33.571051],[70.436778,33.40235]]]}},{"type":"Feature","id":"ne-landform-1159103063","bbox":[62.439464,26.104926,66.067149,28.270453],"properties":{"id":"ne-landform-1159103063","name":"Central Makran Range","kind":"mountain","sourceClass":"Range/mtn"},"geometry":{"type":"Polygon","coordinates":[[[64.358287,26.110358],[64.058971,26.104926],[63.875499,26.141852],[63.334972,26.309882],[63.101695,26.366584],[62.988536,26.402594],[62.879161,26.45362],[62.772472,26.519049],[62.659923,26.59986],[62.557872,26.690619],[62.482677,26.785895],[62.439464,27.026252],[62.595592,27.162665],[62.845714,27.224799],[63.743541,27.27851],[64.071056,27.334052],[64.383433,27.433417],[64.690196,27.581305],[64.977306,27.754157],[65.523692,28.150519],[65.647838,28.225714],[65.782237,28.266974],[65.923228,28.270453],[66.067149,28.232245],[66.055797,27.880072],[65.968639,27.560065],[65.821422,27.259528],[65.629649,26.965644],[65.509532,26.826789],[65.375255,26.715399],[64.846446,26.336127],[64.614146,26.195868],[64.358287,26.110358]]]}},{"type":"Feature","id":"ne-landform-1159103065","bbox":[66.344859,25.400519,67.484386,28.330146],"properties":{"id":"ne-landform-1159103065","name":"Kirthar Mountains","kind":"mountain","sourceClass":"Range/mtn"},"geometry":{"type":"Polygon","coordinates":[[[67.273936,25.428778],[67.134532,25.400519],[67.006114,25.441474],[66.966685,25.491889],[66.941051,25.5633],[66.925182,25.639228],[66.876842,26.130805],[66.858436,26.209364],[66.844981,26.266791],[66.782603,26.398383],[66.614757,26.631903],[66.54005,26.761237],[66.471812,26.946173],[66.432311,27.116476],[66.427501,27.137213],[66.344859,27.914679],[66.348033,28.115241],[66.394298,28.289923],[66.451404,28.304905],[66.547618,28.330146],[66.822887,28.270819],[67.098155,28.161872],[67.193515,28.094309],[67.251842,28.052985],[67.306773,27.864447],[67.307628,27.64704],[67.288707,27.425971],[67.284801,27.226447],[67.484386,25.85401],[67.460094,25.615912],[67.392833,25.507025],[67.273936,25.428778]]]}},{"type":"Feature","id":"ne-landform-1159103069","bbox":[55.462657,36.201483,60.661754,39.38581],"properties":{"id":"ne-landform-1159103069","name":"Kopet Dag","kind":"mountain","sourceClass":"Range/mtn"},"geometry":{"type":"Polygon","coordinates":[[[60.594249,36.212165],[60.556163,36.201483],[60.513682,36.204047],[60.465221,36.210517],[60.041026,36.316474],[59.636119,36.512152],[58.774181,37.054938],[58.58961,37.202704],[58.494273,37.270636],[58.448009,37.297003],[57.915904,37.538031],[57.789928,37.579108],[57.35023,37.646979],[57.203868,37.691413],[57.049205,37.755988],[56.895396,37.831916],[56.758311,37.926886],[56.56776,38.156073],[56.478038,38.207892],[56.252574,38.263678],[56.111217,38.331427],[55.981944,38.430732],[55.621471,38.744818],[55.52003,38.867133],[55.462657,39.01142],[55.476695,39.177436],[55.479625,39.185614],[55.580821,39.327765],[55.730479,39.38581],[55.902721,39.383368],[56.072642,39.343817],[56.163097,39.312628],[56.253184,39.275824],[56.340831,39.233649],[56.424083,39.186347],[56.501109,39.127265],[56.559459,39.063666],[56.613902,38.995673],[56.679698,38.923651],[56.810191,38.80683],[56.95045,38.698004],[57.097057,38.598212],[57.246959,38.50849],[57.409068,38.426093],[57.576182,38.361274],[57.749766,38.318305],[57.931407,38.30152],[58.070933,38.297919],[58.138438,38.288886],[58.206676,38.269904],[58.359752,38.202765],[58.435634,38.159455],[58.810924,37.945258],[58.948253,37.847541],[59.127648,37.669477],[59.186778,37.610785],[59.316051,37.502448],[59.79359,37.206855],[60.198985,36.891364],[60.409068,36.760077],[60.510997,36.683295],[60.592296,36.586249],[60.651866,36.452155],[60.66151,36.401923],[60.661754,36.345954],[60.6515,36.291327],[60.629283,36.245063],[60.594249,36.212165]]]}},{"type":"Feature","id":"ne-landform-1730071657","bbox":[61.503062,34.285468,66.675182,35.321234],"properties":{"id":"ne-landform-1730071657","name":"Paropamisus Mountains","kind":"mountain","sourceClass":"Range/mtn"},"geometry":{"type":"Polygon","coordinates":[[[61.871104,35.321234],[62.041392,35.240302],[62.260509,35.175116],[62.883311,35.046027],[63.082286,35.033087],[63.749889,35.047919],[64.525157,35.166144],[65.376964,35.236212],[65.459972,35.24964],[65.620372,35.291632],[65.699107,35.305732],[65.780894,35.304938],[65.858165,35.290717],[65.935069,35.271674],[66.01588,35.256293],[66.475719,35.208869],[66.58839,35.186469],[66.673106,35.135138],[66.675182,34.977912],[66.592174,34.867926],[66.460216,34.797553],[66.315318,34.758979],[65.716563,34.653083],[65.420177,34.580878],[65.135997,34.478583],[64.835582,34.391791],[64.518321,34.367072],[63.318126,34.383246],[63.183971,34.364264],[62.918712,34.300482],[62.788707,34.285468],[62.632091,34.307379],[62.458995,34.363715],[62.13441,34.495612],[61.98463,34.568976],[61.855846,34.665534],[61.740367,34.782843],[61.578502,34.989936],[61.528087,35.078009],[61.503062,35.170661],[61.527476,35.256049],[61.582408,35.292731],[61.65919,35.303534],[61.823009,35.297126],[61.871104,35.321234]]]}},{"type":"Feature","id":"ne-landform-1159103231","bbox":[79.745128,21.040595,86.884166,25.245429],"properties":{"id":"ne-landform-1159103231","name":"Chota Nagpur Plateau","kind":"plateau","sourceClass":"Plateau"},"geometry":{"type":"Polygon","coordinates":[[[86.496593,23.539801],[86.760997,22.199286],[86.880382,21.89942],[86.884166,21.839423],[86.813975,21.434577],[86.720836,21.249762],[86.552501,21.127997],[86.3296,21.059333],[85.803966,21.040595],[85.035289,21.190131],[84.829723,21.295966],[84.627818,21.444159],[84.470225,21.619269],[84.401622,21.742377],[84.372447,21.768195],[84.182994,21.876044],[84.157237,21.902961],[84.077403,22.074652],[84.056285,22.102301],[84.028453,22.123603],[83.515636,22.291327],[83.425792,22.296393],[83.346202,22.283515],[82.989513,22.131781],[82.545787,22.13172],[82.214854,22.248847],[81.528209,22.337104],[81.490489,22.332038],[81.466075,22.318183],[80.934337,21.346015],[80.848277,21.267646],[80.76295,21.246894],[80.65797,21.298651],[80.547862,21.410346],[80.23109,21.936896],[80.009766,22.561685],[79.930107,22.786561],[79.777721,23.216742],[79.745128,23.53913],[79.869884,24.764716],[79.927379,24.864814],[79.99818,24.922065],[80.868419,25.245429],[81.117776,25.199783],[81.300213,25.166387],[85.589732,24.381171],[86.053966,24.072272],[86.421886,23.692816],[86.496593,23.539801]]]}},{"type":"Feature","id":"ne-landform-1159103557","bbox":[92.287364,21.373664,93.775157,23.868537],"properties":{"id":"ne-landform-1159103557","name":"Chin Hills","kind":"mountain","sourceClass":"Range/mtn"},"geometry":{"type":"Polygon","coordinates":[[[93.563243,21.491034],[93.490733,21.406012],[93.5171,21.445746],[92.984386,21.373664],[92.948497,21.379828],[92.911876,21.392829],[92.709361,21.540778],[92.631724,21.630133],[92.6067,21.679572],[92.589854,21.73609],[92.578136,22.06269],[92.566905,22.12049],[92.41859,22.380988],[92.396739,22.475775],[92.400157,22.562201],[92.422252,22.64289],[92.562999,22.961432],[92.577891,23.053412],[92.566661,23.176154],[92.570079,23.18653],[92.576671,23.196051],[92.612315,23.233588],[92.617686,23.244879],[92.619151,23.257758],[92.607432,23.307868],[92.580821,23.357367],[92.334972,23.623542],[92.287364,23.725104],[92.289561,23.797797],[92.330699,23.844123],[92.399791,23.866828],[92.486339,23.868537],[92.579478,23.851874],[92.66859,23.819464],[93.309825,23.263068],[93.661876,22.841376],[93.746226,22.68714],[93.769542,22.609809],[93.775157,22.513495],[93.675426,22.130927],[93.639171,21.682318],[93.611705,21.580512],[93.563243,21.491034]]]}},{"type":"Feature","id":"ne-landform-1159103573","bbox":[105.027599,32.525031,114.2046,34.857489],"properties":{"id":"ne-landform-1159103573","name":"Qinling","kind":"mountain","sourceClass":"Range/mtn"},"geometry":{"type":"Polygon","coordinates":[[[112.99232,34.727668],[113.391002,34.11695],[113.411021,34.045905],[113.3921,34.010749],[113.333507,33.981452],[113.307384,33.945441],[113.306773,33.903998],[113.325938,33.858344],[113.597789,33.483832],[114.168712,32.94184],[114.19337,32.895758],[114.2046,32.85401],[114.203136,32.815009],[114.189708,32.776984],[113.98878,32.550971],[113.96339,32.533026],[113.9369,32.525031],[113.906627,32.528449],[113.870006,32.544501],[112.764293,33.513007],[112.580699,33.605048],[112.525035,33.618537],[112.414439,33.61579],[112.41505,33.554023],[112.433482,33.496588],[112.485362,33.394294],[112.499034,33.349372],[112.491588,33.308478],[112.452891,33.271552],[112.373424,33.238532],[112.296886,33.221259],[112.227672,33.216376],[112.163463,33.221869],[111.858653,33.335028],[111.859386,33.286628],[111.872813,33.245246],[111.93922,33.138983],[111.954112,33.101264],[111.957286,33.058356],[111.943736,33.007758],[111.93336,32.988959],[111.838878,32.902411],[111.826671,32.886054],[111.811778,32.84986],[111.792003,32.772528],[111.785167,32.756354],[111.776134,32.742804],[111.685435,32.681586],[111.56776,32.662299],[110.774425,32.84925],[110.487804,32.814582],[109.935313,32.653205],[109.793101,32.634223],[108.931285,32.700507],[108.840587,32.73017],[108.575938,32.888922],[107.598155,33.271796],[105.88856,33.197882],[105.591807,33.233588],[105.463267,33.280402],[105.355968,33.353034],[105.242931,33.482123],[105.146739,33.639228],[105.074229,33.809027],[105.032359,33.976081],[105.027599,34.035468],[105.031627,34.087348],[105.043712,34.133612],[105.087901,34.215583],[105.291759,34.440802],[105.402476,34.519538],[105.519786,34.577216],[105.771251,34.642157],[106.255748,34.65882],[106.847179,34.555609],[107.34901,34.539313],[107.848155,34.357856],[109.213634,34.347419],[111.140025,34.800666],[111.406993,34.79151],[112.07545,34.67237],[112.222789,34.679267],[112.51828,34.783599],[112.708018,34.850592],[112.808604,34.857489],[112.823922,34.851622],[112.903087,34.821295],[112.99232,34.727668]]]}},{"type":"Feature","id":"ne-landform-1159103575","bbox":[103.851695,26.395087,108.337413,29.643927],"properties":{"id":"ne-landform-1159103575","name":"Dalou Mountains","kind":"mountain","sourceClass":"Range/mtn"},"geometry":{"type":"Polygon","coordinates":[[[107.844615,29.242011],[107.885875,29.226386],[107.900157,29.229254],[108.036632,29.350898],[108.05128,29.355658],[108.080089,29.33869],[108.149669,29.241461],[108.274181,28.951056],[108.337413,28.583197],[108.333385,28.554206],[108.319591,28.508612],[108.305919,28.479865],[108.292125,28.462836],[108.248302,28.429145],[108.232066,28.406317],[108.21461,28.369086],[108.138682,27.916877],[108.108531,27.853278],[108.073985,27.807624],[107.978526,27.733588],[107.757457,27.615546],[107.454112,27.380927],[107.390636,27.351386],[107.327525,27.336676],[107.000377,27.376715],[106.666515,27.341742],[106.595348,27.315009],[106.566772,27.29535],[106.52943,27.26966],[106.25233,26.961798],[106.126964,26.868476],[106.087901,26.814887],[106.075572,26.763068],[106.094493,26.615424],[106.084605,26.568061],[106.049205,26.521308],[105.963634,26.454474],[105.887584,26.414374],[105.818614,26.395087],[105.445811,26.408759],[105.405772,26.429267],[105.37794,26.462836],[105.313487,26.590094],[105.28065,26.623847],[104.891246,26.748053],[104.826305,26.751532],[104.787852,26.761542],[104.767467,26.777106],[104.745494,26.821906],[104.726817,26.849433],[104.691173,26.879218],[104.543346,26.954474],[104.395518,27.072455],[104.005992,27.609931],[103.911265,27.813178],[103.852183,28.052314],[103.851695,28.096503],[103.862193,28.137824],[103.886119,28.178534],[103.926158,28.221137],[104.117076,28.36994],[104.175059,28.435736],[104.218272,28.520392],[104.236949,28.575202],[104.254771,28.609076],[104.281459,28.628763],[104.281993,28.629157],[104.317271,28.638983],[104.504161,28.644965],[104.681163,28.683661],[105.092418,28.681037],[105.191173,28.699713],[105.296153,28.745368],[105.343517,28.779088],[105.411632,28.827582],[105.45692,28.848822],[105.515636,28.852973],[105.767819,28.814433],[105.805186,28.808722],[105.87086,28.810126],[105.92567,28.827582],[106.167331,29.023428],[106.713145,29.465766],[106.915948,29.537163],[106.959849,29.552619],[106.973366,29.554745],[107.098765,29.574469],[107.255138,29.63935],[107.281383,29.643927],[107.310557,29.640937],[107.344737,29.628363],[107.390147,29.598273],[107.559215,29.380378],[107.600352,29.349189],[107.743541,29.298835],[107.844615,29.242011]]]}},{"type":"Feature","id":"ne-landform-1159103577","bbox":[100.645885,13.830146,105.760387,15.568976],"properties":{"id":"ne-landform-1159103577","name":"Dângrêk Mountains","kind":"mountain","sourceClass":"Range/mtn"},"geometry":{"type":"Polygon","coordinates":[[[101.68275,15.096137],[104.868907,14.922614],[105.039439,14.94184],[105.205089,14.985541],[105.386729,15.086493],[105.418712,15.092353],[105.451427,15.088752],[105.475719,15.077887],[105.680431,14.870551],[105.722179,14.809638],[105.747691,14.745307],[105.760387,14.671759],[105.758311,14.529303],[105.739146,14.433051],[105.705455,14.343207],[105.657725,14.26203],[105.596324,14.191718],[105.521617,14.134467],[105.433971,14.092475],[105.231578,14.057257],[105.036265,14.060004],[104.307506,14.257392],[103.952891,14.27558],[103.206554,14.156806],[103.156139,14.140998],[103.108409,14.117865],[103.06422,14.085395],[102.879283,13.886969],[102.84254,13.862616],[102.801524,13.844977],[102.739146,13.834174],[102.543468,13.830146],[102.473033,13.883002],[101.230235,14.255683],[100.785167,14.613959],[100.747325,14.659491],[100.718394,14.712592],[100.653575,14.932746],[100.645885,14.987189],[100.648936,15.017035],[100.667613,15.073127],[100.765147,15.243598],[101.084117,15.545417],[101.114757,15.561957],[101.146983,15.568976],[101.187511,15.564032],[101.229015,15.547309],[101.310313,15.489203],[101.437144,15.347541],[101.543712,15.180976],[101.588267,15.134772],[101.611827,15.118537],[101.635265,15.107184],[101.68275,15.096137]]]}},{"type":"Feature","id":"ne-landform-1159103579","bbox":[93.300792,23.33747,95.919932,27.293647],"properties":{"id":"ne-landform-1159103579","name":"Naga hills","kind":"mountain","sourceClass":"Range/mtn"},"geometry":{"type":"Polygon","coordinates":[[[94.073985,23.345526],[94.023936,23.33747],[93.968376,23.393068],[93.935802,23.425666],[93.743541,23.430915],[93.697276,23.442023],[93.656627,23.46247],[93.61964,23.495124],[93.361217,23.955939],[93.312266,24.102301],[93.300792,24.183234],[93.304698,24.376471],[93.848155,25.98609],[94.025401,26.225043],[94.703746,26.865241],[95.493663,27.286444],[95.619395,27.293647],[95.721202,27.256659],[95.800426,27.184638],[95.858531,27.086859],[95.896861,26.97248],[95.919932,26.730536],[95.907237,26.621405],[95.876353,26.530463],[95.85349,26.494163],[95.82484,26.448676],[95.706211,26.342692],[95.367931,26.040473],[95.202358,25.813526],[95.075328,25.639411],[94.867198,25.190558],[94.641124,24.296759],[94.580577,24.163336],[94.502208,24.045295],[94.25587,23.788031],[94.233165,23.745917],[94.171886,23.426154],[94.158336,23.398932],[94.139049,23.376349],[94.111705,23.358527],[94.073985,23.345526]]]}},{"type":"Feature","id":"ne-landform-1159103581","bbox":[93.256358,17.226691,95.125377,21.343085],"properties":{"id":"ne-landform-1159103581","name":"Arakan Mountains","kind":"mountain","sourceClass":"Range/mtn"},"geometry":{"type":"Polygon","coordinates":[[[94.906993,17.226691],[94.832774,17.239081],[94.799083,17.252875],[94.767833,17.272956],[94.765057,17.275557],[94.73878,17.300177],[94.711925,17.335395],[94.62379,17.517279],[94.461192,18.177863],[94.418468,18.231276],[94.407112,18.245473],[94.26582,18.507227],[94.262304,18.533451],[94.27579,18.744482],[94.278331,18.784247],[94.211925,19.115851],[94.136485,19.307013],[94.038463,19.473639],[93.682751,19.882298],[93.707031,19.912158],[93.657649,19.911137],[93.513194,20.077094],[93.489635,20.114203],[93.477916,20.155463],[93.481456,20.202155],[93.521251,20.294806],[93.518809,20.381842],[93.493663,20.462409],[93.423513,20.574535],[93.305675,20.762885],[93.271495,20.84339],[93.256358,20.930487],[93.267345,21.046332],[93.307262,21.140692],[93.370738,21.215094],[93.453258,21.271003],[93.549937,21.309943],[93.645551,21.324584],[93.766368,21.343085],[93.876475,21.340216],[93.97816,21.321784],[94.067149,21.285224],[94.143932,21.232733],[94.209239,21.166693],[94.263682,21.089179],[94.34254,20.908881],[94.377208,20.754645],[94.391124,20.526129],[94.415294,20.419989],[94.439342,20.371649],[94.507579,20.291266],[94.74879,20.080817],[94.851085,19.92005],[94.992198,19.542121],[95.10658,17.609377],[95.125377,17.291754],[95.122813,17.269294],[95.111217,17.253241],[95.087413,17.242011],[94.906993,17.226691]]]}},{"type":"Feature","id":"ne-landform-1730072703","bbox":[76.344005,8.273383,78.600597,10.725898],"properties":{"id":"ne-landform-1730072703","name":"Western Ghats","kind":"mountain","sourceClass":"Range/mtn"},"geometry":{"type":"Polygon","coordinates":[[[78.480724,10.725898],[78.5796,10.460273],[78.600597,10.31977],[78.591441,10.178168],[78.56837,10.102973],[78.531016,10.035712],[78.423595,9.921271],[78.148204,9.745063],[77.531749,9.48194],[77.445079,9.414069],[77.371104,9.32746],[77.328868,9.206549],[77.361339,9.096686],[77.745006,8.664252],[77.780772,8.531989],[77.743175,8.379706],[77.760875,8.397345],[77.737071,8.327948],[77.678111,8.288275],[77.594371,8.273383],[77.496104,8.278266],[77.296641,8.32746],[77.215953,8.361823],[77.161632,8.396064],[77.120372,8.44007],[77.090465,8.489081],[76.993907,8.826483],[76.534434,9.615119],[76.404063,9.95307],[76.344005,10.305365],[76.365709,10.6239],[76.368907,10.670844],[76.538097,10.637641],[76.764972,10.55212],[76.874889,10.510688],[77.054698,10.477484],[77.176524,10.484015],[77.269298,10.51258],[77.575328,10.668708],[77.826182,10.723944],[78.480724,10.725898]]]}},{"type":"Feature","id":"ne-landform-1159103587","bbox":[74.859019,21.064093,80.016124,22.977607],"properties":{"id":"ne-landform-1159103587","name":"Satpura Range","kind":"mountain","sourceClass":"Range/mtn"},"geometry":{"type":"Polygon","coordinates":[[[79.310557,21.671088],[79.249522,21.646613],[79.181651,21.63288],[78.653697,21.649359],[78.507091,21.627265],[78.318858,21.565009],[77.629283,21.221015],[77.449962,21.1836],[76.814586,21.163275],[76.558482,21.064093],[75.307262,21.069709],[75.155284,21.103888],[75.086436,21.135382],[75.022838,21.179023],[74.96461,21.236457],[74.911998,21.309516],[74.880015,21.371833],[74.862682,21.429328],[74.859019,21.482795],[74.867564,21.53321],[74.887462,21.58161],[74.917247,21.628791],[75.002208,21.723517],[75.026134,21.830329],[75.048473,21.868537],[75.079845,21.903754],[75.160167,21.962958],[75.248057,22.003546],[77.563975,22.439643],[78.021617,22.673224],[78.370128,22.752387],[78.764415,22.914801],[79.673106,22.977607],[79.765391,22.956732],[79.807628,22.93537],[79.847057,22.904364],[79.883678,22.862128],[79.930107,22.786561],[79.931041,22.785041],[80.006114,22.593085],[80.009766,22.561685],[80.016124,22.507025],[80.00587,22.451728],[79.982432,22.406867],[79.948863,22.369818],[79.72523,22.219184],[79.662486,22.146369],[79.547374,21.915045],[79.462901,21.797614],[79.365977,21.705207],[79.310557,21.671088]]]}},{"type":"Feature","id":"ne-landform-1730072715","bbox":[72.626842,32.905829,75.265636,34.157782],"properties":{"id":"ne-landform-1730072715","name":"Salt Range","kind":"mountain","sourceClass":"Range/mtn"},"geometry":{"type":"Polygon","coordinates":[[[73.23878,32.909857],[73.16273,32.905829],[72.896617,32.941718],[72.823497,32.963446],[72.742564,33.015326],[72.690074,33.067511],[72.655284,33.122077],[72.635265,33.179023],[72.626842,33.238044],[72.64796,33.492865],[72.631724,33.880561],[72.639415,33.949042],[72.660533,33.997931],[72.69337,34.031195],[72.736705,34.052741],[72.788951,34.066535],[73.13085,34.094991],[73.505692,34.12619],[73.556131,34.130388],[73.739024,34.145611],[73.812785,34.15175],[73.885265,34.157782],[73.912732,34.154926],[73.96665,34.14932],[74.405557,34.103683],[74.47755,34.096198],[75.167003,33.917548],[75.208263,33.893744],[75.239879,33.862799],[75.2588,33.823493],[75.265636,33.361518],[75.200572,33.19831],[75.188731,33.182746],[75.173595,33.168586],[75.14149,33.152228],[74.81776,33.082221],[74.712835,33.074936],[74.516443,33.0613],[73.920882,33.019949],[73.51234,32.991584],[73.406689,32.96002],[73.23878,32.909857]]]}},{"type":"Feature","id":"ne-landform-1159103595","bbox":[90.318004,25.091071,93.952037,26.659735],"properties":{"id":"ne-landform-1159103595","name":"Khasi Hills","kind":"mountain","sourceClass":"Range/mtn"},"geometry":{"type":"Polygon","coordinates":[[[93.931651,26.486884],[93.381969,25.726447],[93.370372,25.693061],[93.380504,25.669379],[93.428844,25.61225],[93.453136,25.540717],[93.456187,25.460334],[93.440318,25.37696],[93.408092,25.296088],[93.362071,25.223456],[93.304698,25.164679],[93.238536,25.125495],[93.151866,25.100165],[93.067149,25.091071],[92.983775,25.094794],[91.982066,25.318],[90.667613,25.289374],[90.478526,25.341193],[90.40211,25.380011],[90.36964,25.412055],[90.345225,25.458808],[90.318492,25.580573],[90.318004,25.713629],[90.339488,25.826483],[90.362437,25.875067],[90.393565,25.912482],[90.431529,25.940192],[90.475108,25.95954],[90.573131,25.979315],[90.67689,25.983344],[90.650401,25.983344],[90.7671,26.021674],[91.136485,26.069037],[91.837779,26.26142],[92.490001,26.281928],[92.736461,26.338752],[92.808238,26.375861],[92.865489,26.423529],[93.005626,26.621405],[93.032725,26.648078],[93.062266,26.655768],[93.766856,26.659735],[93.866466,26.637885],[93.938365,26.599066],[93.952037,26.554938],[93.931651,26.486884]]]}},{"type":"Feature","id":"ne-landform-1159103717","bbox":[103.601817,34.563483,111.281505,37.771979],"properties":{"id":"ne-landform-1159103717","name":"Loess Plateau","kind":"plateau","sourceClass":"Plateau"},"geometry":{"type":"Polygon","coordinates":[[[104.255992,37.771979],[107.160533,37.456],[107.415172,37.481513],[107.539348,37.519331],[107.567882,37.528022],[107.572815,37.528196],[109.288423,37.588922],[109.635387,37.601203],[109.715465,37.586188],[109.863414,37.524054],[110.202469,37.24741],[110.306407,37.162604],[110.443736,36.987128],[110.592906,36.692572],[110.645763,36.622809],[110.687633,36.586493],[110.955089,36.463202],[111.099864,36.33515],[111.234508,36.167426],[111.261241,36.109809],[111.264356,36.094824],[111.272838,36.054023],[111.27003,35.997626],[111.268214,35.991165],[111.253307,35.938117],[111.147594,35.733832],[111.137218,35.678412],[111.144298,35.629889],[111.251598,35.435126],[111.274303,35.368964],[111.281505,35.286811],[111.262462,35.217047],[111.222667,35.158026],[111.167003,35.1081],[110.344493,34.684882],[110.137218,34.645514],[109.200694,34.688788],[108.734752,34.635199],[108.435191,34.563483],[107.306407,34.627631],[106.237071,34.884101],[105.519176,34.900946],[105.410899,34.93592],[105.315929,34.988105],[104.81898,35.400641],[104.755382,35.425727],[104.354503,35.461615],[104.29005,35.479987],[104.141368,35.561103],[104.004039,35.678412],[103.886729,35.815985],[103.843942,35.884053],[103.797374,35.958136],[103.692149,36.23194],[103.648936,36.664019],[103.601817,37.135138],[103.625255,37.325507],[103.692149,37.479743],[103.795421,37.599677],[103.928355,37.68714],[104.084239,37.743964],[104.255992,37.771979]]]}},{"type":"Feature","id":"ne-landform-1730073365","bbox":[106.799815,11.707587,108.78419,15.930121],"properties":{"id":"ne-landform-1730073365","name":"Central Highlands","kind":"mountain","sourceClass":"Range/mtn"},"geometry":{"type":"Polygon","coordinates":[[[108.542735,11.729865],[108.461681,11.707587],[107.734141,11.721137],[107.628429,11.74549],[107.543346,11.785407],[107.47755,11.840766],[107.42982,11.9112],[107.398814,11.996527],[107.3567,13.009467],[107.076549,13.778693],[107.037364,14.446845],[106.883311,14.783087],[106.813487,15.118659],[106.799815,15.753913],[106.812877,15.789252],[106.86024,15.817328],[107.129527,15.893073],[107.463634,15.930121],[107.55067,15.911994],[107.751964,15.837653],[107.826793,15.789252],[107.867442,15.743354],[107.986827,15.520148],[108.781261,12.830085],[108.78419,12.354926],[108.748668,12.210211],[108.679698,11.923346],[108.634044,11.816657],[108.597423,11.766547],[108.542735,11.729865]]]}},{"type":"Feature","id":"ne-landform-1159103903","bbox":[94.345225,36.046942,102.959605,40.140692],"properties":{"id":"ne-landform-1159103903","name":"Qilian Mountains","kind":"mountain","sourceClass":"Range/mtn"},"geometry":{"type":"Polygon","coordinates":[[[102.956798,37.451117],[102.462047,36.439704],[102.303355,36.218573],[102.16505,36.076606],[102.06422,36.046942],[102.025523,36.070624],[101.940196,36.164008],[101.914928,36.179267],[101.879283,36.188361],[101.104381,36.155585],[100.789806,36.204291],[99.873668,36.559027],[99.465343,36.840461],[99.240001,36.928839],[98.992686,36.962714],[98.364757,36.919684],[98.213145,36.946906],[98.082164,37.020819],[97.620494,37.460273],[97.48463,37.525336],[96.673106,37.544135],[96.459483,37.607245],[96.353648,37.660163],[96.333018,37.722419],[96.276622,37.767829],[95.791392,37.893622],[95.296397,38.110968],[95.088267,38.273383],[94.582042,38.458503],[94.506969,38.520941],[94.476573,38.597113],[94.506358,38.689154],[94.56898,38.749396],[94.656016,38.785346],[95.285289,38.806952],[95.372081,38.832831],[95.421397,38.862494],[95.438121,38.895209],[95.426768,38.930487],[95.391856,38.967658],[95.19337,39.084662],[94.492931,39.245978],[94.392955,39.308173],[94.345225,39.397528],[94.366466,39.521186],[94.453868,39.672492],[94.570079,39.797126],[94.708507,39.897711],[95.02589,40.037482],[95.635142,40.140692],[95.656393,40.138259],[96.268827,40.068136],[97.435944,39.934502],[98.297252,39.835883],[98.530053,39.768007],[99.427073,39.506471],[99.527445,39.477206],[99.645396,39.442816],[99.697204,39.401835],[99.71105,39.390883],[100.858653,38.4831],[101.013316,38.392829],[101.113048,38.355048],[102.014445,38.26528],[102.238292,38.242987],[102.374889,38.192084],[102.497325,38.123358],[102.706676,37.93891],[102.864468,37.708619],[102.959605,37.56977],[102.956798,37.451117]]]}},{"type":"Feature","id":"ne-landform-1159103915","bbox":[72.852238,10.549262,77.39503,20.810492],"properties":{"id":"ne-landform-1159103915","name":"Western Ghats","kind":"mountain","sourceClass":"Range/mtn"},"geometry":{"type":"Polygon","coordinates":[[[76.79066,10.549262],[76.764972,10.55212],[76.467052,10.585273],[76.365709,10.6239],[76.278575,10.657111],[76.101695,10.777411],[76.041093,10.839479],[75.914928,10.968695],[75.833168,11.086429],[75.723828,11.361768],[75.646094,11.468408],[75.609772,11.538528],[75.562687,11.703008],[75.48878,11.961188],[75.448863,12.04383],[75.135753,12.49433],[74.863048,13.55091],[74.590953,14.138739],[74.391197,14.442313],[74.382227,14.494727],[74.335059,14.575439],[74.280371,14.649512],[74.223047,14.708887],[74.114946,14.864512],[74.051524,15.021247],[73.932384,15.584967],[73.636607,16.034857],[72.89009,18.749182],[72.89873,18.778955],[72.976855,18.927197],[73.005566,19.021094],[72.97207,19.15332],[72.900684,19.014502],[72.852238,18.985943],[72.858954,19.293134],[72.987207,19.277441],[72.859806,19.332122],[72.867076,19.664679],[72.947642,19.947638],[73.388927,20.725592],[73.424815,20.76435],[73.471446,20.793036],[73.533458,20.810492],[73.72877,20.8086],[73.83192,20.783942],[73.876842,20.761359],[73.915538,20.730048],[73.94691,20.688605],[73.969737,20.635627],[73.981456,20.576911],[73.985362,20.509955],[73.959972,20.211432],[74.083385,18.525458],[75.859141,13.183783],[76.338878,12.259772],[76.414561,12.1706],[76.541392,12.119635],[77.209972,12.040473],[77.3296,11.987311],[77.39503,11.894965],[77.389293,11.784552],[76.885997,10.784491],[76.878917,10.672736],[76.79066,10.549262]]]}},{"type":"Feature","id":"ne-landform-1159103917","bbox":[77.678722,11.290045,85.236217,20.738288],"properties":{"id":"ne-landform-1159103917","name":"Eastern Ghats","kind":"mountain","sourceClass":"Range/mtn"},"geometry":{"type":"Polygon","coordinates":[[[78.699962,11.327887],[78.284679,11.290045],[78.095103,11.307502],[78.036143,11.327033],[77.889781,11.432929],[77.756724,11.578253],[77.708995,11.656256],[77.681163,11.732733],[77.678722,11.804084],[78.181895,12.681281],[78.679698,14.150397],[78.668468,15.555365],[78.753917,15.871405],[78.828868,16.022345],[79.798651,17.13373],[79.870128,17.215644],[79.939313,17.269622],[80.324962,17.570502],[81.19984,18.583808],[81.232677,18.677008],[81.279918,19.09101],[81.308238,19.188056],[81.358043,19.275946],[81.960582,19.867011],[82.024181,19.895453],[82.305919,19.928961],[82.372325,19.954535],[82.876964,20.419806],[83.132701,20.58393],[83.506969,20.706305],[83.712901,20.738288],[84.425304,20.675605],[84.517467,20.646552],[85.194591,20.195929],[85.236217,20.138251],[85.234996,20.077277],[85.190196,20.002692],[84.76234,19.582587],[84.595714,19.203681],[84.163097,18.626044],[83.134288,17.709906],[82.815684,17.531989],[82.458263,17.420966],[81.387462,17.348761],[81.197642,17.301093],[81.025767,17.212836],[80.725352,16.950019],[79.836436,15.906012],[79.74879,15.741889],[79.643809,15.077338],[79.638927,14.75788],[79.603038,14.664801],[79.479259,14.452826],[79.465953,14.406501],[79.460582,14.323004],[79.478038,14.259101],[79.512828,14.209174],[79.714122,14.034247],[79.752208,13.968146],[79.846446,13.616034],[79.861339,13.429023],[79.856212,13.344672],[79.573253,12.528266],[79.546397,12.348822],[79.507823,12.230902],[79.176158,11.798529],[79.158824,11.765937],[79.149669,11.740363],[79.150767,11.724189],[79.015636,11.503363],[78.985606,11.457892],[78.960216,11.429328],[78.937022,11.41297],[78.699962,11.327887]]]}},{"type":"Feature","id":"ne-landform-1159103919","bbox":[73.533946,21.845893,79.683971,24.540595],"properties":{"id":"ne-landform-1159103919","name":"Vindhya Range","kind":"mountain","sourceClass":"Range/mtn"},"geometry":{"type":"Polygon","coordinates":[[[76.878673,22.713568],[75.911998,22.223334],[75.747203,22.203742],[75.398082,22.253791],[75.28712,22.253485],[73.900401,21.845893],[73.774181,21.850348],[73.71693,21.867499],[73.644908,21.925544],[73.589244,22.023017],[73.551768,22.146186],[73.533946,22.281684],[73.537242,22.415961],[73.563487,22.535407],[73.614024,22.626593],[73.690684,22.676032],[73.717174,22.70246],[73.823985,22.716864],[74.408214,22.640998],[74.516246,22.656501],[74.615001,22.702216],[74.630382,22.715155],[74.715831,22.82331],[74.774181,22.861335],[76.0796,23.192267],[78.399058,24.488593],[78.644786,24.537116],[78.951305,24.540595],[79.252452,24.476264],[79.38856,24.412909],[79.508556,24.325568],[79.607188,24.21192],[79.666881,24.081244],[79.683971,23.937995],[79.663951,23.790107],[79.612071,23.645453],[79.533702,23.51203],[79.433726,23.397773],[79.31776,23.310553],[79.191051,23.258246],[78.290294,23.20423],[78.240977,23.181403],[78.198375,23.15174],[78.043956,23.000556],[77.929698,22.921759],[77.789073,22.857184],[76.878673,22.713568]]]}},{"type":"Feature","id":"ne-landform-1159103927","bbox":[86.472423,37.504523,94.051402,39.518195],"properties":{"id":"ne-landform-1159103927","name":"Altyn-Tagh","kind":"mountain","sourceClass":"Range/mtn"},"geometry":{"type":"Polygon","coordinates":[[[94.051402,38.875312],[94.002086,38.54505],[94.003307,38.46894],[94.023692,38.403266],[93.541881,38.400336],[93.404552,38.43769],[92.807872,38.711676],[92.625011,38.758368],[91.275645,38.670111],[91.220958,38.644355],[91.210216,38.609015],[91.236949,38.567206],[91.295177,38.521857],[91.739757,38.331366],[91.796886,38.286322],[91.843761,38.231635],[91.84982,38.220875],[91.88026,38.166815],[91.906016,38.091437],[91.919753,37.95648],[91.924815,37.906745],[91.909801,37.823676],[91.871104,37.762885],[91.813609,37.721564],[91.741588,37.69715],[91.659923,37.687018],[91.125865,37.745246],[90.618663,37.715949],[90.410655,37.747138],[90.36024,37.745795],[90.308971,37.735236],[90.053722,37.629889],[89.51339,37.530691],[89.420055,37.513556],[89.218765,37.526688],[89.063609,37.536811],[88.979137,37.554389],[88.979137,37.589728],[87.587413,37.504523],[86.869029,37.626837],[86.637218,37.725531],[86.507579,37.822272],[86.472423,37.922858],[86.511485,38.023139],[86.604991,38.119147],[86.874766,38.28205],[87.174223,38.385504],[87.912737,38.640642],[89.260848,39.106379],[89.472179,39.179389],[89.929578,39.21489],[93.837413,39.518195],[93.826671,39.290534],[93.837413,39.23841],[93.858897,39.188971],[94.011485,39.0008],[94.042491,38.944648],[94.051402,38.875312]]]}},{"type":"Feature","id":"ne-landform-1159104027","bbox":[98.089976,23.33393,107.183849,29.312018],"properties":{"id":"ne-landform-1159104027","name":"Yunnan-Guizhou Plateau","kind":"plateau","sourceClass":"Plateau"},"geometry":{"type":"Polygon","coordinates":[[[106.243053,24.690985],[106.217662,23.888312],[106.187266,23.815863],[106.117198,23.725714],[106.02357,23.649237],[105.789928,23.532294],[104.884532,23.340033],[104.452403,23.33393],[104.223399,23.39881],[102.887462,24.051398],[102.511485,23.946662],[102.405162,23.923896],[102.158458,23.927863],[101.415416,24.119391],[100.60255,24.621161],[100.058987,24.724448],[100.017955,24.732245],[99.777476,24.823859],[99.664317,24.898871],[99.439464,25.134772],[99.104991,25.67005],[99.02589,25.745429],[98.462535,26.09571],[98.307384,26.247443],[98.232188,26.346015],[98.127452,26.534674],[98.089976,26.69599],[98.108479,26.82154],[98.110484,26.83515],[98.179454,26.95716],[98.287364,27.067206],[98.938803,27.481587],[98.982921,27.50965],[99.176422,27.584907],[101.776988,28.59632],[101.953026,28.723419],[102.022227,28.773383],[102.086803,28.804999],[102.22376,28.827658],[102.402965,28.857306],[102.538341,28.918891],[103.067393,29.268317],[103.201427,29.312018],[103.337779,29.310492],[103.45045,29.27851],[103.52968,29.241991],[103.542613,29.236029],[103.610005,29.180936],[103.969737,28.886847],[104.023326,28.772284],[104.13795,28.681403],[104.281459,28.628763],[104.482555,28.554999],[105.154918,28.415534],[105.456065,28.273566],[106.566772,27.29535],[106.737804,27.144721],[107.083751,26.658942],[107.172862,26.401435],[107.183849,26.13349],[107.099132,25.854743],[106.901744,25.564582],[106.361949,24.974005],[106.291392,24.84162],[106.243053,24.690985]]]}},{"type":"Feature","id":"ne-landform-1159104029","bbox":[99.735118,14.975287,105.435191,18.648444],"properties":{"id":"ne-landform-1159104029","name":"Khorat Plateau","kind":"plateau","sourceClass":"Plateau"},"geometry":{"type":"Polygon","coordinates":[[[105.406627,15.419013],[105.430553,15.344672],[105.435191,15.308051],[105.43275,15.273505],[105.421397,15.242255],[105.394298,15.210578],[105.298839,15.152045],[104.922618,14.996772],[104.812266,14.975287],[104.585094,14.984809],[103.609141,15.324652],[103.046886,15.386786],[102.145274,15.28382],[101.972911,15.184882],[101.911143,15.16059],[101.854747,15.15351],[101.673106,15.162848],[101.657115,15.201545],[101.670421,15.241217],[101.542247,15.450812],[101.504161,15.494391],[101.459483,15.530524],[101.406261,15.557318],[101.342174,15.572821],[101.018565,15.584052],[100.901744,15.62342],[100.784557,15.694586],[100.738902,15.737128],[100.703014,15.785285],[100.677623,15.840033],[100.663219,15.902106],[100.660899,15.972357],[100.671153,16.051581],[100.78358,16.334906],[100.790782,16.384955],[100.787486,16.438056],[100.769298,16.498236],[100.737071,16.555182],[100.643565,16.659552],[99.79359,17.318183],[99.768565,17.350287],[99.751231,17.383124],[99.73878,17.423774],[99.735118,17.457892],[99.739024,17.48664],[99.749522,17.511115],[99.765391,17.532416],[100.110728,17.786505],[100.153331,17.835273],[100.191661,17.895209],[100.27943,18.095404],[100.41273,18.306647],[100.586314,18.468451],[100.807872,18.585211],[101.034679,18.64643],[101.121349,18.648444],[102.211436,18.399604],[102.25294,18.375434],[102.289439,18.344062],[102.390636,18.222785],[102.414317,18.206061],[102.445567,18.193854],[103.444469,18.166205],[103.640269,18.122748],[103.740123,18.075934],[103.902354,17.956244],[104.301768,17.46601],[104.734264,17.077033],[104.757823,17.04444],[104.774058,17.009284],[104.780894,16.97132],[104.778331,16.934882],[104.727061,16.769599],[104.726939,16.732856],[104.73585,16.69245],[104.841319,16.494757],[104.966075,16.089667],[105.312144,15.604132],[105.406627,15.419013]]]}},{"type":"Feature","id":"ne-landform-1159104031","bbox":[94.325938,19.203559,98.965099,24.060004],"properties":{"id":"ne-landform-1159104031","name":"Shan Plateau","kind":"plateau","sourceClass":"Plateau"},"geometry":{"type":"Polygon","coordinates":[[[97.752574,24.005866],[97.910289,23.165778],[97.951182,23.108771],[98.361827,22.972663],[98.535411,22.842414],[98.659557,22.616523],[98.794932,22.010565],[98.864024,21.110053],[98.965099,20.913214],[98.960704,20.903815],[98.942271,20.893012],[98.912974,20.863166],[98.875865,20.796576],[98.833995,20.675544],[98.81422,20.559027],[98.819713,20.465949],[98.864268,20.296088],[98.848155,20.265692],[98.795909,20.243293],[98.612682,20.206916],[98.07899,19.967353],[97.996715,19.952521],[97.903575,19.914374],[97.816051,19.825568],[97.49171,19.338324],[97.410899,19.277228],[97.327159,19.277899],[97.183482,19.326911],[97.059215,19.341986],[96.94752,19.331488],[96.489757,19.203559],[95.82899,19.210273],[95.63734,19.258063],[95.540782,19.298163],[95.487926,19.386359],[95.397105,19.436164],[94.739146,20.18067],[94.344249,21.27558],[94.325938,21.57215],[94.351939,21.749152],[94.406627,21.920111],[94.491344,22.06977],[94.823741,22.419989],[94.860728,22.487128],[94.886241,22.564337],[94.906749,22.955207],[94.91627,22.994208],[94.938731,23.012091],[95.269054,23.078498],[95.581187,23.189093],[95.631114,23.189704],[95.734019,23.163947],[95.779307,23.173102],[95.816051,23.197455],[95.876353,23.260443],[95.906261,23.283332],[95.940196,23.289984],[95.981334,23.27265],[96.047618,23.265082],[96.125255,23.314093],[96.56837,23.822516],[96.644542,23.85987],[97.602916,24.060004],[97.706187,24.05268],[97.752574,24.005866]]]}},{"type":"Feature","id":"ne-landform-1730073913","bbox":[102.483409,10.743354,109.327621,21.715949],"properties":{"id":"ne-landform-1730073913","name":"Annamite Range","kind":"mountain","sourceClass":"Range/mtn"},"geometry":{"type":"Polygon","coordinates":[[[105.796886,18.403205],[106.405318,17.746767],[106.355859,17.765039],[106.370508,17.746875],[106.444791,17.70418],[106.650632,17.482097],[106.735742,17.367188],[106.809434,17.310766],[106.825938,17.29296],[106.827058,17.291752],[107.172115,16.919469],[107.180371,16.897949],[107.206513,16.882358],[108.584849,15.39527],[108.80482,15.028937],[109.009776,14.241461],[109.249966,13.701107],[109.252051,13.590527],[109.288086,13.450781],[109.271875,13.279346],[109.30957,13.219189],[109.327621,13.167149],[109.102306,12.575568],[109.080089,12.45893],[109.111217,11.763922],[109.086803,11.653693],[109.058992,11.594425],[109.039648,11.592676],[109.031189,11.543051],[108.962901,11.46369],[108.918224,11.431525],[108.874156,11.412238],[108.653575,11.387519],[108.607677,11.372931],[108.509044,11.318915],[108.445689,11.258673],[108.209483,10.957099],[108.154382,10.914024],[108.094922,10.897266],[108.068125,10.846596],[108.065196,10.844306],[107.898692,10.771857],[107.702891,10.743354],[107.570323,10.745307],[107.395152,10.768134],[107.248546,10.850165],[107.130504,10.97956],[107.041881,11.144782],[106.982677,11.334113],[106.95338,11.535712],[106.954356,11.738044],[107.006602,12.088324],[106.989879,12.235602],[106.71461,12.916266],[106.674815,13.454291],[106.506358,14.092414],[106.488536,14.1305],[106.459239,14.166571],[106.191173,14.370673],[105.837901,14.870795],[105.778209,15.02265],[105.380748,16.836127],[103.942271,18.504706],[103.895885,18.53559],[103.845958,18.551581],[103.780772,18.54975],[103.198375,18.336371],[103.084972,18.332343],[102.978648,18.366889],[102.879893,18.433234],[102.789561,18.524359],[102.63734,18.75318],[102.528331,18.997687],[102.483409,19.190192],[102.489024,19.364753],[102.533092,19.526374],[102.85316,20.143805],[102.969005,20.710089],[103.282603,21.249823],[103.428722,21.410285],[103.664928,21.581183],[103.935313,21.68946],[104.077159,21.714118],[104.220103,21.715949],[105.504527,21.291999],[105.877208,21.102851],[106.020763,20.996894],[106.081554,20.934882],[106.130382,20.866523],[106.164195,20.79151],[106.18568,20.700873],[106.18629,20.632148],[106.168956,20.580634],[106.136241,20.541815],[105.793468,20.340522],[105.602306,20.134711],[105.466685,19.885016],[105.389293,19.61164],[105.375377,19.340766],[105.43214,19.093695],[105.796886,18.403205]]]}},{"type":"Feature","id":"ne-landform-1159104179","bbox":[79.061534,26.365424,87.705699,29.963752],"properties":{"id":"ne-landform-1159104179","name":"Siwalik Hills","kind":"mountain","sourceClass":"Range/mtn"},"geometry":{"type":"Polygon","coordinates":[[[80.407237,29.492987],[87.018734,27.026632],[87.018825,27.026598],[87.5088,26.843817],[87.53266,26.830165],[87.62379,26.778022],[87.695811,26.695624],[87.705699,26.593817],[87.634776,26.47016],[87.549937,26.402289],[87.451182,26.369757],[87.342662,26.365424],[86.203987,26.717299],[84.447482,27.260097],[84.034129,27.387832],[83.807017,27.458014],[83.584266,27.486436],[83.118663,27.545844],[82.098888,27.860541],[81.982921,27.936347],[81.620173,28.288183],[81.575084,28.331916],[81.411057,28.405589],[80.780579,28.688769],[79.767726,29.143694],[79.61732,29.211249],[79.564464,29.198004],[79.408702,29.272406],[79.387123,29.289141],[79.248546,29.396613],[79.120494,29.548285],[79.080089,29.627387],[79.071566,29.663049],[79.070444,29.667742],[79.061534,29.705024],[79.063487,29.779608],[79.081554,29.838507],[79.11317,29.883612],[79.156261,29.916754],[79.208385,29.939948],[79.305125,29.95885],[79.330211,29.963752],[79.635875,29.960761],[79.785777,29.92829],[79.933726,29.866889],[80.407237,29.492987]]]}},{"type":"Feature","id":"ne-landform-1159104181","bbox":[71.204845,37.083136,77.032237,39.559943],"properties":{"id":"ne-landform-1159104181","name":"Pamir mountains","kind":"mountain","sourceClass":"Range/mtn"},"geometry":{"type":"Polygon","coordinates":[[[74.903941,39.465216],[75.67335,39.195502],[75.896251,39.031256],[76.121837,38.810004],[76.867564,38.34693],[76.988536,38.238654],[77.032237,38.13819],[76.972667,38.047797],[76.911618,38.020104],[76.859508,37.996466],[76.454301,37.899932],[75.985995,37.788365],[75.674083,37.714057],[75.50172,37.603217],[75.110448,37.574001],[74.355358,37.51762],[73.098617,37.423782],[72.917857,37.410285],[72.794191,37.363687],[72.485873,37.247514],[72.107021,37.104762],[72.086558,37.097052],[71.932994,37.083136],[71.785045,37.10517],[71.662218,37.167302],[71.649547,37.173712],[71.525279,37.252692],[71.446056,37.284491],[71.424083,37.304877],[71.319835,37.448981],[71.259776,37.506415],[71.23463,37.538642],[71.215587,37.582526],[71.204845,37.645026],[71.226817,39.065924],[71.252086,39.166205],[71.288707,39.226264],[71.326305,39.259223],[71.366222,39.27204],[71.577037,39.261908],[71.896739,39.367743],[71.918101,39.381598],[72.243907,39.505561],[74.239635,39.559943],[74.903941,39.465216]]]}},{"type":"Feature","id":"ne-landform-1159104183","bbox":[66.673595,34.082404,75.716563,37.523139],"properties":{"id":"ne-landform-1159104183","name":"Hindu Kush","kind":"mountain","sourceClass":"Range/mtn"},"geometry":{"type":"Polygon","coordinates":[[[74.749086,37.45936],[75.169712,36.999812],[75.438975,36.705634],[75.483719,36.630628],[75.636241,36.374945],[75.692027,36.226142],[75.716563,35.744025],[75.640514,35.273871],[75.607921,35.17945],[75.559093,35.100592],[75.489879,35.045233],[75.132579,34.582831],[74.461192,34.123481],[74.405557,34.103683],[74.3744,34.092597],[74.298595,34.082404],[74.229503,34.087531],[73.96665,34.14932],[73.93922,34.155768],[73.912732,34.154926],[73.812785,34.15175],[73.75294,34.149848],[73.739024,34.145611],[73.712047,34.137397],[73.703868,34.123481],[73.711925,34.11048],[73.720225,34.10102],[73.712413,34.097602],[73.556131,34.130388],[73.485724,34.145159],[73.468028,34.148871],[72.823741,34.417609],[72.681837,34.429968],[72.32899,34.4607],[72.019542,34.599799],[71.951305,34.608954],[71.865001,34.601569],[71.789439,34.576911],[71.770968,34.563304],[71.483531,34.351569],[71.462376,34.340596],[71.418224,34.317694],[71.268321,34.278144],[69.675792,34.311713],[67.019298,34.645636],[66.94752,34.694648],[66.87672,34.794623],[66.752208,35.099799],[66.674815,35.465949],[66.673595,35.798102],[66.708507,35.877631],[67.324229,36.55329],[67.372691,36.587348],[71.066539,37.412238],[71.203502,37.416632],[71.326549,37.382514],[71.487804,37.245307],[71.563365,37.201117],[71.662218,37.167302],[71.749644,37.137397],[71.949718,37.105536],[72.107021,37.104762],[72.123424,37.104682],[72.206676,37.120185],[72.485873,37.247514],[72.699718,37.345038],[72.794191,37.363687],[73.098617,37.423782],[73.601939,37.523139],[74.355358,37.51762],[74.618541,37.515692],[74.684093,37.499457],[74.734508,37.475287],[74.749086,37.45936]]]}},{"type":"Feature","id":"ne-landform-1159104185","bbox":[74.919688,33.3357,79.855968,37.91352],"properties":{"id":"ne-landform-1159104185","name":"Karakoram","kind":"mountain","sourceClass":"Range/mtn"},"geometry":{"type":"Polygon","coordinates":[[[79.017955,33.35401],[78.896861,33.3357],[78.374522,33.354315],[78.238658,33.389106],[78.224375,33.396532],[78.11024,33.455878],[78.029398,33.522815],[77.075816,34.312384],[76.386485,34.704352],[76.266978,34.817939],[76.105113,35.059088],[75.74818,35.810187],[75.707286,35.942694],[75.689952,36.30152],[75.658092,36.406317],[75.61024,36.487494],[75.483719,36.630628],[75.251842,36.892951],[75.198985,36.952033],[75.172252,36.992499],[75.169712,36.999812],[75.162608,37.02027],[75.15919,37.061164],[75.147594,37.086005],[74.928233,37.284613],[74.919688,37.309333],[74.92921,37.334662],[74.960704,37.361396],[75.985995,37.788365],[76.247691,37.897345],[76.357432,37.91352],[76.444469,37.906378],[76.454301,37.899932],[76.499766,37.870124],[76.610728,37.740424],[76.972667,37.482428],[77.809093,36.48432],[77.861095,36.449469],[77.999766,36.387641],[78.261479,36.19122],[78.351085,36.123969],[78.480846,36.072638],[78.812266,35.995978],[78.971848,35.916236],[79.011485,35.89643],[79.274425,35.668647],[79.483287,35.377936],[79.62086,35.058966],[79.700328,34.597113],[79.844859,34.357611],[79.855968,34.313544],[79.855846,34.265143],[79.841685,34.211371],[79.82484,34.177741],[79.50294,33.828925],[79.245006,33.651496],[79.226451,33.631049],[79.196056,33.577216],[79.148692,33.454169],[79.133311,33.427619],[79.114268,33.405219],[79.070567,33.374579],[79.017955,33.35401]]]}},{"type":"Feature","id":"ne-landform-1159104187","bbox":[77.960094,35.086737,99.475597,37.711371],"properties":{"id":"ne-landform-1159104187","name":"Kunlun Mountains","kind":"mountain","sourceClass":"Range/mtn"},"geometry":{"type":"Polygon","coordinates":[[[86.800792,37.625006],[87.587413,37.504523],[89.218765,37.526688],[89.51339,37.530691],[91.199107,37.553595],[91.530894,37.462165],[92.672618,36.761664],[92.709139,36.746089],[92.859717,36.681871],[93.013805,36.616156],[94.186672,36.442518],[94.663,36.372],[94.994919,36.322861],[95.145908,36.300507],[95.156383,36.298957],[95.426126,36.371076],[95.659068,36.433356],[95.761607,36.439765],[95.927309,36.396704],[97.583263,35.966376],[97.787934,35.988752],[97.984921,36.010288],[97.986339,36.010443],[98.018059,36.020415],[98.138026,36.058126],[98.151378,36.062323],[98.496715,36.252753],[98.589244,36.273261],[98.798106,36.267585],[99.009898,36.213141],[99.189342,36.12641],[99.258433,36.06977],[99.316783,35.998358],[99.403819,35.825019],[99.455089,35.634223],[99.475597,35.453742],[99.47169,35.363898],[99.452281,35.286689],[99.418712,35.221991],[99.372081,35.169745],[99.313121,35.129828],[99.243175,35.102179],[99.162852,35.086737],[98.908702,35.097235],[97.592784,35.360236],[87.336436,35.687751],[86.738536,35.487738],[82.29066,35.354499],[81.853526,35.229254],[81.385265,35.166449],[80.825084,35.177558],[80.554454,35.226447],[79.290172,35.831122],[79.085826,35.896857],[78.971848,35.916236],[78.667979,35.967902],[78.471568,36.0362],[78.281016,36.169806],[78.261479,36.19122],[78.099864,36.368354],[78.029185,36.481513],[77.980479,36.598578],[77.960094,36.715155],[77.97462,36.827277],[78.041637,36.954962],[78.143809,37.047431],[78.272594,37.109748],[78.574718,37.164618],[79.159679,37.131964],[79.740733,36.986762],[80.523065,36.62994],[80.673836,36.561174],[80.715343,36.542243],[80.842839,36.505772],[81.162487,36.414337],[81.208018,36.401313],[81.343639,36.409919],[82.13502,36.679877],[83.402218,36.816884],[83.494395,36.82685],[83.670658,36.888033],[85.708278,37.595319],[86.042613,37.711371],[86.800792,37.625006]]]}},{"type":"Feature","id":"ne-landform-1159104233","bbox":[74.197398,12.463446,81.263927,20.113471],"properties":{"id":"ne-landform-1159104233","name":"Deccan Plateau","kind":"plateau","sourceClass":"Plateau"},"geometry":{"type":"Polygon","coordinates":[[[78.925059,19.809699],[79.171886,19.77442],[79.259654,19.796088],[80.321422,19.844428],[81.117931,19.754218],[81.157725,19.730048],[81.189586,19.696662],[81.214732,19.651679],[81.249766,19.517768],[81.263927,19.283515],[81.233897,19.052558],[81.172496,18.9112],[81.084483,18.788214],[80.651134,18.346503],[80.568858,18.215277],[80.445201,17.78974],[80.381724,17.697028],[79.939313,17.269622],[79.798651,17.13373],[78.546153,15.923712],[78.531261,15.902777],[78.521129,15.878669],[78.379283,15.200751],[78.381358,15.130133],[78.484874,14.771552],[78.486827,14.696234],[78.475108,14.612555],[78.355235,14.203437],[78.195079,13.854987],[78.185069,13.748175],[78.304332,13.167792],[78.300792,13.057807],[78.268565,12.981513],[78.099742,12.796637],[77.849376,12.614081],[77.586314,12.488105],[77.471568,12.463446],[76.887218,12.548957],[76.458385,12.721564],[76.278575,12.848029],[76.142589,13.003791],[76.065807,13.190619],[76.05775,13.279731],[76.128429,13.684943],[76.11439,13.766913],[76.073985,13.852179],[75.539683,14.424384],[75.478282,14.539008],[75.440074,14.67237],[75.393443,15.219672],[75.348643,15.400397],[75.078502,15.969001],[75.041392,16.50373],[74.442393,17.587409],[74.209361,18.317755],[74.197398,18.539496],[74.230113,18.727851],[74.298839,18.894232],[74.400401,19.043097],[74.826305,19.433783],[75.082652,19.8664],[75.185313,19.958197],[75.370494,20.060126],[75.560802,20.112006],[75.976207,20.113471],[76.124522,20.08216],[76.397227,19.980719],[76.543712,19.949591],[78.925059,19.809699]]]}},{"type":"Feature","id":"ne-landform-1159104299","bbox":[72.977061,39.660285,95.221446,44.174872],"properties":{"id":"ne-landform-1159104299","name":"Tian Shan","kind":"mountain","sourceClass":"Range/mtn"},"geometry":{"type":"MultiPolygon","coordinates":[[[[74.73428,42.683085],[74.599369,42.690713],[74.391831,42.705301],[74.706798,42.689154],[74.73428,42.683085]]],[[[74.391831,42.705301],[73.851939,42.732978],[74.599369,42.690713],[74.746593,42.680365],[74.73428,42.683085],[75.091075,42.662909],[75.415782,42.717658],[76.323497,43.213202],[83.412608,43.55506],[83.579508,43.599195],[83.653575,43.618781],[84.391856,43.962897],[85.675611,44.060672],[86.703014,44.138922],[87.991222,43.905463],[90.29713,43.877936],[92.107555,44.174872],[94.928722,43.895453],[95.010997,43.874091],[95.080699,43.837165],[95.13734,43.779242],[95.180186,43.69477],[95.208629,43.578131],[95.221446,43.295233],[95.168101,43.062934],[95.057628,42.877875],[94.898692,42.73664],[94.69984,42.636176],[94.469981,42.573004],[93.951671,42.5456],[93.81544,42.563056],[93.699718,42.596076],[93.509166,42.69953],[93.139659,42.989508],[92.936412,43.092597],[92.726085,43.140815],[90.957408,43.158637],[90.720592,43.094855],[90.567149,42.984076],[90.528697,42.815436],[90.028819,42.685614],[89.780528,42.660773],[89.650035,42.672309],[88.858775,42.952338],[88.725719,42.957343],[88.602428,42.923041],[88.493663,42.838629],[88.468516,42.803229],[88.452525,42.766303],[88.423961,42.615119],[88.411632,42.579352],[88.39149,42.5456],[88.357799,42.510382],[87.280406,41.8487],[86.87672,41.72956],[86.598888,41.712531],[84.488292,41.997199],[82.165538,41.662604],[77.174693,39.885688],[74.85316,39.660285],[73.056651,39.754279],[73.011241,39.768866],[72.985973,39.799689],[72.977061,39.853339],[72.990123,40.020209],[73.210948,40.673712],[73.354259,41.795356],[73.340465,41.915534],[73.12379,42.422614],[73.1244,42.506537],[73.198375,42.649115],[73.330821,42.731879],[73.508311,42.767401],[74.391831,42.705301]]]]}},{"type":"Feature","id":"ne-landform-1159104307","bbox":[75.521861,26.859809,95.662608,33.911933],"properties":{"id":"ne-landform-1159104307","name":"Himalayas","kind":"mountain","sourceClass":"Range/mtn"},"geometry":{"type":"Polygon","coordinates":[[[84.908092,29.178717],[87.393687,29.133612],[87.717296,29.257148],[88.05775,29.320441],[92.473155,29.102973],[93.201671,28.906989],[93.365733,28.88758],[93.520152,28.897895],[93.619395,28.927008],[93.903087,29.112738],[94.393565,29.243476],[94.77685,29.426268],[94.906383,29.488044],[95.163829,29.728156],[95.214122,29.757025],[95.27064,29.775214],[95.331065,29.782111],[95.393321,29.777594],[95.455211,29.761115],[95.514659,29.732367],[95.569347,29.690985],[95.617198,29.636542],[95.64259,29.595118],[95.650645,29.581977],[95.655788,29.564346],[95.662608,29.540961],[95.65565,29.510199],[95.632213,29.486274],[94.958995,29.19422],[94.895152,29.151313],[94.847179,29.104071],[94.796397,29.009528],[94.790538,28.921576],[94.820689,28.840155],[94.877696,28.765143],[95.255015,28.475226],[95.28297,28.434027],[95.289195,28.397467],[95.274547,28.322333],[95.272716,28.275702],[95.286998,28.217719],[95.310321,28.174817],[95.326915,28.144294],[94.908715,27.80222],[94.347179,27.342902],[93.830089,27.124335],[91.682384,26.859809],[89.645489,26.902885],[89.589976,26.904059],[89.382823,26.953803],[89.197594,27.028166],[88.900279,27.147528],[88.80067,27.160102],[88.686778,27.149482],[88.652944,27.13696],[88.251231,26.988288],[87.780528,26.903998],[87.018734,27.026632],[85.336925,27.29737],[84.665782,27.573065],[83.859264,27.701361],[83.729503,27.746772],[83.501353,27.874701],[83.297374,27.95185],[82.486827,28.014533],[82.39796,28.049018],[82.000133,28.37873],[79.305125,29.95885],[77.313975,31.126288],[75.94909,32.226119],[75.719859,32.410834],[75.582408,32.60224],[75.554412,32.681234],[75.521861,32.773078],[75.531016,32.919745],[75.594859,33.049079],[76.091563,33.527411],[76.20045,33.670966],[76.273326,33.743109],[76.381847,33.790717],[77.000089,33.866127],[77.375621,33.911933],[77.490245,33.872016],[78.029398,33.522815],[78.224375,33.396532],[84.52064,29.318549],[84.908092,29.178717]]]}},{"type":"Feature","id":"ne-landform-1159104345","bbox":[73.03651,26.859809,104.112193,40.140692],"properties":{"id":"ne-landform-1159104345","name":"Tibetan Plateau","kind":"plateau","sourceClass":"Plateau"},"geometry":{"type":"Polygon","coordinates":[[[103.648936,36.664019],[103.752086,36.24433],[103.843942,35.884053],[103.990489,35.309272],[103.949107,34.362372],[104.112193,33.108893],[104.043101,31.86341],[103.883556,31.376044],[103.860362,31.33808],[103.424327,30.979132],[103.08192,30.440924],[103.225963,30.061896],[103.121349,29.699591],[102.909679,29.331122],[102.512828,28.942023],[102.22376,28.827658],[101.964854,28.725226],[101.953026,28.723419],[101.477794,28.650824],[99.363536,27.666266],[99.176422,27.584907],[98.938803,27.481587],[98.75587,27.402045],[96.283458,27.955695],[95.654439,28.284252],[95.545543,28.341132],[95.310321,28.174817],[95.310313,28.174811],[95.326915,28.144294],[94.908715,27.80222],[94.347179,27.342902],[93.830089,27.124335],[91.682384,26.859809],[89.645489,26.902885],[89.589976,26.904059],[89.5442,26.915045],[89.195567,26.923896],[88.985658,27.038055],[88.835094,27.11994],[88.652944,27.13696],[88.652843,27.136969],[88.251231,26.988288],[87.780528,26.903998],[87.459239,26.955695],[87.018825,27.026598],[85.336925,27.29737],[84.665782,27.573065],[83.859264,27.701361],[83.729503,27.746772],[83.501353,27.874701],[83.297374,27.95185],[82.486827,28.014533],[82.39796,28.049018],[82.000133,28.37873],[79.305125,29.95885],[77.313975,31.126288],[75.949107,32.226142],[75.94909,32.226119],[75.921031,32.189276],[74.966807,32.871772],[74.712835,33.074936],[74.521373,33.228095],[74.075938,33.584479],[73.505692,34.12619],[73.485724,34.145159],[73.481944,34.148749],[73.03651,34.445685],[73.422496,35.989936],[74.610362,37.415351],[74.749086,37.45936],[75.110448,37.574001],[76.08253,37.882392],[76.911618,38.020104],[77.018443,38.037848],[78.724864,37.221808],[79.749278,37.021491],[80.523065,36.62994],[80.631602,36.575019],[80.673836,36.561174],[80.842839,36.505772],[81.140269,36.408271],[81.162487,36.414337],[82.13502,36.679877],[83.32606,36.796698],[83.402218,36.816884],[83.670658,36.888033],[85.200084,37.293402],[85.708278,37.595319],[87.038341,38.385504],[87.174223,38.385504],[87.562389,38.385504],[87.912737,38.640642],[88.349132,38.958441],[89.260848,39.106379],[89.929578,39.21489],[95.635142,40.140692],[95.654685,40.139069],[96.438696,40.073946],[96.454466,40.072636],[96.616832,40.059149],[96.819582,40.028296],[97.435944,39.934502],[98.530053,39.768007],[98.936479,39.70616],[98.968928,39.701222],[99.051036,39.688727],[99.369278,39.547431],[99.527445,39.477206],[99.697204,39.401835],[99.841075,39.337958],[100.445441,38.872987],[100.955943,38.480231],[100.995591,38.472896],[101.744314,38.334377],[102.238292,38.242987],[102.284293,38.210481],[102.597179,37.989386],[102.864468,37.708619],[103.128551,37.43122],[103.575328,36.963507],[103.648936,36.664019]]]}}]}
