{"type":"FeatureCollection","features":[{"type":"Feature","id":"lk-sri-lanka","properties":{"id":"lk-sri-lanka","name":"Sri Lanka","region":"lk-sri-lanka","level":"region","parent":"","country":"Sri Lanka","sourceCode":"LK","sourceParentCode":"","sourceLevel":"ADM0","sourceValidOn":"2022-08-16","center":[80.70140955882229,7.6184907820144385],"bbox":[79.52131521200005,5.918696761000149,81.8790335760001,9.83586297700009],"source":"Survey Department of Sri Lanka (http://www.survey.gov.lk) · OCHA/HDX v03 · valid 2022-08-16 · CC BY-IGO"},"geometry":{"type":"Point","coordinates":[80.70140955882229,7.6184907820144385]}}]}
