{"type":"FeatureCollection","features":[{"type":"Feature","id":"lk-sri-lanka-p-lk2","properties":{"id":"lk-sri-lanka-p-lk2","name":"Central","region":"lk-sri-lanka","level":"province","parent":"lk-sri-lanka","country":"Sri Lanka","sourceCode":"LK2","sourceParentCode":"LK","sourceLevel":"ADM1","sourceValidOn":"2022-08-16","center":[80.71760064328248,7.324015122955522],"bbox":[80.42117649000016,6.751685187000135,81.01648087300003,8.011477872000057],"source":"Survey Department of Sri Lanka (http://www.survey.gov.lk) · OCHA/HDX v03 · valid 2022-08-16 · CC BY-IGO"},"geometry":{"type":"Point","coordinates":[80.71760064328248,7.324015122955522]}},{"type":"Feature","id":"lk-sri-lanka-p-lk5","properties":{"id":"lk-sri-lanka-p-lk5","name":"Eastern","region":"lk-sri-lanka","level":"province","parent":"lk-sri-lanka","country":"Sri Lanka","sourceCode":"LK5","sourceParentCode":"LK","sourceLevel":"ADM1","sourceValidOn":"2022-08-16","center":[81.40691029556078,7.74854990019045],"bbox":[80.75510963400006,6.510697337000124,81.8790335760001,8.98842189200019],"source":"Survey Department of Sri Lanka (http://www.survey.gov.lk) · OCHA/HDX v03 · valid 2022-08-16 · CC BY-IGO"},"geometry":{"type":"Point","coordinates":[81.40691029556078,7.74854990019045]}},{"type":"Feature","id":"lk-sri-lanka-p-lk7","properties":{"id":"lk-sri-lanka-p-lk7","name":"North Central","region":"lk-sri-lanka","level":"province","parent":"lk-sri-lanka","country":"Sri Lanka","sourceCode":"LK7","sourceParentCode":"LK","sourceLevel":"ADM1","sourceValidOn":"2022-08-16","center":[80.67993045224988,8.261823020209635],"bbox":[79.95179017800012,7.641154257000153,81.34034496100014,8.921635034000076],"source":"Survey Department of Sri Lanka (http://www.survey.gov.lk) · OCHA/HDX v03 · valid 2022-08-16 · CC BY-IGO"},"geometry":{"type":"Point","coordinates":[80.67993045224988,8.261823020209635]}},{"type":"Feature","id":"lk-sri-lanka-p-lk6","properties":{"id":"lk-sri-lanka-p-lk6","name":"North Western","region":"lk-sri-lanka","level":"province","parent":"lk-sri-lanka","country":"Sri Lanka","sourceCode":"LK6","sourceParentCode":"LK","sourceLevel":"ADM1","sourceValidOn":"2022-08-16","center":[80.11045621138624,7.785315981253788],"bbox":[79.69235815700006,7.25792444700005,80.57793892600012,8.567164839999975],"source":"Survey Department of Sri Lanka (http://www.survey.gov.lk) · OCHA/HDX v03 · valid 2022-08-16 · CC BY-IGO"},"geometry":{"type":"Point","coordinates":[80.11045621138624,7.785315981253788]}},{"type":"Feature","id":"lk-sri-lanka-p-lk4","properties":{"id":"lk-sri-lanka-p-lk4","name":"Northern","region":"lk-sri-lanka","level":"province","parent":"lk-sri-lanka","country":"Sri Lanka","sourceCode":"LK4","sourceParentCode":"LK","sourceLevel":"ADM1","sourceValidOn":"2022-08-16","center":[80.35667795382646,9.13427573951418],"bbox":[79.52131521200005,8.524562599000149,80.9672357990001,9.83586297700009],"source":"Survey Department of Sri Lanka (http://www.survey.gov.lk) · OCHA/HDX v03 · valid 2022-08-16 · CC BY-IGO"},"geometry":{"type":"Point","coordinates":[80.35667795382646,9.13427573951418]}},{"type":"Feature","id":"lk-sri-lanka-p-lk9","properties":{"id":"lk-sri-lanka-p-lk9","name":"Sabaragamuwa","region":"lk-sri-lanka","level":"province","parent":"lk-sri-lanka","country":"Sri Lanka","sourceCode":"LK9","sourceParentCode":"LK","sourceLevel":"ADM1","sourceValidOn":"2022-08-16","center":[80.49121387956235,6.760392634306098],"bbox":[80.14616188200011,6.228783817000021,80.95341011600004,7.396596154000065],"source":"Survey Department of Sri Lanka (http://www.survey.gov.lk) · OCHA/HDX v03 · valid 2022-08-16 · CC BY-IGO"},"geometry":{"type":"Point","coordinates":[80.49121387956235,6.760392634306098]}},{"type":"Feature","id":"lk-sri-lanka-p-lk3","properties":{"id":"lk-sri-lanka-p-lk3","name":"Southern","region":"lk-sri-lanka","level":"province","parent":"lk-sri-lanka","country":"Sri Lanka","sourceCode":"LK3","sourceParentCode":"LK","sourceLevel":"ADM1","sourceValidOn":"2022-08-16","center":[80.7204182176057,6.221404155101923],"bbox":[79.98549556800009,5.918696761000149,81.70704490600008,6.580121189000124],"source":"Survey Department of Sri Lanka (http://www.survey.gov.lk) · OCHA/HDX v03 · valid 2022-08-16 · CC BY-IGO"},"geometry":{"type":"Point","coordinates":[80.7204182176057,6.221404155101923]}},{"type":"Feature","id":"lk-sri-lanka-p-lk8","properties":{"id":"lk-sri-lanka-p-lk8","name":"Uva","region":"lk-sri-lanka","level":"province","parent":"lk-sri-lanka","country":"Sri Lanka","sourceCode":"LK8","sourceParentCode":"LK","sourceLevel":"ADM1","sourceValidOn":"2022-08-16","center":[81.21755539833667,6.882995472561255],"bbox":[80.776275102,6.286040169999978,81.63790351100016,7.621613340000067],"source":"Survey Department of Sri Lanka (http://www.survey.gov.lk) · OCHA/HDX v03 · valid 2022-08-16 · CC BY-IGO"},"geometry":{"type":"Point","coordinates":[81.21755539833667,6.882995472561255]}},{"type":"Feature","id":"lk-sri-lanka-p-lk1","properties":{"id":"lk-sri-lanka-p-lk1","name":"Western","region":"lk-sri-lanka","level":"province","parent":"lk-sri-lanka","country":"Sri Lanka","sourceCode":"LK1","sourceParentCode":"LK","sourceLevel":"ADM1","sourceValidOn":"2022-08-16","center":[80.06481215617703,6.837498209672628],"bbox":[79.81688105900008,6.324907280000161,80.38092184100003,7.330317538000145],"source":"Survey Department of Sri Lanka (http://www.survey.gov.lk) · OCHA/HDX v03 · valid 2022-08-16 · CC BY-IGO"},"geometry":{"type":"Point","coordinates":[80.06481215617703,6.837498209672628]}}]}
