{"type":"FeatureCollection","features":[{"type":"Feature","id":"lk-sri-lanka-d-lk11","properties":{"id":"lk-sri-lanka-d-lk11","name":"Colombo","region":"lk-sri-lanka","level":"district","parent":"lk-sri-lanka-p-lk1","country":"Sri Lanka","sourceCode":"LK11","sourceParentCode":"LK1","sourceLevel":"ADM2","sourceValidOn":"2022-08-16","center":[80.01846080678266,6.869824106507709],"bbox":[79.81996077200006,6.715340985000012,80.22393072900013,6.98117776800018],"source":"Survey Department of Sri Lanka (http://www.survey.gov.lk) · OCHA/HDX v03 · valid 2022-08-16 · CC BY-IGO","province":"Western"},"geometry":{"type":"Point","coordinates":[80.01846080678266,6.869824106507709]}},{"type":"Feature","id":"lk-sri-lanka-d-lk12","properties":{"id":"lk-sri-lanka-d-lk12","name":"Gampaha","region":"lk-sri-lanka","level":"district","parent":"lk-sri-lanka-p-lk1","country":"Sri Lanka","sourceCode":"LK12","sourceParentCode":"LK1","sourceLevel":"ADM2","sourceValidOn":"2022-08-16","center":[80.01451528097587,7.124149424319624],"bbox":[79.81688105900008,6.907032379999976,80.21277019700005,7.330317538000145],"source":"Survey Department of Sri Lanka (http://www.survey.gov.lk) · OCHA/HDX v03 · valid 2022-08-16 · CC BY-IGO","province":"Western"},"geometry":{"type":"Point","coordinates":[80.01451528097587,7.124149424319624]}},{"type":"Feature","id":"lk-sri-lanka-d-lk13","properties":{"id":"lk-sri-lanka-d-lk13","name":"Kalutara","region":"lk-sri-lanka","level":"district","parent":"lk-sri-lanka-p-lk1","country":"Sri Lanka","sourceCode":"LK13","sourceParentCode":"LK1","sourceLevel":"ADM2","sourceValidOn":"2022-08-16","center":[80.1275076968472,6.577117388520472],"bbox":[79.886310304,6.324907280000161,80.38092184100003,6.826490376000095],"source":"Survey Department of Sri Lanka (http://www.survey.gov.lk) · OCHA/HDX v03 · valid 2022-08-16 · CC BY-IGO","province":"Western"},"geometry":{"type":"Point","coordinates":[80.1275076968472,6.577117388520472]}},{"type":"Feature","id":"lk-sri-lanka-d-lk21","properties":{"id":"lk-sri-lanka-d-lk21","name":"Kandy","region":"lk-sri-lanka","level":"district","parent":"lk-sri-lanka-p-lk2","country":"Sri Lanka","sourceCode":"LK21","sourceParentCode":"LK2","sourceLevel":"ADM2","sourceValidOn":"2022-08-16","center":[80.70907495503299,7.273011672578255],"bbox":[80.42117649000016,6.940003921000027,81.01648087300003,7.490102036000053],"source":"Survey Department of Sri Lanka (http://www.survey.gov.lk) · OCHA/HDX v03 · valid 2022-08-16 · CC BY-IGO","province":"Central"},"geometry":{"type":"Point","coordinates":[80.70907495503299,7.273011672578255]}},{"type":"Feature","id":"lk-sri-lanka-d-lk22","properties":{"id":"lk-sri-lanka-d-lk22","name":"Matale","region":"lk-sri-lanka","level":"district","parent":"lk-sri-lanka-p-lk2","country":"Sri Lanka","sourceCode":"LK22","sourceParentCode":"LK2","sourceLevel":"ADM2","sourceValidOn":"2022-08-16","center":[80.73107831330279,7.667536470773774],"bbox":[80.49574373500013,7.384277870000119,80.99673834900011,8.011477872000057],"source":"Survey Department of Sri Lanka (http://www.survey.gov.lk) · OCHA/HDX v03 · valid 2022-08-16 · CC BY-IGO","province":"Central"},"geometry":{"type":"Point","coordinates":[80.73107831330279,7.667536470773774]}},{"type":"Feature","id":"lk-sri-lanka-d-lk23","properties":{"id":"lk-sri-lanka-d-lk23","name":"Nuwara Eliya","region":"lk-sri-lanka","level":"district","parent":"lk-sri-lanka-p-lk2","country":"Sri Lanka","sourceCode":"LK23","sourceParentCode":"LK2","sourceLevel":"ADM2","sourceValidOn":"2022-08-16","center":[80.71109914285759,6.974456633258062],"bbox":[80.43056741400017,6.751685187000135,80.96618902699998,7.274675684999977],"source":"Survey Department of Sri Lanka (http://www.survey.gov.lk) · OCHA/HDX v03 · valid 2022-08-16 · CC BY-IGO","province":"Central"},"geometry":{"type":"Point","coordinates":[80.71109914285759,6.974456633258062]}},{"type":"Feature","id":"lk-sri-lanka-d-lk31","properties":{"id":"lk-sri-lanka-d-lk31","name":"Galle","region":"lk-sri-lanka","level":"district","parent":"lk-sri-lanka-p-lk3","country":"Sri Lanka","sourceCode":"LK31","sourceParentCode":"LK3","sourceLevel":"ADM2","sourceValidOn":"2022-08-16","center":[80.25205522003611,6.222804537244387],"bbox":[79.98549556800009,5.964678123000056,80.4959753620002,6.443616517000066],"source":"Survey Department of Sri Lanka (http://www.survey.gov.lk) · OCHA/HDX v03 · valid 2022-08-16 · CC BY-IGO","province":"Southern"},"geometry":{"type":"Point","coordinates":[80.25205522003611,6.222804537244387]}},{"type":"Feature","id":"lk-sri-lanka-d-lk32","properties":{"id":"lk-sri-lanka-d-lk32","name":"Matara","region":"lk-sri-lanka","level":"district","parent":"lk-sri-lanka-p-lk3","country":"Sri Lanka","sourceCode":"LK32","sourceParentCode":"LK3","sourceLevel":"ADM2","sourceValidOn":"2022-08-16","center":[80.53991199341489,6.1427323092661],"bbox":[80.37640967100009,5.918696761000149,80.72379301700005,6.397794322000095],"source":"Survey Department of Sri Lanka (http://www.survey.gov.lk) · OCHA/HDX v03 · valid 2022-08-16 · CC BY-IGO","province":"Southern"},"geometry":{"type":"Point","coordinates":[80.53991199341489,6.1427323092661]}},{"type":"Feature","id":"lk-sri-lanka-d-lk33","properties":{"id":"lk-sri-lanka-d-lk33","name":"Hambantota","region":"lk-sri-lanka","level":"district","parent":"lk-sri-lanka-p-lk3","country":"Sri Lanka","sourceCode":"LK33","sourceParentCode":"LK3","sourceLevel":"ADM2","sourceValidOn":"2022-08-16","center":[81.0980785792419,6.259685987223157],"bbox":[80.60792579600002,5.971708688000092,81.70704490600008,6.580121189000124],"source":"Survey Department of Sri Lanka (http://www.survey.gov.lk) · OCHA/HDX v03 · valid 2022-08-16 · CC BY-IGO","province":"Southern"},"geometry":{"type":"Point","coordinates":[81.0980785792419,6.259685987223157]}},{"type":"Feature","id":"lk-sri-lanka-d-lk41","properties":{"id":"lk-sri-lanka-d-lk41","name":"Jaffna","region":"lk-sri-lanka","level":"district","parent":"lk-sri-lanka-p-lk4","country":"Sri Lanka","sourceCode":"LK41","sourceParentCode":"LK4","sourceLevel":"ADM2","sourceValidOn":"2022-08-16","center":[80.14102116489943,9.696732516225168],"bbox":[79.52131521200005,9.38319752800004,80.6228066440001,9.83586297700009],"source":"Survey Department of Sri Lanka (http://www.survey.gov.lk) · OCHA/HDX v03 · valid 2022-08-16 · CC BY-IGO","province":"Northern"},"geometry":{"type":"Point","coordinates":[80.14102116489943,9.696732516225168]}},{"type":"Feature","id":"lk-sri-lanka-d-lk42","properties":{"id":"lk-sri-lanka-d-lk42","name":"Mannar","region":"lk-sri-lanka","level":"district","parent":"lk-sri-lanka-p-lk4","country":"Sri Lanka","sourceCode":"LK42","sourceParentCode":"LK4","sourceLevel":"ADM2","sourceValidOn":"2022-08-16","center":[80.10917389963241,8.865131944566206],"bbox":[79.68500801900012,8.524562599000149,80.401427716,9.237236866000103],"source":"Survey Department of Sri Lanka (http://www.survey.gov.lk) · OCHA/HDX v03 · valid 2022-08-16 · CC BY-IGO","province":"Northern"},"geometry":{"type":"Point","coordinates":[80.10917389963241,8.865131944566206]}},{"type":"Feature","id":"lk-sri-lanka-d-lk43","properties":{"id":"lk-sri-lanka-d-lk43","name":"Vavuniya","region":"lk-sri-lanka","level":"district","parent":"lk-sri-lanka-p-lk4","country":"Sri Lanka","sourceCode":"LK43","sourceParentCode":"LK4","sourceLevel":"ADM2","sourceValidOn":"2022-08-16","center":[80.47114765124259,8.853409864076124],"bbox":[80.16875973200007,8.545795893,80.74504766000013,9.12653831200015],"source":"Survey Department of Sri Lanka (http://www.survey.gov.lk) · OCHA/HDX v03 · valid 2022-08-16 · CC BY-IGO","province":"Northern"},"geometry":{"type":"Point","coordinates":[80.47114765124259,8.853409864076124]}},{"type":"Feature","id":"lk-sri-lanka-d-lk44","properties":{"id":"lk-sri-lanka-d-lk44","name":"Mullaitivu","region":"lk-sri-lanka","level":"district","parent":"lk-sri-lanka-p-lk4","country":"Sri Lanka","sourceCode":"LK44","sourceParentCode":"LK4","sourceLevel":"ADM2","sourceValidOn":"2022-08-16","center":[80.55092059030765,9.16913963101439],"bbox":[80.17455860899997,8.903170559000102,80.9672357990001,9.458827198999984],"source":"Survey Department of Sri Lanka (http://www.survey.gov.lk) · OCHA/HDX v03 · valid 2022-08-16 · CC BY-IGO","province":"Northern"},"geometry":{"type":"Point","coordinates":[80.55092059030765,9.16913963101439]}},{"type":"Feature","id":"lk-sri-lanka-d-lk45","properties":{"id":"lk-sri-lanka-d-lk45","name":"Kilinochchi","region":"lk-sri-lanka","level":"district","parent":"lk-sri-lanka-p-lk4","country":"Sri Lanka","sourceCode":"LK45","sourceParentCode":"LK4","sourceLevel":"ADM2","sourceValidOn":"2022-08-16","center":[80.31250260079452,9.42173669775469],"bbox":[79.97229551800018,9.210375667000108,80.61720809300004,9.684905502000163],"source":"Survey Department of Sri Lanka (http://www.survey.gov.lk) · OCHA/HDX v03 · valid 2022-08-16 · CC BY-IGO","province":"Northern"},"geometry":{"type":"Point","coordinates":[80.31250260079452,9.42173669775469]}},{"type":"Feature","id":"lk-sri-lanka-d-lk51","properties":{"id":"lk-sri-lanka-d-lk51","name":"Batticaloa","region":"lk-sri-lanka","level":"district","parent":"lk-sri-lanka-p-lk5","country":"Sri Lanka","sourceCode":"LK51","sourceParentCode":"LK5","sourceLevel":"ADM2","sourceValidOn":"2022-08-16","center":[81.47482357690716,7.804188175793826],"bbox":[81.22481227200012,7.399421029000109,81.81859581600008,8.2689361730001],"source":"Survey Department of Sri Lanka (http://www.survey.gov.lk) · OCHA/HDX v03 · valid 2022-08-16 · CC BY-IGO","province":"Eastern"},"geometry":{"type":"Point","coordinates":[81.47482357690716,7.804188175793826]}},{"type":"Feature","id":"lk-sri-lanka-d-lk52","properties":{"id":"lk-sri-lanka-d-lk52","name":"Ampara","region":"lk-sri-lanka","level":"district","parent":"lk-sri-lanka-p-lk5","country":"Sri Lanka","sourceCode":"LK52","sourceParentCode":"LK5","sourceLevel":"ADM2","sourceValidOn":"2022-08-16","center":[81.55344447114226,7.234802481538987],"bbox":[80.97951928000009,6.510697337000124,81.8790335760001,7.739483070000119],"source":"Survey Department of Sri Lanka (http://www.survey.gov.lk) · OCHA/HDX v03 · valid 2022-08-16 · CC BY-IGO","province":"Eastern"},"geometry":{"type":"Point","coordinates":[81.55344447114226,7.234802481538987]}},{"type":"Feature","id":"lk-sri-lanka-d-lk53","properties":{"id":"lk-sri-lanka-d-lk53","name":"Trincomalee","region":"lk-sri-lanka","level":"district","parent":"lk-sri-lanka-p-lk5","country":"Sri Lanka","sourceCode":"LK53","sourceParentCode":"LK5","sourceLevel":"ADM2","sourceValidOn":"2022-08-16","center":[81.09212625594827,8.555011501504474],"bbox":[80.75510963400006,8.148123423000072,81.40368387000018,8.98842189200019],"source":"Survey Department of Sri Lanka (http://www.survey.gov.lk) · OCHA/HDX v03 · valid 2022-08-16 · CC BY-IGO","province":"Eastern"},"geometry":{"type":"Point","coordinates":[81.09212625594827,8.555011501504474]}},{"type":"Feature","id":"lk-sri-lanka-d-lk61","properties":{"id":"lk-sri-lanka-d-lk61","name":"Kurunegala","region":"lk-sri-lanka","level":"district","parent":"lk-sri-lanka-p-lk6","country":"Sri Lanka","sourceCode":"LK61","sourceParentCode":"LK6","sourceLevel":"ADM2","sourceValidOn":"2022-08-16","center":[80.23671903649881,7.664635767028167],"bbox":[79.90008456300012,7.25792444700005,80.57793892600012,8.197933821000106],"source":"Survey Department of Sri Lanka (http://www.survey.gov.lk) · OCHA/HDX v03 · valid 2022-08-16 · CC BY-IGO","province":"North Western"},"geometry":{"type":"Point","coordinates":[80.23671903649881,7.664635767028167]}},{"type":"Feature","id":"lk-sri-lanka-d-lk62","properties":{"id":"lk-sri-lanka-d-lk62","name":"Puttalam","region":"lk-sri-lanka","level":"district","parent":"lk-sri-lanka-p-lk6","country":"Sri Lanka","sourceCode":"LK62","sourceParentCode":"LK6","sourceLevel":"ADM2","sourceValidOn":"2022-08-16","center":[79.91396964789936,7.973115046740666],"bbox":[79.69235815700006,7.265245471000071,80.15280287900009,8.567164839999975],"source":"Survey Department of Sri Lanka (http://www.survey.gov.lk) · OCHA/HDX v03 · valid 2022-08-16 · CC BY-IGO","province":"North Western"},"geometry":{"type":"Point","coordinates":[79.91396964789936,7.973115046740666]}},{"type":"Feature","id":"lk-sri-lanka-d-lk71","properties":{"id":"lk-sri-lanka-d-lk71","name":"Anuradhapura","region":"lk-sri-lanka","level":"district","parent":"lk-sri-lanka-p-lk7","country":"Sri Lanka","sourceCode":"LK71","sourceParentCode":"LK7","sourceLevel":"ADM2","sourceValidOn":"2022-08-16","center":[80.51313763778461,8.391747762397587],"bbox":[79.95179017800012,7.816921857000182,80.9934427450001,8.921635034000076],"source":"Survey Department of Sri Lanka (http://www.survey.gov.lk) · OCHA/HDX v03 · valid 2022-08-16 · CC BY-IGO","province":"North Central"},"geometry":{"type":"Point","coordinates":[80.51313763778461,8.391747762397587]}},{"type":"Feature","id":"lk-sri-lanka-d-lk72","properties":{"id":"lk-sri-lanka-d-lk72","name":"Polonnaruwa","region":"lk-sri-lanka","level":"district","parent":"lk-sri-lanka-p-lk7","country":"Sri Lanka","sourceCode":"LK72","sourceParentCode":"LK7","sourceLevel":"ADM2","sourceValidOn":"2022-08-16","center":[81.02726231179464,7.991265787639088],"bbox":[80.75483593500007,7.641154257000153,81.34034496100014,8.345646494000107],"source":"Survey Department of Sri Lanka (http://www.survey.gov.lk) · OCHA/HDX v03 · valid 2022-08-16 · CC BY-IGO","province":"North Central"},"geometry":{"type":"Point","coordinates":[81.02726231179464,7.991265787639088]}},{"type":"Feature","id":"lk-sri-lanka-d-lk81","properties":{"id":"lk-sri-lanka-d-lk81","name":"Badulla","region":"lk-sri-lanka","level":"district","parent":"lk-sri-lanka-p-lk8","country":"Sri Lanka","sourceCode":"LK81","sourceParentCode":"LK8","sourceLevel":"ADM2","sourceValidOn":"2022-08-16","center":[81.0448417540584,7.074556295178682],"bbox":[80.776275102,6.542474091000031,81.27149177299998,7.621613340000067],"source":"Survey Department of Sri Lanka (http://www.survey.gov.lk) · OCHA/HDX v03 · valid 2022-08-16 · CC BY-IGO","province":"Uva"},"geometry":{"type":"Point","coordinates":[81.0448417540584,7.074556295178682]}},{"type":"Feature","id":"lk-sri-lanka-d-lk82","properties":{"id":"lk-sri-lanka-d-lk82","name":"Monaragala","region":"lk-sri-lanka","level":"district","parent":"lk-sri-lanka-p-lk8","country":"Sri Lanka","sourceCode":"LK82","sourceParentCode":"LK8","sourceLevel":"ADM2","sourceValidOn":"2022-08-16","center":[81.30375212779805,6.787392623802484],"bbox":[80.82947171900014,6.286040169999978,81.63790351100016,7.459006937000026],"source":"Survey Department of Sri Lanka (http://www.survey.gov.lk) · OCHA/HDX v03 · valid 2022-08-16 · CC BY-IGO","province":"Uva"},"geometry":{"type":"Point","coordinates":[81.30375212779805,6.787392623802484]}},{"type":"Feature","id":"lk-sri-lanka-d-lk91","properties":{"id":"lk-sri-lanka-d-lk91","name":"Ratnapura","region":"lk-sri-lanka","level":"district","parent":"lk-sri-lanka-p-lk9","country":"Sri Lanka","sourceCode":"LK91","sourceParentCode":"LK9","sourceLevel":"ADM2","sourceValidOn":"2022-08-16","center":[80.56623050885918,6.586896810614273],"bbox":[80.17546527100006,6.228783817000021,80.95341011600004,6.930911447000028],"source":"Survey Department of Sri Lanka (http://www.survey.gov.lk) · OCHA/HDX v03 · valid 2022-08-16 · CC BY-IGO","province":"Sabaragamuwa"},"geometry":{"type":"Point","coordinates":[80.56623050885918,6.586896810614273]}},{"type":"Feature","id":"lk-sri-lanka-d-lk92","properties":{"id":"lk-sri-lanka-d-lk92","name":"Kegalle","region":"lk-sri-lanka","level":"district","parent":"lk-sri-lanka-p-lk9","country":"Sri Lanka","sourceCode":"LK92","sourceParentCode":"LK9","sourceLevel":"ADM2","sourceValidOn":"2022-08-16","center":[80.3425931628262,7.104117404731342],"bbox":[80.14616188200011,6.829155613000069,80.54866991500018,7.396596154000065],"source":"Survey Department of Sri Lanka (http://www.survey.gov.lk) · OCHA/HDX v03 · valid 2022-08-16 · CC BY-IGO","province":"Sabaragamuwa"},"geometry":{"type":"Point","coordinates":[80.3425931628262,7.104117404731342]}}]}
