{"type":"FeatureCollection","features":[{"type":"Feature","id":"mm-myanmar-p-mmr017","properties":{"id":"mm-myanmar-p-mmr017","name":"Ayeyarwady","region":"mm-myanmar","level":"province","parent":"mm-myanmar","country":"Myanmar","sourceCode":"MMR017","sourceParentCode":"MMR","sourceLevel":"ADM1","sourceValidOn":"2024-02-15","center":[95.12769074936006,16.943399926936156],"bbox":[94.19112637600017,15.672009450000076,96.07974520800013,18.51084976900006],"source":"Myanmar Information Management Unit (MIMU) · OCHA/HDX v01 · valid 2024-02-15 · CC BY-IGO"},"geometry":{"type":"Point","coordinates":[95.12769074936006,16.943399926936156]}},{"type":"Feature","id":"mm-myanmar-p-mmr007","properties":{"id":"mm-myanmar-p-mmr007","name":"Bago (East)","region":"mm-myanmar","level":"province","parent":"mm-myanmar","country":"Myanmar","sourceCode":"MMR007","sourceParentCode":"MMR","sourceLevel":"ADM1","sourceValidOn":"2024-02-15","center":[96.47878423726068,18.22700951815614],"bbox":[95.7948732660002,16.829241286000126,97.22418412500014,19.493268968000166],"source":"Myanmar Information Management Unit (MIMU) · OCHA/HDX v01 · valid 2024-02-15 · CC BY-IGO"},"geometry":{"type":"Point","coordinates":[96.47878423726068,18.22700951815614]}},{"type":"Feature","id":"mm-myanmar-p-mmr008","properties":{"id":"mm-myanmar-p-mmr008","name":"Bago (West)","region":"mm-myanmar","level":"province","parent":"mm-myanmar","country":"Myanmar","sourceCode":"MMR008","sourceParentCode":"MMR","sourceLevel":"ADM1","sourceValidOn":"2024-02-15","center":[95.52089650816046,18.43877696943941],"bbox":[94.68555145900018,17.464618042000154,96.200258298,19.19142698000013],"source":"Myanmar Information Management Unit (MIMU) · OCHA/HDX v01 · valid 2024-02-15 · CC BY-IGO"},"geometry":{"type":"Point","coordinates":[95.52089650816046,18.43877696943941]}},{"type":"Feature","id":"mm-myanmar-p-mmr004","properties":{"id":"mm-myanmar-p-mmr004","name":"Chin","region":"mm-myanmar","level":"province","parent":"mm-myanmar","country":"Myanmar","sourceCode":"MMR004","sourceParentCode":"MMR","sourceLevel":"ADM1","sourceValidOn":"2024-02-15","center":[93.50972060811742,22.169754986381694],"bbox":[92.6021043200002,20.63989504900013,94.15302636200005,24.105976748000103],"source":"Myanmar Information Management Unit (MIMU) · OCHA/HDX v01 · valid 2024-02-15 · CC BY-IGO"},"geometry":{"type":"Point","coordinates":[93.50972060811742,22.169754986381694]}},{"type":"Feature","id":"mm-myanmar-p-mmr001","properties":{"id":"mm-myanmar-p-mmr001","name":"Kachin","region":"mm-myanmar","level":"province","parent":"mm-myanmar","country":"Myanmar","sourceCode":"MMR001","sourceParentCode":"MMR","sourceLevel":"ADM1","sourceValidOn":"2024-02-15","center":[97.34411534720186,26.077128675197258],"bbox":[95.8061722870001,23.633245377000037,98.78136091300007,28.545538862000058],"source":"Myanmar Information Management Unit (MIMU) · OCHA/HDX v01 · valid 2024-02-15 · CC BY-IGO"},"geometry":{"type":"Point","coordinates":[97.34411534720186,26.077128675197258]}},{"type":"Feature","id":"mm-myanmar-p-mmr002","properties":{"id":"mm-myanmar-p-mmr002","name":"Kayah","region":"mm-myanmar","level":"province","parent":"mm-myanmar","country":"Myanmar","sourceCode":"MMR002","sourceParentCode":"MMR","sourceLevel":"ADM1","sourceValidOn":"2024-02-15","center":[97.37522141805634,19.23406638451049],"bbox":[96.81978011600006,18.491449353000178,97.8887911280001,19.996687342000087],"source":"Myanmar Information Management Unit (MIMU) · OCHA/HDX v01 · valid 2024-02-15 · CC BY-IGO"},"geometry":{"type":"Point","coordinates":[97.37522141805634,19.23406638451049]}},{"type":"Feature","id":"mm-myanmar-p-mmr003","properties":{"id":"mm-myanmar-p-mmr003","name":"Kayin","region":"mm-myanmar","level":"province","parent":"mm-myanmar","country":"Myanmar","sourceCode":"MMR003","sourceParentCode":"MMR","sourceLevel":"ADM1","sourceValidOn":"2024-02-15","center":[97.7871110906439,17.151404556465213],"bbox":[96.39160505300009,15.220625903000041,98.92170008000016,19.509060825000176],"source":"Myanmar Information Management Unit (MIMU) · OCHA/HDX v01 · valid 2024-02-15 · CC BY-IGO"},"geometry":{"type":"Point","coordinates":[97.7871110906439,17.151404556465213]}},{"type":"Feature","id":"mm-myanmar-p-mmr009","properties":{"id":"mm-myanmar-p-mmr009","name":"Magway","region":"mm-myanmar","level":"province","parent":"mm-myanmar","country":"Myanmar","sourceCode":"MMR009","sourceParentCode":"MMR","sourceLevel":"ADM1","sourceValidOn":"2024-02-15","center":[94.81634610055472,20.479943422362552],"bbox":[93.84550851500018,18.832044662000044,95.85918994500008,22.771278594000137],"source":"Myanmar Information Management Unit (MIMU) · OCHA/HDX v01 · valid 2024-02-15 · CC BY-IGO"},"geometry":{"type":"Point","coordinates":[94.81634610055472,20.479943422362552]}},{"type":"Feature","id":"mm-myanmar-p-mmr010","properties":{"id":"mm-myanmar-p-mmr010","name":"Mandalay","region":"mm-myanmar","level":"province","parent":"mm-myanmar","country":"Myanmar","sourceCode":"MMR010","sourceParentCode":"MMR","sourceLevel":"ADM1","sourceValidOn":"2024-02-15","center":[95.9470775116479,21.547680881503673],"bbox":[94.82972907900017,20.19306886600009,96.89598275700018,23.68380907300019],"source":"Myanmar Information Management Unit (MIMU) · OCHA/HDX v01 · valid 2024-02-15 · CC BY-IGO"},"geometry":{"type":"Point","coordinates":[95.9470775116479,21.547680881503673]}},{"type":"Feature","id":"mm-myanmar-p-mmr011","properties":{"id":"mm-myanmar-p-mmr011","name":"Mon","region":"mm-myanmar","level":"province","parent":"mm-myanmar","country":"Myanmar","sourceCode":"MMR011","sourceParentCode":"MMR","sourceLevel":"ADM1","sourceValidOn":"2024-02-15","center":[97.86928383230493,15.743320544549842],"bbox":[96.86828500900015,14.880330939000089,98.23501895600015,17.717759929000124],"source":"Myanmar Information Management Unit (MIMU) · OCHA/HDX v01 · valid 2024-02-15 · CC BY-IGO"},"geometry":{"type":"Point","coordinates":[97.86928383230493,15.743320544549842]}},{"type":"Feature","id":"mm-myanmar-p-mmr018","properties":{"id":"mm-myanmar-p-mmr018","name":"Nay Pyi Taw","region":"mm-myanmar","level":"province","parent":"mm-myanmar","country":"Myanmar","sourceCode":"MMR018","sourceParentCode":"MMR","sourceLevel":"ADM1","sourceValidOn":"2024-02-15","center":[96.15335609096155,19.845023923162174],"bbox":[95.71268004100017,19.416956005000145,96.675470153,20.331037675000175],"source":"Myanmar Information Management Unit (MIMU) · OCHA/HDX v01 · valid 2024-02-15 · CC BY-IGO"},"geometry":{"type":"Point","coordinates":[96.15335609096155,19.845023923162174]}},{"type":"Feature","id":"mm-myanmar-p-mmr012","properties":{"id":"mm-myanmar-p-mmr012","name":"Rakhine","region":"mm-myanmar","level":"province","parent":"mm-myanmar","country":"Myanmar","sourceCode":"MMR012","sourceParentCode":"MMR","sourceLevel":"ADM1","sourceValidOn":"2024-02-15","center":[93.7345496791918,19.742963524692332],"bbox":[92.17210485900011,17.33626772399998,94.9018395990002,21.47963283900009],"source":"Myanmar Information Management Unit (MIMU) · OCHA/HDX v01 · valid 2024-02-15 · CC BY-IGO"},"geometry":{"type":"Point","coordinates":[93.7345496791918,19.742963524692332]}},{"type":"Feature","id":"mm-myanmar-p-mmr005","properties":{"id":"mm-myanmar-p-mmr005","name":"Sagaing","region":"mm-myanmar","level":"province","parent":"mm-myanmar","country":"Myanmar","sourceCode":"MMR005","sourceParentCode":"MMR","sourceLevel":"ADM1","sourceValidOn":"2024-02-15","center":[95.32432615997799,24.169005849283934],"bbox":[93.94618823800016,21.57595956000017,97.06690395500016,27.37204735800009],"source":"Myanmar Information Management Unit (MIMU) · OCHA/HDX v01 · valid 2024-02-15 · CC BY-IGO"},"geometry":{"type":"Point","coordinates":[95.32432615997799,24.169005849283934]}},{"type":"Feature","id":"mm-myanmar-p-mmr016","properties":{"id":"mm-myanmar-p-mmr016","name":"Shan (East)","region":"mm-myanmar","level":"province","parent":"mm-myanmar","country":"Myanmar","sourceCode":"MMR016","sourceParentCode":"MMR","sourceLevel":"ADM1","sourceValidOn":"2024-02-15","center":[99.48183786581492,20.998994367205924],"bbox":[98.20889536300007,19.671514147000096,101.17001505500019,22.162689066000155],"source":"Myanmar Information Management Unit (MIMU) · OCHA/HDX v01 · valid 2024-02-15 · CC BY-IGO"},"geometry":{"type":"Point","coordinates":[99.48183786581492,20.998994367205924]}},{"type":"Feature","id":"mm-myanmar-p-mmr015","properties":{"id":"mm-myanmar-p-mmr015","name":"Shan (North)","region":"mm-myanmar","level":"province","parent":"mm-myanmar","country":"Myanmar","sourceCode":"MMR015","sourceParentCode":"MMR","sourceLevel":"ADM1","sourceValidOn":"2024-02-15","center":[97.83254048468862,22.928415434134344],"bbox":[96.15106915000007,21.48299690300007,99.56572167500008,24.159066840000037],"source":"Myanmar Information Management Unit (MIMU) · OCHA/HDX v01 · valid 2024-02-15 · CC BY-IGO"},"geometry":{"type":"Point","coordinates":[97.83254048468862,22.928415434134344]}},{"type":"Feature","id":"mm-myanmar-p-mmr014","properties":{"id":"mm-myanmar-p-mmr014","name":"Shan (South)","region":"mm-myanmar","level":"province","parent":"mm-myanmar","country":"Myanmar","sourceCode":"MMR014","sourceParentCode":"MMR","sourceLevel":"ADM1","sourceValidOn":"2024-02-15","center":[97.50984615760817,20.88322104188951],"bbox":[96.2036073330001,19.299318019999987,98.80549908100011,22.268533211000033],"source":"Myanmar Information Management Unit (MIMU) · OCHA/HDX v01 · valid 2024-02-15 · CC BY-IGO"},"geometry":{"type":"Point","coordinates":[97.50984615760817,20.88322104188951]}},{"type":"Feature","id":"mm-myanmar-p-mmr006","properties":{"id":"mm-myanmar-p-mmr006","name":"Tanintharyi","region":"mm-myanmar","level":"province","parent":"mm-myanmar","country":"Myanmar","sourceCode":"MMR006","sourceParentCode":"MMR","sourceLevel":"ADM1","sourceValidOn":"2024-02-15","center":[98.7911014814842,12.752959291079822],"bbox":[97.43408784300004,9.60588355699997,99.665318377,15.103377026000146],"source":"Myanmar Information Management Unit (MIMU) · OCHA/HDX v01 · valid 2024-02-15 · CC BY-IGO"},"geometry":{"type":"Point","coordinates":[98.7911014814842,12.752959291079822]}},{"type":"Feature","id":"mm-myanmar-p-mmr013","properties":{"id":"mm-myanmar-p-mmr013","name":"Yangon","region":"mm-myanmar","level":"province","parent":"mm-myanmar","country":"Myanmar","sourceCode":"MMR013","sourceParentCode":"MMR","sourceLevel":"ADM1","sourceValidOn":"2024-02-15","center":[96.17001020596712,16.965603421683436],"bbox":[93.35195104000019,14.04582802200008,96.82662590900009,17.79695808500003],"source":"Myanmar Information Management Unit (MIMU) · OCHA/HDX v01 · valid 2024-02-15 · CC BY-IGO"},"geometry":{"type":"Point","coordinates":[96.17001020596712,16.965603421683436]}}]}
