{"type":"FeatureCollection","features":[{"type":"Feature","id":"mm-myanmar","properties":{"id":"mm-myanmar","name":"Myanmar","region":"mm-myanmar","level":"region","parent":"","country":"Myanmar","sourceCode":"MMR","sourceParentCode":"","sourceLevel":"ADM0","sourceValidOn":"2024-02-15","center":[96.5163721849843,21.19578823907358],"bbox":[92.17210485900011,9.60588355699997,101.17001505500019,28.545538862000058],"source":"Myanmar Information Management Unit (MIMU) · OCHA/HDX v01 · valid 2024-02-15 · CC BY-IGO"},"geometry":{"type":"Point","coordinates":[96.5163721849843,21.19578823907358]}}]}
