{"type":"FeatureCollection","features":[{"type":"Feature","id":"mm-myanmar-d-mmr001001","properties":{"id":"mm-myanmar-d-mmr001001","name":"Myitkyina","region":"mm-myanmar","level":"district","parent":"mm-myanmar-p-mmr001","country":"Myanmar","sourceCode":"MMR001001","sourceParentCode":"MMR001","sourceLevel":"ADM2","sourceValidOn":"2024-02-15","center":[97.41890786598111,26.01107959280812],"bbox":[95.9938599080001,24.548012783000104,98.78136091300007,27.106889468000077],"source":"Myanmar Information Management Unit (MIMU) · OCHA/HDX v01 · valid 2024-02-15 · CC BY-IGO","province":"Kachin"},"geometry":{"type":"Point","coordinates":[97.41890786598111,26.01107959280812]}},{"type":"Feature","id":"mm-myanmar-d-mmr001002","properties":{"id":"mm-myanmar-d-mmr001002","name":"Mohnyin","region":"mm-myanmar","level":"district","parent":"mm-myanmar-p-mmr001","country":"Myanmar","sourceCode":"MMR001002","sourceParentCode":"MMR001","sourceLevel":"ADM2","sourceValidOn":"2024-02-15","center":[96.49805460866382,25.302154970248075],"bbox":[95.8061722870001,24.47976824500006,97.20166942500015,26.13671935200017],"source":"Myanmar Information Management Unit (MIMU) · OCHA/HDX v01 · valid 2024-02-15 · CC BY-IGO","province":"Kachin"},"geometry":{"type":"Point","coordinates":[96.49805460866382,25.302154970248075]}},{"type":"Feature","id":"mm-myanmar-d-mmr001003","properties":{"id":"mm-myanmar-d-mmr001003","name":"Bhamo","region":"mm-myanmar","level":"district","parent":"mm-myanmar-p-mmr001","country":"Myanmar","sourceCode":"MMR001003","sourceParentCode":"MMR001","sourceLevel":"ADM2","sourceValidOn":"2024-02-15","center":[97.16218301857593,24.258135599481452],"bbox":[96.54903642200009,23.633245377000037,97.7695456300001,24.904976793000174],"source":"Myanmar Information Management Unit (MIMU) · OCHA/HDX v01 · valid 2024-02-15 · CC BY-IGO","province":"Kachin"},"geometry":{"type":"Point","coordinates":[97.16218301857593,24.258135599481452]}},{"type":"Feature","id":"mm-myanmar-d-mmr001004","properties":{"id":"mm-myanmar-d-mmr001004","name":"Puta-O","region":"mm-myanmar","level":"district","parent":"mm-myanmar-p-mmr001","country":"Myanmar","sourceCode":"MMR001004","sourceParentCode":"MMR001","sourceLevel":"ADM2","sourceValidOn":"2024-02-15","center":[97.78205039612844,27.27547367295494],"bbox":[96.88879305500018,25.969291378000037,98.76588836400015,28.545538862000058],"source":"Myanmar Information Management Unit (MIMU) · OCHA/HDX v01 · valid 2024-02-15 · CC BY-IGO","province":"Kachin"},"geometry":{"type":"Point","coordinates":[97.78205039612844,27.27547367295494]}},{"type":"Feature","id":"mm-myanmar-d-mmr002001","properties":{"id":"mm-myanmar-d-mmr002001","name":"Loikaw","region":"mm-myanmar","level":"district","parent":"mm-myanmar-p-mmr002","country":"Myanmar","sourceCode":"MMR002001","sourceParentCode":"MMR002","sourceLevel":"ADM2","sourceValidOn":"2024-02-15","center":[97.33311341581934,19.4854622609384],"bbox":[96.81978011600006,19.019536832000142,97.8887911280001,19.996687342000087],"source":"Myanmar Information Management Unit (MIMU) · OCHA/HDX v01 · valid 2024-02-15 · CC BY-IGO","province":"Kayah"},"geometry":{"type":"Point","coordinates":[97.33311341581934,19.4854622609384]}},{"type":"Feature","id":"mm-myanmar-d-mmr002002","properties":{"id":"mm-myanmar-d-mmr002002","name":"Bawlake","region":"mm-myanmar","level":"district","parent":"mm-myanmar-p-mmr002","country":"Myanmar","sourceCode":"MMR002002","sourceParentCode":"MMR002","sourceLevel":"ADM2","sourceValidOn":"2024-02-15","center":[97.42880298080256,18.914170326460148],"bbox":[96.94265444899997,18.491449353000178,97.84738177700018,19.346257677999972],"source":"Myanmar Information Management Unit (MIMU) · OCHA/HDX v01 · valid 2024-02-15 · CC BY-IGO","province":"Kayah"},"geometry":{"type":"Point","coordinates":[97.42880298080256,18.914170326460148]}},{"type":"Feature","id":"mm-myanmar-d-mmr003001","properties":{"id":"mm-myanmar-d-mmr003001","name":"Hpa-An","region":"mm-myanmar","level":"district","parent":"mm-myanmar-p-mmr003","country":"Myanmar","sourceCode":"MMR003001","sourceParentCode":"MMR003","sourceLevel":"ADM2","sourceValidOn":"2024-02-15","center":[97.81812337846189,17.102886499535394],"bbox":[96.39160505300009,16.51477428200019,98.32181125000011,19.509060825000176],"source":"Myanmar Information Management Unit (MIMU) · OCHA/HDX v01 · valid 2024-02-15 · CC BY-IGO","province":"Kayin"},"geometry":{"type":"Point","coordinates":[97.81812337846189,17.102886499535394]}},{"type":"Feature","id":"mm-myanmar-d-mmr003002","properties":{"id":"mm-myanmar-d-mmr003002","name":"Myawaddy","region":"mm-myanmar","level":"district","parent":"mm-myanmar-p-mmr003","country":"Myanmar","sourceCode":"MMR003002","sourceParentCode":"MMR003","sourceLevel":"ADM2","sourceValidOn":"2024-02-15","center":[98.51991404319854,16.5494157622392],"bbox":[98.16301931100014,16.039883921000182,98.92170008000016,17.092114469000023],"source":"Myanmar Information Management Unit (MIMU) · OCHA/HDX v01 · valid 2024-02-15 · CC BY-IGO","province":"Kayin"},"geometry":{"type":"Point","coordinates":[98.51991404319854,16.5494157622392]}},{"type":"Feature","id":"mm-myanmar-d-mmr003003","properties":{"id":"mm-myanmar-d-mmr003003","name":"Kawkareik","region":"mm-myanmar","level":"district","parent":"mm-myanmar-p-mmr003","country":"Myanmar","sourceCode":"MMR003003","sourceParentCode":"MMR003","sourceLevel":"ADM2","sourceValidOn":"2024-02-15","center":[98.22657237267984,16.00304606265602],"bbox":[97.81311436200008,15.220625903000041,98.61035479500015,16.856942932000152],"source":"Myanmar Information Management Unit (MIMU) · OCHA/HDX v01 · valid 2024-02-15 · CC BY-IGO","province":"Kayin"},"geometry":{"type":"Point","coordinates":[98.22657237267984,16.00304606265602]}},{"type":"Feature","id":"mm-myanmar-d-mmr003004","properties":{"id":"mm-myanmar-d-mmr003004","name":"Hpapun","region":"mm-myanmar","level":"district","parent":"mm-myanmar-p-mmr003","country":"Myanmar","sourceCode":"MMR003004","sourceParentCode":"MMR003","sourceLevel":"ADM2","sourceValidOn":"2024-02-15","center":[97.36866425696162,18.07658849507525],"bbox":[96.93106083100014,17.328027655000085,97.7665924530001,18.810332472000027],"source":"Myanmar Information Management Unit (MIMU) · OCHA/HDX v01 · valid 2024-02-15 · CC BY-IGO","province":"Kayin"},"geometry":{"type":"Point","coordinates":[97.36866425696162,18.07658849507525]}},{"type":"Feature","id":"mm-myanmar-d-mmr004001","properties":{"id":"mm-myanmar-d-mmr004001","name":"Falam","region":"mm-myanmar","level":"district","parent":"mm-myanmar-p-mmr004","country":"Myanmar","sourceCode":"MMR004001","sourceParentCode":"MMR004","sourceLevel":"ADM2","sourceValidOn":"2024-02-15","center":[93.71488309138299,23.421990595214574],"bbox":[93.32565966900006,22.7860437650001,94.15302636200005,24.105976748000103],"source":"Myanmar Information Management Unit (MIMU) · OCHA/HDX v01 · valid 2024-02-15 · CC BY-IGO","province":"Chin"},"geometry":{"type":"Point","coordinates":[93.71488309138299,23.421990595214574]}},{"type":"Feature","id":"mm-myanmar-d-mmr004002","properties":{"id":"mm-myanmar-d-mmr004002","name":"Mindat","region":"mm-myanmar","level":"district","parent":"mm-myanmar-p-mmr004","country":"Myanmar","sourceCode":"MMR004002","sourceParentCode":"MMR004","sourceLevel":"ADM2","sourceValidOn":"2024-02-15","center":[93.81953354267624,21.263331076600004],"bbox":[93.47569110600006,20.63989504900013,94.12000071100016,21.800111635000064],"source":"Myanmar Information Management Unit (MIMU) · OCHA/HDX v01 · valid 2024-02-15 · CC BY-IGO","province":"Chin"},"geometry":{"type":"Point","coordinates":[93.81953354267624,21.263331076600004]}},{"type":"Feature","id":"mm-myanmar-d-mmr004003","properties":{"id":"mm-myanmar-d-mmr004003","name":"Hakha","region":"mm-myanmar","level":"district","parent":"mm-myanmar-p-mmr004","country":"Myanmar","sourceCode":"MMR004003","sourceParentCode":"MMR004","sourceLevel":"ADM2","sourceValidOn":"2024-02-15","center":[93.56354756796824,22.512438934245587],"bbox":[93.09198427500007,22.005738848000078,94.0578639950001,23.072739027000125],"source":"Myanmar Information Management Unit (MIMU) · OCHA/HDX v01 · valid 2024-02-15 · CC BY-IGO","province":"Chin"},"geometry":{"type":"Point","coordinates":[93.56354756796824,22.512438934245587]}},{"type":"Feature","id":"mm-myanmar-d-mmr004004","properties":{"id":"mm-myanmar-d-mmr004004","name":"Matupi","region":"mm-myanmar","level":"district","parent":"mm-myanmar-p-mmr004","country":"Myanmar","sourceCode":"MMR004004","sourceParentCode":"MMR004","sourceLevel":"ADM2","sourceValidOn":"2024-02-15","center":[93.22543745340472,21.57539496311416],"bbox":[92.6021043200002,20.707368029000122,94.01750445300007,22.230189504000123],"source":"Myanmar Information Management Unit (MIMU) · OCHA/HDX v01 · valid 2024-02-15 · CC BY-IGO","province":"Chin"},"geometry":{"type":"Point","coordinates":[93.22543745340472,21.57539496311416]}},{"type":"Feature","id":"mm-myanmar-d-mmr005001","properties":{"id":"mm-myanmar-d-mmr005001","name":"Sagaing","region":"mm-myanmar","level":"district","parent":"mm-myanmar-p-mmr005","country":"Myanmar","sourceCode":"MMR005001","sourceParentCode":"MMR005","sourceLevel":"ADM2","sourceValidOn":"2024-02-15","center":[95.64448975053614,21.987754597863194],"bbox":[95.17709889100007,21.57595956000017,96.02461017500019,22.250662661000035],"source":"Myanmar Information Management Unit (MIMU) · OCHA/HDX v01 · valid 2024-02-15 · CC BY-IGO","province":"Sagaing"},"geometry":{"type":"Point","coordinates":[95.64448975053614,21.987754597863194]}},{"type":"Feature","id":"mm-myanmar-d-mmr005002","properties":{"id":"mm-myanmar-d-mmr005002","name":"Shwebo","region":"mm-myanmar","level":"district","parent":"mm-myanmar-p-mmr005","country":"Myanmar","sourceCode":"MMR005002","sourceParentCode":"MMR005","sourceLevel":"ADM2","sourceValidOn":"2024-02-15","center":[95.40740222658854,22.74644129489804],"bbox":[94.76271815200016,22.174748109,96.01014916300005,23.300562468000066],"source":"Myanmar Information Management Unit (MIMU) · OCHA/HDX v01 · valid 2024-02-15 · CC BY-IGO","province":"Sagaing"},"geometry":{"type":"Point","coordinates":[95.40740222658854,22.74644129489804]}},{"type":"Feature","id":"mm-myanmar-d-mmr005003","properties":{"id":"mm-myanmar-d-mmr005003","name":"Monywa","region":"mm-myanmar","level":"district","parent":"mm-myanmar-p-mmr005","country":"Myanmar","sourceCode":"MMR005003","sourceParentCode":"MMR005","sourceLevel":"ADM2","sourceValidOn":"2024-02-15","center":[95.26375754455916,22.257303784381087],"bbox":[94.93526952000019,21.791431998000178,95.65007966500013,22.633599150000066],"source":"Myanmar Information Management Unit (MIMU) · OCHA/HDX v01 · valid 2024-02-15 · CC BY-IGO","province":"Sagaing"},"geometry":{"type":"Point","coordinates":[95.26375754455916,22.257303784381087]}},{"type":"Feature","id":"mm-myanmar-d-mmr005004","properties":{"id":"mm-myanmar-d-mmr005004","name":"Katha","region":"mm-myanmar","level":"district","parent":"mm-myanmar-p-mmr005","country":"Myanmar","sourceCode":"MMR005004","sourceParentCode":"MMR005","sourceLevel":"ADM2","sourceValidOn":"2024-02-15","center":[96.05576430619388,24.255015314771914],"bbox":[95.28475212300015,23.511802071999966,96.6658357870001,24.959988876000068],"source":"Myanmar Information Management Unit (MIMU) · OCHA/HDX v01 · valid 2024-02-15 · CC BY-IGO","province":"Sagaing"},"geometry":{"type":"Point","coordinates":[96.05576430619388,24.255015314771914]}},{"type":"Feature","id":"mm-myanmar-d-mmr005005","properties":{"id":"mm-myanmar-d-mmr005005","name":"Kale","region":"mm-myanmar","level":"district","parent":"mm-myanmar-p-mmr005","country":"Myanmar","sourceCode":"MMR005005","sourceParentCode":"MMR005","sourceLevel":"ADM2","sourceValidOn":"2024-02-15","center":[94.40944027844886,23.07978245437373],"bbox":[93.94618823800016,22.252671448000058,94.95020108500006,23.656076435000102],"source":"Myanmar Information Management Unit (MIMU) · OCHA/HDX v01 · valid 2024-02-15 · CC BY-IGO","province":"Sagaing"},"geometry":{"type":"Point","coordinates":[94.40944027844886,23.07978245437373]}},{"type":"Feature","id":"mm-myanmar-d-mmr005006","properties":{"id":"mm-myanmar-d-mmr005006","name":"Tamu","region":"mm-myanmar","level":"district","parent":"mm-myanmar-p-mmr005","country":"Myanmar","sourceCode":"MMR005006","sourceParentCode":"MMR005","sourceLevel":"ADM2","sourceValidOn":"2024-02-15","center":[94.38739109617036,24.179686660288162],"bbox":[94.12806425200006,23.64510870100014,94.64038998100006,24.73014308200004],"source":"Myanmar Information Management Unit (MIMU) · OCHA/HDX v01 · valid 2024-02-15 · CC BY-IGO","province":"Sagaing"},"geometry":{"type":"Point","coordinates":[94.38739109617036,24.179686660288162]}},{"type":"Feature","id":"mm-myanmar-d-mmr005007","properties":{"id":"mm-myanmar-d-mmr005007","name":"Mawlaik","region":"mm-myanmar","level":"district","parent":"mm-myanmar-p-mmr005","country":"Myanmar","sourceCode":"MMR005007","sourceParentCode":"MMR005","sourceLevel":"ADM2","sourceValidOn":"2024-02-15","center":[94.74604492412081,23.969189688686058],"bbox":[94.187566457,23.310975690000078,95.36056149100017,24.584051060000093],"source":"Myanmar Information Management Unit (MIMU) · OCHA/HDX v01 · valid 2024-02-15 · CC BY-IGO","province":"Sagaing"},"geometry":{"type":"Point","coordinates":[94.74604492412081,23.969189688686058]}},{"type":"Feature","id":"mm-myanmar-d-mmr005008","properties":{"id":"mm-myanmar-d-mmr005008","name":"Hkamti","region":"mm-myanmar","level":"district","parent":"mm-myanmar-p-mmr005","country":"Myanmar","sourceCode":"MMR005008","sourceParentCode":"MMR005","sourceLevel":"ADM2","sourceValidOn":"2024-02-15","center":[95.47236746689077,25.345889868831133],"bbox":[94.53479976000006,24.29573269800011,96.2163395030002,26.49899227500009],"source":"Myanmar Information Management Unit (MIMU) · OCHA/HDX v01 · valid 2024-02-15 · CC BY-IGO","province":"Sagaing"},"geometry":{"type":"Point","coordinates":[95.47236746689077,25.345889868831133]}},{"type":"Feature","id":"mm-myanmar-d-mmr005009","properties":{"id":"mm-myanmar-d-mmr005009","name":"Yinmarbin","region":"mm-myanmar","level":"district","parent":"mm-myanmar-p-mmr005","country":"Myanmar","sourceCode":"MMR005009","sourceParentCode":"MMR005","sourceLevel":"ADM2","sourceValidOn":"2024-02-15","center":[94.71565250988591,22.248645565614215],"bbox":[94.24486231500015,21.784137301000158,95.16362623700019,22.83444326800003],"source":"Myanmar Information Management Unit (MIMU) · OCHA/HDX v01 · valid 2024-02-15 · CC BY-IGO","province":"Sagaing"},"geometry":{"type":"Point","coordinates":[94.71565250988591,22.248645565614215]}},{"type":"Feature","id":"mm-myanmar-d-mmr005010","properties":{"id":"mm-myanmar-d-mmr005010","name":"Kanbalu","region":"mm-myanmar","level":"district","parent":"mm-myanmar-p-mmr005","country":"Myanmar","sourceCode":"MMR005010","sourceParentCode":"MMR005","sourceLevel":"ADM2","sourceValidOn":"2024-02-15","center":[95.49545617579737,23.324227708712602],"bbox":[94.8594120140001,22.84217110600008,95.99503095600016,23.871317838000095],"source":"Myanmar Information Management Unit (MIMU) · OCHA/HDX v01 · valid 2024-02-15 · CC BY-IGO","province":"Sagaing"},"geometry":{"type":"Point","coordinates":[95.49545617579737,23.324227708712602]}},{"type":"Feature","id":"mm-myanmar-d-mmr005011","properties":{"id":"mm-myanmar-d-mmr005011","name":"Kawlin","region":"mm-myanmar","level":"district","parent":"mm-myanmar-p-mmr005","country":"Myanmar","sourceCode":"MMR005011","sourceParentCode":"MMR005","sourceLevel":"ADM2","sourceValidOn":"2024-02-15","center":[95.53962256060609,23.936610763552576],"bbox":[95.01491522600014,23.479209374000106,96.00927979300008,24.371189496000056],"source":"Myanmar Information Management Unit (MIMU) · OCHA/HDX v01 · valid 2024-02-15 · CC BY-IGO","province":"Sagaing"},"geometry":{"type":"Point","coordinates":[95.53962256060609,23.936610763552576]}},{"type":"Feature","id":"mm-myanmar-d-mmr005s001","properties":{"id":"mm-myanmar-d-mmr005s001","name":"Naga Self-Administered Zone","region":"mm-myanmar","level":"district","parent":"mm-myanmar-p-mmr005","country":"Myanmar","sourceCode":"MMR005S001","sourceParentCode":"MMR005","sourceLevel":"ADM2","sourceValidOn":"2024-02-15","center":[95.86229429106712,26.692781323373175],"bbox":[94.57769997000014,24.873743101000116,97.06690395500016,27.37204735800009],"source":"Myanmar Information Management Unit (MIMU) · OCHA/HDX v01 · valid 2024-02-15 · CC BY-IGO","province":"Sagaing"},"geometry":{"type":"Point","coordinates":[95.86229429106712,26.692781323373175]}},{"type":"Feature","id":"mm-myanmar-d-mmr006001","properties":{"id":"mm-myanmar-d-mmr006001","name":"Dawei","region":"mm-myanmar","level":"district","parent":"mm-myanmar-p-mmr006","country":"Myanmar","sourceCode":"MMR006001","sourceParentCode":"MMR006","sourceLevel":"ADM2","sourceValidOn":"2024-02-15","center":[98.47377602507787,14.087647566548128],"bbox":[97.76344023700005,13.276777128999981,99.20902726100013,15.103377026000146],"source":"Myanmar Information Management Unit (MIMU) · OCHA/HDX v01 · valid 2024-02-15 · CC BY-IGO","province":"Tanintharyi"},"geometry":{"type":"Point","coordinates":[98.47377602507787,14.087647566548128]}},{"type":"Feature","id":"mm-myanmar-d-mmr006002","properties":{"id":"mm-myanmar-d-mmr006002","name":"Myeik","region":"mm-myanmar","level":"district","parent":"mm-myanmar-p-mmr006","country":"Myanmar","sourceCode":"MMR006002","sourceParentCode":"MMR006","sourceLevel":"ADM2","sourceValidOn":"2024-02-15","center":[99.03235799487385,12.40036772574704],"bbox":[97.43408784300004,11.31645813400013,99.665318377,13.52865830200011],"source":"Myanmar Information Management Unit (MIMU) · OCHA/HDX v01 · valid 2024-02-15 · CC BY-IGO","province":"Tanintharyi"},"geometry":{"type":"Point","coordinates":[99.03235799487385,12.40036772574704]}},{"type":"Feature","id":"mm-myanmar-d-mmr006003","properties":{"id":"mm-myanmar-d-mmr006003","name":"Kawthoung","region":"mm-myanmar","level":"district","parent":"mm-myanmar-p-mmr006","country":"Myanmar","sourceCode":"MMR006003","sourceParentCode":"MMR006","sourceLevel":"ADM2","sourceValidOn":"2024-02-15","center":[98.84549235277728,11.039020867175775],"bbox":[97.67706702700013,9.60588355699997,99.3248468930002,11.885532750000039],"source":"Myanmar Information Management Unit (MIMU) · OCHA/HDX v01 · valid 2024-02-15 · CC BY-IGO","province":"Tanintharyi"},"geometry":{"type":"Point","coordinates":[98.84549235277728,11.039020867175775]}},{"type":"Feature","id":"mm-myanmar-d-mmr007001","properties":{"id":"mm-myanmar-d-mmr007001","name":"Bago","region":"mm-myanmar","level":"district","parent":"mm-myanmar-p-mmr007","country":"Myanmar","sourceCode":"MMR007001","sourceParentCode":"MMR007","sourceLevel":"ADM2","sourceValidOn":"2024-02-15","center":[96.58766558277182,17.742865497680985],"bbox":[95.89790987400005,16.829241286000126,97.22418412500014,18.496523067000055],"source":"Myanmar Information Management Unit (MIMU) · OCHA/HDX v01 · valid 2024-02-15 · CC BY-IGO","province":"Bago (East)"},"geometry":{"type":"Point","coordinates":[96.58766558277182,17.742865497680985]}},{"type":"Feature","id":"mm-myanmar-d-mmr007002","properties":{"id":"mm-myanmar-d-mmr007002","name":"Taungoo","region":"mm-myanmar","level":"district","parent":"mm-myanmar-p-mmr007","country":"Myanmar","sourceCode":"MMR007002","sourceParentCode":"MMR007","sourceLevel":"ADM2","sourceValidOn":"2024-02-15","center":[96.3470883256387,18.812599160044403],"bbox":[95.7948732660002,18.12630416200011,97.14081725200003,19.493268968000166],"source":"Myanmar Information Management Unit (MIMU) · OCHA/HDX v01 · valid 2024-02-15 · CC BY-IGO","province":"Bago (East)"},"geometry":{"type":"Point","coordinates":[96.3470883256387,18.812599160044403]}},{"type":"Feature","id":"mm-myanmar-d-mmr008001","properties":{"id":"mm-myanmar-d-mmr008001","name":"Pyay","region":"mm-myanmar","level":"district","parent":"mm-myanmar-p-mmr008","country":"Myanmar","sourceCode":"MMR008001","sourceParentCode":"MMR008","sourceLevel":"ADM2","sourceValidOn":"2024-02-15","center":[95.30185728691484,18.760764290615743],"bbox":[94.68555145900018,18.356580953,95.86743315600012,19.19142698000013],"source":"Myanmar Information Management Unit (MIMU) · OCHA/HDX v01 · valid 2024-02-15 · CC BY-IGO","province":"Bago (West)"},"geometry":{"type":"Point","coordinates":[95.30185728691484,18.760764290615743]}},{"type":"Feature","id":"mm-myanmar-d-mmr008002","properties":{"id":"mm-myanmar-d-mmr008002","name":"Thayarwady","region":"mm-myanmar","level":"district","parent":"mm-myanmar-p-mmr008","country":"Myanmar","sourceCode":"MMR008002","sourceParentCode":"MMR008","sourceLevel":"ADM2","sourceValidOn":"2024-02-15","center":[95.75119092388778,18.100244529532265],"bbox":[95.25743139900004,17.464618042000154,96.200258298,18.79403004800008],"source":"Myanmar Information Management Unit (MIMU) · OCHA/HDX v01 · valid 2024-02-15 · CC BY-IGO","province":"Bago (West)"},"geometry":{"type":"Point","coordinates":[95.75119092388778,18.100244529532265]}},{"type":"Feature","id":"mm-myanmar-d-mmr009001","properties":{"id":"mm-myanmar-d-mmr009001","name":"Magway","region":"mm-myanmar","level":"district","parent":"mm-myanmar-p-mmr009","country":"Myanmar","sourceCode":"MMR009001","sourceParentCode":"MMR009","sourceLevel":"ADM2","sourceValidOn":"2024-02-15","center":[95.31595341994347,20.265475231434507],"bbox":[94.68455429300008,19.628559784000117,95.83418171200009,20.940516435000063],"source":"Myanmar Information Management Unit (MIMU) · OCHA/HDX v01 · valid 2024-02-15 · CC BY-IGO","province":"Magway"},"geometry":{"type":"Point","coordinates":[95.31595341994347,20.265475231434507]}},{"type":"Feature","id":"mm-myanmar-d-mmr009002","properties":{"id":"mm-myanmar-d-mmr009002","name":"Minbu","region":"mm-myanmar","level":"district","parent":"mm-myanmar-p-mmr009","country":"Myanmar","sourceCode":"MMR009002","sourceParentCode":"MMR009","sourceLevel":"ADM2","sourceValidOn":"2024-02-15","center":[94.45731889482899,20.383025990027736],"bbox":[93.84550851500018,19.710523577000117,95.0074431450002,20.98413255500003],"source":"Myanmar Information Management Unit (MIMU) · OCHA/HDX v01 · valid 2024-02-15 · CC BY-IGO","province":"Magway"},"geometry":{"type":"Point","coordinates":[94.45731889482899,20.383025990027736]}},{"type":"Feature","id":"mm-myanmar-d-mmr009003","properties":{"id":"mm-myanmar-d-mmr009003","name":"Thayet","region":"mm-myanmar","level":"district","parent":"mm-myanmar-p-mmr009","country":"Myanmar","sourceCode":"MMR009003","sourceParentCode":"MMR009","sourceLevel":"ADM2","sourceValidOn":"2024-02-15","center":[95.05170007696486,19.437165482657026],"bbox":[94.3194439240001,18.832044662000044,95.85918994500008,19.999922222000066],"source":"Myanmar Information Management Unit (MIMU) · OCHA/HDX v01 · valid 2024-02-15 · CC BY-IGO","province":"Magway"},"geometry":{"type":"Point","coordinates":[95.05170007696486,19.437165482657026]}},{"type":"Feature","id":"mm-myanmar-d-mmr009004","properties":{"id":"mm-myanmar-d-mmr009004","name":"Pakokku","region":"mm-myanmar","level":"district","parent":"mm-myanmar-p-mmr009","country":"Myanmar","sourceCode":"MMR009004","sourceParentCode":"MMR009","sourceLevel":"ADM2","sourceValidOn":"2024-02-15","center":[94.73063482853088,21.43134703024742],"bbox":[94.26469888800017,20.83708193600006,95.34201896100018,21.87254891200007],"source":"Myanmar Information Management Unit (MIMU) · OCHA/HDX v01 · valid 2024-02-15 · CC BY-IGO","province":"Magway"},"geometry":{"type":"Point","coordinates":[94.73063482853088,21.43134703024742]}},{"type":"Feature","id":"mm-myanmar-d-mmr009005","properties":{"id":"mm-myanmar-d-mmr009005","name":"Gangaw","region":"mm-myanmar","level":"district","parent":"mm-myanmar-p-mmr009","country":"Myanmar","sourceCode":"MMR009005","sourceParentCode":"MMR009","sourceLevel":"ADM2","sourceValidOn":"2024-02-15","center":[94.18202002890881,21.80334876509996],"bbox":[93.98118467800015,20.818371652000053,94.43552861500012,22.771278594000137],"source":"Myanmar Information Management Unit (MIMU) · OCHA/HDX v01 · valid 2024-02-15 · CC BY-IGO","province":"Magway"},"geometry":{"type":"Point","coordinates":[94.18202002890881,21.80334876509996]}},{"type":"Feature","id":"mm-myanmar-d-mmr010001","properties":{"id":"mm-myanmar-d-mmr010001","name":"Mandalay","region":"mm-myanmar","level":"district","parent":"mm-myanmar-p-mmr010","country":"Myanmar","sourceCode":"MMR010001","sourceParentCode":"MMR010","sourceLevel":"ADM2","sourceValidOn":"2024-02-15","center":[96.16458975889707,21.96431370086846],"bbox":[95.98402214100014,21.772336818000156,96.3655108160001,22.167438388000164],"source":"Myanmar Information Management Unit (MIMU) · OCHA/HDX v01 · valid 2024-02-15 · CC BY-IGO","province":"Mandalay"},"geometry":{"type":"Point","coordinates":[96.16458975889707,21.96431370086846]}},{"type":"Feature","id":"mm-myanmar-d-mmr010002","properties":{"id":"mm-myanmar-d-mmr010002","name":"Pyinoolwin","region":"mm-myanmar","level":"district","parent":"mm-myanmar-p-mmr010","country":"Myanmar","sourceCode":"MMR010002","sourceParentCode":"MMR010","sourceLevel":"ADM2","sourceValidOn":"2024-02-15","center":[96.25009381228878,22.627528477724603],"bbox":[95.90011064400005,21.668587387,96.76481385100004,23.68380907300019],"source":"Myanmar Information Management Unit (MIMU) · OCHA/HDX v01 · valid 2024-02-15 · CC BY-IGO","province":"Mandalay"},"geometry":{"type":"Point","coordinates":[96.25009381228878,22.627528477724603]}},{"type":"Feature","id":"mm-myanmar-d-mmr010003","properties":{"id":"mm-myanmar-d-mmr010003","name":"Kyaukse","region":"mm-myanmar","level":"district","parent":"mm-myanmar-p-mmr010","country":"Myanmar","sourceCode":"MMR010003","sourceParentCode":"MMR010","sourceLevel":"ADM2","sourceValidOn":"2024-02-15","center":[96.22693206369486,21.616396862717107],"bbox":[95.74718572700004,21.134429580000187,96.89598275700018,22.02372434200015],"source":"Myanmar Information Management Unit (MIMU) · OCHA/HDX v01 · valid 2024-02-15 · CC BY-IGO","province":"Mandalay"},"geometry":{"type":"Point","coordinates":[96.22693206369486,21.616396862717107]}},{"type":"Feature","id":"mm-myanmar-d-mmr010004","properties":{"id":"mm-myanmar-d-mmr010004","name":"Myingyan","region":"mm-myanmar","level":"district","parent":"mm-myanmar-p-mmr010","country":"Myanmar","sourceCode":"MMR010004","sourceParentCode":"MMR010","sourceLevel":"ADM2","sourceValidOn":"2024-02-15","center":[95.54919886455606,21.47200766817589],"bbox":[95.10426226900017,21.009390935,95.98147006200008,21.929849640000043],"source":"Myanmar Information Management Unit (MIMU) · OCHA/HDX v01 · valid 2024-02-15 · CC BY-IGO","province":"Mandalay"},"geometry":{"type":"Point","coordinates":[95.54919886455606,21.47200766817589]}},{"type":"Feature","id":"mm-myanmar-d-mmr010005","properties":{"id":"mm-myanmar-d-mmr010005","name":"Nyaung-U","region":"mm-myanmar","level":"district","parent":"mm-myanmar-p-mmr010","country":"Myanmar","sourceCode":"MMR010005","sourceParentCode":"MMR010","sourceLevel":"ADM2","sourceValidOn":"2024-02-15","center":[95.1556371178429,20.9465207117165],"bbox":[94.82972907900017,20.54267506300016,95.54459962200013,21.313697105000188],"source":"Myanmar Information Management Unit (MIMU) · OCHA/HDX v01 · valid 2024-02-15 · CC BY-IGO","province":"Mandalay"},"geometry":{"type":"Point","coordinates":[95.1556371178429,20.9465207117165]}},{"type":"Feature","id":"mm-myanmar-d-mmr010006","properties":{"id":"mm-myanmar-d-mmr010006","name":"Yamethin","region":"mm-myanmar","level":"district","parent":"mm-myanmar-p-mmr010","country":"Myanmar","sourceCode":"MMR010006","sourceParentCode":"MMR010","sourceLevel":"ADM2","sourceValidOn":"2024-02-15","center":[96.06337806472368,20.49192829572615],"bbox":[95.57018632700004,20.19306886600009,96.54678915900018,20.775570909000123],"source":"Myanmar Information Management Unit (MIMU) · OCHA/HDX v01 · valid 2024-02-15 · CC BY-IGO","province":"Mandalay"},"geometry":{"type":"Point","coordinates":[96.06337806472368,20.49192829572615]}},{"type":"Feature","id":"mm-myanmar-d-mmr010007","properties":{"id":"mm-myanmar-d-mmr010007","name":"Meiktila","region":"mm-myanmar","level":"district","parent":"mm-myanmar-p-mmr010","country":"Myanmar","sourceCode":"MMR010007","sourceParentCode":"MMR010","sourceLevel":"ADM2","sourceValidOn":"2024-02-15","center":[95.97341078745153,20.959600273557026],"bbox":[95.46240295800015,20.506563187000097,96.57554414200007,21.409057526000026],"source":"Myanmar Information Management Unit (MIMU) · OCHA/HDX v01 · valid 2024-02-15 · CC BY-IGO","province":"Mandalay"},"geometry":{"type":"Point","coordinates":[95.97341078745153,20.959600273557026]}},{"type":"Feature","id":"mm-myanmar-d-mmr011001","properties":{"id":"mm-myanmar-d-mmr011001","name":"Mawlamyine","region":"mm-myanmar","level":"district","parent":"mm-myanmar-p-mmr011","country":"Myanmar","sourceCode":"MMR011001","sourceParentCode":"MMR011","sourceLevel":"ADM2","sourceValidOn":"2024-02-15","center":[97.86928383230493,15.743320544549842],"bbox":[97.43864715900014,14.880330939000089,98.23501895600015,16.61124611000008],"source":"Myanmar Information Management Unit (MIMU) · OCHA/HDX v01 · valid 2024-02-15 · CC BY-IGO","province":"Mon"},"geometry":{"type":"Point","coordinates":[97.86928383230493,15.743320544549842]}},{"type":"Feature","id":"mm-myanmar-d-mmr011002","properties":{"id":"mm-myanmar-d-mmr011002","name":"Thaton","region":"mm-myanmar","level":"district","parent":"mm-myanmar-p-mmr011","country":"Myanmar","sourceCode":"MMR011002","sourceParentCode":"MMR011","sourceLevel":"ADM2","sourceValidOn":"2024-02-15","center":[97.25877252304818,17.134419388119937],"bbox":[96.86828500900015,16.495508988000097,97.6484073920002,17.717759929000124],"source":"Myanmar Information Management Unit (MIMU) · OCHA/HDX v01 · valid 2024-02-15 · CC BY-IGO","province":"Mon"},"geometry":{"type":"Point","coordinates":[97.25877252304818,17.134419388119937]}},{"type":"Feature","id":"mm-myanmar-d-mmr012001","properties":{"id":"mm-myanmar-d-mmr012001","name":"Sittwe","region":"mm-myanmar","level":"district","parent":"mm-myanmar-p-mmr012","country":"Myanmar","sourceCode":"MMR012001","sourceParentCode":"MMR012","sourceLevel":"ADM2","sourceValidOn":"2024-02-15","center":[92.85520966076953,20.5165796266306],"bbox":[92.59361348800007,19.788731771000187,93.24911060600004,21.015777181000146],"source":"Myanmar Information Management Unit (MIMU) · OCHA/HDX v01 · valid 2024-02-15 · CC BY-IGO","province":"Rakhine"},"geometry":{"type":"Point","coordinates":[92.85520966076953,20.5165796266306]}},{"type":"Feature","id":"mm-myanmar-d-mmr012002","properties":{"id":"mm-myanmar-d-mmr012002","name":"Maungdaw","region":"mm-myanmar","level":"district","parent":"mm-myanmar-p-mmr012","country":"Myanmar","sourceCode":"MMR012002","sourceParentCode":"MMR012","sourceLevel":"ADM2","sourceValidOn":"2024-02-15","center":[92.48293178445356,21.02759613399914],"bbox":[92.17210485900011,20.44767989600018,92.75065050900008,21.47963283900009],"source":"Myanmar Information Management Unit (MIMU) · OCHA/HDX v01 · valid 2024-02-15 · CC BY-IGO","province":"Rakhine"},"geometry":{"type":"Point","coordinates":[92.48293178445356,21.02759613399914]}},{"type":"Feature","id":"mm-myanmar-d-mmr012003","properties":{"id":"mm-myanmar-d-mmr012003","name":"Kyaukpyu","region":"mm-myanmar","level":"district","parent":"mm-myanmar-p-mmr012","country":"Myanmar","sourceCode":"MMR012003","sourceParentCode":"MMR012","sourceLevel":"ADM2","sourceValidOn":"2024-02-15","center":[93.95521563124626,19.756276278555475],"bbox":[93.46893581500007,18.602344065000068,94.38266195000011,20.570790004000173],"source":"Myanmar Information Management Unit (MIMU) · OCHA/HDX v01 · valid 2024-02-15 · CC BY-IGO","province":"Rakhine"},"geometry":{"type":"Point","coordinates":[93.95521563124626,19.756276278555475]}},{"type":"Feature","id":"mm-myanmar-d-mmr012004","properties":{"id":"mm-myanmar-d-mmr012004","name":"Thandwe","region":"mm-myanmar","level":"district","parent":"mm-myanmar-p-mmr012","country":"Myanmar","sourceCode":"MMR012004","sourceParentCode":"MMR012","sourceLevel":"ADM2","sourceValidOn":"2024-02-15","center":[94.50200440763481,18.53045559833764],"bbox":[94.01662920000007,17.33626772399998,94.9018395990002,19.538339960000087],"source":"Myanmar Information Management Unit (MIMU) · OCHA/HDX v01 · valid 2024-02-15 · CC BY-IGO","province":"Rakhine"},"geometry":{"type":"Point","coordinates":[94.50200440763481,18.53045559833764]}},{"type":"Feature","id":"mm-myanmar-d-mmr012005","properties":{"id":"mm-myanmar-d-mmr012005","name":"Mrauk-U","region":"mm-myanmar","level":"district","parent":"mm-myanmar-p-mmr012","country":"Myanmar","sourceCode":"MMR012005","sourceParentCode":"MMR012","sourceLevel":"ADM2","sourceValidOn":"2024-02-15","center":[93.33607588789185,20.56121266683808],"bbox":[92.71562809400018,19.648265234,93.86613125200006,21.211421352000116],"source":"Myanmar Information Management Unit (MIMU) · OCHA/HDX v01 · valid 2024-02-15 · CC BY-IGO","province":"Rakhine"},"geometry":{"type":"Point","coordinates":[93.33607588789185,20.56121266683808]}},{"type":"Feature","id":"mm-myanmar-d-mmr013001","properties":{"id":"mm-myanmar-d-mmr013001","name":"Yangon (North)","region":"mm-myanmar","level":"district","parent":"mm-myanmar-p-mmr013","country":"Myanmar","sourceCode":"MMR013001","sourceParentCode":"MMR013","sourceLevel":"ADM2","sourceValidOn":"2024-02-15","center":[96.03013767633085,17.269044323546282],"bbox":[95.61798874300018,16.82537619300018,96.40661281800004,17.79695808500003],"source":"Myanmar Information Management Unit (MIMU) · OCHA/HDX v01 · valid 2024-02-15 · CC BY-IGO","province":"Yangon"},"geometry":{"type":"Point","coordinates":[96.03013767633085,17.269044323546282]}},{"type":"Feature","id":"mm-myanmar-d-mmr013002","properties":{"id":"mm-myanmar-d-mmr013002","name":"Yangon (East)","region":"mm-myanmar","level":"district","parent":"mm-myanmar-p-mmr013","country":"Myanmar","sourceCode":"MMR013002","sourceParentCode":"MMR013","sourceLevel":"ADM2","sourceValidOn":"2024-02-15","center":[96.24771699984194,16.89764723277972],"bbox":[96.14248085100013,16.765511447000108,96.36832969900018,17.02322514900004],"source":"Myanmar Information Management Unit (MIMU) · OCHA/HDX v01 · valid 2024-02-15 · CC BY-IGO","province":"Yangon"},"geometry":{"type":"Point","coordinates":[96.24771699984194,16.89764723277972]}},{"type":"Feature","id":"mm-myanmar-d-mmr013003","properties":{"id":"mm-myanmar-d-mmr013003","name":"Yangon (South)","region":"mm-myanmar","level":"district","parent":"mm-myanmar-p-mmr013","country":"Myanmar","sourceCode":"MMR013003","sourceParentCode":"MMR013","sourceLevel":"ADM2","sourceValidOn":"2024-02-15","center":[96.5158657685838,16.744502783183112],"bbox":[93.35195104000019,14.04582802200008,96.82662590900009,16.996498162000137],"source":"Myanmar Information Management Unit (MIMU) · OCHA/HDX v01 · valid 2024-02-15 · CC BY-IGO","province":"Yangon"},"geometry":{"type":"Point","coordinates":[96.5158657685838,16.744502783183112]}},{"type":"Feature","id":"mm-myanmar-d-mmr013004","properties":{"id":"mm-myanmar-d-mmr013004","name":"Yangon (West)","region":"mm-myanmar","level":"district","parent":"mm-myanmar-p-mmr013","country":"Myanmar","sourceCode":"MMR013004","sourceParentCode":"MMR013","sourceLevel":"ADM2","sourceValidOn":"2024-02-15","center":[96.13909744872105,16.83167332252689],"bbox":[96.08450869400008,16.76696805900002,96.1784898200001,16.893709183000112],"source":"Myanmar Information Management Unit (MIMU) · OCHA/HDX v01 · valid 2024-02-15 · CC BY-IGO","province":"Yangon"},"geometry":{"type":"Point","coordinates":[96.13909744872105,16.83167332252689]}},{"type":"Feature","id":"mm-myanmar-d-mmr014001","properties":{"id":"mm-myanmar-d-mmr014001","name":"Taunggyi","region":"mm-myanmar","level":"district","parent":"mm-myanmar-p-mmr014","country":"Myanmar","sourceCode":"MMR014001","sourceParentCode":"MMR014","sourceLevel":"ADM2","sourceValidOn":"2024-02-15","center":[96.92821750272005,20.858257605695165],"bbox":[96.43927271800015,19.299318019999987,97.30097784700007,22.268533211000033],"source":"Myanmar Information Management Unit (MIMU) · OCHA/HDX v01 · valid 2024-02-15 · CC BY-IGO","province":"Shan (South)"},"geometry":{"type":"Point","coordinates":[96.92821750272005,20.858257605695165]}},{"type":"Feature","id":"mm-myanmar-d-mmr014002","properties":{"id":"mm-myanmar-d-mmr014002","name":"Loilen","region":"mm-myanmar","level":"district","parent":"mm-myanmar-p-mmr014","country":"Myanmar","sourceCode":"MMR014002","sourceParentCode":"MMR014","sourceLevel":"ADM2","sourceValidOn":"2024-02-15","center":[97.92760376258774,21.393977047840284],"bbox":[97.132741619,20.438892864000024,98.80549908100011,22.14053868600007],"source":"Myanmar Information Management Unit (MIMU) · OCHA/HDX v01 · valid 2024-02-15 · CC BY-IGO","province":"Shan (South)"},"geometry":{"type":"Point","coordinates":[97.92760376258774,21.393977047840284]}},{"type":"Feature","id":"mm-myanmar-d-mmr014003","properties":{"id":"mm-myanmar-d-mmr014003","name":"Langkho","region":"mm-myanmar","level":"district","parent":"mm-myanmar-p-mmr014","country":"Myanmar","sourceCode":"MMR014003","sourceParentCode":"MMR014","sourceLevel":"ADM2","sourceValidOn":"2024-02-15","center":[98.02872243062896,20.26507214999849],"bbox":[97.38811500400004,19.5724055660001,98.69855694000017,20.968132460000163],"source":"Myanmar Information Management Unit (MIMU) · OCHA/HDX v01 · valid 2024-02-15 · CC BY-IGO","province":"Shan (South)"},"geometry":{"type":"Point","coordinates":[98.02872243062896,20.26507214999849]}},{"type":"Feature","id":"mm-myanmar-d-mmr014s001","properties":{"id":"mm-myanmar-d-mmr014s001","name":"Danu Self-Administered Zone","region":"mm-myanmar","level":"district","parent":"mm-myanmar-p-mmr014","country":"Myanmar","sourceCode":"MMR014S001","sourceParentCode":"MMR014","sourceLevel":"ADM2","sourceValidOn":"2024-02-15","center":[96.52970329165868,21.223881796595613],"bbox":[96.2036073330001,20.710592142,96.79884849300004,21.734540933000062],"source":"Myanmar Information Management Unit (MIMU) · OCHA/HDX v01 · valid 2024-02-15 · CC BY-IGO","province":"Shan (South)"},"geometry":{"type":"Point","coordinates":[96.52970329165868,21.223881796595613]}},{"type":"Feature","id":"mm-myanmar-d-mmr014s002","properties":{"id":"mm-myanmar-d-mmr014s002","name":"Pa-O Self-Administered Zone","region":"mm-myanmar","level":"district","parent":"mm-myanmar-p-mmr014","country":"Myanmar","sourceCode":"MMR014S002","sourceParentCode":"MMR014","sourceLevel":"ADM2","sourceValidOn":"2024-02-15","center":[97.27238439072983,20.702494705620865],"bbox":[96.363485336,19.743081922999977,97.47343223700005,21.462290003000078],"source":"Myanmar Information Management Unit (MIMU) · OCHA/HDX v01 · valid 2024-02-15 · CC BY-IGO","province":"Shan (South)"},"geometry":{"type":"Point","coordinates":[97.27238439072983,20.702494705620865]}},{"type":"Feature","id":"mm-myanmar-d-mmr015001","properties":{"id":"mm-myanmar-d-mmr015001","name":"Lashio","region":"mm-myanmar","level":"district","parent":"mm-myanmar-p-mmr015","country":"Myanmar","sourceCode":"MMR015001","sourceParentCode":"MMR015","sourceLevel":"ADM2","sourceValidOn":"2024-02-15","center":[98.19560500102749,22.7682486207307],"bbox":[97.51502010800016,21.838959540000133,98.81761381700011,23.69405555500009],"source":"Myanmar Information Management Unit (MIMU) · OCHA/HDX v01 · valid 2024-02-15 · CC BY-IGO","province":"Shan (North)"},"geometry":{"type":"Point","coordinates":[98.19560500102749,22.7682486207307]}},{"type":"Feature","id":"mm-myanmar-d-mmr015002","properties":{"id":"mm-myanmar-d-mmr015002","name":"Muse","region":"mm-myanmar","level":"district","parent":"mm-myanmar-p-mmr015","country":"Myanmar","sourceCode":"MMR015002","sourceParentCode":"MMR015","sourceLevel":"ADM2","sourceValidOn":"2024-02-15","center":[98.01228575047648,23.685742041620706],"bbox":[97.34330940200005,23.215383101000043,98.59431172600011,24.130537284000127],"source":"Myanmar Information Management Unit (MIMU) · OCHA/HDX v01 · valid 2024-02-15 · CC BY-IGO","province":"Shan (North)"},"geometry":{"type":"Point","coordinates":[98.01228575047648,23.685742041620706]}},{"type":"Feature","id":"mm-myanmar-d-mmr015003","properties":{"id":"mm-myanmar-d-mmr015003","name":"Kyaukme","region":"mm-myanmar","level":"district","parent":"mm-myanmar-p-mmr015","country":"Myanmar","sourceCode":"MMR015003","sourceParentCode":"MMR015","sourceLevel":"ADM2","sourceValidOn":"2024-02-15","center":[97.13645725168914,22.50270737857297],"bbox":[96.20415815400008,21.93657069300002,98.02245132900003,23.30088550100004],"source":"Myanmar Information Management Unit (MIMU) · OCHA/HDX v01 · valid 2024-02-15 · CC BY-IGO","province":"Shan (North)"},"geometry":{"type":"Point","coordinates":[97.13645725168914,22.50270737857297]}},{"type":"Feature","id":"mm-myanmar-d-mmr015006","properties":{"id":"mm-myanmar-d-mmr015006","name":"Hopang","region":"mm-myanmar","level":"district","parent":"mm-myanmar-p-mmr015","country":"Myanmar","sourceCode":"MMR015006","sourceParentCode":"MMR015","sourceLevel":"ADM2","sourceValidOn":"2024-02-15","center":[98.96837571513659,23.025885821863813],"bbox":[98.431389265,22.71101926400013,99.56572167500008,23.488015897000025],"source":"Myanmar Information Management Unit (MIMU) · OCHA/HDX v01 · valid 2024-02-15 · CC BY-IGO","province":"Shan (North)"},"geometry":{"type":"Point","coordinates":[98.96837571513659,23.025885821863813]}},{"type":"Feature","id":"mm-myanmar-d-mmr015007","properties":{"id":"mm-myanmar-d-mmr015007","name":"Matman","region":"mm-myanmar","level":"district","parent":"mm-myanmar-p-mmr015","country":"Myanmar","sourceCode":"MMR015007","sourceParentCode":"MMR015","sourceLevel":"ADM2","sourceValidOn":"2024-02-15","center":[98.89636553703997,22.26529071436309],"bbox":[98.51832648000016,21.48299690300007,99.3837054170001,22.891115005000074],"source":"Myanmar Information Management Unit (MIMU) · OCHA/HDX v01 · valid 2024-02-15 · CC BY-IGO","province":"Shan (North)"},"geometry":{"type":"Point","coordinates":[98.89636553703997,22.26529071436309]}},{"type":"Feature","id":"mm-myanmar-d-mmr015008","properties":{"id":"mm-myanmar-d-mmr015008","name":"Mongmit","region":"mm-myanmar","level":"district","parent":"mm-myanmar-p-mmr015","country":"Myanmar","sourceCode":"MMR015008","sourceParentCode":"MMR015","sourceLevel":"ADM2","sourceValidOn":"2024-02-15","center":[96.66042485170406,23.457276082678444],"bbox":[96.15106915000007,22.892495967000116,97.3376251750002,24.159066840000037],"source":"Myanmar Information Management Unit (MIMU) · OCHA/HDX v01 · valid 2024-02-15 · CC BY-IGO","province":"Shan (North)"},"geometry":{"type":"Point","coordinates":[96.66042485170406,23.457276082678444]}},{"type":"Feature","id":"mm-myanmar-d-mmr015s001","properties":{"id":"mm-myanmar-d-mmr015s001","name":"Pa Laung Self-Administered Zone","region":"mm-myanmar","level":"district","parent":"mm-myanmar-p-mmr015","country":"Myanmar","sourceCode":"MMR015S001","sourceParentCode":"MMR015","sourceLevel":"ADM2","sourceValidOn":"2024-02-15","center":[97.21859781617204,23.210801225898425],"bbox":[96.8071991720002,22.715607639000098,97.69532952100019,23.69687098600008],"source":"Myanmar Information Management Unit (MIMU) · OCHA/HDX v01 · valid 2024-02-15 · CC BY-IGO","province":"Shan (North)"},"geometry":{"type":"Point","coordinates":[97.21859781617204,23.210801225898425]}},{"type":"Feature","id":"mm-myanmar-d-mmr015s002","properties":{"id":"mm-myanmar-d-mmr015s002","name":"Kokang Self-Administered Zone","region":"mm-myanmar","level":"district","parent":"mm-myanmar-p-mmr015","country":"Myanmar","sourceCode":"MMR015S002","sourceParentCode":"MMR015","sourceLevel":"ADM2","sourceValidOn":"2024-02-15","center":[98.65406503996124,23.833636007753558],"bbox":[98.40007919800013,23.45930752600009,98.89921092900005,24.15575202000008],"source":"Myanmar Information Management Unit (MIMU) · OCHA/HDX v01 · valid 2024-02-15 · CC BY-IGO","province":"Shan (North)"},"geometry":{"type":"Point","coordinates":[98.65406503996124,23.833636007753558]}},{"type":"Feature","id":"mm-myanmar-d-mmr016001","properties":{"id":"mm-myanmar-d-mmr016001","name":"Kengtung","region":"mm-myanmar","level":"district","parent":"mm-myanmar-p-mmr016","country":"Myanmar","sourceCode":"MMR016001","sourceParentCode":"MMR016","sourceLevel":"ADM2","sourceValidOn":"2024-02-15","center":[99.3748244875916,21.42249450996425],"bbox":[98.48813808900019,20.57793717200019,100.23812284600007,22.162689066000155],"source":"Myanmar Information Management Unit (MIMU) · OCHA/HDX v01 · valid 2024-02-15 · CC BY-IGO","province":"Shan (East)"},"geometry":{"type":"Point","coordinates":[99.3748244875916,21.42249450996425]}},{"type":"Feature","id":"mm-myanmar-d-mmr016002","properties":{"id":"mm-myanmar-d-mmr016002","name":"Monghsat","region":"mm-myanmar","level":"district","parent":"mm-myanmar-p-mmr016","country":"Myanmar","sourceCode":"MMR016002","sourceParentCode":"MMR016","sourceLevel":"ADM2","sourceValidOn":"2024-02-15","center":[98.99544539653108,20.327141878220928],"bbox":[98.20889536300007,19.671514147000096,99.68281561600008,20.997944459999985],"source":"Myanmar Information Management Unit (MIMU) · OCHA/HDX v01 · valid 2024-02-15 · CC BY-IGO","province":"Shan (East)"},"geometry":{"type":"Point","coordinates":[98.99544539653108,20.327141878220928]}},{"type":"Feature","id":"mm-myanmar-d-mmr016003","properties":{"id":"mm-myanmar-d-mmr016003","name":"Tachileik","region":"mm-myanmar","level":"district","parent":"mm-myanmar-p-mmr016","country":"Myanmar","sourceCode":"MMR016003","sourceParentCode":"MMR016","sourceLevel":"ADM2","sourceValidOn":"2024-02-15","center":[100.26750820921828,21.03243079645742],"bbox":[99.50632451000007,20.31746669800009,101.17001505500019,21.777816502],"source":"Myanmar Information Management Unit (MIMU) · OCHA/HDX v01 · valid 2024-02-15 · CC BY-IGO","province":"Shan (East)"},"geometry":{"type":"Point","coordinates":[100.26750820921828,21.03243079645742]}},{"type":"Feature","id":"mm-myanmar-d-mmr017001","properties":{"id":"mm-myanmar-d-mmr017001","name":"Pathein","region":"mm-myanmar","level":"district","parent":"mm-myanmar-p-mmr017","country":"Myanmar","sourceCode":"MMR017001","sourceParentCode":"MMR017","sourceLevel":"ADM2","sourceValidOn":"2024-02-15","center":[94.75234206017075,16.90899273506959],"bbox":[94.19112637600017,15.83320425100004,95.43330938600008,17.574309394000124],"source":"Myanmar Information Management Unit (MIMU) · OCHA/HDX v01 · valid 2024-02-15 · CC BY-IGO","province":"Ayeyarwady"},"geometry":{"type":"Point","coordinates":[94.75234206017075,16.90899273506959]}},{"type":"Feature","id":"mm-myanmar-d-mmr017002","properties":{"id":"mm-myanmar-d-mmr017002","name":"Hinthada","region":"mm-myanmar","level":"district","parent":"mm-myanmar-p-mmr017","country":"Myanmar","sourceCode":"MMR017002","sourceParentCode":"MMR017","sourceLevel":"ADM2","sourceValidOn":"2024-02-15","center":[95.1903542563677,17.87514578581874],"bbox":[94.77848931600016,17.336049998000078,95.7363949120001,18.51084976900006],"source":"Myanmar Information Management Unit (MIMU) · OCHA/HDX v01 · valid 2024-02-15 · CC BY-IGO","province":"Ayeyarwady"},"geometry":{"type":"Point","coordinates":[95.1903542563677,17.87514578581874]}},{"type":"Feature","id":"mm-myanmar-d-mmr017003","properties":{"id":"mm-myanmar-d-mmr017003","name":"Myaungmya","region":"mm-myanmar","level":"district","parent":"mm-myanmar-p-mmr017","country":"Myanmar","sourceCode":"MMR017003","sourceParentCode":"MMR017","sourceLevel":"ADM2","sourceValidOn":"2024-02-15","center":[95.07482175136688,16.60756266058921],"bbox":[94.6913012060001,16.271153913999967,95.48409683800008,16.969353527000123],"source":"Myanmar Information Management Unit (MIMU) · OCHA/HDX v01 · valid 2024-02-15 · CC BY-IGO","province":"Ayeyarwady"},"geometry":{"type":"Point","coordinates":[95.07482175136688,16.60756266058921]}},{"type":"Feature","id":"mm-myanmar-d-mmr017004","properties":{"id":"mm-myanmar-d-mmr017004","name":"Labutta","region":"mm-myanmar","level":"district","parent":"mm-myanmar-p-mmr017","country":"Myanmar","sourceCode":"MMR017004","sourceParentCode":"MMR017","sourceLevel":"ADM2","sourceValidOn":"2024-02-15","center":[95.28888403001208,16.365197296590846],"bbox":[94.507411032,15.712265621000086,95.53285812100006,16.592279751000092],"source":"Myanmar Information Management Unit (MIMU) · OCHA/HDX v01 · valid 2024-02-15 · CC BY-IGO","province":"Ayeyarwady"},"geometry":{"type":"Point","coordinates":[95.28888403001208,16.365197296590846]}},{"type":"Feature","id":"mm-myanmar-d-mmr017005","properties":{"id":"mm-myanmar-d-mmr017005","name":"Maubin","region":"mm-myanmar","level":"district","parent":"mm-myanmar-p-mmr017","country":"Myanmar","sourceCode":"MMR017005","sourceParentCode":"MMR017","sourceLevel":"ADM2","sourceValidOn":"2024-02-15","center":[95.57212541834592,16.955131297432843],"bbox":[95.20158235700006,16.50749979800014,95.88682633100018,17.412233184000115],"source":"Myanmar Information Management Unit (MIMU) · OCHA/HDX v01 · valid 2024-02-15 · CC BY-IGO","province":"Ayeyarwady"},"geometry":{"type":"Point","coordinates":[95.57212541834592,16.955131297432843]}},{"type":"Feature","id":"mm-myanmar-d-mmr017006","properties":{"id":"mm-myanmar-d-mmr017006","name":"Pyapon","region":"mm-myanmar","level":"district","parent":"mm-myanmar-p-mmr017","country":"Myanmar","sourceCode":"MMR017006","sourceParentCode":"MMR017","sourceLevel":"ADM2","sourceValidOn":"2024-02-15","center":[95.52870373898162,16.17654837872183],"bbox":[95.08950307600014,15.672009450000076,96.07974520800013,16.650412028000062],"source":"Myanmar Information Management Unit (MIMU) · OCHA/HDX v01 · valid 2024-02-15 · CC BY-IGO","province":"Ayeyarwady"},"geometry":{"type":"Point","coordinates":[95.52870373898162,16.17654837872183]}},{"type":"Feature","id":"mm-myanmar-d-mmr018001","properties":{"id":"mm-myanmar-d-mmr018001","name":"Oke Ta Ra","region":"mm-myanmar","level":"district","parent":"mm-myanmar-p-mmr018","country":"Myanmar","sourceCode":"MMR018001","sourceParentCode":"MMR018","sourceLevel":"ADM2","sourceValidOn":"2024-02-15","center":[96.13920709175112,20.04539494948992],"bbox":[95.73695564900004,19.7129491930001,96.50475889500018,20.331037675000175],"source":"Myanmar Information Management Unit (MIMU) · OCHA/HDX v01 · valid 2024-02-15 · CC BY-IGO","province":"Nay Pyi Taw"},"geometry":{"type":"Point","coordinates":[96.13920709175112,20.04539494948992]}},{"type":"Feature","id":"mm-myanmar-d-mmr018002","properties":{"id":"mm-myanmar-d-mmr018002","name":"Det Khi Na","region":"mm-myanmar","level":"district","parent":"mm-myanmar-p-mmr018","country":"Myanmar","sourceCode":"MMR018002","sourceParentCode":"MMR018","sourceLevel":"ADM2","sourceValidOn":"2024-02-15","center":[96.16788402852548,19.639286562149504],"bbox":[95.71268004100017,19.416956005000145,96.675470153,19.940656175000072],"source":"Myanmar Information Management Unit (MIMU) · OCHA/HDX v01 · valid 2024-02-15 · CC BY-IGO","province":"Nay Pyi Taw"},"geometry":{"type":"Point","coordinates":[96.16788402852548,19.639286562149504]}}]}
