{"type":"FeatureCollection","features":[{"type":"Feature","id":"mv-maldives-d-mv020","properties":{"id":"mv-maldives-d-mv020","name":"Alifu Dhaalu","region":"mv-maldives","level":"district","parent":"mv-maldives","country":"Maldives","sourceCode":"MV020","sourceParentCode":"MV","sourceLevel":"ADM1","sourceValidOn":"2024-10-22","center":[72.83580559178229,3.699675723956217],"bbox":[72.68540900000016,3.463695,72.987632,3.906613763000166],"source":"Government of the republic of Maldives · OCHA/HDX v02 · valid 2024-10-22 · CC BY-IGO"},"geometry":{"type":"Point","coordinates":[72.83580559178229,3.699675723956217]}},{"type":"Feature","id":"mv-maldives-d-mv008","properties":{"id":"mv-maldives-d-mv008","name":"Alifu Alifu","region":"mv-maldives","level":"district","parent":"mv-maldives","country":"Maldives","sourceCode":"MV008","sourceParentCode":"MV","sourceLevel":"ADM1","sourceValidOn":"2024-10-22","center":[72.83127476202048,4.067672383971529],"bbox":[72.70160965600013,3.90018042000014,73.01364414400007,4.448499556000115],"source":"Government of the republic of Maldives · OCHA/HDX v02 · valid 2024-10-22 · CC BY-IGO"},"geometry":{"type":"Point","coordinates":[72.83127476202048,4.067672383971529]}},{"type":"Feature","id":"mv-maldives-d-mv007","properties":{"id":"mv-maldives-d-mv007","name":"Baa","region":"mv-maldives","level":"district","parent":"mv-maldives","country":"Maldives","sourceCode":"MV007","sourceParentCode":"MV","sourceLevel":"ADM1","sourceValidOn":"2024-10-22","center":[72.98140822007633,5.159296131501181],"bbox":[72.807968,4.807879000000185,73.19972200000018,5.3808590000001],"source":"Government of the republic of Maldives · OCHA/HDX v02 · valid 2024-10-22 · CC BY-IGO"},"geometry":{"type":"Point","coordinates":[72.98140822007633,5.159296131501181]}},{"type":"Feature","id":"mv-maldives-d-mv012","properties":{"id":"mv-maldives-d-mv012","name":"Dhaalu","region":"mv-maldives","level":"district","parent":"mv-maldives","country":"Maldives","sourceCode":"MV012","sourceParentCode":"MV","sourceLevel":"ADM1","sourceValidOn":"2024-10-22","center":[72.92816280503453,2.837716829220657],"bbox":[72.81607800000012,2.657679,73.034698,3.012732],"source":"Government of the republic of Maldives · OCHA/HDX v02 · valid 2024-10-22 · CC BY-IGO"},"geometry":{"type":"Point","coordinates":[72.92816280503453,2.837716829220657]}},{"type":"Feature","id":"mv-maldives-d-mv011","properties":{"id":"mv-maldives-d-mv011","name":"Faafu","region":"mv-maldives","level":"district","parent":"mv-maldives","country":"Maldives","sourceCode":"MV011","sourceParentCode":"MV","sourceLevel":"ADM1","sourceValidOn":"2024-10-22","center":[72.923891296255,3.191908710805822],"bbox":[72.8003690000001,3.045103,73.048179,3.330439000000126],"source":"Government of the republic of Maldives · OCHA/HDX v02 · valid 2024-10-22 · CC BY-IGO"},"geometry":{"type":"Point","coordinates":[72.923891296255,3.191908710805822]}},{"type":"Feature","id":"mv-maldives-d-mv016","properties":{"id":"mv-maldives-d-mv016","name":"Gaafu Alifu","region":"mv-maldives","level":"district","parent":"mv-maldives","country":"Maldives","sourceCode":"MV016","sourceParentCode":"MV","sourceLevel":"ADM1","sourceValidOn":"2024-10-22","center":[73.3429282145779,0.6276144228584674],"bbox":[73.03362675500011,0.336723513000152,73.5918190000001,0.934193000000164],"source":"Government of the republic of Maldives · OCHA/HDX v02 · valid 2024-10-22 · CC BY-IGO"},"geometry":{"type":"Point","coordinates":[73.3429282145779,0.6276144228584674]}},{"type":"Feature","id":"mv-maldives-d-mv017","properties":{"id":"mv-maldives-d-mv017","name":"Gaafu Dhaalu","region":"mv-maldives","level":"district","parent":"mv-maldives","country":"Maldives","sourceCode":"MV017","sourceParentCode":"MV","sourceLevel":"ADM1","sourceValidOn":"2024-10-22","center":[73.21000316181392,0.36337401513940104],"bbox":[72.98232200000018,0.173572,73.5412906030001,0.58118396600014],"source":"Government of the republic of Maldives · OCHA/HDX v02 · valid 2024-10-22 · CC BY-IGO"},"geometry":{"type":"Point","coordinates":[73.21000316181392,0.36337401513940104]}},{"type":"Feature","id":"mv-maldives-d-mv018","properties":{"id":"mv-maldives-d-mv018","name":"Gnaviyani","region":"mv-maldives","level":"district","parent":"mv-maldives","country":"Maldives","sourceCode":"MV018","sourceParentCode":"MV","sourceLevel":"ADM1","sourceValidOn":"2024-10-22","center":[73.42892816940075,-0.3031408192783795],"bbox":[73.40822075000017,-0.330575571999873,73.44867586200007,-0.275610587999893],"source":"Government of the republic of Maldives · OCHA/HDX v02 · valid 2024-10-22 · CC BY-IGO"},"geometry":{"type":"Point","coordinates":[73.42892816940075,-0.3031408192783795]}},{"type":"Feature","id":"mv-maldives-d-mv001","properties":{"id":"mv-maldives-d-mv001","name":"Haa Alifu","region":"mv-maldives","level":"district","parent":"mv-maldives","country":"Maldives","sourceCode":"MV001","sourceParentCode":"MV","sourceLevel":"ADM1","sourceValidOn":"2024-10-22","center":[73.12256427619786,6.864231031109199],"bbox":[72.79171701700005,6.804996772000038,73.24771100000015,7.114926],"source":"Government of the republic of Maldives · OCHA/HDX v02 · valid 2024-10-22 · CC BY-IGO"},"geometry":{"type":"Point","coordinates":[73.12256427619786,6.864231031109199]}},{"type":"Feature","id":"mv-maldives-d-mv002","properties":{"id":"mv-maldives-d-mv002","name":"Haa Dhaalu","region":"mv-maldives","level":"district","parent":"mv-maldives","country":"Maldives","sourceCode":"MV002","sourceParentCode":"MV","sourceLevel":"ADM1","sourceValidOn":"2024-10-22","center":[73.00294215883318,6.663707794223543],"bbox":[72.543579,6.185204000000169,73.20743662400008,6.806895926000152],"source":"Government of the republic of Maldives · OCHA/HDX v02 · valid 2024-10-22 · CC BY-IGO"},"geometry":{"type":"Point","coordinates":[73.00294215883318,6.663707794223543]}},{"type":"Feature","id":"mv-maldives-d-mv009","properties":{"id":"mv-maldives-d-mv009","name":"Kaafu","region":"mv-maldives","level":"district","parent":"mv-maldives","country":"Maldives","sourceCode":"MV009","sourceParentCode":"MV","sourceLevel":"ADM1","sourceValidOn":"2024-10-22","center":[73.49720102670558,4.432033020483311],"bbox":[73.33356400000014,3.804502000000184,73.7264630000002,4.97688],"source":"Government of the republic of Maldives · OCHA/HDX v02 · valid 2024-10-22 · CC BY-IGO"},"geometry":{"type":"Point","coordinates":[73.49720102670558,4.432033020483311]}},{"type":"Feature","id":"mv-maldives-d-mv015","properties":{"id":"mv-maldives-d-mv015","name":"Laamu","region":"mv-maldives","level":"district","parent":"mv-maldives","country":"Maldives","sourceCode":"MV015","sourceParentCode":"MV","sourceLevel":"ADM1","sourceValidOn":"2024-10-22","center":[73.40949214396265,1.9329603990847823],"bbox":[73.23341300000016,1.775643,73.588233,2.13659],"source":"Government of the republic of Maldives · OCHA/HDX v02 · valid 2024-10-22 · CC BY-IGO"},"geometry":{"type":"Point","coordinates":[73.40949214396265,1.9329603990847823]}},{"type":"Feature","id":"mv-maldives-d-mv005","properties":{"id":"mv-maldives-d-mv005","name":"Lhaviyani","region":"mv-maldives","level":"district","parent":"mv-maldives","country":"Maldives","sourceCode":"MV005","sourceParentCode":"MV","sourceLevel":"ADM1","sourceValidOn":"2024-10-22","center":[73.50922639915329,5.396662496095037],"bbox":[73.326583,5.240479082000036,73.66323000000017,5.561557],"source":"Government of the republic of Maldives · OCHA/HDX v02 · valid 2024-10-22 · CC BY-IGO"},"geometry":{"type":"Point","coordinates":[73.50922639915329,5.396662496095037]}},{"type":"Feature","id":"mv-maldives-d-mv021","properties":{"id":"mv-maldives-d-mv021","name":"Male","region":"mv-maldives","level":"district","parent":"mv-maldives","country":"Maldives","sourceCode":"MV021","sourceParentCode":"MV","sourceLevel":"ADM1","sourceValidOn":"2024-10-22","center":[73.54310760835952,4.223190743827043],"bbox":[73.4812647170001,4.167763138000055,73.55526814300003,4.242998493000073],"source":"Government of the republic of Maldives · OCHA/HDX v02 · valid 2024-10-22 · CC BY-IGO"},"geometry":{"type":"Point","coordinates":[73.54310760835952,4.223190743827043]}},{"type":"Feature","id":"mv-maldives-d-mv013","properties":{"id":"mv-maldives-d-mv013","name":"Meemu","region":"mv-maldives","level":"district","parent":"mv-maldives","country":"Maldives","sourceCode":"MV013","sourceParentCode":"MV","sourceLevel":"ADM1","sourceValidOn":"2024-10-22","center":[73.48048194539454,2.986135392179533],"bbox":[73.35519400000015,2.740137000000118,73.66274200000015,3.18319200000019],"source":"Government of the republic of Maldives · OCHA/HDX v02 · valid 2024-10-22 · CC BY-IGO"},"geometry":{"type":"Point","coordinates":[73.48048194539454,2.986135392179533]}},{"type":"Feature","id":"mv-maldives-d-mv004","properties":{"id":"mv-maldives-d-mv004","name":"Noonu","region":"mv-maldives","level":"district","parent":"mv-maldives","country":"Maldives","sourceCode":"MV004","sourceParentCode":"MV","sourceLevel":"ADM1","sourceValidOn":"2024-10-22","center":[73.30557708429329,5.830457331142665],"bbox":[73.111438243,5.633875,73.4925150000002,6.009276137000086],"source":"Government of the republic of Maldives · OCHA/HDX v02 · valid 2024-10-22 · CC BY-IGO"},"geometry":{"type":"Point","coordinates":[73.30557708429329,5.830457331142665]}},{"type":"Feature","id":"mv-maldives-d-mv006","properties":{"id":"mv-maldives-d-mv006","name":"Raa","region":"mv-maldives","level":"district","parent":"mv-maldives","country":"Maldives","sourceCode":"MV006","sourceParentCode":"MV","sourceLevel":"ADM1","sourceValidOn":"2024-10-22","center":[72.93550043687056,5.607649585714479],"bbox":[72.784378,5.325590000000147,73.05798300000015,5.984725],"source":"Government of the republic of Maldives · OCHA/HDX v02 · valid 2024-10-22 · CC BY-IGO"},"geometry":{"type":"Point","coordinates":[72.93550043687056,5.607649585714479]}},{"type":"Feature","id":"mv-maldives-d-mv019","properties":{"id":"mv-maldives-d-mv019","name":"Seenu","region":"mv-maldives","level":"district","parent":"mv-maldives","country":"Maldives","sourceCode":"MV019","sourceParentCode":"MV","sourceLevel":"ADM1","sourceValidOn":"2024-10-22","center":[73.16287540450622,-0.6371966979362209],"bbox":[73.068970229,-0.709681,73.24475,-0.572933],"source":"Government of the republic of Maldives · OCHA/HDX v02 · valid 2024-10-22 · CC BY-IGO"},"geometry":{"type":"Point","coordinates":[73.16287540450622,-0.6371966979362209]}},{"type":"Feature","id":"mv-maldives-d-mv003","properties":{"id":"mv-maldives-d-mv003","name":"Shaviyani","region":"mv-maldives","level":"district","parent":"mv-maldives","country":"Maldives","sourceCode":"MV003","sourceParentCode":"MV","sourceLevel":"ADM1","sourceValidOn":"2024-10-22","center":[73.10849090926747,6.227027437672955],"bbox":[72.8575118650001,5.95870216000003,73.3131000570001,6.500281776000179],"source":"Government of the republic of Maldives · OCHA/HDX v02 · valid 2024-10-22 · CC BY-IGO"},"geometry":{"type":"Point","coordinates":[73.10849090926747,6.227027437672955]}},{"type":"Feature","id":"mv-maldives-d-mv014","properties":{"id":"mv-maldives-d-mv014","name":"Thaa","region":"mv-maldives","level":"district","parent":"mv-maldives","country":"Maldives","sourceCode":"MV014","sourceParentCode":"MV","sourceLevel":"ADM1","sourceValidOn":"2024-10-22","center":[73.10762060220706,2.3745099617562357],"bbox":[72.877037,2.156424000000186,73.3804160000002,2.565438],"source":"Government of the republic of Maldives · OCHA/HDX v02 · valid 2024-10-22 · CC BY-IGO"},"geometry":{"type":"Point","coordinates":[73.10762060220706,2.3745099617562357]}},{"type":"Feature","id":"mv-maldives-d-mv010","properties":{"id":"mv-maldives-d-mv010","name":"Vaavu","region":"mv-maldives","level":"district","parent":"mv-maldives","country":"Maldives","sourceCode":"MV010","sourceParentCode":"MV","sourceLevel":"ADM1","sourceValidOn":"2024-10-22","center":[73.49106266797885,3.481328909223693],"bbox":[73.271553,3.219775299999981,73.772628,3.686218000000167],"source":"Government of the republic of Maldives · OCHA/HDX v02 · valid 2024-10-22 · CC BY-IGO"},"geometry":{"type":"Point","coordinates":[73.49106266797885,3.481328909223693]}}]}
