{"type":"FeatureCollection","features":[{"type":"Feature","id":"mv-maldives","properties":{"id":"mv-maldives","name":"Maldives","region":"mv-maldives","level":"region","parent":"","country":"Maldives","sourceCode":"MV","sourceParentCode":"","sourceLevel":"ADM0","sourceValidOn":"2024-10-22","center":[73.1423704149884,6.264499964991859],"bbox":[72.543579,-0.709681,73.772628,7.114926],"source":"Government of the republic of Maldives · OCHA/HDX v02 · valid 2024-10-22 · CC BY-IGO"},"geometry":{"type":"Point","coordinates":[73.1423704149884,6.264499964991859]}}]}
