{"type":"FeatureCollection","features":[{"type":"Feature","id":"np-nepal","properties":{"id":"np-nepal","name":"Nepal","region":"np-nepal","level":"region","parent":"","country":"Nepal","sourceCode":"NP","sourceParentCode":"","sourceLevel":"ADM0","sourceValidOn":"2024-03-14","center":[83.94396685987249,28.25912888123043],"bbox":[80.05846710800012,26.347762022000154,88.20154995700005,30.44719846700019],"source":"Survey Department of Nepal (http://ngiip.gov.np/index.php), UN Resident Coordinators Office in Nepal (https://un.org.np/) · OCHA/HDX v02 · valid 2024-03-14 · CC BY-IGO"},"geometry":{"type":"Point","coordinates":[83.94396685987249,28.25912888123043]}}]}
