{"type":"FeatureCollection","features":[{"type":"Feature","id":"np-nepal-p-np03","properties":{"id":"np-nepal-p-np03","name":"Bagmati","region":"np-nepal","level":"province","parent":"np-nepal","country":"Nepal","sourceCode":"NP03","sourceParentCode":"NP","sourceLevel":"ADM1","sourceValidOn":"2024-03-14","center":[85.47044664257989,27.67857609082723],"bbox":[83.91865602100006,26.919067547000168,86.57264510000005,28.386209289000078],"source":"Survey Department of Nepal (http://ngiip.gov.np/index.php), UN Resident Coordinators Office in Nepal (https://un.org.np/) · OCHA/HDX v02 · valid 2024-03-14 · CC BY-IGO"},"geometry":{"type":"Point","coordinates":[85.47044664257989,27.67857609082723]}},{"type":"Feature","id":"np-nepal-p-np04","properties":{"id":"np-nepal-p-np04","name":"Gandaki","region":"np-nepal","level":"province","parent":"np-nepal","country":"Nepal","sourceCode":"NP04","sourceParentCode":"NP","sourceLevel":"ADM1","sourceValidOn":"2024-03-14","center":[84.04965466229072,28.408985603126876],"bbox":[82.87723563200018,27.437745590000134,85.19789804400017,29.33128220000009],"source":"Survey Department of Nepal (http://ngiip.gov.np/index.php), UN Resident Coordinators Office in Nepal (https://un.org.np/) · OCHA/HDX v02 · valid 2024-03-14 · CC BY-IGO"},"geometry":{"type":"Point","coordinates":[84.04965466229072,28.408985603126876]}},{"type":"Feature","id":"np-nepal-p-np06","properties":{"id":"np-nepal-p-np06","name":"Karnali","region":"np-nepal","level":"province","parent":"np-nepal","country":"Nepal","sourceCode":"NP06","sourceParentCode":"NP","sourceLevel":"ADM1","sourceValidOn":"2024-03-14","center":[82.28277388971117,29.255319863952852],"bbox":[80.98093365600005,28.16884568100005,83.68031666200011,30.44719846700019],"source":"Survey Department of Nepal (http://ngiip.gov.np/index.php), UN Resident Coordinators Office in Nepal (https://un.org.np/) · OCHA/HDX v02 · valid 2024-03-14 · CC BY-IGO"},"geometry":{"type":"Point","coordinates":[82.28277388971117,29.255319863952852]}},{"type":"Feature","id":"np-nepal-p-np01","properties":{"id":"np-nepal-p-np01","name":"Koshi","region":"np-nepal","level":"province","parent":"np-nepal","country":"Nepal","sourceCode":"NP01","sourceParentCode":"NP","sourceLevel":"ADM1","sourceValidOn":"2024-03-14","center":[87.2718538327186,27.21044856969053],"bbox":[86.15580779400017,26.347762022000154,88.20154995700005,28.112986581000143],"source":"Survey Department of Nepal (http://ngiip.gov.np/index.php), UN Resident Coordinators Office in Nepal (https://un.org.np/) · OCHA/HDX v02 · valid 2024-03-14 · CC BY-IGO"},"geometry":{"type":"Point","coordinates":[87.2718538327186,27.21044856969053]}},{"type":"Feature","id":"np-nepal-p-np05","properties":{"id":"np-nepal-p-np05","name":"Lumbini","region":"np-nepal","level":"province","parent":"np-nepal","country":"Nepal","sourceCode":"NP05","sourceParentCode":"NP","sourceLevel":"ADM1","sourceValidOn":"2024-03-14","center":[82.6844729557621,28.05184319296714],"bbox":[81.05908404900003,27.33014779500013,84.02842325800003,28.86915031100017],"source":"Survey Department of Nepal (http://ngiip.gov.np/index.php), UN Resident Coordinators Office in Nepal (https://un.org.np/) · OCHA/HDX v02 · valid 2024-03-14 · CC BY-IGO"},"geometry":{"type":"Point","coordinates":[82.6844729557621,28.05184319296714]}},{"type":"Feature","id":"np-nepal-p-np02","properties":{"id":"np-nepal-p-np02","name":"Madhesh","region":"np-nepal","level":"province","parent":"np-nepal","country":"Nepal","sourceCode":"NP02","sourceParentCode":"NP","sourceLevel":"ADM1","sourceValidOn":"2024-03-14","center":[85.68956417358532,26.93044313167769],"bbox":[84.48377318000018,26.422308017000148,87.01447743500006,27.46310234600014],"source":"Survey Department of Nepal (http://ngiip.gov.np/index.php), UN Resident Coordinators Office in Nepal (https://un.org.np/) · OCHA/HDX v02 · valid 2024-03-14 · CC BY-IGO"},"geometry":{"type":"Point","coordinates":[85.68956417358532,26.93044313167769]}},{"type":"Feature","id":"np-nepal-p-np07","properties":{"id":"np-nepal-p-np07","name":"Sudur Paschim","region":"np-nepal","level":"province","parent":"np-nepal","country":"Nepal","sourceCode":"NP07","sourceParentCode":"NP","sourceLevel":"ADM1","sourceValidOn":"2024-03-14","center":[80.94020834690043,29.324820327259392],"bbox":[80.05846710800012,28.39443167500019,81.80810371500013,30.246692206000034],"source":"Survey Department of Nepal (http://ngiip.gov.np/index.php), UN Resident Coordinators Office in Nepal (https://un.org.np/) · OCHA/HDX v02 · valid 2024-03-14 · CC BY-IGO"},"geometry":{"type":"Point","coordinates":[80.94020834690043,29.324820327259392]}}]}
