{"type":"FeatureCollection","features":[{"type":"Feature","id":"np-nepal-d-np0101","properties":{"id":"np-nepal-d-np0101","name":"Taplejung","region":"np-nepal","level":"district","parent":"np-nepal-p-np01","country":"Nepal","sourceCode":"NP0101","sourceParentCode":"NP01","sourceLevel":"ADM2","sourceValidOn":"2024-03-14","center":[87.82168176211984,27.582049621186876],"bbox":[87.44432647700006,27.26811016700009,88.20154995700005,27.952849648000097],"source":"Survey Department of Nepal (http://ngiip.gov.np/index.php), UN Resident Coordinators Office in Nepal (https://un.org.np/) · OCHA/HDX v02 · valid 2024-03-14 · CC BY-IGO","province":"Koshi"},"geometry":{"type":"Point","coordinates":[87.82168176211984,27.582049621186876]}},{"type":"Feature","id":"np-nepal-d-np0102","properties":{"id":"np-nepal-d-np0102","name":"Panchthar","region":"np-nepal","level":"district","parent":"np-nepal-p-np01","country":"Nepal","sourceCode":"NP0102","sourceParentCode":"NP01","sourceLevel":"ADM2","sourceValidOn":"2024-03-14","center":[87.77568105957259,27.114925357772332],"bbox":[87.49245099600012,26.859822141000052,88.0801119360001,27.43827971400009],"source":"Survey Department of Nepal (http://ngiip.gov.np/index.php), UN Resident Coordinators Office in Nepal (https://un.org.np/) · OCHA/HDX v02 · valid 2024-03-14 · CC BY-IGO","province":"Koshi"},"geometry":{"type":"Point","coordinates":[87.77568105957259,27.114925357772332]}},{"type":"Feature","id":"np-nepal-d-np0103","properties":{"id":"np-nepal-d-np0103","name":"Ilam","region":"np-nepal","level":"district","parent":"np-nepal-p-np01","country":"Nepal","sourceCode":"NP0103","sourceParentCode":"NP01","sourceLevel":"ADM2","sourceValidOn":"2024-03-14","center":[87.90145173726499,26.88108662533201],"bbox":[87.59949454700012,26.664568019000058,88.18473921800006,27.106192785000076],"source":"Survey Department of Nepal (http://ngiip.gov.np/index.php), UN Resident Coordinators Office in Nepal (https://un.org.np/) · OCHA/HDX v02 · valid 2024-03-14 · CC BY-IGO","province":"Koshi"},"geometry":{"type":"Point","coordinates":[87.90145173726499,26.88108662533201]}},{"type":"Feature","id":"np-nepal-d-np0104","properties":{"id":"np-nepal-d-np0104","name":"Jhapa","region":"np-nepal","level":"district","parent":"np-nepal-p-np01","country":"Nepal","sourceCode":"NP0104","sourceParentCode":"NP01","sourceLevel":"ADM2","sourceValidOn":"2024-03-14","center":[87.91311652638196,26.584468256846538],"bbox":[87.63559219100011,26.361106554000116,88.18786713800006,26.805896086000132],"source":"Survey Department of Nepal (http://ngiip.gov.np/index.php), UN Resident Coordinators Office in Nepal (https://un.org.np/) · OCHA/HDX v02 · valid 2024-03-14 · CC BY-IGO","province":"Koshi"},"geometry":{"type":"Point","coordinates":[87.91311652638196,26.584468256846538]}},{"type":"Feature","id":"np-nepal-d-np0105","properties":{"id":"np-nepal-d-np0105","name":"Morang","region":"np-nepal","level":"district","parent":"np-nepal-p-np01","country":"Nepal","sourceCode":"NP0105","sourceParentCode":"NP01","sourceLevel":"ADM2","sourceValidOn":"2024-03-14","center":[87.47007574033674,26.617411306980816],"bbox":[87.2384741300001,26.347762022000154,87.69079511800015,26.87346312699998],"source":"Survey Department of Nepal (http://ngiip.gov.np/index.php), UN Resident Coordinators Office in Nepal (https://un.org.np/) · OCHA/HDX v02 · valid 2024-03-14 · CC BY-IGO","province":"Koshi"},"geometry":{"type":"Point","coordinates":[87.47007574033674,26.617411306980816]}},{"type":"Feature","id":"np-nepal-d-np0106","properties":{"id":"np-nepal-d-np0106","name":"Sunsari","region":"np-nepal","level":"district","parent":"np-nepal-p-np01","country":"Nepal","sourceCode":"NP0106","sourceParentCode":"NP01","sourceLevel":"ADM2","sourceValidOn":"2024-03-14","center":[87.16992648353954,26.650538501433868],"bbox":[86.903912322,26.40319651699997,87.35382224600005,26.878723253000032],"source":"Survey Department of Nepal (http://ngiip.gov.np/index.php), UN Resident Coordinators Office in Nepal (https://un.org.np/) · OCHA/HDX v02 · valid 2024-03-14 · CC BY-IGO","province":"Koshi"},"geometry":{"type":"Point","coordinates":[87.16992648353954,26.650538501433868]}},{"type":"Feature","id":"np-nepal-d-np0107","properties":{"id":"np-nepal-d-np0107","name":"Dhankuta","region":"np-nepal","level":"district","parent":"np-nepal-p-np01","country":"Nepal","sourceCode":"NP0107","sourceParentCode":"NP01","sourceLevel":"ADM2","sourceValidOn":"2024-03-14","center":[87.33083304138219,26.99085594280231],"bbox":[87.14818020100006,26.845588543000076,87.57999521100004,27.190837553000165],"source":"Survey Department of Nepal (http://ngiip.gov.np/index.php), UN Resident Coordinators Office in Nepal (https://un.org.np/) · OCHA/HDX v02 · valid 2024-03-14 · CC BY-IGO","province":"Koshi"},"geometry":{"type":"Point","coordinates":[87.33083304138219,26.99085594280231]}},{"type":"Feature","id":"np-nepal-d-np0108","properties":{"id":"np-nepal-d-np0108","name":"Terhathum","region":"np-nepal","level":"district","parent":"np-nepal-p-np01","country":"Nepal","sourceCode":"NP0108","sourceParentCode":"NP01","sourceLevel":"ADM2","sourceValidOn":"2024-03-14","center":[87.54883447763245,27.154313826718518],"bbox":[87.39191776300004,26.96794242300001,87.75153414300013,27.297013383000035],"source":"Survey Department of Nepal (http://ngiip.gov.np/index.php), UN Resident Coordinators Office in Nepal (https://un.org.np/) · OCHA/HDX v02 · valid 2024-03-14 · CC BY-IGO","province":"Koshi"},"geometry":{"type":"Point","coordinates":[87.54883447763245,27.154313826718518]}},{"type":"Feature","id":"np-nepal-d-np0109","properties":{"id":"np-nepal-d-np0109","name":"Sankhuwasabha","region":"np-nepal","level":"district","parent":"np-nepal-p-np01","country":"Nepal","sourceCode":"NP0109","sourceParentCode":"NP01","sourceLevel":"ADM2","sourceValidOn":"2024-03-14","center":[87.2780948651371,27.582055328684778],"bbox":[86.94004802100005,27.136322810000024,87.67725218500004,27.957665011000188],"source":"Survey Department of Nepal (http://ngiip.gov.np/index.php), UN Resident Coordinators Office in Nepal (https://un.org.np/) · OCHA/HDX v02 · valid 2024-03-14 · CC BY-IGO","province":"Koshi"},"geometry":{"type":"Point","coordinates":[87.2780948651371,27.582055328684778]}},{"type":"Feature","id":"np-nepal-d-np0110","properties":{"id":"np-nepal-d-np0110","name":"Bhojpur","region":"np-nepal","level":"district","parent":"np-nepal-p-np01","country":"Nepal","sourceCode":"NP0110","sourceParentCode":"NP01","sourceLevel":"ADM2","sourceValidOn":"2024-03-14","center":[87.06777457439917,27.18173994728976],"bbox":[86.89467655400006,26.886337855000136,87.27549999500008,27.46358174400018],"source":"Survey Department of Nepal (http://ngiip.gov.np/index.php), UN Resident Coordinators Office in Nepal (https://un.org.np/) · OCHA/HDX v02 · valid 2024-03-14 · CC BY-IGO","province":"Koshi"},"geometry":{"type":"Point","coordinates":[87.06777457439917,27.18173994728976]}},{"type":"Feature","id":"np-nepal-d-np0111","properties":{"id":"np-nepal-d-np0111","name":"Solukhumbu","region":"np-nepal","level":"district","parent":"np-nepal-p-np01","country":"Nepal","sourceCode":"NP0111","sourceParentCode":"NP01","sourceLevel":"ADM2","sourceValidOn":"2024-03-14","center":[86.72039818500527,27.710447050842216],"bbox":[86.35548592200007,27.33799534100018,87.01003931200012,28.112986581000143],"source":"Survey Department of Nepal (http://ngiip.gov.np/index.php), UN Resident Coordinators Office in Nepal (https://un.org.np/) · OCHA/HDX v02 · valid 2024-03-14 · CC BY-IGO","province":"Koshi"},"geometry":{"type":"Point","coordinates":[86.72039818500527,27.710447050842216]}},{"type":"Feature","id":"np-nepal-d-np0112","properties":{"id":"np-nepal-d-np0112","name":"Khotang","region":"np-nepal","level":"district","parent":"np-nepal-p-np01","country":"Nepal","sourceCode":"NP0112","sourceParentCode":"NP01","sourceLevel":"ADM2","sourceValidOn":"2024-03-14","center":[86.78692015786687,27.168027229271996],"bbox":[86.42615240200013,26.872183712000094,86.98522029900016,27.440165625000077],"source":"Survey Department of Nepal (http://ngiip.gov.np/index.php), UN Resident Coordinators Office in Nepal (https://un.org.np/) · OCHA/HDX v02 · valid 2024-03-14 · CC BY-IGO","province":"Koshi"},"geometry":{"type":"Point","coordinates":[86.78692015786687,27.168027229271996]}},{"type":"Feature","id":"np-nepal-d-np0113","properties":{"id":"np-nepal-d-np0113","name":"Okhaldhunga","region":"np-nepal","level":"district","parent":"np-nepal-p-np01","country":"Nepal","sourceCode":"NP0113","sourceParentCode":"NP01","sourceLevel":"ADM2","sourceValidOn":"2024-03-14","center":[86.4185414080611,27.329426773316175],"bbox":[86.20346354800006,27.14671683299997,86.6860334650001,27.526194248000024],"source":"Survey Department of Nepal (http://ngiip.gov.np/index.php), UN Resident Coordinators Office in Nepal (https://un.org.np/) · OCHA/HDX v02 · valid 2024-03-14 · CC BY-IGO","province":"Koshi"},"geometry":{"type":"Point","coordinates":[86.4185414080611,27.329426773316175]}},{"type":"Feature","id":"np-nepal-d-np0114","properties":{"id":"np-nepal-d-np0114","name":"Udayapur","region":"np-nepal","level":"district","parent":"np-nepal-p-np01","country":"Nepal","sourceCode":"NP0114","sourceParentCode":"NP01","sourceLevel":"ADM2","sourceValidOn":"2024-03-14","center":[86.6812310045361,26.903004864023565],"bbox":[86.15580779400017,26.68622775700004,87.16853459900005,27.179864361000114],"source":"Survey Department of Nepal (http://ngiip.gov.np/index.php), UN Resident Coordinators Office in Nepal (https://un.org.np/) · OCHA/HDX v02 · valid 2024-03-14 · CC BY-IGO","province":"Koshi"},"geometry":{"type":"Point","coordinates":[86.6812310045361,26.903004864023565]}},{"type":"Feature","id":"np-nepal-d-np0215","properties":{"id":"np-nepal-d-np0215","name":"Saptari","region":"np-nepal","level":"district","parent":"np-nepal-p-np02","country":"Nepal","sourceCode":"NP0215","sourceParentCode":"NP02","sourceLevel":"ADM2","sourceValidOn":"2024-03-14","center":[86.7460212807782,26.59804538650928],"bbox":[86.48581981300009,26.422308017000148,87.01447743500006,26.79101549899997],"source":"Survey Department of Nepal (http://ngiip.gov.np/index.php), UN Resident Coordinators Office in Nepal (https://un.org.np/) · OCHA/HDX v02 · valid 2024-03-14 · CC BY-IGO","province":"Madhesh"},"geometry":{"type":"Point","coordinates":[86.7460212807782,26.59804538650928]}},{"type":"Feature","id":"np-nepal-d-np0216","properties":{"id":"np-nepal-d-np0216","name":"Siraha","region":"np-nepal","level":"district","parent":"np-nepal-p-np02","country":"Nepal","sourceCode":"NP0216","sourceParentCode":"NP02","sourceLevel":"ADM2","sourceValidOn":"2024-03-14","center":[86.34230396799475,26.74638240964328],"bbox":[86.13091687200017,26.549784742000043,86.55451703500017,26.93528581400011],"source":"Survey Department of Nepal (http://ngiip.gov.np/index.php), UN Resident Coordinators Office in Nepal (https://un.org.np/) · OCHA/HDX v02 · valid 2024-03-14 · CC BY-IGO","province":"Madhesh"},"geometry":{"type":"Point","coordinates":[86.34230396799475,26.74638240964328]}},{"type":"Feature","id":"np-nepal-d-np0217","properties":{"id":"np-nepal-d-np0217","name":"Dhanusa","region":"np-nepal","level":"district","parent":"np-nepal-p-np02","country":"Nepal","sourceCode":"NP0217","sourceParentCode":"NP02","sourceLevel":"ADM2","sourceValidOn":"2024-03-14","center":[86.03376368594179,26.828665692886837],"bbox":[85.8482171010001,26.56843368500006,86.25962061299998,27.133775855000067],"source":"Survey Department of Nepal (http://ngiip.gov.np/index.php), UN Resident Coordinators Office in Nepal (https://un.org.np/) · OCHA/HDX v02 · valid 2024-03-14 · CC BY-IGO","province":"Madhesh"},"geometry":{"type":"Point","coordinates":[86.03376368594179,26.828665692886837]}},{"type":"Feature","id":"np-nepal-d-np0218","properties":{"id":"np-nepal-d-np0218","name":"Mahottari","region":"np-nepal","level":"district","parent":"np-nepal-p-np02","country":"Nepal","sourceCode":"NP0218","sourceParentCode":"NP02","sourceLevel":"ADM2","sourceValidOn":"2024-03-14","center":[85.81979600090636,26.87905698477033],"bbox":[85.67608108400009,26.601587490000043,85.94518972300006,27.168357228000048],"source":"Survey Department of Nepal (http://ngiip.gov.np/index.php), UN Resident Coordinators Office in Nepal (https://un.org.np/) · OCHA/HDX v02 · valid 2024-03-14 · CC BY-IGO","province":"Madhesh"},"geometry":{"type":"Point","coordinates":[85.81979600090636,26.87905698477033]}},{"type":"Feature","id":"np-nepal-d-np0219","properties":{"id":"np-nepal-d-np0219","name":"Sarlahi","region":"np-nepal","level":"district","parent":"np-nepal-p-np02","country":"Nepal","sourceCode":"NP0219","sourceParentCode":"NP02","sourceLevel":"ADM2","sourceValidOn":"2024-03-14","center":[85.56519561296487,26.986083068314453],"bbox":[85.32172787900015,26.74145651800012,85.8157453070001,27.19516698200016],"source":"Survey Department of Nepal (http://ngiip.gov.np/index.php), UN Resident Coordinators Office in Nepal (https://un.org.np/) · OCHA/HDX v02 · valid 2024-03-14 · CC BY-IGO","province":"Madhesh"},"geometry":{"type":"Point","coordinates":[85.56519561296487,26.986083068314453]}},{"type":"Feature","id":"np-nepal-d-np0232","properties":{"id":"np-nepal-d-np0232","name":"Rautahat","region":"np-nepal","level":"district","parent":"np-nepal-p-np02","country":"Nepal","sourceCode":"NP0232","sourceParentCode":"NP02","sourceLevel":"ADM2","sourceValidOn":"2024-03-14","center":[85.30221429865165,27.001497712411126],"bbox":[85.16309185100005,26.744612730000142,85.50384094300011,27.23284945100005],"source":"Survey Department of Nepal (http://ngiip.gov.np/index.php), UN Resident Coordinators Office in Nepal (https://un.org.np/) · OCHA/HDX v02 · valid 2024-03-14 · CC BY-IGO","province":"Madhesh"},"geometry":{"type":"Point","coordinates":[85.30221429865165,27.001497712411126]}},{"type":"Feature","id":"np-nepal-d-np0233","properties":{"id":"np-nepal-d-np0233","name":"Bara","region":"np-nepal","level":"district","parent":"np-nepal-p-np02","country":"Nepal","sourceCode":"NP0233","sourceParentCode":"NP02","sourceLevel":"ADM2","sourceValidOn":"2024-03-14","center":[85.07052479857217,27.107883028786514],"bbox":[84.86610001800017,26.84914602000015,85.270894037,27.365666994000094],"source":"Survey Department of Nepal (http://ngiip.gov.np/index.php), UN Resident Coordinators Office in Nepal (https://un.org.np/) · OCHA/HDX v02 · valid 2024-03-14 · CC BY-IGO","province":"Madhesh"},"geometry":{"type":"Point","coordinates":[85.07052479857217,27.107883028786514]}},{"type":"Feature","id":"np-nepal-d-np0234","properties":{"id":"np-nepal-d-np0234","name":"Parsa","region":"np-nepal","level":"district","parent":"np-nepal-p-np02","country":"Nepal","sourceCode":"NP0234","sourceParentCode":"NP02","sourceLevel":"ADM2","sourceValidOn":"2024-03-14","center":[84.7800463194499,27.23961067081833],"bbox":[84.48377318000018,26.983736113000134,84.97307641800018,27.46310234600014],"source":"Survey Department of Nepal (http://ngiip.gov.np/index.php), UN Resident Coordinators Office in Nepal (https://un.org.np/) · OCHA/HDX v02 · valid 2024-03-14 · CC BY-IGO","province":"Madhesh"},"geometry":{"type":"Point","coordinates":[84.7800463194499,27.23961067081833]}},{"type":"Feature","id":"np-nepal-d-np0320","properties":{"id":"np-nepal-d-np0320","name":"Sindhuli","region":"np-nepal","level":"district","parent":"np-nepal-p-np03","country":"Nepal","sourceCode":"NP0320","sourceParentCode":"NP03","sourceLevel":"ADM2","sourceValidOn":"2024-03-14","center":[85.94365127277388,27.20139115560516],"bbox":[85.4180451420001,26.919067547000168,86.38974576200019,27.4509550840001],"source":"Survey Department of Nepal (http://ngiip.gov.np/index.php), UN Resident Coordinators Office in Nepal (https://un.org.np/) · OCHA/HDX v02 · valid 2024-03-14 · CC BY-IGO","province":"Bagmati"},"geometry":{"type":"Point","coordinates":[85.94365127277388,27.20139115560516]}},{"type":"Feature","id":"np-nepal-d-np0321","properties":{"id":"np-nepal-d-np0321","name":"Ramechhap","region":"np-nepal","level":"district","parent":"np-nepal-p-np03","country":"Nepal","sourceCode":"NP0321","sourceParentCode":"NP03","sourceLevel":"ADM2","sourceValidOn":"2024-03-14","center":[86.1772530036339,27.513538710784605],"bbox":[85.79739947399997,27.242100274000165,86.57264510000005,27.83245162200012],"source":"Survey Department of Nepal (http://ngiip.gov.np/index.php), UN Resident Coordinators Office in Nepal (https://un.org.np/) · OCHA/HDX v02 · valid 2024-03-14 · CC BY-IGO","province":"Bagmati"},"geometry":{"type":"Point","coordinates":[86.1772530036339,27.513538710784605]}},{"type":"Feature","id":"np-nepal-d-np0322","properties":{"id":"np-nepal-d-np0322","name":"Dolakha","region":"np-nepal","level":"district","parent":"np-nepal-p-np03","country":"Nepal","sourceCode":"NP0322","sourceParentCode":"NP03","sourceLevel":"ADM2","sourceValidOn":"2024-03-14","center":[86.19850112255781,27.78564593293825],"bbox":[85.88428339200004,27.474036117000026,86.5545983070001,28.174100567000153],"source":"Survey Department of Nepal (http://ngiip.gov.np/index.php), UN Resident Coordinators Office in Nepal (https://un.org.np/) · OCHA/HDX v02 · valid 2024-03-14 · CC BY-IGO","province":"Bagmati"},"geometry":{"type":"Point","coordinates":[86.19850112255781,27.78564593293825]}},{"type":"Feature","id":"np-nepal-d-np0323","properties":{"id":"np-nepal-d-np0323","name":"Sindhupalchok","region":"np-nepal","level":"district","parent":"np-nepal-p-np03","country":"Nepal","sourceCode":"NP0323","sourceParentCode":"NP03","sourceLevel":"ADM2","sourceValidOn":"2024-03-14","center":[85.73951107568415,27.9148969304037],"bbox":[85.44162626200006,27.610419208000167,86.06492916200011,28.203385674000174],"source":"Survey Department of Nepal (http://ngiip.gov.np/index.php), UN Resident Coordinators Office in Nepal (https://un.org.np/) · OCHA/HDX v02 · valid 2024-03-14 · CC BY-IGO","province":"Bagmati"},"geometry":{"type":"Point","coordinates":[85.73951107568415,27.9148969304037]}},{"type":"Feature","id":"np-nepal-d-np0324","properties":{"id":"np-nepal-d-np0324","name":"Kavrepalanchok","region":"np-nepal","level":"district","parent":"np-nepal-p-np03","country":"Nepal","sourceCode":"NP0324","sourceParentCode":"NP03","sourceLevel":"ADM2","sourceValidOn":"2024-03-14","center":[85.61936573028282,27.535280563968833],"bbox":[85.38680340300004,27.333490921000134,85.88087395700012,27.75686014700011],"source":"Survey Department of Nepal (http://ngiip.gov.np/index.php), UN Resident Coordinators Office in Nepal (https://un.org.np/) · OCHA/HDX v02 · valid 2024-03-14 · CC BY-IGO","province":"Bagmati"},"geometry":{"type":"Point","coordinates":[85.61936573028282,27.535280563968833]}},{"type":"Feature","id":"np-nepal-d-np0325","properties":{"id":"np-nepal-d-np0325","name":"Lalitpur","region":"np-nepal","level":"district","parent":"np-nepal-p-np03","country":"Nepal","sourceCode":"NP0325","sourceParentCode":"NP03","sourceLevel":"ADM2","sourceValidOn":"2024-03-14","center":[85.34257153204598,27.53960969986409],"bbox":[85.23144892400012,27.40296400300008,85.44332977700009,27.693450944000176],"source":"Survey Department of Nepal (http://ngiip.gov.np/index.php), UN Resident Coordinators Office in Nepal (https://un.org.np/) · OCHA/HDX v02 · valid 2024-03-14 · CC BY-IGO","province":"Bagmati"},"geometry":{"type":"Point","coordinates":[85.34257153204598,27.53960969986409]}},{"type":"Feature","id":"np-nepal-d-np0326","properties":{"id":"np-nepal-d-np0326","name":"Bhaktapur","region":"np-nepal","level":"district","parent":"np-nepal-p-np03","country":"Nepal","sourceCode":"NP0326","sourceParentCode":"NP03","sourceLevel":"ADM2","sourceValidOn":"2024-03-14","center":[85.44066990931995,27.67761448129473],"bbox":[85.35191650300004,27.619851046,85.52502148700006,27.72863264600005],"source":"Survey Department of Nepal (http://ngiip.gov.np/index.php), UN Resident Coordinators Office in Nepal (https://un.org.np/) · OCHA/HDX v02 · valid 2024-03-14 · CC BY-IGO","province":"Bagmati"},"geometry":{"type":"Point","coordinates":[85.44066990931995,27.67761448129473]}},{"type":"Feature","id":"np-nepal-d-np0327","properties":{"id":"np-nepal-d-np0327","name":"Kathmandu","region":"np-nepal","level":"district","parent":"np-nepal-p-np03","country":"Nepal","sourceCode":"NP0327","sourceParentCode":"NP03","sourceLevel":"ADM2","sourceValidOn":"2024-03-14","center":[85.34723398967223,27.72812512305231],"bbox":[85.18852709600003,27.57037241600011,85.56572648200012,27.817576843000154],"source":"Survey Department of Nepal (http://ngiip.gov.np/index.php), UN Resident Coordinators Office in Nepal (https://un.org.np/) · OCHA/HDX v02 · valid 2024-03-14 · CC BY-IGO","province":"Bagmati"},"geometry":{"type":"Point","coordinates":[85.34723398967223,27.72812512305231]}},{"type":"Feature","id":"np-nepal-d-np0328","properties":{"id":"np-nepal-d-np0328","name":"Nuwakot","region":"np-nepal","level":"district","parent":"np-nepal-p-np03","country":"Nepal","sourceCode":"NP0328","sourceParentCode":"NP03","sourceLevel":"ADM2","sourceValidOn":"2024-03-14","center":[85.23526960361298,27.914997311244115],"bbox":[84.98834419200011,27.76060327200014,85.49701369700011,28.091178206000052],"source":"Survey Department of Nepal (http://ngiip.gov.np/index.php), UN Resident Coordinators Office in Nepal (https://un.org.np/) · OCHA/HDX v02 · valid 2024-03-14 · CC BY-IGO","province":"Bagmati"},"geometry":{"type":"Point","coordinates":[85.23526960361298,27.914997311244115]}},{"type":"Feature","id":"np-nepal-d-np0329","properties":{"id":"np-nepal-d-np0329","name":"Rasuwa","region":"np-nepal","level":"district","parent":"np-nepal-p-np03","country":"Nepal","sourceCode":"NP0329","sourceParentCode":"NP03","sourceLevel":"ADM2","sourceValidOn":"2024-03-14","center":[85.41582909046839,28.183172546104927],"bbox":[85.12233579700012,27.965075540000043,85.80010464200018,28.386209289000078],"source":"Survey Department of Nepal (http://ngiip.gov.np/index.php), UN Resident Coordinators Office in Nepal (https://un.org.np/) · OCHA/HDX v02 · valid 2024-03-14 · CC BY-IGO","province":"Bagmati"},"geometry":{"type":"Point","coordinates":[85.41582909046839,28.183172546104927]}},{"type":"Feature","id":"np-nepal-d-np0330","properties":{"id":"np-nepal-d-np0330","name":"Dhading","region":"np-nepal","level":"district","parent":"np-nepal-p-np03","country":"Nepal","sourceCode":"NP0330","sourceParentCode":"NP03","sourceLevel":"ADM2","sourceValidOn":"2024-03-14","center":[84.96004282252102,27.9546313027889],"bbox":[84.61820117700006,27.66870513300006,85.27012469000005,28.346528143000057],"source":"Survey Department of Nepal (http://ngiip.gov.np/index.php), UN Resident Coordinators Office in Nepal (https://un.org.np/) · OCHA/HDX v02 · valid 2024-03-14 · CC BY-IGO","province":"Bagmati"},"geometry":{"type":"Point","coordinates":[84.96004282252102,27.9546313027889]}},{"type":"Feature","id":"np-nepal-d-np0331","properties":{"id":"np-nepal-d-np0331","name":"Makwanpur","region":"np-nepal","level":"district","parent":"np-nepal-p-np03","country":"Nepal","sourceCode":"NP0331","sourceParentCode":"NP03","sourceLevel":"ADM2","sourceValidOn":"2024-03-14","center":[85.07907400671326,27.469888792055954],"bbox":[84.66466848600015,27.16177734000007,85.51028242500018,27.712190802000123],"source":"Survey Department of Nepal (http://ngiip.gov.np/index.php), UN Resident Coordinators Office in Nepal (https://un.org.np/) · OCHA/HDX v02 · valid 2024-03-14 · CC BY-IGO","province":"Bagmati"},"geometry":{"type":"Point","coordinates":[85.07907400671326,27.469888792055954]}},{"type":"Feature","id":"np-nepal-d-np0335","properties":{"id":"np-nepal-d-np0335","name":"Chitawan","region":"np-nepal","level":"district","parent":"np-nepal-p-np03","country":"Nepal","sourceCode":"NP0335","sourceParentCode":"NP03","sourceLevel":"ADM2","sourceValidOn":"2024-03-14","center":[84.43441347032503,27.584865459426087],"bbox":[83.91865602100006,27.354965992000018,84.79655446400011,27.880467392000128],"source":"Survey Department of Nepal (http://ngiip.gov.np/index.php), UN Resident Coordinators Office in Nepal (https://un.org.np/) · OCHA/HDX v02 · valid 2024-03-14 · CC BY-IGO","province":"Bagmati"},"geometry":{"type":"Point","coordinates":[84.43441347032503,27.584865459426087]}},{"type":"Feature","id":"np-nepal-d-np0436","properties":{"id":"np-nepal-d-np0436","name":"Gorkha","region":"np-nepal","level":"district","parent":"np-nepal-p-np04","country":"Nepal","sourceCode":"NP0436","sourceParentCode":"NP04","sourceLevel":"ADM2","sourceValidOn":"2024-03-14","center":[84.79005908805041,28.318751076781794],"bbox":[84.41873559600009,27.795529289000058,85.19789804400017,28.752138329000047],"source":"Survey Department of Nepal (http://ngiip.gov.np/index.php), UN Resident Coordinators Office in Nepal (https://un.org.np/) · OCHA/HDX v02 · valid 2024-03-14 · CC BY-IGO","province":"Gandaki"},"geometry":{"type":"Point","coordinates":[84.79005908805041,28.318751076781794]}},{"type":"Feature","id":"np-nepal-d-np0437","properties":{"id":"np-nepal-d-np0437","name":"Lamjung","region":"np-nepal","level":"district","parent":"np-nepal-p-np04","country":"Nepal","sourceCode":"NP0437","sourceParentCode":"NP04","sourceLevel":"ADM2","sourceValidOn":"2024-03-14","center":[84.42993572805271,28.289239220070666],"bbox":[84.18668937600006,28.055498591000116,84.69471453900007,28.510191523000117],"source":"Survey Department of Nepal (http://ngiip.gov.np/index.php), UN Resident Coordinators Office in Nepal (https://un.org.np/) · OCHA/HDX v02 · valid 2024-03-14 · CC BY-IGO","province":"Gandaki"},"geometry":{"type":"Point","coordinates":[84.42993572805271,28.289239220070666]}},{"type":"Feature","id":"np-nepal-d-np0438","properties":{"id":"np-nepal-d-np0438","name":"Manang","region":"np-nepal","level":"district","parent":"np-nepal-p-np04","country":"Nepal","sourceCode":"NP0438","sourceParentCode":"NP04","sourceLevel":"ADM2","sourceValidOn":"2024-03-14","center":[84.22439728531671,28.672842768978853],"bbox":[83.78914676000005,28.444943462000083,84.57043719500007,28.90037635900012],"source":"Survey Department of Nepal (http://ngiip.gov.np/index.php), UN Resident Coordinators Office in Nepal (https://un.org.np/) · OCHA/HDX v02 · valid 2024-03-14 · CC BY-IGO","province":"Gandaki"},"geometry":{"type":"Point","coordinates":[84.22439728531671,28.672842768978853]}},{"type":"Feature","id":"np-nepal-d-np0439","properties":{"id":"np-nepal-d-np0439","name":"Kaski","region":"np-nepal","level":"district","parent":"np-nepal-p-np04","country":"Nepal","sourceCode":"NP0439","sourceParentCode":"NP04","sourceLevel":"ADM2","sourceValidOn":"2024-03-14","center":[83.99723039708455,28.354869708045495],"bbox":[83.70050267000016,28.077664127000162,84.27858506500013,28.61336179400007],"source":"Survey Department of Nepal (http://ngiip.gov.np/index.php), UN Resident Coordinators Office in Nepal (https://un.org.np/) · OCHA/HDX v02 · valid 2024-03-14 · CC BY-IGO","province":"Gandaki"},"geometry":{"type":"Point","coordinates":[83.99723039708455,28.354869708045495]}},{"type":"Feature","id":"np-nepal-d-np0440","properties":{"id":"np-nepal-d-np0440","name":"Tanahu","region":"np-nepal","level":"district","parent":"np-nepal-p-np04","country":"Nepal","sourceCode":"NP0440","sourceParentCode":"NP04","sourceLevel":"ADM2","sourceValidOn":"2024-03-14","center":[84.25107727225564,27.955293405695095],"bbox":[83.93646267399998,27.741145406999976,84.55874156100015,28.129732343000114],"source":"Survey Department of Nepal (http://ngiip.gov.np/index.php), UN Resident Coordinators Office in Nepal (https://un.org.np/) · OCHA/HDX v02 · valid 2024-03-14 · CC BY-IGO","province":"Gandaki"},"geometry":{"type":"Point","coordinates":[84.25107727225564,27.955293405695095]}},{"type":"Feature","id":"np-nepal-d-np0441","properties":{"id":"np-nepal-d-np0441","name":"Syangja","region":"np-nepal","level":"district","parent":"np-nepal-p-np04","country":"Nepal","sourceCode":"NP0441","sourceParentCode":"NP04","sourceLevel":"ADM2","sourceValidOn":"2024-03-14","center":[83.80309710405271,28.0210296024907],"bbox":[83.43976296500006,27.86815093900009,84.03183299700015,28.221612904000153],"source":"Survey Department of Nepal (http://ngiip.gov.np/index.php), UN Resident Coordinators Office in Nepal (https://un.org.np/) · OCHA/HDX v02 · valid 2024-03-14 · CC BY-IGO","province":"Gandaki"},"geometry":{"type":"Point","coordinates":[83.80309710405271,28.0210296024907]}},{"type":"Feature","id":"np-nepal-d-np0442","properties":{"id":"np-nepal-d-np0442","name":"Parbat","region":"np-nepal","level":"district","parent":"np-nepal-p-np04","country":"Nepal","sourceCode":"NP0442","sourceParentCode":"NP04","sourceLevel":"ADM2","sourceValidOn":"2024-03-14","center":[83.6787725885835,28.21122318699236],"bbox":[83.55904876400012,28.005420268000023,83.82273006800017,28.399682851000023],"source":"Survey Department of Nepal (http://ngiip.gov.np/index.php), UN Resident Coordinators Office in Nepal (https://un.org.np/) · OCHA/HDX v02 · valid 2024-03-14 · CC BY-IGO","province":"Gandaki"},"geometry":{"type":"Point","coordinates":[83.6787725885835,28.21122318699236]}},{"type":"Feature","id":"np-nepal-d-np0443","properties":{"id":"np-nepal-d-np0443","name":"Baglung","region":"np-nepal","level":"district","parent":"np-nepal-p-np04","country":"Nepal","sourceCode":"NP0443","sourceParentCode":"NP04","sourceLevel":"ADM2","sourceValidOn":"2024-03-14","center":[83.25034554682279,28.34742507217963],"bbox":[82.87723563200018,28.077383774000168,83.67448113000006,28.635192220000135],"source":"Survey Department of Nepal (http://ngiip.gov.np/index.php), UN Resident Coordinators Office in Nepal (https://un.org.np/) · OCHA/HDX v02 · valid 2024-03-14 · CC BY-IGO","province":"Gandaki"},"geometry":{"type":"Point","coordinates":[83.25034554682279,28.34742507217963]}},{"type":"Feature","id":"np-nepal-d-np0444","properties":{"id":"np-nepal-d-np0444","name":"Myagdi","region":"np-nepal","level":"district","parent":"np-nepal-p-np04","country":"Nepal","sourceCode":"NP0444","sourceParentCode":"NP04","sourceLevel":"ADM2","sourceValidOn":"2024-03-14","center":[83.45987541390812,28.553069550562007],"bbox":[83.09982587000007,28.298095974000148,83.87147028300018,28.793685581999966],"source":"Survey Department of Nepal (http://ngiip.gov.np/index.php), UN Resident Coordinators Office in Nepal (https://un.org.np/) · OCHA/HDX v02 · valid 2024-03-14 · CC BY-IGO","province":"Gandaki"},"geometry":{"type":"Point","coordinates":[83.45987541390812,28.553069550562007]}},{"type":"Feature","id":"np-nepal-d-np0445","properties":{"id":"np-nepal-d-np0445","name":"Mustang","region":"np-nepal","level":"district","parent":"np-nepal-p-np04","country":"Nepal","sourceCode":"NP0445","sourceParentCode":"NP04","sourceLevel":"ADM2","sourceValidOn":"2024-03-14","center":[83.85775612804889,28.981238165203923],"bbox":[83.47954487100003,28.564647799000113,84.247747829,29.33128220000009],"source":"Survey Department of Nepal (http://ngiip.gov.np/index.php), UN Resident Coordinators Office in Nepal (https://un.org.np/) · OCHA/HDX v02 · valid 2024-03-14 · CC BY-IGO","province":"Gandaki"},"geometry":{"type":"Point","coordinates":[83.85775612804889,28.981238165203923]}},{"type":"Feature","id":"np-nepal-d-np0447","properties":{"id":"np-nepal-d-np0447","name":"Nawalparasi East","region":"np-nepal","level":"district","parent":"np-nepal-p-np04","country":"Nepal","sourceCode":"NP0447","sourceParentCode":"NP04","sourceLevel":"ADM2","sourceValidOn":"2024-03-14","center":[84.06205674730471,27.687315114805486],"bbox":[83.67695664899998,27.437745590000134,84.43124315600005,27.86979963800019],"source":"Survey Department of Nepal (http://ngiip.gov.np/index.php), UN Resident Coordinators Office in Nepal (https://un.org.np/) · OCHA/HDX v02 · valid 2024-03-14 · CC BY-IGO","province":"Gandaki"},"geometry":{"type":"Point","coordinates":[84.06205674730471,27.687315114805486]}},{"type":"Feature","id":"np-nepal-d-np0546","properties":{"id":"np-nepal-d-np0546","name":"Palpa","region":"np-nepal","level":"district","parent":"np-nepal-p-np05","country":"Nepal","sourceCode":"NP0546","sourceParentCode":"NP05","sourceLevel":"ADM2","sourceValidOn":"2024-03-14","center":[83.62353478431913,27.81729506061992],"bbox":[83.23092324800018,27.66209442200011,84.02842325800003,27.95884331800005],"source":"Survey Department of Nepal (http://ngiip.gov.np/index.php), UN Resident Coordinators Office in Nepal (https://un.org.np/) · OCHA/HDX v02 · valid 2024-03-14 · CC BY-IGO","province":"Lumbini"},"geometry":{"type":"Point","coordinates":[83.62353478431913,27.81729506061992]}},{"type":"Feature","id":"np-nepal-d-np0547","properties":{"id":"np-nepal-d-np0547","name":"Nawalparasi West","region":"np-nepal","level":"district","parent":"np-nepal-p-np05","country":"Nepal","sourceCode":"NP0547","sourceParentCode":"NP05","sourceLevel":"ADM2","sourceValidOn":"2024-03-14","center":[83.73859372780235,27.52817335123296],"bbox":[83.57165306700017,27.346643814000174,83.90626273900011,27.69326021100011],"source":"Survey Department of Nepal (http://ngiip.gov.np/index.php), UN Resident Coordinators Office in Nepal (https://un.org.np/) · OCHA/HDX v02 · valid 2024-03-14 · CC BY-IGO","province":"Lumbini"},"geometry":{"type":"Point","coordinates":[83.73859372780235,27.52817335123296]}},{"type":"Feature","id":"np-nepal-d-np0548","properties":{"id":"np-nepal-d-np0548","name":"Rupandehi","region":"np-nepal","level":"district","parent":"np-nepal-p-np05","country":"Nepal","sourceCode":"NP0548","sourceParentCode":"NP05","sourceLevel":"ADM2","sourceValidOn":"2024-03-14","center":[83.3894335099318,27.576600431880294],"bbox":[83.20417977100016,27.33014779500013,83.6337763200001,27.768140076000066],"source":"Survey Department of Nepal (http://ngiip.gov.np/index.php), UN Resident Coordinators Office in Nepal (https://un.org.np/) · OCHA/HDX v02 · valid 2024-03-14 · CC BY-IGO","province":"Lumbini"},"geometry":{"type":"Point","coordinates":[83.3894335099318,27.576600431880294]}},{"type":"Feature","id":"np-nepal-d-np0549","properties":{"id":"np-nepal-d-np0549","name":"Kapilbastu","region":"np-nepal","level":"district","parent":"np-nepal-p-np05","country":"Nepal","sourceCode":"NP0549","sourceParentCode":"NP05","sourceLevel":"ADM2","sourceValidOn":"2024-03-14","center":[82.98136919418107,27.627725740015627],"bbox":[82.69599025800005,27.417851024000015,83.23293829300019,27.820608929000173],"source":"Survey Department of Nepal (http://ngiip.gov.np/index.php), UN Resident Coordinators Office in Nepal (https://un.org.np/) · OCHA/HDX v02 · valid 2024-03-14 · CC BY-IGO","province":"Lumbini"},"geometry":{"type":"Point","coordinates":[82.98136919418107,27.627725740015627]}},{"type":"Feature","id":"np-nepal-d-np0550","properties":{"id":"np-nepal-d-np0550","name":"Arghakhanchi","region":"np-nepal","level":"district","parent":"np-nepal-p-np05","country":"Nepal","sourceCode":"NP0550","sourceParentCode":"NP05","sourceLevel":"ADM2","sourceValidOn":"2024-03-14","center":[83.07920216632712,27.908468593024878],"bbox":[82.74826502100012,27.750331756000094,83.330399327,28.113925521],"source":"Survey Department of Nepal (http://ngiip.gov.np/index.php), UN Resident Coordinators Office in Nepal (https://un.org.np/) · OCHA/HDX v02 · valid 2024-03-14 · CC BY-IGO","province":"Lumbini"},"geometry":{"type":"Point","coordinates":[83.07920216632712,27.908468593024878]}},{"type":"Feature","id":"np-nepal-d-np0551","properties":{"id":"np-nepal-d-np0551","name":"Gulmi","region":"np-nepal","level":"district","parent":"np-nepal-p-np05","country":"Nepal","sourceCode":"NP0551","sourceParentCode":"NP05","sourceLevel":"ADM2","sourceValidOn":"2024-03-14","center":[83.30690749295943,28.093816960251765],"bbox":[83.02178121100013,27.920755157000144,83.60515492900015,28.270772490000127],"source":"Survey Department of Nepal (http://ngiip.gov.np/index.php), UN Resident Coordinators Office in Nepal (https://un.org.np/) · OCHA/HDX v02 · valid 2024-03-14 · CC BY-IGO","province":"Lumbini"},"geometry":{"type":"Point","coordinates":[83.30690749295943,28.093816960251765]}},{"type":"Feature","id":"np-nepal-d-np0552","properties":{"id":"np-nepal-d-np0552","name":"Rukum East","region":"np-nepal","level":"district","parent":"np-nepal-p-np05","country":"Nepal","sourceCode":"NP0552","sourceParentCode":"NP05","sourceLevel":"ADM2","sourceValidOn":"2024-03-14","center":[82.81076695223865,28.673912052074908],"bbox":[82.48569690500017,28.47539877400004,83.15244438200011,28.86915031100017],"source":"Survey Department of Nepal (http://ngiip.gov.np/index.php), UN Resident Coordinators Office in Nepal (https://un.org.np/) · OCHA/HDX v02 · valid 2024-03-14 · CC BY-IGO","province":"Lumbini"},"geometry":{"type":"Point","coordinates":[82.81076695223865,28.673912052074908]}},{"type":"Feature","id":"np-nepal-d-np0554","properties":{"id":"np-nepal-d-np0554","name":"Rolpa","region":"np-nepal","level":"district","parent":"np-nepal-p-np05","country":"Nepal","sourceCode":"NP0554","sourceParentCode":"NP05","sourceLevel":"ADM2","sourceValidOn":"2024-03-14","center":[82.62793850053765,28.344088377303436],"bbox":[82.35024672700018,28.092671382000105,82.95661741700007,28.558374853000146],"source":"Survey Department of Nepal (http://ngiip.gov.np/index.php), UN Resident Coordinators Office in Nepal (https://un.org.np/) · OCHA/HDX v02 · valid 2024-03-14 · CC BY-IGO","province":"Lumbini"},"geometry":{"type":"Point","coordinates":[82.62793850053765,28.344088377303436]}},{"type":"Feature","id":"np-nepal-d-np0555","properties":{"id":"np-nepal-d-np0555","name":"Pyuthan","region":"np-nepal","level":"district","parent":"np-nepal-p-np05","country":"Nepal","sourceCode":"NP0555","sourceParentCode":"NP05","sourceLevel":"ADM2","sourceValidOn":"2024-03-14","center":[82.86490807706407,28.115375986366878],"bbox":[82.588140366,27.87770225000014,83.09737653700006,28.36251706100012],"source":"Survey Department of Nepal (http://ngiip.gov.np/index.php), UN Resident Coordinators Office in Nepal (https://un.org.np/) · OCHA/HDX v02 · valid 2024-03-14 · CC BY-IGO","province":"Lumbini"},"geometry":{"type":"Point","coordinates":[82.86490807706407,28.115375986366878]}},{"type":"Feature","id":"np-nepal-d-np0556","properties":{"id":"np-nepal-d-np0556","name":"Dang","region":"np-nepal","level":"district","parent":"np-nepal-p-np05","country":"Nepal","sourceCode":"NP0556","sourceParentCode":"NP05","sourceLevel":"ADM2","sourceValidOn":"2024-03-14","center":[82.40219231204546,27.96868437422332],"bbox":[81.9207994360001,27.676401676000125,82.81007201500012,28.28309686100016],"source":"Survey Department of Nepal (http://ngiip.gov.np/index.php), UN Resident Coordinators Office in Nepal (https://un.org.np/) · OCHA/HDX v02 · valid 2024-03-14 · CC BY-IGO","province":"Lumbini"},"geometry":{"type":"Point","coordinates":[82.40219231204546,27.96868437422332]}},{"type":"Feature","id":"np-nepal-d-np0557","properties":{"id":"np-nepal-d-np0557","name":"Banke","region":"np-nepal","level":"district","parent":"np-nepal-p-np05","country":"Nepal","sourceCode":"NP0557","sourceParentCode":"NP05","sourceLevel":"ADM2","sourceValidOn":"2024-03-14","center":[81.8221724396154,28.087091052479252],"bbox":[81.49853496800006,27.85364968099998,82.19406343100013,28.337812914000096],"source":"Survey Department of Nepal (http://ngiip.gov.np/index.php), UN Resident Coordinators Office in Nepal (https://un.org.np/) · OCHA/HDX v02 · valid 2024-03-14 · CC BY-IGO","province":"Lumbini"},"geometry":{"type":"Point","coordinates":[81.8221724396154,28.087091052479252]}},{"type":"Feature","id":"np-nepal-d-np0558","properties":{"id":"np-nepal-d-np0558","name":"Bardiya","region":"np-nepal","level":"district","parent":"np-nepal-p-np05","country":"Nepal","sourceCode":"NP0558","sourceParentCode":"NP05","sourceLevel":"ADM2","sourceValidOn":"2024-03-14","center":[81.40139827863112,28.383589900304436],"bbox":[81.05908404900003,28.06885168900004,81.766593839,28.674672717000135],"source":"Survey Department of Nepal (http://ngiip.gov.np/index.php), UN Resident Coordinators Office in Nepal (https://un.org.np/) · OCHA/HDX v02 · valid 2024-03-14 · CC BY-IGO","province":"Lumbini"},"geometry":{"type":"Point","coordinates":[81.40139827863112,28.383589900304436]}},{"type":"Feature","id":"np-nepal-d-np0652","properties":{"id":"np-nepal-d-np0652","name":"Rukum West","region":"np-nepal","level":"district","parent":"np-nepal-p-np06","country":"Nepal","sourceCode":"NP0652","sourceParentCode":"NP06","sourceLevel":"ADM2","sourceValidOn":"2024-03-14","center":[82.46033378679603,28.73875993126258],"bbox":[82.18461864500011,28.520908541999972,82.70018386600009,28.99198630500007],"source":"Survey Department of Nepal (http://ngiip.gov.np/index.php), UN Resident Coordinators Office in Nepal (https://un.org.np/) · OCHA/HDX v02 · valid 2024-03-14 · CC BY-IGO","province":"Karnali"},"geometry":{"type":"Point","coordinates":[82.46033378679603,28.73875993126258]}},{"type":"Feature","id":"np-nepal-d-np0653","properties":{"id":"np-nepal-d-np0653","name":"Salyan","region":"np-nepal","level":"district","parent":"np-nepal-p-np06","country":"Nepal","sourceCode":"NP0653","sourceParentCode":"NP06","sourceLevel":"ADM2","sourceValidOn":"2024-03-14","center":[82.14359163443851,28.40186191424583],"bbox":[81.74331179300009,28.16884568100005,82.437208554,28.644604471000093],"source":"Survey Department of Nepal (http://ngiip.gov.np/index.php), UN Resident Coordinators Office in Nepal (https://un.org.np/) · OCHA/HDX v02 · valid 2024-03-14 · CC BY-IGO","province":"Karnali"},"geometry":{"type":"Point","coordinates":[82.14359163443851,28.40186191424583]}},{"type":"Feature","id":"np-nepal-d-np0659","properties":{"id":"np-nepal-d-np0659","name":"Surkhet","region":"np-nepal","level":"district","parent":"np-nepal-p-np06","country":"Nepal","sourceCode":"NP0659","sourceParentCode":"NP06","sourceLevel":"ADM2","sourceValidOn":"2024-03-14","center":[81.58629041919582,28.641104572628347],"bbox":[80.98093365600005,28.337228171999982,82.040408103,28.978267463000066],"source":"Survey Department of Nepal (http://ngiip.gov.np/index.php), UN Resident Coordinators Office in Nepal (https://un.org.np/) · OCHA/HDX v02 · valid 2024-03-14 · CC BY-IGO","province":"Karnali"},"geometry":{"type":"Point","coordinates":[81.58629041919582,28.641104572628347]}},{"type":"Feature","id":"np-nepal-d-np0660","properties":{"id":"np-nepal-d-np0660","name":"Jajarkot","region":"np-nepal","level":"district","parent":"np-nepal-p-np06","country":"Nepal","sourceCode":"NP0660","sourceParentCode":"NP06","sourceLevel":"ADM2","sourceValidOn":"2024-03-14","center":[82.16775335696357,28.865302225269755],"bbox":[81.81994545999999,28.611255378000067,82.58006881000011,29.127443839000136],"source":"Survey Department of Nepal (http://ngiip.gov.np/index.php), UN Resident Coordinators Office in Nepal (https://un.org.np/) · OCHA/HDX v02 · valid 2024-03-14 · CC BY-IGO","province":"Karnali"},"geometry":{"type":"Point","coordinates":[82.16775335696357,28.865302225269755]}},{"type":"Feature","id":"np-nepal-d-np0661","properties":{"id":"np-nepal-d-np0661","name":"Dailekh","region":"np-nepal","level":"district","parent":"np-nepal-p-np06","country":"Nepal","sourceCode":"NP0661","sourceParentCode":"NP06","sourceLevel":"ADM2","sourceValidOn":"2024-03-14","center":[81.67875781185755,28.88131030900984],"bbox":[81.41002890500016,28.633318953000128,81.9267509720001,29.135886063000157],"source":"Survey Department of Nepal (http://ngiip.gov.np/index.php), UN Resident Coordinators Office in Nepal (https://un.org.np/) · OCHA/HDX v02 · valid 2024-03-14 · CC BY-IGO","province":"Karnali"},"geometry":{"type":"Point","coordinates":[81.67875781185755,28.88131030900984]}},{"type":"Feature","id":"np-nepal-d-np0662","properties":{"id":"np-nepal-d-np0662","name":"Dolpa","region":"np-nepal","level":"district","parent":"np-nepal-p-np06","country":"Nepal","sourceCode":"NP0662","sourceParentCode":"NP06","sourceLevel":"ADM2","sourceValidOn":"2024-03-14","center":[83.0520517373619,29.17057842822833],"bbox":[82.392072068,28.721906750000073,83.68031666200011,29.7063714950001],"source":"Survey Department of Nepal (http://ngiip.gov.np/index.php), UN Resident Coordinators Office in Nepal (https://un.org.np/) · OCHA/HDX v02 · valid 2024-03-14 · CC BY-IGO","province":"Karnali"},"geometry":{"type":"Point","coordinates":[83.0520517373619,29.17057842822833]}},{"type":"Feature","id":"np-nepal-d-np0663","properties":{"id":"np-nepal-d-np0663","name":"Jumla","region":"np-nepal","level":"district","parent":"np-nepal-p-np06","country":"Nepal","sourceCode":"NP0663","sourceParentCode":"NP06","sourceLevel":"ADM2","sourceValidOn":"2024-03-14","center":[82.21714842646085,29.271635904854392],"bbox":[81.84617129900005,28.969316610000078,82.59116305300012,29.508018427000025],"source":"Survey Department of Nepal (http://ngiip.gov.np/index.php), UN Resident Coordinators Office in Nepal (https://un.org.np/) · OCHA/HDX v02 · valid 2024-03-14 · CC BY-IGO","province":"Karnali"},"geometry":{"type":"Point","coordinates":[82.21714842646085,29.271635904854392]}},{"type":"Feature","id":"np-nepal-d-np0664","properties":{"id":"np-nepal-d-np0664","name":"Kalikot","region":"np-nepal","level":"district","parent":"np-nepal-p-np06","country":"Nepal","sourceCode":"NP0664","sourceParentCode":"NP06","sourceLevel":"ADM2","sourceValidOn":"2024-03-14","center":[81.75191470853778,29.195037122495414],"bbox":[81.46794850499998,28.970933563000017,82.01931435700016,29.461581002000173],"source":"Survey Department of Nepal (http://ngiip.gov.np/index.php), UN Resident Coordinators Office in Nepal (https://un.org.np/) · OCHA/HDX v02 · valid 2024-03-14 · CC BY-IGO","province":"Karnali"},"geometry":{"type":"Point","coordinates":[81.75191470853778,29.195037122495414]}},{"type":"Feature","id":"np-nepal-d-np0665","properties":{"id":"np-nepal-d-np0665","name":"Mugu","region":"np-nepal","level":"district","parent":"np-nepal-p-np06","country":"Nepal","sourceCode":"NP0665","sourceParentCode":"NP06","sourceLevel":"ADM2","sourceValidOn":"2024-03-14","center":[82.37047424556816,29.617997222488146],"bbox":[81.76237367100009,29.385296784000104,82.82888385600006,29.971234014000117],"source":"Survey Department of Nepal (http://ngiip.gov.np/index.php), UN Resident Coordinators Office in Nepal (https://un.org.np/) · OCHA/HDX v02 · valid 2024-03-14 · CC BY-IGO","province":"Karnali"},"geometry":{"type":"Point","coordinates":[82.37047424556816,29.617997222488146]}},{"type":"Feature","id":"np-nepal-d-np0666","properties":{"id":"np-nepal-d-np0666","name":"Humla","region":"np-nepal","level":"district","parent":"np-nepal-p-np06","country":"Nepal","sourceCode":"NP0666","sourceParentCode":"NP06","sourceLevel":"ADM2","sourceValidOn":"2024-03-14","center":[81.87974646722944,30.03224454546936],"bbox":[81.25614519400006,29.604846723000094,82.49751538400005,30.44719846700019],"source":"Survey Department of Nepal (http://ngiip.gov.np/index.php), UN Resident Coordinators Office in Nepal (https://un.org.np/) · OCHA/HDX v02 · valid 2024-03-14 · CC BY-IGO","province":"Karnali"},"geometry":{"type":"Point","coordinates":[81.87974646722944,30.03224454546936]}},{"type":"Feature","id":"np-nepal-d-np0767","properties":{"id":"np-nepal-d-np0767","name":"Bajhang","region":"np-nepal","level":"district","parent":"np-nepal-p-np07","country":"Nepal","sourceCode":"NP0767","sourceParentCode":"NP07","sourceLevel":"ADM2","sourceValidOn":"2024-03-14","center":[81.17859921241914,29.708166551952818],"bbox":[80.74596264800016,29.39086152800013,81.56489565600003,30.054237764000106],"source":"Survey Department of Nepal (http://ngiip.gov.np/index.php), UN Resident Coordinators Office in Nepal (https://un.org.np/) · OCHA/HDX v02 · valid 2024-03-14 · CC BY-IGO","province":"Sudur Paschim"},"geometry":{"type":"Point","coordinates":[81.17859921241914,29.708166551952818]}},{"type":"Feature","id":"np-nepal-d-np0768","properties":{"id":"np-nepal-d-np0768","name":"Bajura","region":"np-nepal","level":"district","parent":"np-nepal-p-np07","country":"Nepal","sourceCode":"NP0768","sourceParentCode":"NP07","sourceLevel":"ADM2","sourceValidOn":"2024-03-14","center":[81.56304406731223,29.561244089871575],"bbox":[81.16988737200012,29.27182577800005,81.80810371500013,29.949203467000075],"source":"Survey Department of Nepal (http://ngiip.gov.np/index.php), UN Resident Coordinators Office in Nepal (https://un.org.np/) · OCHA/HDX v02 · valid 2024-03-14 · CC BY-IGO","province":"Sudur Paschim"},"geometry":{"type":"Point","coordinates":[81.56304406731223,29.561244089871575]}},{"type":"Feature","id":"np-nepal-d-np0769","properties":{"id":"np-nepal-d-np0769","name":"Achham","region":"np-nepal","level":"district","parent":"np-nepal-p-np07","country":"Nepal","sourceCode":"NP0769","sourceParentCode":"NP07","sourceLevel":"ADM2","sourceValidOn":"2024-03-14","center":[81.29699454871255,29.112489396901953],"bbox":[81.02647725999998,28.748199666,81.58191984100006,29.386592474000054],"source":"Survey Department of Nepal (http://ngiip.gov.np/index.php), UN Resident Coordinators Office in Nepal (https://un.org.np/) · OCHA/HDX v02 · valid 2024-03-14 · CC BY-IGO","province":"Sudur Paschim"},"geometry":{"type":"Point","coordinates":[81.29699454871255,29.112489396901953]}},{"type":"Feature","id":"np-nepal-d-np0770","properties":{"id":"np-nepal-d-np0770","name":"Doti","region":"np-nepal","level":"district","parent":"np-nepal-p-np07","country":"Nepal","sourceCode":"NP0770","sourceParentCode":"NP07","sourceLevel":"ADM2","sourceValidOn":"2024-03-14","center":[80.89445180357446,29.169562984741933],"bbox":[80.52613328300015,28.93062690300013,81.18685896500006,29.445648599000037],"source":"Survey Department of Nepal (http://ngiip.gov.np/index.php), UN Resident Coordinators Office in Nepal (https://un.org.np/) · OCHA/HDX v02 · valid 2024-03-14 · CC BY-IGO","province":"Sudur Paschim"},"geometry":{"type":"Point","coordinates":[80.89445180357446,29.169562984741933]}},{"type":"Feature","id":"np-nepal-d-np0771","properties":{"id":"np-nepal-d-np0771","name":"Kailali","region":"np-nepal","level":"district","parent":"np-nepal-p-np07","country":"Nepal","sourceCode":"NP0771","sourceParentCode":"NP07","sourceLevel":"ADM2","sourceValidOn":"2024-03-14","center":[80.87910732004235,28.741562618038653],"bbox":[80.46808068000001,28.39443167500019,81.28791207600017,29.068080234000035],"source":"Survey Department of Nepal (http://ngiip.gov.np/index.php), UN Resident Coordinators Office in Nepal (https://un.org.np/) · OCHA/HDX v02 · valid 2024-03-14 · CC BY-IGO","province":"Sudur Paschim"},"geometry":{"type":"Point","coordinates":[80.87910732004235,28.741562618038653]}},{"type":"Feature","id":"np-nepal-d-np0772","properties":{"id":"np-nepal-d-np0772","name":"Kanchanpur","region":"np-nepal","level":"district","parent":"np-nepal-p-np07","country":"Nepal","sourceCode":"NP0772","sourceParentCode":"NP07","sourceLevel":"ADM2","sourceValidOn":"2024-03-14","center":[80.32167879966511,28.861744049188268],"bbox":[80.05846710800012,28.551735522000115,80.55941460100013,29.13723348500008],"source":"Survey Department of Nepal (http://ngiip.gov.np/index.php), UN Resident Coordinators Office in Nepal (https://un.org.np/) · OCHA/HDX v02 · valid 2024-03-14 · CC BY-IGO","province":"Sudur Paschim"},"geometry":{"type":"Point","coordinates":[80.32167879966511,28.861744049188268]}},{"type":"Feature","id":"np-nepal-d-np0773","properties":{"id":"np-nepal-d-np0773","name":"Dadeldhura","region":"np-nepal","level":"district","parent":"np-nepal-p-np07","country":"Nepal","sourceCode":"NP0773","sourceParentCode":"NP07","sourceLevel":"ADM2","sourceValidOn":"2024-03-14","center":[80.48895172662854,29.223042492526396],"bbox":[80.18434817200006,28.993200560000048,80.78575007800009,29.425085050000064],"source":"Survey Department of Nepal (http://ngiip.gov.np/index.php), UN Resident Coordinators Office in Nepal (https://un.org.np/) · OCHA/HDX v02 · valid 2024-03-14 · CC BY-IGO","province":"Sudur Paschim"},"geometry":{"type":"Point","coordinates":[80.48895172662854,29.223042492526396]}},{"type":"Feature","id":"np-nepal-d-np0774","properties":{"id":"np-nepal-d-np0774","name":"Baitadi","region":"np-nepal","level":"district","parent":"np-nepal-p-np07","country":"Nepal","sourceCode":"NP0774","sourceParentCode":"NP07","sourceLevel":"ADM2","sourceValidOn":"2024-03-14","center":[80.5713985899113,29.50746178843473],"bbox":[80.24157142700011,29.308360831000073,80.90815396300019,29.707904357000075],"source":"Survey Department of Nepal (http://ngiip.gov.np/index.php), UN Resident Coordinators Office in Nepal (https://un.org.np/) · OCHA/HDX v02 · valid 2024-03-14 · CC BY-IGO","province":"Sudur Paschim"},"geometry":{"type":"Point","coordinates":[80.5713985899113,29.50746178843473]}},{"type":"Feature","id":"np-nepal-d-np0775","properties":{"id":"np-nepal-d-np0775","name":"Darchula","region":"np-nepal","level":"district","parent":"np-nepal-p-np07","country":"Nepal","sourceCode":"NP0775","sourceParentCode":"NP07","sourceLevel":"ADM2","sourceValidOn":"2024-03-14","center":[80.79177958398456,29.891882639431977],"bbox":[80.36409620300003,29.60493625200013,81.10862932900017,30.246692206000034],"source":"Survey Department of Nepal (http://ngiip.gov.np/index.php), UN Resident Coordinators Office in Nepal (https://un.org.np/) · OCHA/HDX v02 · valid 2024-03-14 · CC BY-IGO","province":"Sudur Paschim"},"geometry":{"type":"Point","coordinates":[80.79177958398456,29.891882639431977]}}]}
