{"type":"FeatureCollection","features":[{"type":"Feature","id":"pk-country-p-pk1","properties":{"id":"pk-country-p-pk1","name":"Azad Kashmir","region":"pk-country","level":"province","parent":"pk-country","country":"Pakistan · full source coverage","sourceCode":"PK1","sourceParentCode":"PK","sourceLevel":"ADM1","sourceValidOn":"2022-09-09","center":[73.93982776482028,34.011116304949844],"bbox":[73.39804108300018,32.76916824000011,74.86487877200005,35.1346588130001],"source":"World Food Programme SDI · OCHA/HDX v01 · valid 2022-09-09 · CC BY-IGO"},"geometry":{"type":"Point","coordinates":[73.93982776482028,34.011116304949844]}},{"type":"Feature","id":"pk-country-p-pk2","properties":{"id":"pk-country-p-pk2","name":"Balochistan","region":"pk-country","level":"province","parent":"pk-country","country":"Pakistan · full source coverage","sourceCode":"PK2","sourceParentCode":"PK","sourceLevel":"ADM1","sourceValidOn":"2022-09-09","center":[65.89353768535004,28.327452632151175],"bbox":[60.878597404000175,24.89066314700011,70.29478454600007,32.10061645500008],"source":"World Food Programme SDI · OCHA/HDX v01 · valid 2022-09-09 · CC BY-IGO"},"geometry":{"type":"Point","coordinates":[65.89353768535004,28.327452632151175]}},{"type":"Feature","id":"pk-country-p-pk3","properties":{"id":"pk-country-p-pk3","name":"Gilgit Baltistan","region":"pk-country","level":"province","parent":"pk-country","country":"Pakistan · full source coverage","sourceCode":"PK3","sourceParentCode":"PK","sourceLevel":"ADM1","sourceValidOn":"2022-09-09","center":[74.97728628410542,35.79206634256213],"bbox":[72.51277129400006,34.51583249000015,77.83396708800012,37.08942389800018],"source":"World Food Programme SDI · OCHA/HDX v01 · valid 2022-09-09 · CC BY-IGO"},"geometry":{"type":"Point","coordinates":[74.97728628410542,35.79206634256213]}},{"type":"Feature","id":"pk-country-p-pk4","properties":{"id":"pk-country-p-pk4","name":"Islamabad","region":"pk-country","level":"province","parent":"pk-country","country":"Pakistan · full source coverage","sourceCode":"PK4","sourceParentCode":"PK","sourceLevel":"ADM1","sourceValidOn":"2022-09-09","center":[73.11991372317887,33.672098120738134],"bbox":[72.81388102200009,33.48971101600017,73.38939666800019,33.81193160999999],"source":"World Food Programme SDI · OCHA/HDX v01 · valid 2022-09-09 · CC BY-IGO"},"geometry":{"type":"Point","coordinates":[73.11991372317887,33.672098120738134]}},{"type":"Feature","id":"pk-country-p-pk5","properties":{"id":"pk-country-p-pk5","name":"Khyber Pakhtunkhwa","region":"pk-country","level":"province","parent":"pk-country","country":"Pakistan · full source coverage","sourceCode":"PK5","sourceParentCode":"PK","sourceLevel":"ADM1","sourceValidOn":"2022-09-09","center":[71.64723501562418,34.13960789371438],"bbox":[69.23877690500007,31.165496826000094,74.12742587800005,36.90756933600011],"source":"World Food Programme SDI · OCHA/HDX v01 · valid 2022-09-09 · CC BY-IGO"},"geometry":{"type":"Point","coordinates":[71.64723501562418,34.13960789371438]}},{"type":"Feature","id":"pk-country-p-pk6","properties":{"id":"pk-country-p-pk6","name":"Punjab","region":"pk-country","level":"province","parent":"pk-country","country":"Pakistan · full source coverage","sourceCode":"PK6","sourceParentCode":"PK","sourceLevel":"ADM1","sourceValidOn":"2022-09-09","center":[72.1427971854576,30.813839125334063],"bbox":[69.32131958000019,27.705110332000174,75.38186689200012,34.01828002900015],"source":"World Food Programme SDI · OCHA/HDX v01 · valid 2022-09-09 · CC BY-IGO"},"geometry":{"type":"Point","coordinates":[72.1427971854576,30.813839125334063]}},{"type":"Feature","id":"pk-country-p-pk7","properties":{"id":"pk-country-p-pk7","name":"Sindh","region":"pk-country","level":"province","parent":"pk-country","country":"Pakistan · full source coverage","sourceCode":"PK7","sourceParentCode":"PK","sourceLevel":"ADM1","sourceValidOn":"2022-09-09","center":[68.78032140705493,26.01860628452565],"bbox":[66.59614563000014,23.69468307500017,71.12440394600003,28.484956741000076],"source":"World Food Programme SDI · OCHA/HDX v01 · valid 2022-09-09 · CC BY-IGO"},"geometry":{"type":"Point","coordinates":[68.78032140705493,26.01860628452565]}}]}
