{"type":"FeatureCollection","features":[{"type":"Feature","id":"pk-country","properties":{"id":"pk-country","name":"Pakistan","region":"pk-country","level":"region","parent":"","country":"Pakistan · full source coverage","sourceCode":"PK","sourceParentCode":"","sourceLevel":"ADM0","sourceValidOn":"2022-09-09","center":[69.39553455282261,29.972704411228204],"bbox":[60.878597404000175,23.69468307500017,77.83396708800012,37.08942389800018],"source":"World Food Programme SDI · OCHA/HDX v01 · valid 2022-09-09 · CC BY-IGO"},"geometry":{"type":"Point","coordinates":[69.39553455282261,29.972704411228204]}}]}
