{"type":"FeatureCollection","features":[{"type":"Feature","id":"PK501","properties":{"id":"PK501","name":"Abbottabad","region":"pk-kp","level":"district","parent":"","district":"Abbottabad","source":"WFP / OCHA \u00b7 2022","center":[73.29114081995074,34.09458000000018],"bbox":[72.97160999699997,33.81568908700012,73.51200752900019,34.374062244000186]},"geometry":{"type":"Point","coordinates":[73.29114081995074,34.09458000000018]}},{"type":"Feature","id":"PK504","properties":{"id":"PK504","name":"Batagram","region":"pk-kp","level":"district","parent":"","district":"Batagram","source":"WFP / OCHA \u00b7 2022","center":[73.1374315209112,34.76181943550009],"bbox":[72.86335839200007,34.556346110000106,73.49719127100013,34.96763916800006]},"geometry":{"type":"Point","coordinates":[73.1374315209112,34.76181943550009]}},{"type":"Feature","id":"PK506","properties":{"id":"PK506","name":"Charsadda","region":"pk-kp","level":"district","parent":"","district":"Charsadda","source":"WFP / OCHA \u00b7 2022","center":[71.6993961982212,34.24785873750008],"bbox":[71.48527999900017,34.03880271800011,71.94367440400009,34.45732000400011]},"geometry":{"type":"Point","coordinates":[71.6993961982212,34.24785873750008]}},{"type":"Feature","id":"PK510","properties":{"id":"PK510","name":"Hangu","region":"pk-kp","level":"district","parent":"","district":"Hangu","source":"WFP / OCHA \u00b7 2022","center":[70.80415868170749,33.41216500500008],"bbox":[70.49912262000004,33.21483993500004,71.22980874000007,33.609519996000074]},"geometry":{"type":"Point","coordinates":[70.80415868170749,33.41216500500008]}},{"type":"Feature","id":"PK511","properties":{"id":"PK511","name":"Haripur","region":"pk-kp","level":"district","parent":"","district":"Haripur","source":"WFP / OCHA \u00b7 2022","center":[72.87563655005141,34.0478449955001],"bbox":[72.5486707930001,33.72937011700009,73.21540999500013,34.366615784000146]},"geometry":{"type":"Point","coordinates":[72.87563655005141,34.0478449955001]}},{"type":"Feature","id":"PK512","properties":{"id":"PK512","name":"Karak","region":"pk-kp","level":"district","parent":"","district":"Karak","source":"WFP / OCHA \u00b7 2022","center":[71.11055421986117,33.10125923150008],"bbox":[70.75038107000006,32.80596000200012,71.4760971070001,33.394995113000164]},"geometry":{"type":"Point","coordinates":[71.11055421986117,33.10125923150008]}},{"type":"Feature","id":"PK513","properties":{"id":"PK513","name":"Khyber","region":"pk-kp","level":"district","parent":"","district":"Khyber","source":"WFP / OCHA \u00b7 2022","center":[71.20540631388405,34.03999340650009],"bbox":[70.44094928400017,33.7392074010001,71.51905822800018,34.33971426000005]},"geometry":{"type":"Point","coordinates":[71.20540631388405,34.03999340650009]}},{"type":"Feature","id":"PK514","properties":{"id":"PK514","name":"Kohat","region":"pk-kp","level":"district","parent":"","district":"Kohat","source":"WFP / OCHA \u00b7 2022","center":[71.48822722511733,33.412245399000085],"bbox":[71.06078000500008,33.05982971200018,72.00999259100001,33.76421408000016]},"geometry":{"type":"Point","coordinates":[71.48822722511733,33.412245399000085]}},{"type":"Feature","id":"PK515","properties":{"id":"PK515","name":"Kohistan Lower","region":"pk-kp","level":"district","parent":"","district":"Kohistan Lower","source":"WFP / OCHA \u00b7 2022","center":[72.92296094129821,35.14968862050017],"bbox":[72.68535002100015,34.970705517000056,73.17858007899997,35.32806854900002]},"geometry":{"type":"Point","coordinates":[72.92296094129821,35.14968862050017]}},{"type":"Feature","id":"PK516","properties":{"id":"PK516","name":"Kohistan Upper","region":"pk-kp","level":"district","parent":"","district":"Kohistan Upper","source":"WFP / OCHA \u00b7 2022","center":[73.22132138792809,35.42281309100011],"bbox":[72.70313764200012,34.979929043000084,73.95973787900016,35.864441458000044]},"geometry":{"type":"Point","coordinates":[73.22132138792809,35.42281309100011]}},{"type":"Feature","id":"PK517","properties":{"id":"PK517","name":"Kolai Palas Kohistan","region":"pk-kp","level":"district","parent":"","district":"Kolai Palas Kohistan","source":"WFP / OCHA \u00b7 2022","center":[73.17507476654556,35.06743769100012],"bbox":[72.87805735800015,34.8961284180001,73.6334055210001,35.23860367700013]},"geometry":{"type":"Point","coordinates":[73.17507476654556,35.06743769100012]}},{"type":"Feature","id":"PK518","properties":{"id":"PK518","name":"Kurram","region":"pk-kp","level":"district","parent":"","district":"Kurram","source":"WFP / OCHA \u00b7 2022","center":[70.3843670581722,33.689642272500095],"bbox":[69.86120526500002,33.330900558,70.75362785400011,34.04895064800007]},"geometry":{"type":"Point","coordinates":[70.3843670581722,33.689642272500095]}},{"type":"Feature","id":"PK522","properties":{"id":"PK522","name":"Mansehra","region":"pk-kp","level":"district","parent":"","district":"Mansehra","source":"WFP / OCHA \u00b7 2022","center":[73.51194286258041,34.6957344435001],"bbox":[72.81669743700013,34.209989999000186,74.12742587800005,35.18190189700016]},"geometry":{"type":"Point","coordinates":[73.51194286258041,34.6957344435001]}},{"type":"Feature","id":"PK523","properties":{"id":"PK523","name":"Mardan","region":"pk-kp","level":"district","parent":"","district":"Mardan","source":"WFP / OCHA \u00b7 2022","center":[72.08078635716399,34.30337073400008],"bbox":[71.82124000400006,34.07547999900015,72.43185336700009,34.531590000999984]},"geometry":{"type":"Point","coordinates":[72.08078635716399,34.30337073400008]}},{"type":"Feature","id":"PK524","properties":{"id":"PK524","name":"Mohmand","region":"pk-kp","level":"district","parent":"","district":"Mohmand","source":"WFP / OCHA \u00b7 2022","center":[71.3664929451318,34.44608497650012],"bbox":[70.99283753100013,34.16091204600008,71.70755767800011,34.73099287100007]},"geometry":{"type":"Point","coordinates":[71.3664929451318,34.44608497650012]}},{"type":"Feature","id":"PK526","properties":{"id":"PK526","name":"Nowshera","region":"pk-kp","level":"district","parent":"","district":"Nowshera","source":"WFP / OCHA \u00b7 2022","center":[72.00280899249694,33.917091525000046],"bbox":[71.69657000000012,33.69350000400004,72.24852000200013,34.1407697300001]},"geometry":{"type":"Point","coordinates":[72.00280899249694,33.917091525000046]}},{"type":"Feature","id":"PK527","properties":{"id":"PK527","name":"Orakzai","region":"pk-kp","level":"district","parent":"","district":"Orakzai","source":"WFP / OCHA \u00b7 2022","center":[70.87820004714314,33.694902573500116],"bbox":[70.585190571,33.54550933799999,71.41204901700019,33.84456993200013]},"geometry":{"type":"Point","coordinates":[70.87820004714314,33.694902573500116]}},{"type":"Feature","id":"PK528","properties":{"id":"PK528","name":"Peshawar","region":"pk-kp","level":"district","parent":"","district":"Peshawar","source":"WFP / OCHA \u00b7 2022","center":[71.60001123576684,33.94172578500019],"bbox":[71.36966705300017,33.65718414800011,71.86092376700014,34.22586822500017]},"geometry":{"type":"Point","coordinates":[71.60001123576684,33.94172578500019]}},{"type":"Feature","id":"PK531","properties":{"id":"PK531","name":"Swabi","region":"pk-kp","level":"district","parent":"","district":"Swabi","source":"WFP / OCHA \u00b7 2022","center":[72.47676183894431,34.141186810000164],"bbox":[72.19990958400012,33.90053499900017,72.77172326700008,34.380565273000116]},"geometry":{"type":"Point","coordinates":[72.47676183894431,34.141186810000164]}},{"type":"Feature","id":"PK534","properties":{"id":"PK534","name":"Tor Ghar","region":"pk-kp","level":"district","parent":"","district":"Tor Ghar","source":"WFP / OCHA \u00b7 2022","center":[72.87595297930592,34.558592589000085],"bbox":[72.71280589400016,34.34817073100015,72.94139002000009,34.76955542300004]},"geometry":{"type":"Point","coordinates":[72.87595297930592,34.558592589000085]}}]}