{"type":"FeatureCollection","features":[{"type":"Feature","id":"PK50101","properties":{"id":"PK50101","name":"Abbottabad","region":"pk-kp","level":"tehsil","parent":"PK501","district":"Abbottabad","source":"WFP / OCHA \u00b7 2022","center":[73.31545675464395,34.16486522800008],"bbox":[73.057039997,33.95515823400001,73.51200752900019,34.374062244000186]},"geometry":{"type":"Point","coordinates":[73.31545675464395,34.16486522800008]}},{"type":"Feature","id":"PK50102","properties":{"id":"PK50102","name":"Havelian","region":"pk-kp","level":"tehsil","parent":"PK501","district":"Abbottabad","source":"WFP / OCHA \u00b7 2022","center":[73.22610354459319,34.00931499800012],"bbox":[73.07213441900018,33.89219888500003,73.3299415840001,34.12551825700018]},"geometry":{"type":"Point","coordinates":[73.22610354459319,34.00931499800012]}},{"type":"Feature","id":"PK50103","properties":{"id":"PK50103","name":"Lora","region":"pk-kp","level":"tehsil","parent":"PK501","district":"Abbottabad","source":"WFP / OCHA \u00b7 2022","center":[73.30795708156923,33.92190556950004],"bbox":[73.1828000050001,33.81568908700012,73.41369894400015,34.02830755000019]},"geometry":{"type":"Point","coordinates":[73.30795708156923,33.92190556950004]}},{"type":"Feature","id":"PK50104","properties":{"id":"PK50104","name":"Lower Tanawal","region":"pk-kp","level":"tehsil","parent":"PK501","district":"Abbottabad","source":"WFP / OCHA \u00b7 2022","center":[73.09047724077712,34.19370000050009],"bbox":[72.97160999699997,34.12010000000015,73.19185361100011,34.266929996000044]},"geometry":{"type":"Point","coordinates":[73.09047724077712,34.19370000050009]}},{"type":"Feature","id":"PK50401","properties":{"id":"PK50401","name":"Allai","region":"pk-kp","level":"tehsil","parent":"PK504","district":"Batagram","source":"WFP / OCHA \u00b7 2022","center":[73.20084835725008,34.8113590535001],"bbox":[72.86335839200007,34.655660042000136,73.49719127100013,34.96763916800006]},"geometry":{"type":"Point","coordinates":[73.20084835725008,34.8113590535001]}},{"type":"Feature","id":"PK50402","properties":{"id":"PK50402","name":"Batagram","region":"pk-kp","level":"tehsil","parent":"PK504","district":"Batagram","source":"WFP / OCHA \u00b7 2022","center":[73.03246092847755,34.681431070500054],"bbox":[72.87092026500017,34.556346110000106,73.20904077400013,34.80589447200015]},"geometry":{"type":"Point","coordinates":[73.03246092847755,34.681431070500054]}},{"type":"Feature","id":"PK50601","properties":{"id":"PK50601","name":"Charsadda","region":"pk-kp","level":"tehsil","parent":"PK506","district":"Charsadda","source":"WFP / OCHA \u00b7 2022","center":[71.80173094840131,34.164884654000105],"bbox":[71.64964228600007,34.03880271800011,71.94367440400009,34.28952999500012]},"geometry":{"type":"Point","coordinates":[71.80173094840131,34.164884654000105]}},{"type":"Feature","id":"PK50602","properties":{"id":"PK50602","name":"Shabqadar","region":"pk-kp","level":"tehsil","parent":"PK506","district":"Charsadda","source":"WFP / OCHA \u00b7 2022","center":[71.57709615134178,34.229728941000104],"bbox":[71.48527999900017,34.12253794600008,71.68133770800011,34.33641126500004]},"geometry":{"type":"Point","coordinates":[71.57709615134178,34.229728941000104]}},{"type":"Feature","id":"PK50603","properties":{"id":"PK50603","name":"Tangi","region":"pk-kp","level":"tehsil","parent":"PK506","district":"Charsadda","source":"WFP / OCHA \u00b7 2022","center":[71.70529108047789,34.34695663850016],"bbox":[71.56263732899998,34.23660456100009,71.84219686100005,34.45732000400011]},"geometry":{"type":"Point","coordinates":[71.70529108047789,34.34695663850016]}},{"type":"Feature","id":"PK51001","properties":{"id":"PK51001","name":"Hangu","region":"pk-kp","level":"tehsil","parent":"PK510","district":"Hangu","source":"WFP / OCHA \u00b7 2022","center":[71.02180393424285,33.4817692015001],"bbox":[70.74640646200015,33.3542800030001,71.22980874000007,33.609519996000074]},"geometry":{"type":"Point","coordinates":[71.02180393424285,33.4817692015001]}},{"type":"Feature","id":"PK51002","properties":{"id":"PK51002","name":"Tall","region":"pk-kp","level":"tehsil","parent":"PK510","district":"Hangu","source":"WFP / OCHA \u00b7 2022","center":[70.67247883306925,33.385683061000094],"bbox":[70.49912262000004,33.21483993500004,70.90784548400018,33.55633636700014]},"geometry":{"type":"Point","coordinates":[70.67247883306925,33.385683061000094]}},{"type":"Feature","id":"PK51101","properties":{"id":"PK51101","name":"Ghazi","region":"pk-kp","level":"tehsil","parent":"PK511","district":"Haripur","source":"WFP / OCHA \u00b7 2022","center":[72.79143876654463,34.112662118000145],"bbox":[72.5486707930001,33.85750961300005,72.8621332680001,34.366615784000146]},"geometry":{"type":"Point","coordinates":[72.79143876654463,34.112662118000145]}},{"type":"Feature","id":"PK51102","properties":{"id":"PK51102","name":"Haripur","region":"pk-kp","level":"tehsil","parent":"PK511","district":"Haripur","source":"WFP / OCHA \u00b7 2022","center":[72.96073416202371,34.070255001000135],"bbox":[72.76760388700012,33.84813887399997,73.14643999900011,34.290474847000155]},"geometry":{"type":"Point","coordinates":[72.96073416202371,34.070255001000135]}},{"type":"Feature","id":"PK51103","properties":{"id":"PK51103","name":"Khanpur","region":"pk-kp","level":"tehsil","parent":"PK511","district":"Haripur","source":"WFP / OCHA \u00b7 2022","center":[73.03749897559621,33.82495011050011],"bbox":[72.81796264600013,33.72937011700009,73.21540999500013,33.92056999700014]},"geometry":{"type":"Point","coordinates":[73.03749897559621,33.82495011050011]}},{"type":"Feature","id":"PK51201","properties":{"id":"PK51201","name":"Banda Daud Shah","region":"pk-kp","level":"tehsil","parent":"PK512","district":"Karak","source":"WFP / OCHA \u00b7 2022","center":[71.10498424955622,33.26348999850009],"bbox":[70.75038107000006,33.13133806400009,71.45022998900004,33.394995113000164]},"geometry":{"type":"Point","coordinates":[71.10498424955622,33.26348999850009]}},{"type":"Feature","id":"PK51202","properties":{"id":"PK51202","name":"Karak","region":"pk-kp","level":"tehsil","parent":"PK512","district":"Karak","source":"WFP / OCHA \u00b7 2022","center":[71.22188165264434,33.13283538850004],"bbox":[70.79183960000017,33.013619236000125,71.45229339600013,33.25200291500005]},"geometry":{"type":"Point","coordinates":[71.22188165264434,33.13283538850004]}},{"type":"Feature","id":"PK51203","properties":{"id":"PK51203","name":"Takht-E-Nasrati","region":"pk-kp","level":"tehsil","parent":"PK512","district":"Karak","source":"WFP / OCHA \u00b7 2022","center":[71.05248929312006,32.95958547900017],"bbox":[70.91546877500008,32.80596000200012,71.4760971070001,33.11245649200015]},"geometry":{"type":"Point","coordinates":[71.05248929312006,32.95958547900017]}},{"type":"Feature","id":"PK51301","properties":{"id":"PK51301","name":"Bara","region":"pk-kp","level":"tehsil","parent":"PK513","district":"Khyber","source":"WFP / OCHA \u00b7 2022","center":[70.97196123528502,33.86095748350007],"bbox":[70.44094928400017,33.7392074010001,71.51905822800018,33.98175006900016]},"geometry":{"type":"Point","coordinates":[70.97196123528502,33.86095748350007]}},{"type":"Feature","id":"PK51302","properties":{"id":"PK51302","name":"Jamrud","region":"pk-kp","level":"tehsil","parent":"PK513","district":"Khyber","source":"WFP / OCHA \u00b7 2022","center":[71.30494377569696,33.99086300200008],"bbox":[71.17768897400009,33.92798476400003,71.43519564800016,34.05390687000016]},"geometry":{"type":"Point","coordinates":[71.30494377569696,33.99086300200008]}},{"type":"Feature","id":"PK51303","properties":{"id":"PK51303","name":"Landi Kotal","region":"pk-kp","level":"tehsil","parent":"PK513","district":"Khyber","source":"WFP / OCHA \u00b7 2022","center":[71.17285604682996,34.13125614250009],"bbox":[70.87301510900016,33.92275587500018,71.31564312400013,34.33971426000005]},"geometry":{"type":"Point","coordinates":[71.17285604682996,34.13125614250009]}},{"type":"Feature","id":"PK51304","properties":{"id":"PK51304","name":"Mulagori","region":"pk-kp","level":"tehsil","parent":"PK513","district":"Khyber","source":"WFP / OCHA \u00b7 2022","center":[71.31314734219754,34.1175864680001],"bbox":[71.23850799600007,34.039819994000084,71.41378224300007,34.1954117410001]},"geometry":{"type":"Point","coordinates":[71.31314734219754,34.1175864680001]}},{"type":"Feature","id":"PK51401","properties":{"id":"PK51401","name":"Kohat","region":"pk-kp","level":"tehsil","parent":"PK514","district":"Kohat","source":"WFP / OCHA \u00b7 2022","center":[71.4042996266995,33.56672292050004],"bbox":[71.08219909700006,33.387863621000065,71.6746900010001,33.74596023600009]},"geometry":{"type":"Point","coordinates":[71.4042996266995,33.56672292050004]}},{"type":"Feature","id":"PK51402","properties":{"id":"PK51402","name":"Lachi","region":"pk-kp","level":"tehsil","parent":"PK514","district":"Kohat","source":"WFP / OCHA \u00b7 2022","center":[71.57647889717222,33.284344207500084],"bbox":[71.06078000500008,33.05982971200018,71.78617165700007,33.50860000300014]},"geometry":{"type":"Point","coordinates":[71.57647889717222,33.284344207500084]}},{"type":"Feature","id":"PK51403","properties":{"id":"PK51403","name":"Gumbat","region":"pk-kp","level":"tehsil","parent":"PK514","district":"Kohat","source":"WFP / OCHA \u00b7 2022","center":[71.82863144420325,33.5605049135001],"bbox":[71.61171000400014,33.387823837000155,72.00999259100001,33.73359000400012]},"geometry":{"type":"Point","coordinates":[71.82863144420325,33.5605049135001]}},{"type":"Feature","id":"PK51404","properties":{"id":"PK51404","name":"Darra Adam Khel","region":"pk-kp","level":"tehsil","parent":"PK514","district":"Kohat","source":"WFP / OCHA \u00b7 2022","center":[71.62073438644185,33.65275416400016],"bbox":[71.3489742660002,33.54129028300008,71.83988952600015,33.76421408000016]},"geometry":{"type":"Point","coordinates":[71.62073438644185,33.65275416400016]}},{"type":"Feature","id":"PK51501","properties":{"id":"PK51501","name":"Pattan","region":"pk-kp","level":"tehsil","parent":"PK515","district":"Kohistan Lower","source":"WFP / OCHA \u00b7 2022","center":[73.02928736786959,35.1829451050001],"bbox":[72.89773897300017,35.03937791699997,73.17858007899997,35.32806854900002]},"geometry":{"type":"Point","coordinates":[73.02928736786959,35.1829451050001]}},{"type":"Feature","id":"PK51502","properties":{"id":"PK51502","name":"Bankad","region":"pk-kp","level":"tehsil","parent":"PK515","district":"Kohistan Lower","source":"WFP / OCHA \u00b7 2022","center":[72.85175686875931,35.118581259500104],"bbox":[72.68535002100015,34.970705517000056,72.95600071100006,35.26619463700001]},"geometry":{"type":"Point","coordinates":[72.85175686875931,35.118581259500104]}},{"type":"Feature","id":"PK51601","properties":{"id":"PK51601","name":"Dassu","region":"pk-kp","level":"tehsil","parent":"PK516","district":"Kohistan Upper","source":"WFP / OCHA \u00b7 2022","center":[73.49466447118118,35.24032222100013],"bbox":[73.17090014500013,34.979929043000084,73.95973787900016,35.500354057000095]},"geometry":{"type":"Point","coordinates":[73.49466447118118,35.24032222100013]}},{"type":"Feature","id":"PK51602","properties":{"id":"PK51602","name":"Kandia","region":"pk-kp","level":"tehsil","parent":"PK516","district":"Kohistan Upper","source":"WFP / OCHA \u00b7 2022","center":[73.11617976611562,35.553498768000026],"bbox":[72.70313764200012,35.2430655120001,73.49304144500019,35.864441458000044]},"geometry":{"type":"Point","coordinates":[73.11617976611562,35.553498768000026]}},{"type":"Feature","id":"PK51603","properties":{"id":"PK51603","name":"Harban Basha","region":"pk-kp","level":"tehsil","parent":"PK516","district":"Kohistan Upper","source":"WFP / OCHA \u00b7 2022","center":[73.57421206047823,35.417232288500145],"bbox":[73.37142960400001,35.266634803000045,73.80677643100012,35.56860283200007]},"geometry":{"type":"Point","coordinates":[73.57421206047823,35.417232288500145]}},{"type":"Feature","id":"PK51604","properties":{"id":"PK51604","name":"Seo","region":"pk-kp","level":"tehsil","parent":"PK516","district":"Kohistan Upper","source":"WFP / OCHA \u00b7 2022","center":[73.16503349516631,35.33981573300008],"bbox":[73.00600455600016,35.18971229700014,73.32645102200013,35.48937839100006]},"geometry":{"type":"Point","coordinates":[73.16503349516631,35.33981573300008]}},{"type":"Feature","id":"PK51701","properties":{"id":"PK51701","name":"Palas","region":"pk-kp","level":"tehsil","parent":"PK517","district":"Kolai Palas Kohistan","source":"WFP / OCHA \u00b7 2022","center":[73.17897029804396,35.067425673000116],"bbox":[72.96384320600015,34.8961284180001,73.6334055210001,35.23860367700013]},"geometry":{"type":"Point","coordinates":[73.17897029804396,35.067425673000116]}},{"type":"Feature","id":"PK51702","properties":{"id":"PK51702","name":"Battera Kolai","region":"pk-kp","level":"tehsil","parent":"PK517","district":"Kolai Palas Kohistan","source":"WFP / OCHA \u00b7 2022","center":[72.96794375445025,34.99204452950008],"bbox":[72.87805735800015,34.91433129700016,73.04494427200012,35.06998154500013]},"geometry":{"type":"Point","coordinates":[72.96794375445025,34.99204452950008]}},{"type":"Feature","id":"PK51801","properties":{"id":"PK51801","name":"Central Kurram","region":"pk-kp","level":"tehsil","parent":"PK518","district":"Kurram","source":"WFP / OCHA \u00b7 2022","center":[70.49170439296364,33.697313704000095],"bbox":[70.23525528000005,33.414577039000164,70.75362785400011,33.980277964000095]},"geometry":{"type":"Point","coordinates":[70.49170439296364,33.697313704000095]}},{"type":"Feature","id":"PK51802","properties":{"id":"PK51802","name":"Lower Kurram","region":"pk-kp","level":"tehsil","parent":"PK518","district":"Kurram","source":"WFP / OCHA \u00b7 2022","center":[70.27626964722566,33.57292743050007],"bbox":[70.15454984800016,33.330900558,70.54486846900011,33.8146449730001]},"geometry":{"type":"Point","coordinates":[70.27626964722566,33.57292743050007]}},{"type":"Feature","id":"PK51803","properties":{"id":"PK51803","name":"Upper Kurram","region":"pk-kp","level":"tehsil","parent":"PK518","district":"Kurram","source":"WFP / OCHA \u00b7 2022","center":[70.09168116059705,33.84989668650016],"bbox":[69.86120526500002,33.65107695100011,70.3041705710001,34.04895064800007]},"geometry":{"type":"Point","coordinates":[70.09168116059705,33.84989668650016]}},{"type":"Feature","id":"PK52201","properties":{"id":"PK52201","name":"Bala Kot","region":"pk-kp","level":"tehsil","parent":"PK522","district":"Mansehra","source":"WFP / OCHA \u00b7 2022","center":[73.53946411186794,34.752632644000045],"bbox":[73.2939870240001,34.32428805900008,74.12742587800005,35.18190189700016]},"geometry":{"type":"Point","coordinates":[73.53946411186794,34.752632644000045]}},{"type":"Feature","id":"PK52202","properties":{"id":"PK52202","name":"Mansehra","region":"pk-kp","level":"tehsil","parent":"PK522","district":"Mansehra","source":"WFP / OCHA \u00b7 2022","center":[73.14579497100775,34.44228935950014],"bbox":[72.89967999800007,34.209989999000186,73.34762999900005,34.6745693580001]},"geometry":{"type":"Point","coordinates":[73.14579497100775,34.44228935950014]}},{"type":"Feature","id":"PK52203","properties":{"id":"PK52203","name":"Oghi","region":"pk-kp","level":"tehsil","parent":"PK522","district":"Mansehra","source":"WFP / OCHA \u00b7 2022","center":[72.99278000466,34.455013111000085],"bbox":[72.88573620700004,34.32062999600004,73.11911014300011,34.589460049000024]},"geometry":{"type":"Point","coordinates":[72.99278000466,34.455013111000085]}},{"type":"Feature","id":"PK52204","properties":{"id":"PK52204","name":"Baffa Pakhal","region":"pk-kp","level":"tehsil","parent":"PK522","district":"Mansehra","source":"WFP / OCHA \u00b7 2022","center":[73.25360868003301,34.55577960750017],"bbox":[73.1591987870001,34.37126076800007,73.35177613700006,34.73991566600017]},"geometry":{"type":"Point","coordinates":[73.25360868003301,34.55577960750017]}},{"type":"Feature","id":"PK52205","properties":{"id":"PK52205","name":"Darband","region":"pk-kp","level":"tehsil","parent":"PK522","district":"Mansehra","source":"WFP / OCHA \u00b7 2022","center":[72.86959212587061,34.36885280950008],"bbox":[72.81669743700013,34.262590001000035,72.94037831400004,34.47493621300009]},"geometry":{"type":"Point","coordinates":[72.86959212587061,34.36885280950008]}},{"type":"Feature","id":"PK52301","properties":{"id":"PK52301","name":"Katlang","region":"pk-kp","level":"tehsil","parent":"PK523","district":"Mardan","source":"WFP / OCHA \u00b7 2022","center":[72.11815124009493,34.411321479500145],"bbox":[71.95654999800013,34.291614468000034,72.23869185600017,34.531590000999984]},"geometry":{"type":"Point","coordinates":[72.11815124009493,34.411321479500145]}},{"type":"Feature","id":"PK52302","properties":{"id":"PK52302","name":"Mardan","region":"pk-kp","level":"tehsil","parent":"PK523","district":"Mardan","source":"WFP / OCHA \u00b7 2022","center":[72.00049129891482,34.190855110000115],"bbox":[71.90194978200014,34.07569999700007,72.12926634600018,34.30606999400004]},"geometry":{"type":"Point","coordinates":[72.00049129891482,34.190855110000115]}},{"type":"Feature","id":"PK52303","properties":{"id":"PK52303","name":"Takht Bhai","region":"pk-kp","level":"tehsil","parent":"PK523","district":"Mardan","source":"WFP / OCHA \u00b7 2022","center":[71.91047682410182,34.345292378000096],"bbox":[71.82124000400006,34.21473991500005,72.05280000000016,34.4757997910001]},"geometry":{"type":"Point","coordinates":[71.91047682410182,34.345292378000096]}},{"type":"Feature","id":"PK52304","properties":{"id":"PK52304","name":"Rustam","region":"pk-kp","level":"tehsil","parent":"PK523","district":"Mardan","source":"WFP / OCHA \u00b7 2022","center":[72.25753163314431,34.3440874075001],"bbox":[72.11746372600004,34.24228031300004,72.43185336700009,34.44497999700002]},"geometry":{"type":"Point","coordinates":[72.25753163314431,34.3440874075001]}},{"type":"Feature","id":"PK52305","properties":{"id":"PK52305","name":"Garhi Kapura","region":"pk-kp","level":"tehsil","parent":"PK523","district":"Mardan","source":"WFP / OCHA \u00b7 2022","center":[72.13410475527448,34.18578120450019],"bbox":[72.02923958800011,34.07547999900015,72.22853654800014,34.29626760000008]},"geometry":{"type":"Point","coordinates":[72.13410475527448,34.18578120450019]}},{"type":"Feature","id":"PK52401","properties":{"id":"PK52401","name":"Ambar","region":"pk-kp","level":"tehsil","parent":"PK524","district":"Mohmand","source":"WFP / OCHA \u00b7 2022","center":[71.46659419322783,34.59097959650012],"bbox":[71.35224741900004,34.503895052000075,71.58228665000019,34.678196495000066]},"geometry":{"type":"Point","coordinates":[71.46659419322783,34.59097959650012]}},{"type":"Feature","id":"PK52402","properties":{"id":"PK52402","name":"Baizai","region":"pk-kp","level":"tehsil","parent":"PK524","district":"Mohmand","source":"WFP / OCHA \u00b7 2022","center":[71.10362521563,34.538327827000074],"bbox":[70.99283753100013,34.395771547000095,71.22238282300015,34.681137640000145]},"geometry":{"type":"Point","coordinates":[71.10362521563,34.538327827000074]}},{"type":"Feature","id":"PK52403","properties":{"id":"PK52403","name":"Halimzai","region":"pk-kp","level":"tehsil","parent":"PK524","district":"Mohmand","source":"WFP / OCHA \u00b7 2022","center":[71.32185408037101,34.39641004000009],"bbox":[71.23280960500011,34.30588834300005,71.4253442210001,34.4872703850001]},"geometry":{"type":"Point","coordinates":[71.32185408037101,34.39641004000009]}},{"type":"Feature","id":"PK52404","properties":{"id":"PK52404","name":"Khwazai","region":"pk-kp","level":"tehsil","parent":"PK524","district":"Mohmand","source":"WFP / OCHA \u00b7 2022","center":[71.18056839468682,34.40298408750016],"bbox":[71.076018099,34.330291595000176,71.26294073500003,34.47564092800019]},"geometry":{"type":"Point","coordinates":[71.18056839468682,34.40298408750016]}},{"type":"Feature","id":"PK52405","properties":{"id":"PK52405","name":"Pandiali","region":"pk-kp","level":"tehsil","parent":"PK524","district":"Mohmand","source":"WFP / OCHA \u00b7 2022","center":[71.4465329076065,34.44978483450009],"bbox":[71.28866833900014,34.24161148100012,71.56376647900015,34.65761296800008]},"geometry":{"type":"Point","coordinates":[71.4465329076065,34.44978483450009]}},{"type":"Feature","id":"PK52406","properties":{"id":"PK52406","name":"Prang Ghar","region":"pk-kp","level":"tehsil","parent":"PK524","district":"Mohmand","source":"WFP / OCHA \u00b7 2022","center":[71.59642880935819,34.43702924700008],"bbox":[71.4892852500002,34.337421417000144,71.70755767800011,34.53685651400008]},"geometry":{"type":"Point","coordinates":[71.59642880935819,34.43702924700008]}},{"type":"Feature","id":"PK52407","properties":{"id":"PK52407","name":"Safi","region":"pk-kp","level":"tehsil","parent":"PK524","district":"Mohmand","source":"WFP / OCHA \u00b7 2022","center":[71.23720702672225,34.568308133500096],"bbox":[71.09837523200008,34.40596873800013,71.32839343900002,34.73099287100007]},"geometry":{"type":"Point","coordinates":[71.23720702672225,34.568308133500096]}},{"type":"Feature","id":"PK52408","properties":{"id":"PK52408","name":"Yaka Ghund","region":"pk-kp","level":"tehsil","parent":"PK524","district":"Mohmand","source":"WFP / OCHA \u00b7 2022","center":[71.39265007113869,34.26083512900007],"bbox":[71.21039033900018,34.16091204600008,71.49886322000009,34.36094907000006]},"geometry":{"type":"Point","coordinates":[71.39265007113869,34.26083512900007]}},{"type":"Feature","id":"PK52601","properties":{"id":"PK52601","name":"Nowshera","region":"pk-kp","level":"tehsil","parent":"PK526","district":"Nowshera","source":"WFP / OCHA \u00b7 2022","center":[71.9599742260047,33.976310561000105],"bbox":[71.83581558400004,33.81176999600012,72.12303000500009,34.1407697300001]},"geometry":{"type":"Point","coordinates":[71.9599742260047,33.976310561000105]}},{"type":"Feature","id":"PK52602","properties":{"id":"PK52602","name":"Pabbi","region":"pk-kp","level":"tehsil","parent":"PK526","district":"Nowshera","source":"WFP / OCHA \u00b7 2022","center":[71.81833819892333,33.939255054500165],"bbox":[71.69657000000012,33.78189540300019,71.93515000200017,34.09626000100019]},"geometry":{"type":"Point","coordinates":[71.81833819892333,33.939255054500165]}},{"type":"Feature","id":"PK52603","properties":{"id":"PK52603","name":"Jehangira","region":"pk-kp","level":"tehsil","parent":"PK526","district":"Nowshera","source":"WFP / OCHA \u00b7 2022","center":[72.16337681398929,33.89347133300012],"bbox":[71.81286621100008,33.69350000400004,72.24852000200013,34.09549001100004]},"geometry":{"type":"Point","coordinates":[72.16337681398929,33.89347133300012]}},{"type":"Feature","id":"PK52701","properties":{"id":"PK52701","name":"Central Orakzai","region":"pk-kp","level":"tehsil","parent":"PK527","district":"Orakzai","source":"WFP / OCHA \u00b7 2022","center":[70.96504337346994,33.6883340630001],"bbox":[70.7755179240001,33.59329037800018,71.17859649700017,33.78295141100017]},"geometry":{"type":"Point","coordinates":[70.96504337346994,33.6883340630001]}},{"type":"Feature","id":"PK52702","properties":{"id":"PK52702","name":"Ismailzai","region":"pk-kp","level":"tehsil","parent":"PK527","district":"Orakzai","source":"WFP / OCHA \u00b7 2022","center":[70.92919496117628,33.60650641900014],"bbox":[70.78002929600018,33.54550933799999,71.12298811900001,33.6676479840001]},"geometry":{"type":"Point","coordinates":[70.92919496117628,33.60650641900014]}},{"type":"Feature","id":"PK52703","properties":{"id":"PK52703","name":"Lower Orakzai","region":"pk-kp","level":"tehsil","parent":"PK527","district":"Orakzai","source":"WFP / OCHA \u00b7 2022","center":[71.26824180858694,33.73349174300006],"bbox":[70.89660333800009,33.62255096400003,71.41204901700019,33.84456993200013]},"geometry":{"type":"Point","coordinates":[71.26824180858694,33.73349174300006]}},{"type":"Feature","id":"PK52704","properties":{"id":"PK52704","name":"Upper Orakzai","region":"pk-kp","level":"tehsil","parent":"PK527","district":"Orakzai","source":"WFP / OCHA \u00b7 2022","center":[70.70636619245234,33.690258613000054],"bbox":[70.585190571,33.58182907100013,70.82730918600004,33.79885572800009]},"geometry":{"type":"Point","coordinates":[70.70636619245234,33.690258613000054]}},{"type":"Feature","id":"PK52801","properties":{"id":"PK52801","name":"Town-I","region":"pk-kp","level":"tehsil","parent":"PK528","district":"Peshawar","source":"WFP / OCHA \u00b7 2022","center":[71.59385951821466,34.013422551000076],"bbox":[71.55327950400016,33.981541472,71.62097000300008,34.046154420000164]},"geometry":{"type":"Point","coordinates":[71.59385951821466,34.013422551000076]}},{"type":"Feature","id":"PK52802","properties":{"id":"PK52802","name":"Town-Ii","region":"pk-kp","level":"tehsil","parent":"PK528","district":"Peshawar","source":"WFP / OCHA \u00b7 2022","center":[71.5473121869083,34.0998888205001],"bbox":[71.36966705300017,33.97559000300009,71.72229604800009,34.22586822500017]},"geometry":{"type":"Point","coordinates":[71.5473121869083,34.0998888205001]}},{"type":"Feature","id":"PK52803","properties":{"id":"PK52803","name":"Town-Iii","region":"pk-kp","level":"tehsil","parent":"PK528","district":"Peshawar","source":"WFP / OCHA \u00b7 2022","center":[71.46889501615146,34.00304788800008],"bbox":[71.38031005900007,33.91020535600012,71.58414378000015,34.09591983100012]},"geometry":{"type":"Point","coordinates":[71.46889501615146,34.00304788800008]}},{"type":"Feature","id":"PK52804","properties":{"id":"PK52804","name":"Town-Iv","region":"pk-kp","level":"tehsil","parent":"PK528","district":"Peshawar","source":"WFP / OCHA \u00b7 2022","center":[71.6056588114064,33.874083406000096],"bbox":[71.43353271500013,33.72777938799999,71.779026139,34.02082163400007]},"geometry":{"type":"Point","coordinates":[71.6056588114064,33.874083406000096]}},{"type":"Feature","id":"PK52805","properties":{"id":"PK52805","name":"Hassan Khel","region":"pk-kp","level":"tehsil","parent":"PK528","district":"Peshawar","source":"WFP / OCHA \u00b7 2022","center":[71.74996839545852,33.75371551500007],"bbox":[71.54356957100009,33.65718414800011,71.86092376700014,33.85245132400013]},"geometry":{"type":"Point","coordinates":[71.74996839545852,33.75371551500007]}},{"type":"Feature","id":"PK53101","properties":{"id":"PK53101","name":"Lahor","region":"pk-kp","level":"tehsil","parent":"PK531","district":"Swabi","source":"WFP / OCHA \u00b7 2022","center":[72.33594078299674,34.014437493000116],"bbox":[72.20859563500017,33.90053499900017,72.44504851200003,34.127595984000095]},"geometry":{"type":"Point","coordinates":[72.33594078299674,34.014437493000116]}},{"type":"Feature","id":"PK53102","properties":{"id":"PK53102","name":"Swabi","region":"pk-kp","level":"tehsil","parent":"PK531","district":"Swabi","source":"WFP / OCHA \u00b7 2022","center":[72.5056539263756,34.09405621100018],"bbox":[72.36358042600006,33.99147033700007,72.64617317200003,34.197261809000054]},"geometry":{"type":"Point","coordinates":[72.5056539263756,34.09405621100018]}},{"type":"Feature","id":"PK53103","properties":{"id":"PK53103","name":"Topi","region":"pk-kp","level":"tehsil","parent":"PK531","district":"Swabi","source":"WFP / OCHA \u00b7 2022","center":[72.69655760589455,34.150198637500125],"bbox":[72.53854171300009,33.993600005000076,72.77172326700008,34.30692000300013]},"geometry":{"type":"Point","coordinates":[72.69655760589455,34.150198637500125]}},{"type":"Feature","id":"PK53104","properties":{"id":"PK53104","name":"Razar","region":"pk-kp","level":"tehsil","parent":"PK531","district":"Swabi","source":"WFP / OCHA \u00b7 2022","center":[72.3231171250118,34.22594003100002],"bbox":[72.19990958400012,34.071847521000166,72.48431999900015,34.380565273000116]},"geometry":{"type":"Point","coordinates":[72.3231171250118,34.22594003100002]}},{"type":"Feature","id":"PK53401","properties":{"id":"PK53401","name":"Judba","region":"pk-kp","level":"tehsil","parent":"PK534","district":"Tor Ghar","source":"WFP / OCHA \u00b7 2022","center":[72.85258142947666,34.6512376955001],"bbox":[72.777238183,34.53325004400011,72.91535556400015,34.76955542300004]},"geometry":{"type":"Point","coordinates":[72.85258142947666,34.6512376955001]}},{"type":"Feature","id":"PK53402","properties":{"id":"PK53402","name":"Khander","region":"pk-kp","level":"tehsil","parent":"PK534","district":"Tor Ghar","source":"WFP / OCHA \u00b7 2022","center":[72.8184820929329,34.46537823850005],"bbox":[72.71280589400016,34.34817073100015,72.94139002000009,34.5823071910001]},"geometry":{"type":"Point","coordinates":[72.8184820929329,34.46537823850005]}}]}