{"type":"FeatureCollection","features":[{"type":"Feature","id":"kp-div-Hazara","properties":{"id":"kp-div-Hazara","name":"Hazara Division","region":"pk-kp","level":"division","parent":"","source":"Dissolved WFP/OCHA district boundaries","center":[73.3434692353498,34.7973378345001],"bbox":[72.5486707930001,33.72937011700009,74.12742587800005,35.864441458000044]},"geometry":{"type":"Point","coordinates":[73.3434692353498,34.7973378345001]}},{"type":"Feature","id":"kp-div-Kohat","properties":{"id":"kp-div-Kohat","name":"Kohat Division","region":"pk-kp","level":"division","parent":"","source":"Dissolved WFP/OCHA district boundaries","center":[71.08120885626289,33.428810120000094],"bbox":[69.86120526500002,32.80596000200012,72.00999259100001,34.04895064800007]},"geometry":{"type":"Point","coordinates":[71.08120885626289,33.428810120000094]}},{"type":"Feature","id":"kp-div-Mardan","properties":{"id":"kp-div-Mardan","name":"Mardan Division","region":"pk-kp","level":"division","parent":"","source":"Dissolved WFP/OCHA district boundaries","center":[72.15999664012546,34.216329305500096],"bbox":[71.82124000400006,33.90053499900017,72.77172326700008,34.531590000999984]},"geometry":{"type":"Point","coordinates":[72.15999664012546,34.216329305500096]}},{"type":"Feature","id":"kp-div-Peshawar","properties":{"id":"kp-div-Peshawar","name":"Peshawar Division","region":"pk-kp","level":"division","parent":"","source":"Dissolved WFP/OCHA district boundaries","center":[71.51701821794349,34.19420499900011],"bbox":[70.44094928400017,33.65718414800011,72.24852000200013,34.73099287100007]},"geometry":{"type":"Point","coordinates":[71.51701821794349,34.19420499900011]}}]}