{"type":"FeatureCollection","licence":"Data © OpenStreetMap contributors, ODbL 1.0. https://www.openstreetmap.org/copyright","features":[{"type":"Feature","id":"case-lahore-cantonment","properties":{"id":"case-lahore-cantonment","name":"Lahore Cantonment","region":"pk-lahore-study","level":"tehsil","parent":"pk-lahore-study","country":"Pakistan","province":"Punjab","district":"Lahore (selected tehsils)","source":"OpenStreetMap contributors via Nominatim · retrieved 2026-10-10 · ODbL 1.0 · case-study selection","sourceCode":"R16108409","sourceLevel":"OSM admin_level=7 tehsil","sourceValidOn":"2026-10-10","sourceUrl":"https://www.openstreetmap.org/relation/16108409","license":"ODbL-1.0","caseStudyOnly":true,"osmRelationId":16108409,"osmRelationVersion":5,"osmRelationLastEdit":"2026-10-02T11:34:10Z","center":[74.514771337,31.4334939995],"bbox":[74.3360853,31.3293953,74.6546712,31.5788208]},"geometry":{"type":"Point","coordinates":[74.514771337,31.4334939995]}},{"type":"Feature","id":"case-lahore-city","properties":{"id":"case-lahore-city","name":"Lahore City","region":"pk-lahore-study","level":"tehsil","parent":"pk-lahore-study","country":"Pakistan","province":"Punjab","district":"Lahore (selected tehsils)","source":"OpenStreetMap contributors via Nominatim · retrieved 2026-10-10 · ODbL 1.0 · case-study selection","sourceCode":"R16117507","sourceLevel":"OSM admin_level=7 tehsil","sourceValidOn":"2026-10-10","sourceUrl":"https://www.openstreetmap.org/relation/16117507","license":"ODbL-1.0","caseStudyOnly":true,"osmRelationId":16117507,"osmRelationVersion":7,"osmRelationLastEdit":"2026-10-02T11:34:10Z","center":[74.2340809002,31.4995689333],"bbox":[74.1736881,31.4400447,74.390378,31.669884]},"geometry":{"type":"Point","coordinates":[74.2340809002,31.4995689333]}},{"type":"Feature","id":"case-lahore-shalimar","properties":{"id":"case-lahore-shalimar","name":"Shalimar","region":"pk-lahore-study","level":"tehsil","parent":"pk-lahore-study","country":"Pakistan","province":"Punjab","district":"Lahore (selected tehsils)","source":"OpenStreetMap contributors via Nominatim · retrieved 2026-10-10 · ODbL 1.0 · case-study selection","sourceCode":"R16320537","sourceLevel":"OSM admin_level=7 tehsil","sourceValidOn":"2026-10-10","sourceUrl":"https://www.openstreetmap.org/relation/16320537","license":"ODbL-1.0","caseStudyOnly":true,"osmRelationId":16320537,"osmRelationVersion":2,"osmRelationLastEdit":"2023-09-16T18:51:52Z","center":[74.4872212685,31.6315282222],"bbox":[74.3184477,31.5052808,74.6187535,31.7134238]},"geometry":{"type":"Point","coordinates":[74.4872212685,31.6315282222]}}]}
