{"type":"FeatureCollection","licence":"Data © OpenStreetMap contributors, ODbL 1.0. https://www.openstreetmap.org/copyright","features":[{"type":"Feature","id":"pk-lahore-study","properties":{"id":"pk-lahore-study","name":"Lahore · case-study selection","region":"pk-lahore-study","level":"region","parent":"","country":"Pakistan","province":"Punjab","district":"Lahore (selected tehsils)","source":"OpenStreetMap contributors via Nominatim · retrieved 2026-10-10 · ODbL 1.0 · case-study selection","sourceCode":"OSM-R16108409+R16117507+R16320537","sourceLevel":"Case-study context: union of three selected ADM7 tehsils","sourceValidOn":"2026-10-10","sourceUrl":"https://nominatim.openstreetmap.org/lookup?osm_ids=R16108409,R16117507,R16320537&format=geojson&polygon_geojson=1","license":"ODbL-1.0","caseStudyOnly":true,"center":[74.4678831667,31.5613523291],"bbox":[74.1736881,31.3293953,74.6546712,31.7134238]},"geometry":{"type":"Point","coordinates":[74.4678831667,31.5613523291]}}]}
