{"type":"FeatureCollection","features":[{"type":"Feature","id":"PK60101","properties":{"id":"PK60101","name":"Attock","region":"pk-punjab","level":"tehsil","parent":"PK601","district":"Attock","source":"WFP / OCHA \u00b7 2022","center":[72.29409874771414,33.74049949650012],"bbox":[72.01754973100003,33.60034049300003,72.55842303300017,33.87920355100016]},"geometry":{"type":"Point","coordinates":[72.29409874771414,33.74049949650012]}},{"type":"Feature","id":"PK60102","properties":{"id":"PK60102","name":"Fateh Jang","region":"pk-punjab","level":"tehsil","parent":"PK601","district":"Attock","source":"WFP / OCHA \u00b7 2022","center":[72.67805897397979,33.50636498950007],"bbox":[72.38719992900008,33.27431918000002,72.92473963300006,33.73931304400003]},"geometry":{"type":"Point","coordinates":[72.67805897397979,33.50636498950007]}},{"type":"Feature","id":"PK60103","properties":{"id":"PK60103","name":"Hasan Abdal","region":"pk-punjab","level":"tehsil","parent":"PK601","district":"Attock","source":"WFP / OCHA \u00b7 2022","center":[72.64806040319237,33.831782472500095],"bbox":[72.50121277700003,33.70972667100017,72.83614349400017,33.95365905800014]},"geometry":{"type":"Point","coordinates":[72.64806040319237,33.831782472500095]}},{"type":"Feature","id":"PK60104","properties":{"id":"PK60104","name":"Hazro","region":"pk-punjab","level":"tehsil","parent":"PK601","district":"Attock","source":"WFP / OCHA \u00b7 2022","center":[72.43198119356853,33.90216827400002],"bbox":[72.23078918500005,33.79804067400016,72.65332794200015,34.006561279000096]},"geometry":{"type":"Point","coordinates":[72.43198119356853,33.90216827400002]}},{"type":"Feature","id":"PK60105","properties":{"id":"PK60105","name":"Jand","region":"pk-punjab","level":"tehsil","parent":"PK601","district":"Attock","source":"WFP / OCHA \u00b7 2022","center":[71.94627230834588,33.35922432450013],"bbox":[71.70509338400012,33.000930025000116,72.45472859800014,33.717650684000034]},"geometry":{"type":"Point","coordinates":[71.94627230834588,33.35922432450013]}},{"type":"Feature","id":"PK60106","properties":{"id":"PK60106","name":"Pindi Gheb","region":"pk-punjab","level":"tehsil","parent":"PK601","district":"Attock","source":"WFP / OCHA \u00b7 2022","center":[72.31263510266132,33.30522862400008],"bbox":[71.93747001600013,33.10321004500008,72.66296457600009,33.50770767900019]},"geometry":{"type":"Point","coordinates":[72.31263510266132,33.30522862400008]}},{"type":"Feature","id":"PK60201","properties":{"id":"PK60201","name":"Bahawalnagar","region":"pk-punjab","level":"tehsil","parent":"PK602","district":"Bahawalnagar","source":"WFP / OCHA \u00b7 2022","center":[73.19694888384561,29.799065032000073],"bbox":[72.85495013200017,29.487309707000065,73.38776576900017,30.110859478000066]},"geometry":{"type":"Point","coordinates":[73.19694888384561,29.799065032000073]}},{"type":"Feature","id":"PK60202","properties":{"id":"PK60202","name":"Chishtian","region":"pk-punjab","level":"tehsil","parent":"PK602","district":"Bahawalnagar","source":"WFP / OCHA \u00b7 2022","center":[72.86596530349013,29.64077625550007],"bbox":[72.5565557760001,29.300761104000173,73.07612806100019,29.980675390000044]},"geometry":{"type":"Point","coordinates":[72.86596530349013,29.64077625550007]}},{"type":"Feature","id":"PK60203","properties":{"id":"PK60203","name":"Fort Abbas","region":"pk-punjab","level":"tehsil","parent":"PK602","district":"Bahawalnagar","source":"WFP / OCHA \u00b7 2022","center":[72.66923668524188,29.071730953000156],"bbox":[72.26407812100018,28.81438702100013,73.1176242730001,29.32955066100004]},"geometry":{"type":"Point","coordinates":[72.66923668524188,29.071730953000156]}},{"type":"Feature","id":"PK60204","properties":{"id":"PK60204","name":"Haroonabad","region":"pk-punjab","level":"tehsil","parent":"PK602","district":"Bahawalnagar","source":"WFP / OCHA \u00b7 2022","center":[73.02932886195555,29.465310233500105],"bbox":[72.74544965500007,29.28139967900006,73.23387018300008,29.651362132000088]},"geometry":{"type":"Point","coordinates":[73.02932886195555,29.465310233500105]}},{"type":"Feature","id":"PK60205","properties":{"id":"PK60205","name":"Minchinabad","region":"pk-punjab","level":"tehsil","parent":"PK602","district":"Bahawalnagar","source":"WFP / OCHA \u00b7 2022","center":[73.62108169043236,30.124416380500122],"bbox":[73.29975367100019,29.910116475000052,73.96895675299999,30.339600717000053]},"geometry":{"type":"Point","coordinates":[73.62108169043236,30.124416380500122]}},{"type":"Feature","id":"PK60301","properties":{"id":"PK60301","name":"Ahmadpur East","region":"pk-punjab","level":"tehsil","parent":"PK603","district":"Bahawalpur","source":"WFP / OCHA \u00b7 2022","center":[71.16242612643327,29.2807395855001],"bbox":[70.88609658100006,29.078247603000136,71.38683076500013,29.48249809300006]},"geometry":{"type":"Point","coordinates":[71.16242612643327,29.2807395855001]}},{"type":"Feature","id":"PK60302","properties":{"id":"PK60302","name":"Bahawalpur","region":"pk-punjab","level":"tehsil","parent":"PK603","district":"Bahawalpur","source":"WFP / OCHA \u00b7 2022","center":[71.5727701718076,29.334737117500055],"bbox":[71.34567336300017,29.12394763900005,71.97158407800009,29.545749761000025]},"geometry":{"type":"Point","coordinates":[71.5727701718076,29.334737117500055]}},{"type":"Feature","id":"PK60303","properties":{"id":"PK60303","name":"Hasilpur","region":"pk-punjab","level":"tehsil","parent":"PK603","district":"Bahawalpur","source":"WFP / OCHA \u00b7 2022","center":[72.53078052160257,29.634281019500065],"bbox":[72.27453807699999,29.404772274000038,72.72905728800009,29.863458386]},"geometry":{"type":"Point","coordinates":[72.53078052160257,29.634281019500065]}},{"type":"Feature","id":"PK60304","properties":{"id":"PK60304","name":"Khairpur Tamewali","region":"pk-punjab","level":"tehsil","parent":"PK603","district":"Bahawalpur","source":"WFP / OCHA \u00b7 2022","center":[72.2568877332402,29.610642846000076],"bbox":[71.90881258400009,29.40647160100019,72.37879592300015,29.81489963700011]},"geometry":{"type":"Point","coordinates":[72.2568877332402,29.610642846000076]}},{"type":"Feature","id":"PK60305","properties":{"id":"PK60305","name":"Yazman","region":"pk-punjab","level":"tehsil","parent":"PK603","district":"Bahawalpur","source":"WFP / OCHA \u00b7 2022","center":[71.66145864612004,28.70746771600014],"bbox":[70.94809862200009,27.793128533000186,72.78855067400013,29.621549490000177]},"geometry":{"type":"Point","coordinates":[71.66145864612004,28.70746771600014]}},{"type":"Feature","id":"PK60401","properties":{"id":"PK60401","name":"Bhakkar","region":"pk-punjab","level":"tehsil","parent":"PK604","district":"Bhakkar","source":"WFP / OCHA \u00b7 2022","center":[71.14518101071131,31.569087152000094],"bbox":[70.82701110800008,31.361308296000175,71.4505375550001,31.77644491000018]},"geometry":{"type":"Point","coordinates":[71.14518101071131,31.569087152000094]}},{"type":"Feature","id":"PK60402","properties":{"id":"PK60402","name":"Darya Khan","region":"pk-punjab","level":"tehsil","parent":"PK604","district":"Bhakkar","source":"WFP / OCHA \u00b7 2022","center":[71.33144623254444,31.81121777100003],"bbox":[70.99137244100007,31.656690320000166,71.69167293800012,31.966610964000154]},"geometry":{"type":"Point","coordinates":[71.33144623254444,31.81121777100003]}},{"type":"Feature","id":"PK60403","properties":{"id":"PK60403","name":"Kalur Kot","region":"pk-punjab","level":"tehsil","parent":"PK604","district":"Bhakkar","source":"WFP / OCHA \u00b7 2022","center":[71.4337070145584,32.06185281500015],"bbox":[71.06320953400012,31.90129928700003,71.77880930600008,32.22156004700008]},"geometry":{"type":"Point","coordinates":[71.4337070145584,32.06185281500015]}},{"type":"Feature","id":"PK60404","properties":{"id":"PK60404","name":"Mankera","region":"pk-punjab","level":"tehsil","parent":"PK604","district":"Bhakkar","source":"WFP / OCHA \u00b7 2022","center":[71.65964171709089,31.48456699950006],"bbox":[71.19291350999998,31.140448833000164,72.02390139100015,31.829117414000052]},"geometry":{"type":"Point","coordinates":[71.65964171709089,31.48456699950006]}},{"type":"Feature","id":"PK60501","properties":{"id":"PK60501","name":"Chakwal","region":"pk-punjab","level":"tehsil","parent":"PK605","district":"Chakwal","source":"WFP / OCHA \u00b7 2022","center":[72.85707413627941,32.99233377900012],"bbox":[72.4831100150002,32.77039691300007,73.21475827000012,33.21424004500011]},"geometry":{"type":"Point","coordinates":[72.85707413627941,32.99233377900012]}},{"type":"Feature","id":"PK60502","properties":{"id":"PK60502","name":"Choa Saidan Shah","region":"pk-punjab","level":"tehsil","parent":"PK605","district":"Chakwal","source":"WFP / OCHA \u00b7 2022","center":[72.99841284304097,32.732591108500145],"bbox":[72.83495159800015,32.63964042500015,73.24769502600003,32.825728420000075]},"geometry":{"type":"Point","coordinates":[72.99841284304097,32.732591108500145]}},{"type":"Feature","id":"PK60503","properties":{"id":"PK60503","name":"Kallar Kahar","region":"pk-punjab","level":"tehsil","parent":"PK605","district":"Chakwal","source":"WFP / OCHA \u00b7 2022","center":[72.67379079040246,32.76033651050011],"bbox":[72.47936801900005,32.59336092400014,72.85623656700011,32.92666279800011]},"geometry":{"type":"Point","coordinates":[72.67379079040246,32.76033651050011]}},{"type":"Feature","id":"PK60504","properties":{"id":"PK60504","name":"Tala Gang","region":"pk-punjab","level":"tehsil","parent":"PK605","district":"Chakwal","source":"WFP / OCHA \u00b7 2022","center":[72.22528811377916,32.84887131150009],"bbox":[71.80418155000012,32.53388442800008,72.53757964600015,33.16479362700005]},"geometry":{"type":"Point","coordinates":[72.22528811377916,32.84887131150009]}},{"type":"Feature","id":"PK60601","properties":{"id":"PK60601","name":"Bhawana","region":"pk-punjab","level":"tehsil","parent":"PK606","district":"Chiniot","source":"WFP / OCHA \u00b7 2022","center":[72.67798888472802,31.532117444000107],"bbox":[72.4777062890002,31.36445025200004,72.91294224300003,31.70052954200014]},"geometry":{"type":"Point","coordinates":[72.67798888472802,31.532117444000107]}},{"type":"Feature","id":"PK60602","properties":{"id":"PK60602","name":"Chiniot","region":"pk-punjab","level":"tehsil","parent":"PK606","district":"Chiniot","source":"WFP / OCHA \u00b7 2022","center":[72.99648945764234,31.700707598500088],"bbox":[72.83892489200008,31.505486547000146,73.22999508000015,31.896011336000072]},"geometry":{"type":"Point","coordinates":[72.99648945764234,31.700707598500088]}},{"type":"Feature","id":"PK60603","properties":{"id":"PK60603","name":"Lalian","region":"pk-punjab","level":"tehsil","parent":"PK606","district":"Chiniot","source":"WFP / OCHA \u00b7 2022","center":[72.7639468721465,31.7583896995001],"bbox":[72.43451230500017,31.53991821900007,73.16113113799997,31.977081627000075]},"geometry":{"type":"Point","coordinates":[72.7639468721465,31.7583896995001]}},{"type":"Feature","id":"PK60701","properties":{"id":"PK60701","name":"D.G Khan (Tribal Area)","region":"pk-punjab","level":"tehsil","parent":"PK607","district":"Dera Ghazi Khan","source":"WFP / OCHA \u00b7 2022","center":[70.29733529948,30.466398778500093],"bbox":[69.87768262800012,29.733908836000126,70.58450995500004,31.199834824000106]},"geometry":{"type":"Point","coordinates":[70.29733529948,30.466398778500093]}},{"type":"Feature","id":"PK60702","properties":{"id":"PK60702","name":"Dera Ghazi Khan","region":"pk-punjab","level":"tehsil","parent":"PK607","district":"Dera Ghazi Khan","source":"WFP / OCHA \u00b7 2022","center":[70.66408795137488,30.19840753050002],"bbox":[70.38115976300003,29.88842067400003,70.88589739400015,30.50833070900012]},"geometry":{"type":"Point","coordinates":[70.66408795137488,30.19840753050002]}},{"type":"Feature","id":"PK60703","properties":{"id":"PK60703","name":"Kot Chatta","region":"pk-punjab","level":"tehsil","parent":"PK607","district":"Dera Ghazi Khan","source":"WFP / OCHA \u00b7 2022","center":[70.52866861416774,29.846667619500153],"bbox":[70.21017739400008,29.61867983400009,70.88536914900004,30.074039737000078]},"geometry":{"type":"Point","coordinates":[70.52866861416774,29.846667619500153]}},{"type":"Feature","id":"PK60704","properties":{"id":"PK60704","name":"Taunsa","region":"pk-punjab","level":"tehsil","parent":"PK607","district":"Dera Ghazi Khan","source":"WFP / OCHA \u00b7 2022","center":[70.6123016947971,30.901331940000063],"bbox":[70.40399169900019,30.460292130000084,70.81488900600004,31.340459824000163]},"geometry":{"type":"Point","coordinates":[70.6123016947971,30.901331940000063]}},{"type":"Feature","id":"PK60801","properties":{"id":"PK60801","name":"Chak Jhumra","region":"pk-punjab","level":"tehsil","parent":"PK608","district":"Faisalabad","source":"WFP / OCHA \u00b7 2022","center":[73.2320138376796,31.646289855000106],"bbox":[73.09192695400009,31.502995343000066,73.38439031500013,31.787031797000168]},"geometry":{"type":"Point","coordinates":[73.2320138376796,31.646289855000106]}},{"type":"Feature","id":"PK60802","properties":{"id":"PK60802","name":"Faisalabad City","region":"pk-punjab","level":"tehsil","parent":"PK608","district":"Faisalabad","source":"WFP / OCHA \u00b7 2022","center":[73.10264235220431,31.429691147000142],"bbox":[72.99462946100005,31.334428464000098,73.20106967500004,31.526589190000095]},"geometry":{"type":"Point","coordinates":[73.10264235220431,31.429691147000142]}},{"type":"Feature","id":"PK60803","properties":{"id":"PK60803","name":"Faisalabad Sadar","region":"pk-punjab","level":"tehsil","parent":"PK608","district":"Faisalabad","source":"WFP / OCHA \u00b7 2022","center":[72.92705877911307,31.391050074000134],"bbox":[72.773058027,31.150051536000035,73.2568439010002,31.63123754800006]},"geometry":{"type":"Point","coordinates":[72.92705877911307,31.391050074000134]}},{"type":"Feature","id":"PK60804","properties":{"id":"PK60804","name":"Jaranwala","region":"pk-punjab","level":"tehsil","parent":"PK608","district":"Faisalabad","source":"WFP / OCHA \u00b7 2022","center":[73.4528333210112,31.36439328750012],"bbox":[73.14087739600018,31.069795985000155,73.68064762200015,31.6592821590001]},"geometry":{"type":"Point","coordinates":[73.4528333210112,31.36439328750012]}},{"type":"Feature","id":"PK60805","properties":{"id":"PK60805","name":"Summundri","region":"pk-punjab","level":"tehsil","parent":"PK608","district":"Faisalabad","source":"WFP / OCHA \u00b7 2022","center":[72.90669926642056,31.01958164050015],"bbox":[72.70206226500005,30.845931978000067,73.30728950800011,31.193654681999988]},"geometry":{"type":"Point","coordinates":[72.90669926642056,31.01958164050015]}},{"type":"Feature","id":"PK60806","properties":{"id":"PK60806","name":"Tandlian Wala","region":"pk-punjab","level":"tehsil","parent":"PK608","district":"Faisalabad","source":"WFP / OCHA \u00b7 2022","center":[73.06322946094377,30.912790070500137],"bbox":[72.7301328640001,30.67486877200008,73.44252134100003,31.150659660000088]},"geometry":{"type":"Point","coordinates":[73.06322946094377,30.912790070500137]}},{"type":"Feature","id":"PK60901","properties":{"id":"PK60901","name":"Gujranwala","region":"pk-punjab","level":"tehsil","parent":"PK609","district":"Gujranwala","source":"WFP / OCHA \u00b7 2022","center":[74.20217373302347,32.152373315500085],"bbox":[73.95194017100016,31.975159310000095,74.42257518399998,32.3297633680001]},"geometry":{"type":"Point","coordinates":[74.20217373302347,32.152373315500085]}},{"type":"Feature","id":"PK60902","properties":{"id":"PK60902","name":"Kamoke","region":"pk-punjab","level":"tehsil","parent":"PK609","district":"Gujranwala","source":"WFP / OCHA \u00b7 2022","center":[74.3802934581614,31.994982162500122],"bbox":[74.08416874800014,31.820608153000023,74.55880115400004,32.17008212000019]},"geometry":{"type":"Point","coordinates":[74.3802934581614,31.994982162500122]}},{"type":"Feature","id":"PK60903","properties":{"id":"PK60903","name":"Nowshera Virkan","region":"pk-punjab","level":"tehsil","parent":"PK609","district":"Gujranwala","source":"WFP / OCHA \u00b7 2022","center":[73.99434328320373,32.00069757950013],"bbox":[73.79377252100011,31.82091988500008,74.17653829400007,32.18063647400004]},"geometry":{"type":"Point","coordinates":[73.99434328320373,32.00069757950013]}},{"type":"Feature","id":"PK60904","properties":{"id":"PK60904","name":"Wazirabad","region":"pk-punjab","level":"tehsil","parent":"PK609","district":"Gujranwala","source":"WFP / OCHA \u00b7 2022","center":[73.99587684760375,32.3475990070001],"bbox":[73.67641916200006,32.138608332,74.23416403800013,32.556257541000036]},"geometry":{"type":"Point","coordinates":[73.99587684760375,32.3475990070001]}},{"type":"Feature","id":"PK61001","properties":{"id":"PK61001","name":"Gujrat","region":"pk-punjab","level":"tehsil","parent":"PK610","district":"Gujrat","source":"WFP / OCHA \u00b7 2022","center":[74.18339648869949,32.63719844350018],"bbox":[73.78634823200014,32.39832329700005,74.46490240100019,32.87518923600015]},"geometry":{"type":"Point","coordinates":[74.18339648869949,32.63719844350018]}},{"type":"Feature","id":"PK61002","properties":{"id":"PK61002","name":"Kharian","region":"pk-punjab","level":"tehsil","parent":"PK610","district":"Gujrat","source":"WFP / OCHA \u00b7 2022","center":[73.8229537599926,32.7353446650001],"bbox":[73.63948911800014,32.531682785999976,74.19561884400014,32.939893569000105]},"geometry":{"type":"Point","coordinates":[73.8229537599926,32.7353446650001]}},{"type":"Feature","id":"PK61003","properties":{"id":"PK61003","name":"Sarai Alamgir","region":"pk-punjab","level":"tehsil","parent":"PK610","district":"Gujrat","source":"WFP / OCHA \u00b7 2022","center":[73.7509364859284,32.86641509850003],"bbox":[73.59027658800005,32.694999721000045,74.03113328800009,33.037772228000165]},"geometry":{"type":"Point","coordinates":[73.7509364859284,32.86641509850003]}},{"type":"Feature","id":"PK61101","properties":{"id":"PK61101","name":"Hafizabad","region":"pk-punjab","level":"tehsil","parent":"PK611","district":"Hafizabad","source":"WFP / OCHA \u00b7 2022","center":[73.62948314262135,32.107520208000096],"bbox":[73.42974046300003,31.875958767000157,73.8290237060001,32.3399029200001]},"geometry":{"type":"Point","coordinates":[73.62948314262135,32.107520208000096]}},{"type":"Feature","id":"PK61102","properties":{"id":"PK61102","name":"Pindi Bhattian","region":"pk-punjab","level":"tehsil","parent":"PK611","district":"Hafizabad","source":"WFP / OCHA \u00b7 2022","center":[73.37748095042427,31.97338930000012],"bbox":[73.15409238900014,31.761548567000034,73.61425651600013,32.18509091200019]},"geometry":{"type":"Point","coordinates":[73.37748095042427,31.97338930000012]}},{"type":"Feature","id":"PK61201","properties":{"id":"PK61201","name":"Ahmadpur Sial","region":"pk-punjab","level":"tehsil","parent":"PK612","district":"Jhang","source":"WFP / OCHA \u00b7 2022","center":[71.8737702365636,30.80835703900007],"bbox":[71.65566130800016,30.57820427000007,72.07651127000003,31.038510418000158]},"geometry":{"type":"Point","coordinates":[71.8737702365636,30.80835703900007]}},{"type":"Feature","id":"PK61202","properties":{"id":"PK61202","name":"Jhang","region":"pk-punjab","level":"tehsil","parent":"PK612","district":"Jhang","source":"WFP / OCHA \u00b7 2022","center":[72.37774728286476,31.407489702000106],"bbox":[71.97879917400002,31.049121901000035,72.81171122400013,31.765599965000035]},"geometry":{"type":"Point","coordinates":[72.37774728286476,31.407489702000106]}},{"type":"Feature","id":"PK61203","properties":{"id":"PK61203","name":"Shorkot","region":"pk-punjab","level":"tehsil","parent":"PK612","district":"Jhang","source":"WFP / OCHA \u00b7 2022","center":[72.14967225280819,30.89227053400012],"bbox":[71.84961237800013,30.664531765000163,72.43926264700008,31.11962409900019]},"geometry":{"type":"Point","coordinates":[72.14967225280819,30.89227053400012]}},{"type":"Feature","id":"PK61204","properties":{"id":"PK61204","name":"Athara Hazari","region":"pk-punjab","level":"tehsil","parent":"PK612","district":"Jhang","source":"WFP / OCHA \u00b7 2022","center":[72.00538170934189,31.19686362400006],"bbox":[71.76425990700005,30.8756188590001,72.22857138400013,31.518049546000157]},"geometry":{"type":"Point","coordinates":[72.00538170934189,31.19686362400006]}},{"type":"Feature","id":"PK61301","properties":{"id":"PK61301","name":"Dina","region":"pk-punjab","level":"tehsil","parent":"PK613","district":"Jhelum","source":"WFP / OCHA \u00b7 2022","center":[73.60712512204582,33.02620767950006],"bbox":[73.41327376600015,32.82956893000005,73.72622114700016,33.222956632000034]},"geometry":{"type":"Point","coordinates":[73.60712512204582,33.02620767950006]}},{"type":"Feature","id":"PK61302","properties":{"id":"PK61302","name":"Jhelum","region":"pk-punjab","level":"tehsil","parent":"PK613","district":"Jhelum","source":"WFP / OCHA \u00b7 2022","center":[73.46342571811145,32.85514502900017],"bbox":[73.26409927400005,32.64832881100011,73.80581740900016,33.061757616000136]},"geometry":{"type":"Point","coordinates":[73.46342571811145,32.85514502900017]}},{"type":"Feature","id":"PK61303","properties":{"id":"PK61303","name":"Pind Dadan Khan","region":"pk-punjab","level":"tehsil","parent":"PK613","district":"Jhelum","source":"WFP / OCHA \u00b7 2022","center":[72.96340321036249,32.590617881500094],"bbox":[72.64321068700013,32.41654067400003,73.43868945800017,32.76478004400013]},"geometry":{"type":"Point","coordinates":[72.96340321036249,32.590617881500094]}},{"type":"Feature","id":"PK61304","properties":{"id":"PK61304","name":"Sohawa","region":"pk-punjab","level":"tehsil","parent":"PK613","district":"Jhelum","source":"WFP / OCHA \u00b7 2022","center":[73.31463085735517,32.995699554500106],"bbox":[73.11527177000005,32.735960980000186,73.64276926200012,33.25527279900001]},"geometry":{"type":"Point","coordinates":[73.31463085735517,32.995699554500106]}},{"type":"Feature","id":"PK61401","properties":{"id":"PK61401","name":"Chunian","region":"pk-punjab","level":"tehsil","parent":"PK614","district":"Kasur","source":"WFP / OCHA \u00b7 2022","center":[74.05777354119041,30.88227917000006],"bbox":[73.77696927800002,30.641612235000082,74.28246284000011,31.122354045000122]},"geometry":{"type":"Point","coordinates":[74.05777354119041,30.88227917000006]}},{"type":"Feature","id":"PK61402","properties":{"id":"PK61402","name":"Kasur","region":"pk-punjab","level":"tehsil","parent":"PK614","district":"Kasur","source":"WFP / OCHA \u00b7 2022","center":[74.38130023334139,31.066266693500125],"bbox":[74.12819757700004,30.76813841,74.68714835900005,31.36556213500012]},"geometry":{"type":"Point","coordinates":[74.38130023334139,31.066266693500125]}},{"type":"Feature","id":"PK61403","properties":{"id":"PK61403","name":"Kot Radha Kishen","region":"pk-punjab","level":"tehsil","parent":"PK614","district":"Kasur","source":"WFP / OCHA \u00b7 2022","center":[74.19208420521055,31.16570692550019],"bbox":[74.03113624600019,31.02988511400008,74.31078014500014,31.30147202900008]},"geometry":{"type":"Point","coordinates":[74.19208420521055,31.16570692550019]}},{"type":"Feature","id":"PK61404","properties":{"id":"PK61404","name":"Pattoki","region":"pk-punjab","level":"tehsil","parent":"PK614","district":"Kasur","source":"WFP / OCHA \u00b7 2022","center":[73.85306414505376,31.121019481500127],"bbox":[73.6539348180001,30.929676503000167,74.09791151000019,31.31245028700016]},"geometry":{"type":"Point","coordinates":[73.85306414505376,31.121019481500127]}},{"type":"Feature","id":"PK61501","properties":{"id":"PK61501","name":"Jahanian","region":"pk-punjab","level":"tehsil","parent":"PK615","district":"Khanewal","source":"WFP / OCHA \u00b7 2022","center":[71.83964903185233,30.06074207600014],"bbox":[71.56502767600017,29.89857049300008,71.96700098200012,30.22264564600016]},"geometry":{"type":"Point","coordinates":[71.83964903185233,30.06074207600014]}},{"type":"Feature","id":"PK61502","properties":{"id":"PK61502","name":"Kabirwala","region":"pk-punjab","level":"tehsil","parent":"PK615","district":"Khanewal","source":"WFP / OCHA \u00b7 2022","center":[71.86591124780828,30.49656722250009],"bbox":[71.5241523360001,30.26062276300007,72.22728277300018,30.73293742900006]},"geometry":{"type":"Point","coordinates":[71.86591124780828,30.49656722250009]}},{"type":"Feature","id":"PK61503","properties":{"id":"PK61503","name":"Khanewal","region":"pk-punjab","level":"tehsil","parent":"PK615","district":"Khanewal","source":"WFP / OCHA \u00b7 2022","center":[72.00575623947755,30.283312286000097],"bbox":[71.81115167800004,30.072218039000177,72.22359234400011,30.494813206000174]},"geometry":{"type":"Point","coordinates":[72.00575623947755,30.283312286000097]}},{"type":"Feature","id":"PK61504","properties":{"id":"PK61504","name":"Mian Channu","region":"pk-punjab","level":"tehsil","parent":"PK615","district":"Khanewal","source":"WFP / OCHA \u00b7 2022","center":[72.30626704553012,30.333018118500092],"bbox":[72.02723019600012,30.066017984000098,72.50170068500006,30.59944072000019]},"geometry":{"type":"Point","coordinates":[72.30626704553012,30.333018118500092]}},{"type":"Feature","id":"PK61601","properties":{"id":"PK61601","name":"Khushab","region":"pk-punjab","level":"tehsil","parent":"PK616","district":"Khushab","source":"WFP / OCHA \u00b7 2022","center":[72.3273059659795,32.329351628000126],"bbox":[71.97543114600006,31.964150716000177,72.66994227000009,32.694911642000136]},"geometry":{"type":"Point","coordinates":[72.3273059659795,32.329351628000126]}},{"type":"Feature","id":"PK61602","properties":{"id":"PK61602","name":"Naushera","region":"pk-punjab","level":"tehsil","parent":"PK616","district":"Khushab","source":"WFP / OCHA \u00b7 2022","center":[72.22062004347788,32.59379403899999],"bbox":[71.93664813300006,32.46865066700019,72.43052923500011,32.718299946000116]},"geometry":{"type":"Point","coordinates":[72.22062004347788,32.59379403899999]}},{"type":"Feature","id":"PK61603","properties":{"id":"PK61603","name":"Noorpur","region":"pk-punjab","level":"tehsil","parent":"PK616","district":"Khushab","source":"WFP / OCHA \u00b7 2022","center":[71.96043166777005,31.87247090000014],"bbox":[71.62376202500019,31.53141884400003,72.28544260700005,32.213698271000055]},"geometry":{"type":"Point","coordinates":[71.96043166777005,31.87247090000014]}},{"type":"Feature","id":"PK61604","properties":{"id":"PK61604","name":"Quaidabad","region":"pk-punjab","level":"tehsil","parent":"PK616","district":"Khushab","source":"WFP / OCHA \u00b7 2022","center":[71.9669090529762,32.3159151105001],"bbox":[71.71828449100008,32.08618551,72.19564144499998,32.54496884700018]},"geometry":{"type":"Point","coordinates":[71.9669090529762,32.3159151105001]}},{"type":"Feature","id":"PK61801","properties":{"id":"PK61801","name":"Choubara","region":"pk-punjab","level":"tehsil","parent":"PK618","district":"Leiah","source":"WFP / OCHA \u00b7 2022","center":[71.53993961236768,30.91084192250014],"bbox":[71.20141801700015,30.5833356280001,71.8536602980002,31.24266313100003]},"geometry":{"type":"Point","coordinates":[71.53993961236768,30.91084192250014]}},{"type":"Feature","id":"PK61802","properties":{"id":"PK61802","name":"Karor Lal Esan","region":"pk-punjab","level":"tehsil","parent":"PK618","district":"Leiah","source":"WFP / OCHA \u00b7 2022","center":[71.03197648229538,31.218638589500074],"bbox":[70.76283477599998,31.025883449000162,71.30538928600015,31.41138691400016]},"geometry":{"type":"Point","coordinates":[71.03197648229538,31.218638589500074]}},{"type":"Feature","id":"PK61803","properties":{"id":"PK61803","name":"Leiah","region":"pk-punjab","level":"tehsil","parent":"PK618","district":"Leiah","source":"WFP / OCHA \u00b7 2022","center":[71.03278608985686,30.874364763000102],"bbox":[70.73304881400003,30.641151842000056,71.31279866000017,31.108903494000174]},"geometry":{"type":"Point","coordinates":[71.03278608985686,30.874364763000102]}},{"type":"Feature","id":"PK61901","properties":{"id":"PK61901","name":"Dunyapur","region":"pk-punjab","level":"tehsil","parent":"PK619","district":"Lodhran","source":"WFP / OCHA \u00b7 2022","center":[71.71900942913092,29.829703690000084],"bbox":[71.49133613400005,29.688331287000096,71.98401815500011,29.97070891400017]},"geometry":{"type":"Point","coordinates":[71.71900942913092,29.829703690000084]}},{"type":"Feature","id":"PK61902","properties":{"id":"PK61902","name":"Kahror Pacca","region":"pk-punjab","level":"tehsil","parent":"PK619","district":"Lodhran","source":"WFP / OCHA \u00b7 2022","center":[71.91001508641239,29.63757054150014],"bbox":[71.66169046800019,29.496968679000076,72.10483253300009,29.77630482600017]},"geometry":{"type":"Point","coordinates":[71.91001508641239,29.63757054150014]}},{"type":"Feature","id":"PK61903","properties":{"id":"PK61903","name":"Lodhran","region":"pk-punjab","level":"tehsil","parent":"PK619","district":"Lodhran","source":"WFP / OCHA \u00b7 2022","center":[71.56281342075513,29.594978692500092],"bbox":[71.35379593500005,29.37232791100007,71.79296044000017,29.81786129699998]},"geometry":{"type":"Point","coordinates":[71.56281342075513,29.594978692500092]}},{"type":"Feature","id":"PK62001","properties":{"id":"PK62001","name":"Malakwal","region":"pk-punjab","level":"tehsil","parent":"PK620","district":"Mandi Bahauddin","source":"WFP / OCHA \u00b7 2022","center":[73.21034804725824,32.42984991450007],"bbox":[73.04741618399999,32.23757303300016,73.40015497400003,32.621873355]},"geometry":{"type":"Point","coordinates":[73.21034804725824,32.42984991450007]}},{"type":"Feature","id":"PK62002","properties":{"id":"PK62002","name":"Mandi Bahauddin","region":"pk-punjab","level":"tehsil","parent":"PK620","district":"Mandi Bahauddin","source":"WFP / OCHA \u00b7 2022","center":[73.52283148321197,32.547170885500066],"bbox":[73.3384852370001,32.34655347800003,73.73263644900004,32.74746151900007]},"geometry":{"type":"Point","coordinates":[73.52283148321197,32.547170885500066]}},{"type":"Feature","id":"PK62003","properties":{"id":"PK62003","name":"Phalia","region":"pk-punjab","level":"tehsil","parent":"PK620","district":"Mandi Bahauddin","source":"WFP / OCHA \u00b7 2022","center":[73.58467703274181,32.35788537900015],"bbox":[73.22417725999998,32.12210506100007,73.89708096800013,32.59393462600019]},"geometry":{"type":"Point","coordinates":[73.58467703274181,32.35788537900015]}},{"type":"Feature","id":"PK62101","properties":{"id":"PK62101","name":"Isakhel","region":"pk-punjab","level":"tehsil","parent":"PK621","district":"Mianwali","source":"WFP / OCHA \u00b7 2022","center":[71.33030931620348,32.8503035895001],"bbox":[71.10559845000012,32.45953004800003,71.72754000400016,33.240428925]},"geometry":{"type":"Point","coordinates":[71.33030931620348,32.8503035895001]}},{"type":"Feature","id":"PK62102","properties":{"id":"PK62102","name":"Mianwali","region":"pk-punjab","level":"tehsil","parent":"PK621","district":"Mianwali","source":"WFP / OCHA \u00b7 2022","center":[71.67272824667508,32.634305110000014],"bbox":[71.33821001800004,32.23923664100016,71.97970291800004,33.02967000500007]},"geometry":{"type":"Point","coordinates":[71.67272824667508,32.634305110000014]}},{"type":"Feature","id":"PK62103","properties":{"id":"PK62103","name":"Piplan","region":"pk-punjab","level":"tehsil","parent":"PK621","district":"Mianwali","source":"WFP / OCHA \u00b7 2022","center":[71.43329533284107,32.3420288990001],"bbox":[71.16652679400005,32.16786904300017,71.72838128000018,32.51727340800005]},"geometry":{"type":"Point","coordinates":[71.43329533284107,32.3420288990001]}},{"type":"Feature","id":"PK62201","properties":{"id":"PK62201","name":"Jalalpur Pirwala","region":"pk-punjab","level":"tehsil","parent":"PK622","district":"Multan","source":"WFP / OCHA \u00b7 2022","center":[71.19928742172375,29.578273529000114],"bbox":[71.00580483800002,29.413539015000026,71.40907747500017,29.742870875000108]},"geometry":{"type":"Point","coordinates":[71.19928742172375,29.578273529000114]}},{"type":"Feature","id":"PK62202","properties":{"id":"PK62202","name":"Multan City","region":"pk-punjab","level":"tehsil","parent":"PK622","district":"Multan","source":"WFP / OCHA \u00b7 2022","center":[71.43442780686559,30.177877065000104],"bbox":[71.32433981100019,30.068901210000092,71.56033163400008,30.287158483999974]},"geometry":{"type":"Point","coordinates":[71.43442780686559,30.177877065000104]}},{"type":"Feature","id":"PK62203","properties":{"id":"PK62203","name":"Multan Saddar","region":"pk-punjab","level":"tehsil","parent":"PK622","district":"Multan","source":"WFP / OCHA \u00b7 2022","center":[71.63478768459757,30.11416264000013],"bbox":[71.26368371200016,29.78940882300003,71.83454945900019,30.438948860000153]},"geometry":{"type":"Point","coordinates":[71.63478768459757,30.11416264000013]}},{"type":"Feature","id":"PK62204","properties":{"id":"PK62204","name":"Shujabad","region":"pk-punjab","level":"tehsil","parent":"PK622","district":"Multan","source":"WFP / OCHA \u00b7 2022","center":[71.31322684061888,29.825064131500028],"bbox":[71.16304584900007,29.608674213000086,71.45373004200019,30.042185501000063]},"geometry":{"type":"Point","coordinates":[71.31322684061888,29.825064131500028]}},{"type":"Feature","id":"PK62301","properties":{"id":"PK62301","name":"Alipur","region":"pk-punjab","level":"tehsil","parent":"PK623","district":"Muzaffargarh","source":"WFP / OCHA \u00b7 2022","center":[70.75694024299179,29.278205578000097],"bbox":[70.5398315400002,29.017031359000157,71.06105152200007,29.539028581000082]},"geometry":{"type":"Point","coordinates":[70.75694024299179,29.278205578000097]}},{"type":"Feature","id":"PK62302","properties":{"id":"PK62302","name":"Jatoi","region":"pk-punjab","level":"tehsil","parent":"PK623","district":"Muzaffargarh","source":"WFP / OCHA \u00b7 2022","center":[70.87252577407722,29.597198736000166],"bbox":[70.63465441600005,29.402281379000044,71.15312957700013,29.792209836000097]},"geometry":{"type":"Point","coordinates":[70.87252577407722,29.597198736000166]}},{"type":"Feature","id":"PK62303","properties":{"id":"PK62303","name":"Kot Addu","region":"pk-punjab","level":"tehsil","parent":"PK623","district":"Muzaffargarh","source":"WFP / OCHA \u00b7 2022","center":[71.14165948514253,30.433926285000098],"bbox":[70.79173077800004,30.101008425000032,71.55845310400008,30.767853174000038]},"geometry":{"type":"Point","coordinates":[71.14165948514253,30.433926285000098]}},{"type":"Feature","id":"PK62304","properties":{"id":"PK62304","name":"Muzaffargarh","region":"pk-punjab","level":"tehsil","parent":"PK623","district":"Muzaffargarh","source":"WFP / OCHA \u00b7 2022","center":[71.16531104824841,30.153199360000116],"bbox":[70.79521501700015,29.68393067800008,71.72669469700014,30.622180490000176]},"geometry":{"type":"Point","coordinates":[71.16531104824841,30.153199360000116]}},{"type":"Feature","id":"PK62401","properties":{"id":"PK62401","name":"Nankana Sahib","region":"pk-punjab","level":"tehsil","parent":"PK624","district":"Nankana Sahib","source":"WFP / OCHA \u00b7 2022","center":[73.83885029734986,31.310944391500072],"bbox":[73.38964922800011,31.02244679800009,74.03811301600012,31.598833047000028]},"geometry":{"type":"Point","coordinates":[73.83885029734986,31.310944391500072]}},{"type":"Feature","id":"PK62402","properties":{"id":"PK62402","name":"Sangla Hill","region":"pk-punjab","level":"tehsil","parent":"PK624","district":"Nankana Sahib","source":"WFP / OCHA \u00b7 2022","center":[73.41688760611402,31.702312763500174],"bbox":[73.28752092400009,31.562809381000193,73.49406978000007,31.84182181200015]},"geometry":{"type":"Point","coordinates":[73.41688760611402,31.702312763500174]}},{"type":"Feature","id":"PK62403","properties":{"id":"PK62403","name":"Shah Kot","region":"pk-punjab","level":"tehsil","parent":"PK624","district":"Nankana Sahib","source":"WFP / OCHA \u00b7 2022","center":[73.56725283531125,31.597706182500133],"bbox":[73.45913484300013,31.481998939000107,73.66901991900005,31.713559803000066]},"geometry":{"type":"Point","coordinates":[73.56725283531125,31.597706182500133]}},{"type":"Feature","id":"PK62501","properties":{"id":"PK62501","name":"Narowal","region":"pk-punjab","level":"tehsil","parent":"PK625","district":"Narowal","source":"WFP / OCHA \u00b7 2022","center":[74.80924691147129,32.078775646500105],"bbox":[74.58803698600019,31.918795210000155,75.01733509200005,32.23794004600006]},"geometry":{"type":"Point","coordinates":[74.80924691147129,32.078775646500105]}},{"type":"Feature","id":"PK62502","properties":{"id":"PK62502","name":"Shakargarh","region":"pk-punjab","level":"tehsil","parent":"PK625","district":"Narowal","source":"WFP / OCHA \u00b7 2022","center":[75.17167470140996,32.2171259860001],"bbox":[74.95419263600007,32.03508310900014,75.38186689200012,32.40016757600017]},"geometry":{"type":"Point","coordinates":[75.17167470140996,32.2171259860001]}},{"type":"Feature","id":"PK62503","properties":{"id":"PK62503","name":"Zafarwal","region":"pk-punjab","level":"tehsil","parent":"PK625","district":"Narowal","source":"WFP / OCHA \u00b7 2022","center":[74.95576601197556,32.324866295000106],"bbox":[74.73914215600013,32.157700826,75.22173768200008,32.49206775200014]},"geometry":{"type":"Point","coordinates":[74.95576601197556,32.324866295000106]}},{"type":"Feature","id":"PK62601","properties":{"id":"PK62601","name":"Depalpur","region":"pk-punjab","level":"tehsil","parent":"PK626","district":"Okara","source":"WFP / OCHA \u00b7 2022","center":[73.78452263413557,30.574304837000085],"bbox":[73.46236702400012,30.254761284000153,74.16175827200016,30.893560669000124]},"geometry":{"type":"Point","coordinates":[73.78452263413557,30.574304837000085]}},{"type":"Feature","id":"PK62602","properties":{"id":"PK62602","name":"Okara","region":"pk-punjab","level":"tehsil","parent":"PK626","district":"Okara","source":"WFP / OCHA \u00b7 2022","center":[73.41036399635523,30.80254741650012],"bbox":[73.26752473500005,30.49887428500017,73.60757934300005,31.10690531800003]},"geometry":{"type":"Point","coordinates":[73.41036399635523,30.80254741650012]}},{"type":"Feature","id":"PK62603","properties":{"id":"PK62603","name":"Renala Khurd","region":"pk-punjab","level":"tehsil","parent":"PK626","district":"Okara","source":"WFP / OCHA \u00b7 2022","center":[73.66371958052243,30.949339753000146],"bbox":[73.53904434300006,30.759541725000076,73.84484193300017,31.139750741000114]},"geometry":{"type":"Point","coordinates":[73.66371958052243,30.949339753000146]}},{"type":"Feature","id":"PK62701","properties":{"id":"PK62701","name":"Arif Wala","region":"pk-punjab","level":"tehsil","parent":"PK627","district":"Pakpattan","source":"WFP / OCHA \u00b7 2022","center":[73.08273472911816,30.22426653400015],"bbox":[72.827698887,29.96243603900018,73.26802026299998,30.48493194400004]},"geometry":{"type":"Point","coordinates":[73.08273472911816,30.22426653400015]}},{"type":"Feature","id":"PK62702","properties":{"id":"PK62702","name":"Pakpattan","region":"pk-punjab","level":"tehsil","parent":"PK627","district":"Pakpattan","source":"WFP / OCHA \u00b7 2022","center":[73.44512497124319,30.34344582850011],"bbox":[73.15593988900008,30.071290546000114,73.64221784500006,30.615191103000143]},"geometry":{"type":"Point","coordinates":[73.44512497124319,30.34344582850011]}},{"type":"Feature","id":"PK62801","properties":{"id":"PK62801","name":"Khanpur","region":"pk-punjab","level":"tehsil","parent":"PK628","district":"Rahim Yar Khan","source":"WFP / OCHA \u00b7 2022","center":[70.65872728749711,28.68562292350009],"bbox":[70.34310078000004,28.322181294000075,70.85711835500007,29.048465028000123]},"geometry":{"type":"Point","coordinates":[70.65872728749711,28.68562292350009]}},{"type":"Feature","id":"PK62802","properties":{"id":"PK62802","name":"Liaqatpur","region":"pk-punjab","level":"tehsil","parent":"PK628","district":"Rahim Yar Khan","source":"WFP / OCHA \u00b7 2022","center":[70.83566793646783,28.485183733000042],"bbox":[69.98117862800012,27.705110332000174,71.10580057600015,29.265909612000144]},"geometry":{"type":"Point","coordinates":[70.83566793646783,28.485183733000042]}},{"type":"Feature","id":"PK62803","properties":{"id":"PK62803","name":"Rahim Yar Khan","region":"pk-punjab","level":"tehsil","parent":"PK628","district":"Rahim Yar Khan","source":"WFP / OCHA \u00b7 2022","center":[70.3378758102189,28.48794858350007],"bbox":[70.07412937900011,28.12296157300017,70.54083126800009,28.85192834100019]},"geometry":{"type":"Point","coordinates":[70.3378758102189,28.48794858350007]}},{"type":"Feature","id":"PK62804","properties":{"id":"PK62804","name":"Sadiqabad","region":"pk-punjab","level":"tehsil","parent":"PK628","district":"Rahim Yar Khan","source":"WFP / OCHA \u00b7 2022","center":[70.02739880255808,28.254877781500085],"bbox":[69.46670532200017,27.958469584000056,70.26819378400012,28.55107735500013]},"geometry":{"type":"Point","coordinates":[70.02739880255808,28.254877781500085]}},{"type":"Feature","id":"PK62901","properties":{"id":"PK62901","name":"Jampur","region":"pk-punjab","level":"tehsil","parent":"PK629","district":"Rajanpur","source":"WFP / OCHA \u00b7 2022","center":[70.37635534550606,29.555730281500104],"bbox":[70.06498853700015,29.306179542000166,70.72181888900013,29.805551742000148]},"geometry":{"type":"Point","coordinates":[70.37635534550606,29.555730281500104]}},{"type":"Feature","id":"PK62902","properties":{"id":"PK62902","name":"Rajanpur","region":"pk-punjab","level":"tehsil","parent":"PK629","district":"Rajanpur","source":"WFP / OCHA \u00b7 2022","center":[70.24670137307288,29.13433088850016],"bbox":[69.91777901400019,28.786898846000156,70.64256055100003,29.48235917599999]},"geometry":{"type":"Point","coordinates":[70.24670137307288,29.13433088850016]}},{"type":"Feature","id":"PK62903","properties":{"id":"PK62903","name":"Rajanpur (Tribal Area)","region":"pk-punjab","level":"tehsil","parent":"PK629","district":"Rajanpur","source":"WFP / OCHA \u00b7 2022","center":[69.82694883106528,29.15932290300006],"bbox":[69.32131958000019,28.419678316000045,70.14228288200019,29.89878983300008]},"geometry":{"type":"Point","coordinates":[69.82694883106528,29.15932290300006]}},{"type":"Feature","id":"PK62904","properties":{"id":"PK62904","name":"Rojhan","region":"pk-punjab","level":"tehsil","parent":"PK629","district":"Rajanpur","source":"WFP / OCHA \u00b7 2022","center":[70.0357680457024,28.777834055500108],"bbox":[69.64230168400007,28.394414949000065,70.31690988600019,29.161323720000155]},"geometry":{"type":"Point","coordinates":[70.0357680457024,28.777834055500108]}},{"type":"Feature","id":"PK63001","properties":{"id":"PK63001","name":"Gujar Khan","region":"pk-punjab","level":"tehsil","parent":"PK630","district":"Rawalpindi","source":"WFP / OCHA \u00b7 2022","center":[73.2783697167275,33.248834995000095],"bbox":[72.93015145800013,33.06438169900014,73.62360268700013,33.43315016600013]},"geometry":{"type":"Point","coordinates":[73.2783697167275,33.248834995000095]}},{"type":"Feature","id":"PK63002","properties":{"id":"PK63002","name":"Kahuta","region":"pk-punjab","level":"tehsil","parent":"PK630","district":"Rawalpindi","source":"WFP / OCHA \u00b7 2022","center":[73.44812932922315,33.60741424550014],"bbox":[73.280529452,33.44748004700017,73.63165389800002,33.76659992000003]},"geometry":{"type":"Point","coordinates":[73.44812932922315,33.60741424550014]}},{"type":"Feature","id":"PK63003","properties":{"id":"PK63003","name":"Kallar Sayaddan","region":"pk-punjab","level":"tehsil","parent":"PK630","district":"Rawalpindi","source":"WFP / OCHA \u00b7 2022","center":[73.42743921973802,33.43787939800009],"bbox":[73.25727002500014,33.309569920000115,73.62664765200009,33.56489003700017]},"geometry":{"type":"Point","coordinates":[73.42743921973802,33.43787939800009]}},{"type":"Feature","id":"PK63004","properties":{"id":"PK63004","name":"Kotli Sattian","region":"pk-punjab","level":"tehsil","parent":"PK630","district":"Rawalpindi","source":"WFP / OCHA \u00b7 2022","center":[73.52220693744172,33.815739921500125],"bbox":[73.33908539800012,33.69030971100011,73.5855403330001,33.93970531000008]},"geometry":{"type":"Point","coordinates":[73.52220693744172,33.815739921500125]}},{"type":"Feature","id":"PK63005","properties":{"id":"PK63005","name":"Murree","region":"pk-punjab","level":"tehsil","parent":"PK630","district":"Rawalpindi","source":"WFP / OCHA \u00b7 2022","center":[73.41050900137992,33.87136561550017],"bbox":[73.16847229000007,33.72436718400013,73.54962704300016,34.01828002900015]},"geometry":{"type":"Point","coordinates":[73.41050900137992,33.87136561550017]}},{"type":"Feature","id":"PK63006","properties":{"id":"PK63006","name":"Rawalpindi","region":"pk-punjab","level":"tehsil","parent":"PK630","district":"Rawalpindi","source":"WFP / OCHA \u00b7 2022","center":[72.97904640999153,33.4054179125001],"bbox":[72.63215489700002,33.14709004700018,73.29424002000007,33.66418929500003]},"geometry":{"type":"Point","coordinates":[72.97904640999153,33.4054179125001]}},{"type":"Feature","id":"PK63007","properties":{"id":"PK63007","name":"Taxila","region":"pk-punjab","level":"tehsil","parent":"PK630","district":"Rawalpindi","source":"WFP / OCHA \u00b7 2022","center":[72.82377936928518,33.731443908000074],"bbox":[72.68491901200008,33.59964339200019,72.92606353800011,33.86528891200004]},"geometry":{"type":"Point","coordinates":[72.82377936928518,33.731443908000074]}},{"type":"Feature","id":"PK63101","properties":{"id":"PK63101","name":"Chichawatni","region":"pk-punjab","level":"tehsil","parent":"PK631","district":"Sahiwal","source":"WFP / OCHA \u00b7 2022","center":[72.68694124798586,30.429374716000154],"bbox":[72.393366184,30.162421610000024,72.96741237200007,30.69667117900019]},"geometry":{"type":"Point","coordinates":[72.68694124798586,30.429374716000154]}},{"type":"Feature","id":"PK63102","properties":{"id":"PK63102","name":"Sahiwal","region":"pk-punjab","level":"tehsil","parent":"PK631","district":"Sahiwal","source":"WFP / OCHA \u00b7 2022","center":[73.10994107320262,30.670180213500146],"bbox":[72.82613116900018,30.401725888000158,73.37377959800017,30.93863627500008]},"geometry":{"type":"Point","coordinates":[73.10994107320262,30.670180213500146]}},{"type":"Feature","id":"PK63201","properties":{"id":"PK63201","name":"Bhalwal","region":"pk-punjab","level":"tehsil","parent":"PK632","district":"Sargodha","source":"WFP / OCHA \u00b7 2022","center":[72.92859778496178,32.27596931100007],"bbox":[72.76757133200016,32.12227114600006,73.10787056800018,32.429820912000025]},"geometry":{"type":"Point","coordinates":[72.92859778496178,32.27596931100007]}},{"type":"Feature","id":"PK63202","properties":{"id":"PK63202","name":"Kot Momin","region":"pk-punjab","level":"tehsil","parent":"PK632","district":"Sargodha","source":"WFP / OCHA \u00b7 2022","center":[73.10994720519875,32.096241300000116],"bbox":[72.8553596220001,31.89129810300011,73.30802743400005,32.30118085700013]},"geometry":{"type":"Point","coordinates":[73.10994720519875,32.096241300000116]}},{"type":"Feature","id":"PK63203","properties":{"id":"PK63203","name":"Sahiwal","region":"pk-punjab","level":"tehsil","parent":"PK632","district":"Sargodha","source":"WFP / OCHA \u00b7 2022","center":[72.39593611156937,31.883103276000128],"bbox":[72.21155836000008,31.708947812000133,72.56589358600019,32.056871094000144]},"geometry":{"type":"Point","coordinates":[72.39593611156937,31.883103276000128]}},{"type":"Feature","id":"PK63204","properties":{"id":"PK63204","name":"Sargodha","region":"pk-punjab","level":"tehsil","parent":"PK632","district":"Sargodha","source":"WFP / OCHA \u00b7 2022","center":[72.72864498559909,32.05424719100003],"bbox":[72.43071001200008,31.820700805000058,73.04924838400007,32.287721720000036]},"geometry":{"type":"Point","coordinates":[72.72864498559909,32.05424719100003]}},{"type":"Feature","id":"PK63205","properties":{"id":"PK63205","name":"Shahpur","region":"pk-punjab","level":"tehsil","parent":"PK632","district":"Sargodha","source":"WFP / OCHA \u00b7 2022","center":[72.47920885400788,32.1996294275001],"bbox":[72.3227090150001,32.00063348700013,72.72872081800017,32.398988435000035]},"geometry":{"type":"Point","coordinates":[72.47920885400788,32.1996294275001]}},{"type":"Feature","id":"PK63206","properties":{"id":"PK63206","name":"Sillanwali","region":"pk-punjab","level":"tehsil","parent":"PK632","district":"Sargodha","source":"WFP / OCHA \u00b7 2022","center":[72.52014542632853,31.767372430500075],"bbox":[72.24066081900008,31.560755224000104,72.75626185100009,31.973971185000153]},"geometry":{"type":"Point","coordinates":[72.52014542632853,31.767372430500075]}},{"type":"Feature","id":"PK63207","properties":{"id":"PK63207","name":"Bhera","region":"pk-punjab","level":"tehsil","parent":"PK632","district":"Sargodha","source":"WFP / OCHA \u00b7 2022","center":[72.76429875533651,32.41209243900013],"bbox":[72.66017975900013,32.24694995200019,73.20155349400005,32.57717004100016]},"geometry":{"type":"Point","coordinates":[72.76429875533651,32.41209243900013]}},{"type":"Feature","id":"PK63301","properties":{"id":"PK63301","name":"Ferozewala","region":"pk-punjab","level":"tehsil","parent":"PK633","district":"Sheikhupura","source":"WFP / OCHA \u00b7 2022","center":[74.28236649266296,31.705318268000127],"bbox":[74.08807411000015,31.555768853000075,74.52037614100016,31.854116908000094]},"geometry":{"type":"Point","coordinates":[74.28236649266296,31.705318268000127]}},{"type":"Feature","id":"PK63302","properties":{"id":"PK63302","name":"Muridke","region":"pk-punjab","level":"tehsil","parent":"PK633","district":"Sheikhupura","source":"WFP / OCHA \u00b7 2022","center":[74.51873404910137,31.901866421500102],"bbox":[74.15965989699998,31.741266170000074,74.69377537800011,32.06222960000014]},"geometry":{"type":"Point","coordinates":[74.51873404910137,31.901866421500102]}},{"type":"Feature","id":"PK63303","properties":{"id":"PK63303","name":"Safdarabad","region":"pk-punjab","level":"tehsil","parent":"PK633","district":"Sheikhupura","source":"WFP / OCHA \u00b7 2022","center":[73.6141129758877,31.75168462550016],"bbox":[73.46767179700004,31.60001928900016,73.78202242900011,31.903689218000125]},"geometry":{"type":"Point","coordinates":[73.6141129758877,31.75168462550016]}},{"type":"Feature","id":"PK63304","properties":{"id":"PK63304","name":"Sharak Pur","region":"pk-punjab","level":"tehsil","parent":"PK633","district":"Sheikhupura","source":"WFP / OCHA \u00b7 2022","center":[74.06538123716928,31.499142651500108],"bbox":[73.94136035700018,31.365408800000125,74.22406535800013,31.63249575800006]},"geometry":{"type":"Point","coordinates":[74.06538123716928,31.499142651500108]}},{"type":"Feature","id":"PK63305","properties":{"id":"PK63305","name":"Sheikhupura","region":"pk-punjab","level":"tehsil","parent":"PK633","district":"Sheikhupura","source":"WFP / OCHA \u00b7 2022","center":[73.93551850702954,31.73697541600012],"bbox":[73.625903117,31.490070038000056,74.1291449090001,31.984445386000175]},"geometry":{"type":"Point","coordinates":[73.93551850702954,31.73697541600012]}},{"type":"Feature","id":"PK63401","properties":{"id":"PK63401","name":"Daska","region":"pk-punjab","level":"tehsil","parent":"PK634","district":"Sialkot","source":"WFP / OCHA \u00b7 2022","center":[74.3921419529469,32.26564804950013],"bbox":[74.20220093300003,32.07198014699998,74.57265155200014,32.45909929600009]},"geometry":{"type":"Point","coordinates":[74.3921419529469,32.26564804950013]}},{"type":"Feature","id":"PK63402","properties":{"id":"PK63402","name":"Pasrur","region":"pk-punjab","level":"tehsil","parent":"PK634","district":"Sialkot","source":"WFP / OCHA \u00b7 2022","center":[74.65002354705527,32.270383326500166],"bbox":[74.44994374300006,32.04472101900018,74.93681968400006,32.49621286600012]},"geometry":{"type":"Point","coordinates":[74.65002354705527,32.270383326500166]}},{"type":"Feature","id":"PK63403","properties":{"id":"PK63403","name":"Sambrial","region":"pk-punjab","level":"tehsil","parent":"PK634","district":"Sialkot","source":"WFP / OCHA \u00b7 2022","center":[74.31948970317825,32.498073729000055],"bbox":[74.19639751800008,32.38152204800019,74.45857688800004,32.61478850499998]},"geometry":{"type":"Point","coordinates":[74.31948970317825,32.498073729000055]}},{"type":"Feature","id":"PK63404","properties":{"id":"PK63404","name":"Sialkot","region":"pk-punjab","level":"tehsil","parent":"PK634","district":"Sialkot","source":"WFP / OCHA \u00b7 2022","center":[74.52161194684909,32.59539826550011],"bbox":[74.36603166500004,32.35058293399999,74.70038586600009,32.83971374400011]},"geometry":{"type":"Point","coordinates":[74.52161194684909,32.59539826550011]}},{"type":"Feature","id":"PK63501","properties":{"id":"PK63501","name":"Gojra","region":"pk-punjab","level":"tehsil","parent":"PK635","district":"Toba Tek Singh","source":"WFP / OCHA \u00b7 2022","center":[72.62914006895616,31.14454895150007],"bbox":[72.47261034800016,30.957708564000086,72.8546424000001,31.33180499600013]},"geometry":{"type":"Point","coordinates":[72.62914006895616,31.14454895150007]}},{"type":"Feature","id":"PK63502","properties":{"id":"PK63502","name":"Kamalia","region":"pk-punjab","level":"tehsil","parent":"PK635","district":"Toba Tek Singh","source":"WFP / OCHA \u00b7 2022","center":[72.6499419085445,30.663730541000064],"bbox":[72.15113044700007,30.525077977000024,72.84717389500003,30.80254089100015]},"geometry":{"type":"Point","coordinates":[72.6499419085445,30.663730541000064]}},{"type":"Feature","id":"PK63503","properties":{"id":"PK63503","name":"Toba Tek Singh","region":"pk-punjab","level":"tehsil","parent":"PK635","district":"Toba Tek Singh","source":"WFP / OCHA \u00b7 2022","center":[72.55095921841841,30.94159403250012],"bbox":[72.24470761300006,30.745511616000158,72.77797758100007,31.137554861000183]},"geometry":{"type":"Point","coordinates":[72.55095921841841,30.94159403250012]}},{"type":"Feature","id":"PK63504","properties":{"id":"PK63504","name":"Pir Mahal","region":"pk-punjab","level":"tehsil","parent":"PK635","district":"Toba Tek Singh","source":"WFP / OCHA \u00b7 2022","center":[72.44828126747348,30.73490609500007],"bbox":[72.28939995000019,30.609507302000168,72.56774952500018,30.85937866600011]},"geometry":{"type":"Point","coordinates":[72.44828126747348,30.73490609500007]}},{"type":"Feature","id":"PK63601","properties":{"id":"PK63601","name":"Burewala","region":"pk-punjab","level":"tehsil","parent":"PK636","district":"Vehari","source":"WFP / OCHA \u00b7 2022","center":[72.75898407027393,30.131181496000096],"bbox":[72.50076901900007,29.89086443499997,72.99306245000014,30.37356772300012]},"geometry":{"type":"Point","coordinates":[72.75898407027393,30.131181496000096]}},{"type":"Feature","id":"PK63602","properties":{"id":"PK63602","name":"Mailsi","region":"pk-punjab","level":"tehsil","parent":"PK636","district":"Vehari","source":"WFP / OCHA \u00b7 2022","center":[72.12887288756737,29.842505786000093],"bbox":[71.73216081000004,29.591720389000102,72.42005073400009,30.09333460900018]},"geometry":{"type":"Point","coordinates":[72.12887288756737,29.842505786000093]}},{"type":"Feature","id":"PK63603","properties":{"id":"PK63603","name":"Vehari","region":"pk-punjab","level":"tehsil","parent":"PK636","district":"Vehari","source":"WFP / OCHA \u00b7 2022","center":[72.3630627658192,30.01315520000017],"bbox":[72.10583742600016,29.80759032800006,72.71296639700006,30.21806042800017]},"geometry":{"type":"Point","coordinates":[72.3630627658192,30.01315520000017]}},{"type":"Feature","id":"lahore-t-0","properties":{"id":"lahore-t-0","name":"Lahore Cantt","region":"pk-punjab","level":"tehsil","parent":"PK617","district":"Lahore","source":"Lahore tehsil layer \u00b7 uploaded August 2025 \u00b7 unverified","center":[74.43570613640088,31.514605514500033],"bbox":[74.34180029100008,31.45219005500007,74.52645196500004,31.57688759600006]},"geometry":{"type":"Point","coordinates":[74.43570613640088,31.514605514500033]}},{"type":"Feature","id":"lahore-t-1","properties":{"id":"lahore-t-1","name":"Saddar","region":"pk-punjab","level":"tehsil","parent":"PK617","district":"Lahore","source":"Lahore tehsil layer \u00b7 uploaded August 2025 \u00b7 unverified","center":[74.51837482274549,31.42140987150006],"bbox":[74.39791203100003,31.32081699100007,74.65472179300008,31.52217346500004]},"geometry":{"type":"Point","coordinates":[74.51837482274549,31.42140987150006]}},{"type":"Feature","id":"lahore-t-2","properties":{"id":"lahore-t-2","name":"Model Town","region":"pk-punjab","level":"tehsil","parent":"PK617","district":"Lahore","source":"Lahore tehsil layer \u00b7 uploaded August 2025 \u00b7 unverified","center":[74.32518633637946,31.477678459000032],"bbox":[74.23250025500005,31.40365177800004,74.37290576200007,31.55158691500003]},"geometry":{"type":"Point","coordinates":[74.32518633637946,31.477678459000032]}},{"type":"Feature","id":"lahore-t-3","properties":{"id":"lahore-t-3","name":"Shalimar","region":"pk-punjab","level":"tehsil","parent":"PK617","district":"Lahore","source":"Lahore tehsil layer \u00b7 uploaded August 2025 \u00b7 unverified","center":[74.39621917036408,31.584220034500078],"bbox":[74.31850378900003,31.54213228400005,74.48639426300008,31.62632154500005]},"geometry":{"type":"Point","coordinates":[74.39621917036408,31.584220034500078]}},{"type":"Feature","id":"lahore-t-4","properties":{"id":"lahore-t-4","name":"Ravi","region":"pk-punjab","level":"tehsil","parent":"PK617","district":"Lahore","source":"Lahore tehsil layer \u00b7 uploaded August 2025 \u00b7 unverified","center":[74.30921147007771,31.615948191000054],"bbox":[74.24164926200007,31.56905078600005,74.38874193400005,31.66287078700003]},"geometry":{"type":"Point","coordinates":[74.30921147007771,31.615948191000054]}},{"type":"Feature","id":"lahore-t-5","properties":{"id":"lahore-t-5","name":"Wahga","region":"pk-punjab","level":"tehsil","parent":"PK617","district":"Lahore","source":"Lahore tehsil layer \u00b7 uploaded August 2025 \u00b7 unverified","center":[74.47988537721139,31.61037925100007],"bbox":[74.38174631900006,31.50534465700002,74.61877167700004,31.71524017900003]},"geometry":{"type":"Point","coordinates":[74.47988537721139,31.61037925100007]}},{"type":"Feature","id":"lahore-t-6","properties":{"id":"lahore-t-6","name":"Lahore City","region":"pk-punjab","level":"tehsil","parent":"PK617","district":"Lahore","source":"Lahore tehsil layer \u00b7 uploaded August 2025 \u00b7 unverified","center":[74.27848875408762,31.547989763500055],"bbox":[74.20717074100008,31.49615509100005,74.34866948100006,31.59965713400004]},"geometry":{"type":"Point","coordinates":[74.27848875408762,31.547989763500055]}},{"type":"Feature","id":"lahore-t-7","properties":{"id":"lahore-t-7","name":"Nishter","region":"pk-punjab","level":"tehsil","parent":"PK617","district":"Lahore","source":"Lahore tehsil layer \u00b7 uploaded August 2025 \u00b7 unverified","center":[74.33632305119338,31.363772978000043],"bbox":[74.24220388500004,31.25482753400007,74.45783941900004,31.47272912100004]},"geometry":{"type":"Point","coordinates":[74.33632305119338,31.363772978000043]}},{"type":"Feature","id":"lahore-t-8","properties":{"id":"lahore-t-8","name":"Allama Iqbal","region":"pk-punjab","level":"tehsil","parent":"PK617","district":"Lahore","source":"Lahore tehsil layer \u00b7 uploaded August 2025 \u00b7 unverified","center":[74.21864440923872,31.446057572000058],"bbox":[74.14314697800006,31.36301041500008,74.29742695400006,31.52900708200008]},"geometry":{"type":"Point","coordinates":[74.21864440923872,31.446057572000058]}},{"type":"Feature","id":"lahore-t-9","properties":{"id":"lahore-t-9","name":"Raiwind","region":"pk-punjab","level":"tehsil","parent":"PK617","district":"Lahore","source":"Lahore tehsil layer \u00b7 uploaded August 2025 \u00b7 unverified","center":[74.17867873224756,31.316441944000047],"bbox":[74.00007094200004,31.19981872300008,74.33992962600007,31.43302822100003]},"geometry":{"type":"Point","coordinates":[74.17867873224756,31.316441944000047]}}]}