{"type":"FeatureCollection","features":[{"type":"Feature","id":"PK601","properties":{"id":"PK601","name":"Attock","region":"pk-punjab","level":"district","parent":"","district":"Attock","source":"WFP / OCHA \u00b7 2022","center":[72.42512195906093,33.50337417150004],"bbox":[71.70509338400012,33.000930025000116,72.92473963300006,34.006561279000096]},"geometry":{"type":"Point","coordinates":[72.42512195906093,33.50337417150004]}},{"type":"Feature","id":"PK602","properties":{"id":"PK602","name":"Bahawalnagar","region":"pk-punjab","level":"district","parent":"","district":"Bahawalnagar","source":"WFP / OCHA \u00b7 2022","center":[72.99740340127437,29.57719716450012],"bbox":[72.26407812100018,28.81438702100013,73.96895675299999,30.339600717000053]},"geometry":{"type":"Point","coordinates":[72.99740340127437,29.57719716450012]}},{"type":"Feature","id":"PK603","properties":{"id":"PK603","name":"Bahawalpur","region":"pk-punjab","level":"district","parent":"","district":"Bahawalpur","source":"WFP / OCHA \u00b7 2022","center":[71.76665009539914,28.830443102000032],"bbox":[70.88609658100006,27.793128533000186,72.78855067400013,29.863458386]},"geometry":{"type":"Point","coordinates":[71.76665009539914,28.830443102000032]}},{"type":"Feature","id":"PK604","properties":{"id":"PK604","name":"Bhakkar","region":"pk-punjab","level":"district","parent":"","district":"Bhakkar","source":"WFP / OCHA \u00b7 2022","center":[71.33790158495032,31.681120124000103],"bbox":[70.82701110800008,31.140448833000164,72.02390139100015,32.22156004700008]},"geometry":{"type":"Point","coordinates":[71.33790158495032,31.681120124000103]}},{"type":"Feature","id":"PK605","properties":{"id":"PK605","name":"Chakwal","region":"pk-punjab","level":"district","parent":"","district":"Chakwal","source":"WFP / OCHA \u00b7 2022","center":[72.53323806648689,32.87374482700008],"bbox":[71.80418155000012,32.53388442800008,73.24769502600003,33.21424004500011]},"geometry":{"type":"Point","coordinates":[72.53323806648689,32.87374482700008]}},{"type":"Feature","id":"PK606","properties":{"id":"PK606","name":"Chiniot","region":"pk-punjab","level":"district","parent":"","district":"Chiniot","source":"WFP / OCHA \u00b7 2022","center":[72.79242999837732,31.669795427500162],"bbox":[72.43451230500017,31.36445025200004,73.22999508000015,31.977081627000075]},"geometry":{"type":"Point","coordinates":[72.79242999837732,31.669795427500162]}},{"type":"Feature","id":"PK607","properties":{"id":"PK607","name":"Dera Ghazi Khan","region":"pk-punjab","level":"district","parent":"","district":"Dera Ghazi Khan","source":"WFP / OCHA \u00b7 2022","center":[70.41008830497981,30.480323836500105],"bbox":[69.87768262800012,29.61867983400009,70.88589739400015,31.340459824000163]},"geometry":{"type":"Point","coordinates":[70.41008830497981,30.480323836500105]}},{"type":"Feature","id":"PK608","properties":{"id":"PK608","name":"Faisalabad","region":"pk-punjab","level":"district","parent":"","district":"Faisalabad","source":"WFP / OCHA \u00b7 2022","center":[73.19763368427857,31.231060095500112],"bbox":[72.70206226500005,30.67486877200008,73.68064762200015,31.787031797000168]},"geometry":{"type":"Point","coordinates":[73.19763368427857,31.231060095500112]}},{"type":"Feature","id":"PK609","properties":{"id":"PK609","name":"Gujranwala","region":"pk-punjab","level":"district","parent":"","district":"Gujranwala","source":"WFP / OCHA \u00b7 2022","center":[74.05372074477927,32.18838648400012],"bbox":[73.67641916200006,31.820608153000023,74.55880115400004,32.556257541000036]},"geometry":{"type":"Point","coordinates":[74.05372074477927,32.18838648400012]}},{"type":"Feature","id":"PK610","properties":{"id":"PK610","name":"Gujrat","region":"pk-punjab","level":"district","parent":"","district":"Gujrat","source":"WFP / OCHA \u00b7 2022","center":[74.03785233294929,32.71804504250014],"bbox":[73.59027658800005,32.39832329700005,74.46490240100019,33.037772228000165]},"geometry":{"type":"Point","coordinates":[74.03785233294929,32.71804504250014]}},{"type":"Feature","id":"PK611","properties":{"id":"PK611","name":"Hafizabad","region":"pk-punjab","level":"district","parent":"","district":"Hafizabad","source":"WFP / OCHA \u00b7 2022","center":[73.54302763500252,32.05113547650009],"bbox":[73.15409238900014,31.761548567000034,73.8290237060001,32.3399029200001]},"geometry":{"type":"Point","coordinates":[73.54302763500252,32.05113547650009]}},{"type":"Feature","id":"PK612","properties":{"id":"PK612","name":"Jhang","region":"pk-punjab","level":"district","parent":"","district":"Jhang","source":"WFP / OCHA \u00b7 2022","center":[72.14166654323157,31.171896823000086],"bbox":[71.65566130800016,30.57820427000007,72.81171122400013,31.765599965000035]},"geometry":{"type":"Point","coordinates":[72.14166654323157,31.171896823000086]}},{"type":"Feature","id":"PK613","properties":{"id":"PK613","name":"Jhelum","region":"pk-punjab","level":"district","parent":"","district":"Jhelum","source":"WFP / OCHA \u00b7 2022","center":[73.372828573726,32.83624202050015],"bbox":[72.64321068700013,32.41654067400003,73.80581740900016,33.25527279900001]},"geometry":{"type":"Point","coordinates":[73.372828573726,32.83624202050015]}},{"type":"Feature","id":"PK614","properties":{"id":"PK614","name":"Kasur","region":"pk-punjab","level":"district","parent":"","district":"Kasur","source":"WFP / OCHA \u00b7 2022","center":[74.14000320198733,31.002912598500103],"bbox":[73.6539348180001,30.641612235000082,74.68714835900005,31.36556213500012]},"geometry":{"type":"Point","coordinates":[74.14000320198733,31.002912598500103]}},{"type":"Feature","id":"PK615","properties":{"id":"PK615","name":"Khanewal","region":"pk-punjab","level":"district","parent":"","district":"Khanewal","source":"WFP / OCHA \u00b7 2022","center":[72.06509673241214,30.3157188080001],"bbox":[71.5241523360001,29.89857049300008,72.50170068500006,30.73293742900006]},"geometry":{"type":"Point","coordinates":[72.06509673241214,30.3157188080001]}},{"type":"Feature","id":"PK616","properties":{"id":"PK616","name":"Khushab","region":"pk-punjab","level":"district","parent":"","district":"Khushab","source":"WFP / OCHA \u00b7 2022","center":[72.0527525088464,32.1248950960001],"bbox":[71.62376202500019,31.53141884400003,72.66994227000009,32.718299946000116]},"geometry":{"type":"Point","coordinates":[72.0527525088464,32.1248950960001]}},{"type":"Feature","id":"PK617","properties":{"id":"PK617","name":"Lahore","region":"pk-punjab","level":"district","parent":"","district":"Lahore","source":"WFP / OCHA \u00b7 2022","center":[74.40526669250653,31.486336158000114],"bbox":[74.00343496700009,31.255927073,74.64111329800005,31.71662075300003]},"geometry":{"type":"Point","coordinates":[74.40526669250653,31.486336158000114]}},{"type":"Feature","id":"PK618","properties":{"id":"PK618","name":"Leiah","region":"pk-punjab","level":"district","parent":"","district":"Leiah","source":"WFP / OCHA \u00b7 2022","center":[71.28401855650343,30.997223096000027],"bbox":[70.73304881400003,30.5833356280001,71.8536602980002,31.41138691400016]},"geometry":{"type":"Point","coordinates":[71.28401855650343,30.997223096000027]}},{"type":"Feature","id":"PK619","properties":{"id":"PK619","name":"Lodhran","region":"pk-punjab","level":"district","parent":"","district":"Lodhran","source":"WFP / OCHA \u00b7 2022","center":[71.74459449818845,29.67121716750006],"bbox":[71.35379593500005,29.37232791100007,72.10483253300009,29.97070891400017]},"geometry":{"type":"Point","coordinates":[71.74459449818845,29.67121716750006]}},{"type":"Feature","id":"PK620","properties":{"id":"PK620","name":"Mandi Bahauddin","region":"pk-punjab","level":"district","parent":"","district":"Mandi Bahauddin","source":"WFP / OCHA \u00b7 2022","center":[73.47082560438757,32.43475927850008],"bbox":[73.04741618399999,32.12210506100007,73.89708096800013,32.74746151900007]},"geometry":{"type":"Point","coordinates":[73.47082560438757,32.43475927850008]}},{"type":"Feature","id":"PK621","properties":{"id":"PK621","name":"Mianwali","region":"pk-punjab","level":"district","parent":"","district":"Mianwali","source":"WFP / OCHA \u00b7 2022","center":[71.51477442514027,32.70429490000009],"bbox":[71.10559845000012,32.16786904300017,71.97970291800004,33.240428925]},"geometry":{"type":"Point","coordinates":[71.51477442514027,32.70429490000009]}},{"type":"Feature","id":"PK622","properties":{"id":"PK622","name":"Multan","region":"pk-punjab","level":"district","parent":"","district":"Multan","source":"WFP / OCHA \u00b7 2022","center":[71.36563106287457,29.925858858000055],"bbox":[71.00580483800002,29.413539015000026,71.83454945900019,30.438948860000153]},"geometry":{"type":"Point","coordinates":[71.36563106287457,29.925858858000055]}},{"type":"Feature","id":"PK623","properties":{"id":"PK623","name":"Muzaffargarh","region":"pk-punjab","level":"district","parent":"","district":"Muzaffargarh","source":"WFP / OCHA \u00b7 2022","center":[71.0127514067564,29.89244745900004],"bbox":[70.5398315400002,29.017031359000157,71.72669469700014,30.767853174000038]},"geometry":{"type":"Point","coordinates":[71.0127514067564,29.89244745900004]}},{"type":"Feature","id":"PK624","properties":{"id":"PK624","name":"Nankana Sahib","region":"pk-punjab","level":"district","parent":"","district":"Nankana Sahib","source":"WFP / OCHA \u00b7 2022","center":[73.84967682801107,31.43215984100013],"bbox":[73.28752092400009,31.02244679800009,74.03811301600012,31.84182181200015]},"geometry":{"type":"Point","coordinates":[73.84967682801107,31.43215984100013]}},{"type":"Feature","id":"PK625","properties":{"id":"PK625","name":"Narowal","region":"pk-punjab","level":"district","parent":"","district":"Narowal","source":"WFP / OCHA \u00b7 2022","center":[75.04336591517158,32.20577450300013],"bbox":[74.58803698600019,31.918795210000155,75.38186689200012,32.49206775200014]},"geometry":{"type":"Point","coordinates":[75.04336591517158,32.20577450300013]}},{"type":"Feature","id":"PK626","properties":{"id":"PK626","name":"Okara","region":"pk-punjab","level":"district","parent":"","district":"Okara","source":"WFP / OCHA \u00b7 2022","center":[73.7334449428251,30.697137378500003],"bbox":[73.26752473500005,30.254761284000153,74.16175827200016,31.139750741000114]},"geometry":{"type":"Point","coordinates":[73.7334449428251,30.697137378500003]}},{"type":"Feature","id":"PK627","properties":{"id":"PK627","name":"Pakpattan","region":"pk-punjab","level":"district","parent":"","district":"Pakpattan","source":"WFP / OCHA \u00b7 2022","center":[73.30698475383134,30.28861575150009],"bbox":[72.827698887,29.96243603900018,73.64221784500006,30.615191103000143]},"geometry":{"type":"Point","coordinates":[73.30698475383134,30.28861575150009]}},{"type":"Feature","id":"PK628","properties":{"id":"PK628","name":"Rahim Yar Khan","region":"pk-punjab","level":"district","parent":"","district":"Rahim Yar Khan","source":"WFP / OCHA \u00b7 2022","center":[70.46052283886449,28.48536450400016],"bbox":[69.46670532200017,27.705110332000174,71.10580057600015,29.265909612000144]},"geometry":{"type":"Point","coordinates":[70.46052283886449,28.48536450400016]}},{"type":"Feature","id":"PK629","properties":{"id":"PK629","name":"Rajanpur","region":"pk-punjab","level":"district","parent":"","district":"Rajanpur","source":"WFP / OCHA \u00b7 2022","center":[70.15288342532523,29.145492394000087],"bbox":[69.32131958000019,28.394414949000065,70.72181888900013,29.89878983300008]},"geometry":{"type":"Point","coordinates":[70.15288342532523,29.145492394000087]}},{"type":"Feature","id":"PK630","properties":{"id":"PK630","name":"Rawalpindi","region":"pk-punjab","level":"district","parent":"","district":"Rawalpindi","source":"WFP / OCHA \u00b7 2022","center":[73.43812735839757,33.54128532700011],"bbox":[72.63215489700002,33.06438169900014,73.63165389800002,34.01828002900015]},"geometry":{"type":"Point","coordinates":[73.43812735839757,33.54128532700011]}},{"type":"Feature","id":"PK631","properties":{"id":"PK631","name":"Sahiwal","region":"pk-punjab","level":"district","parent":"","district":"Sahiwal","source":"WFP / OCHA \u00b7 2022","center":[72.89607311605353,30.550107731500106],"bbox":[72.393366184,30.162421610000024,73.37377959800017,30.93863627500008]},"geometry":{"type":"Point","coordinates":[72.89607311605353,30.550107731500106]}},{"type":"Feature","id":"PK632","properties":{"id":"PK632","name":"Sargodha","region":"pk-punjab","level":"district","parent":"","district":"Sargodha","source":"WFP / OCHA \u00b7 2022","center":[72.78931955169662,32.06882987050008],"bbox":[72.21155836000008,31.560755224000104,73.30802743400005,32.57717004100016]},"geometry":{"type":"Point","coordinates":[72.78931955169662,32.06882987050008]}},{"type":"Feature","id":"PK633","properties":{"id":"PK633","name":"Sheikhupura","region":"pk-punjab","level":"district","parent":"","district":"Sheikhupura","source":"WFP / OCHA \u00b7 2022","center":[73.98537396157809,31.714041365000128],"bbox":[73.46767179700004,31.365408800000125,74.69377537800011,32.06222960000014]},"geometry":{"type":"Point","coordinates":[73.98537396157809,31.714041365000128]}},{"type":"Feature","id":"PK634","properties":{"id":"PK634","name":"Sialkot","region":"pk-punjab","level":"district","parent":"","district":"Sialkot","source":"WFP / OCHA \u00b7 2022","center":[74.56827469058945,32.442149055000044],"bbox":[74.19639751800008,32.04472101900018,74.93681968400006,32.83971374400011]},"geometry":{"type":"Point","coordinates":[74.56827469058945,32.442149055000044]}},{"type":"Feature","id":"PK635","properties":{"id":"PK635","name":"Toba Tek Singh","region":"pk-punjab","level":"district","parent":"","district":"Toba Tek Singh","source":"WFP / OCHA \u00b7 2022","center":[72.53689753394976,30.92855181350015],"bbox":[72.15113044700007,30.525077977000024,72.8546424000001,31.33180499600013]},"geometry":{"type":"Point","coordinates":[72.53689753394976,30.92855181350015]}},{"type":"Feature","id":"PK636","properties":{"id":"PK636","name":"Vehari","region":"pk-punjab","level":"district","parent":"","district":"Vehari","source":"WFP / OCHA \u00b7 2022","center":[72.31882108708999,29.982838099000105],"bbox":[71.73216081000004,29.591720389000102,72.99306245000014,30.37356772300012]},"geometry":{"type":"Point","coordinates":[72.31882108708999,29.982838099000105]}}]}