{"type":"FeatureCollection","features":[{"type":"Feature","id":"tibet-modern-three","properties":{"id":"tibet-modern-three","name":"Tibet + Qinghai + Sichuan · modern administrative context","region":"tibet-modern-three","level":"region","parent":"","center":[93.58404701069466,32.5833757828142],"bbox":[78.39567944,26.05608065,108.53209477,39.21185102],"source":"Exact union of cn-atlas / CTAmap 2023 modern province outlines · ISC / MIT · not historical Greater Tibet"},"geometry":{"type":"Point","coordinates":[93.58404701069466,32.5833757828142]}}]}
