{"type":"FeatureCollection","features":[{"type":"Feature","id":"riveratlas-40352165","bbox":[104.18541666666604,39.99791666666605,104.2020833333326,40.002083333332706],"properties":{"id":"riveratlas-40352165","order":3,"discharge":0.004999999888241291},"geometry":{"type":"MultiLineString","coordinates":[[[104.202083,40.002083],[104.189583,40.002083],[104.185417,39.997917]]]}},{"type":"Feature","id":"riveratlas-40352390","bbox":[101.86874999999932,39.98958333333268,101.91458333333273,40.0645833333327],"properties":{"id":"riveratlas-40352390","order":5,"discharge":0},"geometry":{"type":"MultiLineString","coordinates":[[[101.86875,39.989583],[101.877083,39.997917],[101.897917,39.997917],[101.902083,40.002083],[101.902083,40.00625],[101.90625,40.010417],[101.90625,40.04375],[101.914583,40.052083],[101.914583,40.064583]]]}},{"type":"Feature","id":"riveratlas-40352399","bbox":[104.06458333333259,39.98958333333268,104.13541666666596,40.01874999999937],"properties":{"id":"riveratlas-40352399","order":3,"discharge":0},"geometry":{"type":"MultiLineString","coordinates":[[[104.064583,40.01875],[104.064583,40.014583],[104.06875,40.010417],[104.072917,40.010417],[104.08125,40.002083],[104.089583,40.002083],[104.09375,39.997917],[104.10625,39.997917],[104.110417,40.002083],[104.11875,40.002083],[104.127083,39.99375],[104.13125,39.99375],[104.135417,39.989583]]]}},{"type":"Feature","id":"riveratlas-40352763","bbox":[103.90208333333268,39.97708333333271,103.9229166666659,40.00624999999936],"properties":{"id":"riveratlas-40352763","order":3,"discharge":0},"geometry":{"type":"MultiLineString","coordinates":[[[103.902083,40.00625],[103.910417,39.997917],[103.910417,39.99375],[103.914583,39.989583],[103.914583,39.985417],[103.922917,39.977083]]]}},{"type":"Feature","id":"riveratlas-40353967","bbox":[102.54374999999933,39.935416666666036,102.65624999999928,40.03541666666605],"properties":{"id":"riveratlas-40353967","order":3,"discharge":0},"geometry":{"type":"MultiLineString","coordinates":[[[102.65625,40.035417],[102.627083,40.00625],[102.622917,40.00625],[102.61875,40.002083],[102.614583,40.002083],[102.602083,39.989583],[102.59375,39.989583],[102.54375,39.939583],[102.54375,39.935417]]]}},{"type":"Feature","id":"riveratlas-40356156","bbox":[101.86041666666594,39.86041666666602,101.96458333333261,40.02708333333269],"properties":{"id":"riveratlas-40356156","order":3,"discharge":0.010999999940395355},"geometry":{"type":"MultiLineString","coordinates":[[[101.964583,40.027083],[101.960417,40.022917],[101.960417,40.010417],[101.935417,39.985417],[101.935417,39.964583],[101.927083,39.95625],[101.927083,39.939583],[101.914583,39.927083],[101.914583,39.914583],[101.860417,39.860417]]]}}]}
