{"type":"FeatureCollection","features":[{"type":"Feature","id":"riveratlas-40352171","bbox":[105.96874999999923,39.99791666666605,105.9729166666659,40.002083333332706],"properties":{"id":"riveratlas-40352171","order":5,"discharge":0},"geometry":{"type":"MultiLineString","coordinates":[[[105.972917,39.997917],[105.96875,40.002083]]]}},{"type":"Feature","id":"riveratlas-40352172","bbox":[106.70624999999919,39.99791666666605,106.72708333333256,40.02291666666604],"properties":{"id":"riveratlas-40352172","order":7,"discharge":743.010009765625},"geometry":{"type":"MultiLineString","coordinates":[[[106.727083,39.997917],[106.727083,40.002083],[106.714583,40.014583],[106.710417,40.014583],[106.710417,40.01875],[106.70625,40.022917]]]}},{"type":"Feature","id":"riveratlas-40352177","bbox":[108.33958333333251,39.99791666666605,108.34791666666582,40.00624999999937],"properties":{"id":"riveratlas-40352177","order":3,"discharge":0.05999999865889549},"geometry":{"type":"MultiLineString","coordinates":[[[108.339583,39.997917],[108.347917,40.00625]]]}},{"type":"Feature","id":"riveratlas-40352276","bbox":[105.5854166666659,39.99374999999939,105.69791666666593,40.01874999999938],"properties":{"id":"riveratlas-40352276","order":3,"discharge":0},"geometry":{"type":"MultiLineString","coordinates":[[[105.585417,40.014583],[105.59375,40.014583],[105.597917,40.01875],[105.602083,40.01875],[105.60625,40.014583],[105.614583,40.014583],[105.61875,40.010417],[105.627083,40.010417],[105.63125,40.00625],[105.65625,40.00625],[105.660417,40.002083],[105.685417,40.002083],[105.69375,39.99375],[105.697917,39.99375]]]}},{"type":"Feature","id":"riveratlas-40352277","bbox":[105.67708333333255,39.99374999999939,105.69791666666592,40.02291666666604],"properties":{"id":"riveratlas-40352277","order":3,"discharge":0},"geometry":{"type":"MultiLineString","coordinates":[[[105.677083,40.022917],[105.68125,40.022917],[105.68125,40.01875],[105.685417,40.014583],[105.689583,40.014583],[105.697917,40.00625],[105.697917,39.99375]]]}},{"type":"Feature","id":"riveratlas-40352278","bbox":[106.10624999999922,39.99374999999939,106.12708333333259,40.02291666666604],"properties":{"id":"riveratlas-40352278","order":4,"discharge":0},"geometry":{"type":"MultiLineString","coordinates":[[[106.127083,40.022917],[106.11875,40.014583],[106.110417,40.014583],[106.10625,40.010417],[106.110417,40.00625],[106.110417,40.002083],[106.10625,39.997917],[106.110417,39.99375]]]}},{"type":"Feature","id":"riveratlas-40352404","bbox":[108.9104166666659,39.98958333333268,108.93541666666593,40.03958333333271],"properties":{"id":"riveratlas-40352404","order":3,"discharge":0.11900000274181366},"geometry":{"type":"MultiLineString","coordinates":[[[108.935417,39.989583],[108.927083,39.997917],[108.927083,40.01875],[108.914583,40.03125],[108.914583,40.035417],[108.910417,40.039583]]]}},{"type":"Feature","id":"riveratlas-40352500","bbox":[105.86041666666594,39.98541666666603,105.96874999999923,40.00624999999937],"properties":{"id":"riveratlas-40352500","order":5,"discharge":0},"geometry":{"type":"MultiLineString","coordinates":[[[105.96875,40.002083],[105.964583,40.002083],[105.960417,40.00625],[105.95625,40.00625],[105.947917,39.997917],[105.94375,39.997917],[105.939583,40.002083],[105.922917,40.002083],[105.91875,39.997917],[105.90625,39.997917],[105.897917,39.989583],[105.889583,39.989583],[105.885417,39.985417],[105.88125,39.985417],[105.864583,40.002083],[105.860417,40.002083]]]}},{"type":"Feature","id":"riveratlas-40352643","bbox":[105.54374999999922,39.98124999999937,105.57291666666592,40.00624999999936],"properties":{"id":"riveratlas-40352643","order":3,"discharge":0},"geometry":{"type":"MultiLineString","coordinates":[[[105.54375,39.98125],[105.552083,39.989583],[105.55625,39.989583],[105.560417,39.99375],[105.564583,39.99375],[105.572917,40.002083],[105.572917,40.00625]]]}},{"type":"Feature","id":"riveratlas-40352645","bbox":[105.70624999999924,39.98124999999937,105.72708333333262,40.06874999999937],"properties":{"id":"riveratlas-40352645","order":3,"discharge":0},"geometry":{"type":"MultiLineString","coordinates":[[[105.722917,40.06875],[105.722917,40.060417],[105.727083,40.05625],[105.722917,40.052083],[105.722917,40.047917],[105.714583,40.039583],[105.714583,40.035417],[105.70625,40.027083],[105.70625,40.01875],[105.71875,40.00625],[105.71875,39.985417],[105.714583,39.98125]]]}},{"type":"Feature","id":"riveratlas-40352905","bbox":[108.43124999999927,39.97291666666606,108.50208333333255,40.00624999999937],"properties":{"id":"riveratlas-40352905","order":3,"discharge":0.09200000017881393},"geometry":{"type":"MultiLineString","coordinates":[[[108.502083,39.972917],[108.497917,39.977083],[108.49375,39.977083],[108.489583,39.98125],[108.485417,39.98125],[108.477083,39.989583],[108.472917,39.989583],[108.46875,39.99375],[108.464583,39.99375],[108.460417,39.997917],[108.452083,39.997917],[108.447917,40.002083],[108.44375,40.002083],[108.439583,40.00625],[108.43125,40.00625]]]}},{"type":"Feature","id":"riveratlas-40353154","bbox":[107.88124999999926,39.96458333333269,107.91874999999918,40.081249999999336],"properties":{"id":"riveratlas-40353154","order":4,"discharge":0.2370000034570694},"geometry":{"type":"MultiLineString","coordinates":[[[107.91875,39.964583],[107.91875,39.972917],[107.902083,39.989583],[107.902083,39.997917],[107.897917,40.002083],[107.897917,40.01875],[107.889583,40.027083],[107.889583,40.03125],[107.885417,40.035417],[107.885417,40.052083],[107.889583,40.05625],[107.88125,40.064583],[107.885417,40.06875],[107.885417,40.08125]]]}},{"type":"Feature","id":"riveratlas-40353598","bbox":[107.52291666666585,39.94791666666601,107.60208333333262,40.0020833333327],"properties":{"id":"riveratlas-40353598","order":3,"discharge":0.10100000351667404},"geometry":{"type":"MultiLineString","coordinates":[[[107.522917,39.947917],[107.527083,39.947917],[107.53125,39.952083],[107.547917,39.952083],[107.55625,39.960417],[107.55625,39.964583],[107.572917,39.98125],[107.577083,39.98125],[107.58125,39.985417],[107.585417,39.985417],[107.59375,39.99375],[107.59375,39.997917],[107.597917,40.002083],[107.602083,40.002083]]]}},{"type":"Feature","id":"riveratlas-40354215","bbox":[107.59374999999923,39.92708333333268,107.60624999999929,40.0020833333327],"properties":{"id":"riveratlas-40354215","order":3,"discharge":0.1379999965429306},"geometry":{"type":"MultiLineString","coordinates":[[[107.59375,39.927083],[107.597917,39.93125],[107.597917,39.935417],[107.59375,39.939583],[107.602083,39.947917],[107.602083,39.95625],[107.597917,39.960417],[107.597917,39.964583],[107.602083,39.96875],[107.602083,39.972917],[107.60625,39.977083],[107.602083,39.98125],[107.602083,39.985417],[107.597917,39.989583],[107.597917,39.99375],[107.602083,39.997917],[107.602083,40.002083]]]}}]}
