{"type":"FeatureCollection","features":[{"type":"Feature","id":"riveratlas-40352092","bbox":[63.37708333333322,39.99791666666605,63.38958333333328,40.027083333332705],"properties":{"id":"riveratlas-40352092","order":3,"discharge":0},"geometry":{"type":"MultiLineString","coordinates":[[[63.389583,40.027083],[63.385417,40.022917],[63.385417,40.01875],[63.377083,40.010417],[63.377083,39.997917]]]}},{"type":"Feature","id":"riveratlas-40352221","bbox":[63.302083333333286,39.99374999999939,63.377083333333225,40.010416666666025],"properties":{"id":"riveratlas-40352221","order":3,"discharge":0},"geometry":{"type":"MultiLineString","coordinates":[[[63.377083,39.997917],[63.372917,39.99375],[63.364583,39.99375],[63.360417,39.997917],[63.35625,39.997917],[63.352083,39.99375],[63.34375,39.99375],[63.339583,39.997917],[63.322917,39.997917],[63.310417,40.010417],[63.302083,40.010417]]]}},{"type":"Feature","id":"riveratlas-40352338","bbox":[62.96041666666662,39.98958333333268,62.985416666666566,40.0020833333327],"properties":{"id":"riveratlas-40352338","order":4,"discharge":0.0989999994635582},"geometry":{"type":"MultiLineString","coordinates":[[[62.985417,39.989583],[62.98125,39.989583],[62.977083,39.99375],[62.972917,39.99375],[62.96875,39.997917],[62.964583,39.997917],[62.960417,40.002083]]]}},{"type":"Feature","id":"riveratlas-40352443","bbox":[62.13958333333329,39.98541666666603,62.14374999999995,40.0312499999994],"properties":{"id":"riveratlas-40352443","order":3,"discharge":0.08100000023841858},"geometry":{"type":"MultiLineString","coordinates":[[[62.139583,39.985417],[62.139583,40.002083],[62.14375,40.00625],[62.14375,40.014583],[62.139583,40.01875],[62.139583,40.03125]]]}},{"type":"Feature","id":"riveratlas-40352449","bbox":[64.77708333333322,39.98541666666603,64.79791666666651,40.01458333333269],"properties":{"id":"riveratlas-40352449","order":3,"discharge":0.03700000047683716},"geometry":{"type":"MultiLineString","coordinates":[[[64.797917,40.014583],[64.777083,39.99375],[64.777083,39.985417]]]}},{"type":"Feature","id":"riveratlas-40352829","bbox":[64.60208333333324,39.97291666666606,64.68958333333323,40.01458333333269],"properties":{"id":"riveratlas-40352829","order":6,"discharge":150.9149932861328},"geometry":{"type":"MultiLineString","coordinates":[[[64.689583,40.014583],[64.685417,40.014583],[64.68125,40.010417],[64.677083,40.010417],[64.672917,40.00625],[64.672917,40.002083],[64.664583,39.99375],[64.652083,39.99375],[64.64375,39.985417],[64.639583,39.985417],[64.63125,39.977083],[64.61875,39.977083],[64.614583,39.972917],[64.602083,39.972917]]]}},{"type":"Feature","id":"riveratlas-40353437","bbox":[62.43541666666664,39.952083333332716,62.48541666666662,40.01041666666602],"properties":{"id":"riveratlas-40353437","order":8,"discharge":1979.0419921875},"geometry":{"type":"MultiLineString","coordinates":[[[62.485417,39.952083],[62.472917,39.952083],[62.464583,39.960417],[62.460417,39.960417],[62.439583,39.98125],[62.439583,39.985417],[62.435417,39.989583],[62.435417,40.010417]]]}},{"type":"Feature","id":"riveratlas-40354026","bbox":[61.8770833333333,39.931249999999345,61.906249999999915,40.20624999999935],"properties":{"id":"riveratlas-40354026","order":3,"discharge":0.032999999821186066},"geometry":{"type":"MultiLineString","coordinates":[[[61.902083,39.93125],[61.902083,39.972917],[61.889583,39.985417],[61.889583,39.99375],[61.897917,40.002083],[61.897917,40.022917],[61.89375,40.027083],[61.89375,40.03125],[61.897917,40.035417],[61.885417,40.047917],[61.889583,40.052083],[61.885417,40.05625],[61.885417,40.060417],[61.89375,40.06875],[61.89375,40.077083],[61.897917,40.08125],[61.897917,40.097917],[61.889583,40.10625],[61.88125,40.10625],[61.877083,40.110417],[61.877083,40.11875],[61.88125,40.122917],[61.88125,40.139583],[61.885417,40.14375],[61.885417,40.147917],[61.902083,40.164583],[61.902083,40.189583],[61.90625,40.19375],[61.90625,40.20625]]]}},{"type":"Feature","id":"riveratlas-40356332","bbox":[61.79791666666662,39.85208333333271,61.82291666666657,40.14791666666605],"properties":{"id":"riveratlas-40356332","order":3,"discharge":0.0689999982714653},"geometry":{"type":"MultiLineString","coordinates":[[[61.810417,39.852083],[61.814583,39.85625],[61.814583,39.889583],[61.822917,39.897917],[61.822917,39.902083],[61.81875,39.90625],[61.81875,39.91875],[61.814583,39.922917],[61.814583,39.947917],[61.810417,39.952083],[61.814583,39.95625],[61.814583,39.964583],[61.810417,39.96875],[61.814583,39.972917],[61.814583,39.98125],[61.80625,39.989583],[61.810417,39.99375],[61.810417,40.010417],[61.80625,40.014583],[61.80625,40.039583],[61.810417,40.04375],[61.810417,40.05625],[61.80625,40.060417],[61.80625,40.08125],[61.797917,40.089583],[61.802083,40.09375],[61.797917,40.097917],[61.802083,40.102083],[61.80625,40.102083],[61.810417,40.10625],[61.810417,40.11875],[61.814583,40.122917],[61.810417,40.127083],[61.810417,40.14375],[61.814583,40.147917]]]}},{"type":"Feature","id":"riveratlas-20614518","bbox":[60.97708333333196,39.99791666666625,61.002083333331996,40.07708333333289],"properties":{"id":"riveratlas-20614518","order":4,"discharge":0},"geometry":{"type":"MultiLineString","coordinates":[[[61.002083,39.997917],[60.997917,40.002083],[60.997917,40.01875],[60.99375,40.022917],[60.99375,40.035417],[60.977083,40.052083],[60.977083,40.064583],[60.989583,40.077083]]]}},{"type":"Feature","id":"riveratlas-20614519","bbox":[61.38124999999869,39.99791666666625,61.47291666666534,40.17291666666624],"properties":{"id":"riveratlas-20614519","order":3,"discharge":0.039000000804662704},"geometry":{"type":"MultiLineString","coordinates":[[[61.397917,39.997917],[61.39375,40.002083],[61.39375,40.010417],[61.389583,40.014583],[61.389583,40.035417],[61.385417,40.039583],[61.385417,40.04375],[61.38125,40.047917],[61.38125,40.052083],[61.385417,40.05625],[61.385417,40.064583],[61.389583,40.06875],[61.389583,40.072917],[61.39375,40.077083],[61.39375,40.08125],[61.397917,40.085417],[61.397917,40.09375],[61.402083,40.097917],[61.402083,40.11875],[61.40625,40.122917],[61.40625,40.14375],[61.41875,40.15625],[61.422917,40.15625],[61.43125,40.147917],[61.439583,40.147917],[61.447917,40.15625],[61.452083,40.15625],[61.460417,40.164583],[61.464583,40.164583],[61.472917,40.172917]]]}},{"type":"Feature","id":"riveratlas-20614961","bbox":[60.57708333333201,39.97708333333292,60.61458333333202,40.05624999999956],"properties":{"id":"riveratlas-20614961","order":3,"discharge":0},"geometry":{"type":"MultiLineString","coordinates":[[[60.614583,39.977083],[60.610417,39.98125],[60.610417,40.002083],[60.60625,40.00625],[60.602083,40.00625],[60.597917,40.010417],[60.597917,40.01875],[60.59375,40.022917],[60.59375,40.027083],[60.589583,40.03125],[60.589583,40.035417],[60.585417,40.039583],[60.585417,40.04375],[60.58125,40.047917],[60.58125,40.052083],[60.577083,40.05625]]]}},{"type":"Feature","id":"riveratlas-20615056","bbox":[61.577083333331956,39.972916666666215,61.585416666665274,40.07291666666623],"properties":{"id":"riveratlas-20615056","order":3,"discharge":0.03999999910593033},"geometry":{"type":"MultiLineString","coordinates":[[[61.58125,39.972917],[61.58125,39.99375],[61.585417,39.997917],[61.585417,40.002083],[61.58125,40.00625],[61.58125,40.014583],[61.585417,40.01875],[61.585417,40.052083],[61.577083,40.060417],[61.577083,40.072917]]]}},{"type":"Feature","id":"riveratlas-20616760","bbox":[61.67708333333195,39.89374999999958,61.714583333332044,40.002083333332905],"properties":{"id":"riveratlas-20616760","order":3,"discharge":0.017999999225139618},"geometry":{"type":"MultiLineString","coordinates":[[[61.685417,39.89375],[61.689583,39.897917],[61.689583,39.914583],[61.69375,39.91875],[61.69375,39.922917],[61.70625,39.935417],[61.70625,39.939583],[61.710417,39.94375],[61.710417,39.95625],[61.714583,39.960417],[61.714583,39.964583],[61.70625,39.972917],[61.70625,39.98125],[61.689583,39.997917],[61.685417,39.99375],[61.677083,40.002083]]]}}]}
