{"type":"FeatureCollection","features":[{"type":"Feature","id":"riveratlas-40352097","bbox":[66.98958333333323,39.99791666666605,67.0020833333332,40.00624999999937],"properties":{"id":"riveratlas-40352097","order":4,"discharge":0.7450000047683716},"geometry":{"type":"MultiLineString","coordinates":[[[67.002083,40.00625],[66.997917,40.00625],[66.989583,39.997917]]]}},{"type":"Feature","id":"riveratlas-40352101","bbox":[68.8895833333332,39.99791666666605,68.90208333333314,40.01458333333269],"properties":{"id":"riveratlas-40352101","order":4,"discharge":0},"geometry":{"type":"MultiLineString","coordinates":[[[68.902083,39.997917],[68.902083,40.002083],[68.889583,40.014583]]]}},{"type":"Feature","id":"riveratlas-40352339","bbox":[66.02291666666653,39.98958333333268,66.05624999999988,40.0020833333327],"properties":{"id":"riveratlas-40352339","order":5,"discharge":149.37399291992188},"geometry":{"type":"MultiLineString","coordinates":[[[66.05625,39.989583],[66.052083,39.99375],[66.04375,39.99375],[66.035417,40.002083],[66.022917,40.002083]]]}},{"type":"Feature","id":"riveratlas-40352340","bbox":[66.41458333333318,39.98958333333268,66.42708333333316,40.0020833333327],"properties":{"id":"riveratlas-40352340","order":5,"discharge":4.429999828338623},"geometry":{"type":"MultiLineString","coordinates":[[[66.427083,39.989583],[66.414583,40.002083]]]}},{"type":"Feature","id":"riveratlas-40352342","bbox":[66.54374999999985,39.98958333333268,66.68541666666648,40.09374999999935],"properties":{"id":"riveratlas-40352342","order":4,"discharge":0.49000000953674316},"geometry":{"type":"MultiLineString","coordinates":[[[66.685417,40.09375],[66.68125,40.09375],[66.677083,40.089583],[66.66875,40.089583],[66.647917,40.06875],[66.64375,40.06875],[66.63125,40.05625],[66.627083,40.05625],[66.622917,40.052083],[66.61875,40.052083],[66.614583,40.047917],[66.610417,40.047917],[66.602083,40.039583],[66.597917,40.039583],[66.589583,40.03125],[66.577083,40.03125],[66.55625,40.010417],[66.55625,40.00625],[66.552083,40.002083],[66.547917,40.002083],[66.54375,39.997917],[66.547917,39.99375],[66.547917,39.989583],[66.54375,39.989583]]]}},{"type":"Feature","id":"riveratlas-40352343","bbox":[66.94374999999991,39.98958333333268,66.98958333333323,40.0020833333327],"properties":{"id":"riveratlas-40352343","order":4,"discharge":0.800000011920929},"geometry":{"type":"MultiLineString","coordinates":[[[66.989583,39.997917],[66.985417,40.002083],[66.98125,39.997917],[66.977083,39.997917],[66.972917,39.99375],[66.964583,39.99375],[66.960417,39.989583],[66.95625,39.99375],[66.952083,39.99375],[66.947917,39.989583],[66.94375,39.989583]]]}},{"type":"Feature","id":"riveratlas-40352458","bbox":[69.81041666666655,39.98541666666603,69.85208333333314,40.0312499999994],"properties":{"id":"riveratlas-40352458","order":4,"discharge":6.4070000648498535},"geometry":{"type":"MultiLineString","coordinates":[[[69.852083,39.985417],[69.852083,39.99375],[69.847917,39.997917],[69.847917,40.002083],[69.84375,40.00625],[69.84375,40.010417],[69.83125,40.022917],[69.827083,40.022917],[69.822917,40.027083],[69.814583,40.027083],[69.810417,40.03125]]]}},{"type":"Feature","id":"riveratlas-40352712","bbox":[66.4812499999999,39.97708333333271,66.51874999999983,40.03541666666605],"properties":{"id":"riveratlas-40352712","order":3,"discharge":0.20399999618530273},"geometry":{"type":"MultiLineString","coordinates":[[[66.51875,40.035417],[66.514583,40.035417],[66.510417,40.03125],[66.50625,40.03125],[66.497917,40.022917],[66.497917,40.01875],[66.49375,40.014583],[66.49375,40.010417],[66.485417,40.002083],[66.485417,39.989583],[66.48125,39.985417],[66.48125,39.977083]]]}},{"type":"Feature","id":"riveratlas-40352716","bbox":[67.5145833333332,39.97708333333271,67.56874999999994,40.022916666666035],"properties":{"id":"riveratlas-40352716","order":3,"discharge":0.13899999856948853},"geometry":{"type":"MultiLineString","coordinates":[[[67.514583,39.977083],[67.514583,39.98125],[67.51875,39.985417],[67.51875,39.989583],[67.522917,39.99375],[67.527083,39.99375],[67.53125,39.997917],[67.547917,39.997917],[67.552083,40.002083],[67.560417,40.002083],[67.560417,40.010417],[67.564583,40.014583],[67.564583,40.01875],[67.56875,40.022917]]]}},{"type":"Feature","id":"riveratlas-40352959","bbox":[67.57708333333315,39.968749999999396,67.60208333333318,40.002083333332706],"properties":{"id":"riveratlas-40352959","order":4,"discharge":2.135999917984009},"geometry":{"type":"MultiLineString","coordinates":[[[67.577083,39.96875],[67.585417,39.977083],[67.585417,39.98125],[67.597917,39.99375],[67.597917,39.997917],[67.602083,40.002083]]]}},{"type":"Feature","id":"riveratlas-40353077","bbox":[65.71041666666656,39.96458333333269,65.71874999999987,40.02708333333269],"properties":{"id":"riveratlas-40353077","order":3,"discharge":0},"geometry":{"type":"MultiLineString","coordinates":[[[65.71875,39.964583],[65.71875,39.96875],[65.714583,39.972917],[65.714583,40.022917],[65.710417,40.027083]]]}},{"type":"Feature","id":"riveratlas-40353088","bbox":[68.13541666666649,39.96458333333269,68.25208333333318,40.06874999999936],"properties":{"id":"riveratlas-40353088","order":3,"discharge":0.3330000042915344},"geometry":{"type":"MultiLineString","coordinates":[[[68.239583,39.964583],[68.239583,39.96875],[68.24375,39.972917],[68.24375,39.98125],[68.252083,39.989583],[68.252083,40.00625],[68.24375,40.014583],[68.24375,40.01875],[68.235417,40.027083],[68.235417,40.03125],[68.227083,40.03125],[68.222917,40.035417],[68.21875,40.03125],[68.210417,40.03125],[68.197917,40.04375],[68.197917,40.047917],[68.19375,40.052083],[68.172917,40.052083],[68.16875,40.05625],[68.160417,40.05625],[68.15625,40.060417],[68.152083,40.060417],[68.147917,40.064583],[68.14375,40.064583],[68.139583,40.06875],[68.135417,40.06875]]]}},{"type":"Feature","id":"riveratlas-40353092","bbox":[69.41458333333324,39.96458333333269,69.48541666666644,40.210416666666],"properties":{"id":"riveratlas-40353092","order":4,"discharge":1.5880000591278076},"geometry":{"type":"MultiLineString","coordinates":[[[69.485417,39.964583],[69.485417,39.96875],[69.48125,39.972917],[69.477083,39.972917],[69.472917,39.977083],[69.472917,40.01875],[69.464583,40.027083],[69.464583,40.035417],[69.460417,40.039583],[69.460417,40.04375],[69.45625,40.047917],[69.45625,40.060417],[69.452083,40.064583],[69.452083,40.072917],[69.439583,40.085417],[69.439583,40.089583],[69.435417,40.09375],[69.435417,40.097917],[69.43125,40.102083],[69.43125,40.11875],[69.427083,40.122917],[69.427083,40.164583],[69.43125,40.16875],[69.43125,40.185417],[69.427083,40.189583],[69.427083,40.202083],[69.41875,40.210417],[69.414583,40.210417]]]}},{"type":"Feature","id":"riveratlas-40353320","bbox":[65.94374999999985,39.95624999999938,65.9479166666666,40.01458333333268],"properties":{"id":"riveratlas-40353320","order":3,"discharge":0},"geometry":{"type":"MultiLineString","coordinates":[[[65.947917,39.95625],[65.947917,39.960417],[65.94375,39.964583],[65.947917,39.96875],[65.947917,39.985417],[65.94375,39.989583],[65.94375,40.00625],[65.947917,40.010417],[65.947917,40.014583]]]}},{"type":"Feature","id":"riveratlas-40353545","bbox":[69.31041666666661,39.94791666666601,69.37291666666648,40.189583333332706],"properties":{"id":"riveratlas-40353545","order":4,"discharge":5.803999900817871},"geometry":{"type":"MultiLineString","coordinates":[[[69.372917,39.947917],[69.36875,39.952083],[69.36875,39.96875],[69.364583,39.972917],[69.364583,39.997917],[69.360417,40.002083],[69.360417,40.00625],[69.335417,40.03125],[69.335417,40.035417],[69.314583,40.05625],[69.314583,40.064583],[69.310417,40.06875],[69.314583,40.072917],[69.314583,40.077083],[69.31875,40.08125],[69.31875,40.085417],[69.322917,40.089583],[69.322917,40.09375],[69.327083,40.097917],[69.327083,40.11875],[69.33125,40.122917],[69.33125,40.139583],[69.347917,40.15625],[69.339583,40.164583],[69.339583,40.18125],[69.33125,40.189583],[69.327083,40.189583]]]}},{"type":"Feature","id":"riveratlas-40353790","bbox":[68.8895833333332,39.9395833333327,68.99791666666654,40.24374999999935],"properties":{"id":"riveratlas-40353790","order":3,"discharge":0.7179999947547913},"geometry":{"type":"MultiLineString","coordinates":[[[68.997917,39.939583],[68.997917,39.95625],[68.99375,39.960417],[68.99375,39.964583],[68.989583,39.96875],[68.989583,39.99375],[68.985417,39.997917],[68.985417,40.00625],[68.98125,40.010417],[68.98125,40.022917],[68.972917,40.03125],[68.972917,40.04375],[68.96875,40.047917],[68.96875,40.06875],[68.972917,40.072917],[68.972917,40.077083],[68.960417,40.089583],[68.95625,40.089583],[68.947917,40.097917],[68.947917,40.102083],[68.939583,40.110417],[68.939583,40.114583],[68.935417,40.11875],[68.935417,40.127083],[68.93125,40.13125],[68.93125,40.135417],[68.927083,40.139583],[68.93125,40.14375],[68.927083,40.147917],[68.927083,40.160417],[68.922917,40.164583],[68.922917,40.177083],[68.91875,40.18125],[68.91875,40.189583],[68.914583,40.19375],[68.914583,40.202083],[68.910417,40.20625],[68.910417,40.210417],[68.90625,40.214583],[68.90625,40.227083],[68.889583,40.24375]]]}},{"type":"Feature","id":"riveratlas-40354729","bbox":[69.12708333333316,39.906249999999396,69.18958333333312,40.05624999999935],"properties":{"id":"riveratlas-40354729","order":3,"discharge":3.933000087738037},"geometry":{"type":"MultiLineString","coordinates":[[[69.14375,39.90625],[69.14375,39.910417],[69.147917,39.914583],[69.147917,39.935417],[69.14375,39.939583],[69.14375,39.952083],[69.139583,39.95625],[69.139583,39.964583],[69.13125,39.972917],[69.13125,39.977083],[69.127083,39.98125],[69.127083,39.989583],[69.135417,39.997917],[69.135417,40.01875],[69.139583,40.022917],[69.139583,40.03125],[69.147917,40.039583],[69.15625,40.039583],[69.164583,40.047917],[69.164583,40.052083],[69.16875,40.05625],[69.189583,40.05625]]]}},{"type":"Feature","id":"riveratlas-40356095","bbox":[68.37708333333327,39.86041666666602,68.4354166666665,40.06874999999936],"properties":{"id":"riveratlas-40356095","order":4,"discharge":0},"geometry":{"type":"MultiLineString","coordinates":[[[68.377083,39.860417],[68.377083,39.885417],[68.38125,39.889583],[68.38125,39.897917],[68.385417,39.902083],[68.385417,39.90625],[68.389583,39.910417],[68.389583,39.914583],[68.39375,39.91875],[68.389583,39.922917],[68.389583,39.952083],[68.39375,39.95625],[68.39375,39.960417],[68.397917,39.964583],[68.397917,39.977083],[68.414583,39.99375],[68.414583,40.002083],[68.41875,40.00625],[68.41875,40.010417],[68.422917,40.014583],[68.422917,40.01875],[68.427083,40.022917],[68.427083,40.027083],[68.43125,40.03125],[68.43125,40.052083],[68.435417,40.05625],[68.435417,40.06875]]]}}]}
