{"type":"FeatureCollection","features":[{"type":"Feature","id":"riveratlas-40352106","bbox":[71.11458333333317,39.99791666666605,71.11458333333317,40.002083333332706],"properties":{"id":"riveratlas-40352106","order":4,"discharge":18.610000610351562},"geometry":{"type":"MultiLineString","coordinates":[[[71.114583,39.997917],[71.114583,40.002083]]]}},{"type":"Feature","id":"riveratlas-40352109","bbox":[71.73541666666645,39.99791666666605,71.80208333333316,40.052083333332696],"properties":{"id":"riveratlas-40352109","order":3,"discharge":2.046999931335449},"geometry":{"type":"MultiLineString","coordinates":[[[71.802083,39.997917],[71.777083,40.022917],[71.76875,40.022917],[71.764583,40.027083],[71.760417,40.027083],[71.75625,40.03125],[71.752083,40.03125],[71.735417,40.047917],[71.735417,40.052083]]]}},{"type":"Feature","id":"riveratlas-40352229","bbox":[70.58541666666648,39.99374999999939,70.60624999999985,40.00624999999936],"properties":{"id":"riveratlas-40352229","order":4,"discharge":5.261000156402588},"geometry":{"type":"MultiLineString","coordinates":[[[70.585417,39.99375],[70.59375,40.002083],[70.597917,40.002083],[70.602083,40.00625],[70.60625,40.00625]]]}},{"type":"Feature","id":"riveratlas-40352231","bbox":[72.97291666666646,39.99374999999939,72.98124999999978,40.00624999999936],"properties":{"id":"riveratlas-40352231","order":4,"discharge":4.291999816894531},"geometry":{"type":"MultiLineString","coordinates":[[[72.98125,39.99375],[72.972917,40.002083],[72.972917,40.00625]]]}},{"type":"Feature","id":"riveratlas-40352233","bbox":[73.48958333333312,39.99374999999939,73.48958333333312,40.00624999999936],"properties":{"id":"riveratlas-40352233","order":3,"discharge":5.761000156402588},"geometry":{"type":"MultiLineString","coordinates":[[[73.489583,39.99375],[73.489583,40.00625]]]}},{"type":"Feature","id":"riveratlas-40352463","bbox":[72.88541666666654,39.98541666666603,72.91874999999973,40.02291666666604],"properties":{"id":"riveratlas-40352463","order":3,"discharge":4.681000232696533},"geometry":{"type":"MultiLineString","coordinates":[[[72.885417,39.985417],[72.91875,40.01875],[72.91875,40.022917]]]}},{"type":"Feature","id":"riveratlas-40352723","bbox":[72.08958333333308,39.97708333333271,72.10624999999972,40.01458333333267],"properties":{"id":"riveratlas-40352723","order":4,"discharge":13.706000328063965},"geometry":{"type":"MultiLineString","coordinates":[[[72.10625,39.977083],[72.09375,39.989583],[72.09375,40.010417],[72.089583,40.014583]]]}},{"type":"Feature","id":"riveratlas-40352969","bbox":[74.46874999999969,39.968749999999396,74.52708333333307,40.010416666666025],"properties":{"id":"riveratlas-40352969","order":4,"discharge":4.951000213623047},"geometry":{"type":"MultiLineString","coordinates":[[[74.527083,40.010417],[74.50625,40.010417],[74.489583,39.99375],[74.489583,39.989583],[74.46875,39.96875]]]}},{"type":"Feature","id":"riveratlas-40353095","bbox":[70.61041666666651,39.96458333333269,70.6895833333331,40.0020833333327],"properties":{"id":"riveratlas-40353095","order":3,"discharge":0.29100000858306885},"geometry":{"type":"MultiLineString","coordinates":[[[70.689583,39.964583],[70.685417,39.964583],[70.68125,39.96875],[70.664583,39.96875],[70.660417,39.972917],[70.652083,39.972917],[70.647917,39.977083],[70.64375,39.977083],[70.635417,39.985417],[70.627083,39.985417],[70.610417,40.002083]]]}},{"type":"Feature","id":"riveratlas-40353550","bbox":[70.90208333333308,39.94791666666601,70.93124999999978,40.02708333333269],"properties":{"id":"riveratlas-40353550","order":3,"discharge":0.5400000214576721},"geometry":{"type":"MultiLineString","coordinates":[[[70.927083,39.947917],[70.927083,39.96875],[70.93125,39.972917],[70.927083,39.977083],[70.927083,39.985417],[70.922917,39.989583],[70.922917,39.99375],[70.914583,40.002083],[70.914583,40.00625],[70.910417,40.010417],[70.910417,40.014583],[70.902083,40.022917],[70.902083,40.027083]]]}}]}
