{"type":"FeatureCollection","features":[{"type":"Feature","id":"riveratlas-40352122","bbox":[78.82708333333304,39.99791666666605,78.864583333333,40.03541666666606],"properties":{"id":"riveratlas-40352122","order":3,"discharge":0},"geometry":{"type":"MultiLineString","coordinates":[[[78.827083,40.035417],[78.835417,40.027083],[78.839583,40.027083],[78.852083,40.014583],[78.85625,40.014583],[78.864583,40.00625],[78.864583,40.002083],[78.860417,39.997917]]]}},{"type":"Feature","id":"riveratlas-40352239","bbox":[76.13124999999971,39.99374999999939,76.15208333333308,40.01458333333268],"properties":{"id":"riveratlas-40352239","order":3,"discharge":0.27399998903274536},"geometry":{"type":"MultiLineString","coordinates":[[[76.152083,40.014583],[76.13125,39.99375]]]}},{"type":"Feature","id":"riveratlas-40352245","bbox":[79.864583333333,39.99374999999939,79.90624999999976,40.00624999999936],"properties":{"id":"riveratlas-40352245","order":7,"discharge":105.75499725341797},"geometry":{"type":"MultiLineString","coordinates":[[[79.864583,39.99375],[79.877083,40.00625],[79.885417,40.00625],[79.889583,40.002083],[79.90625,40.002083]]]}},{"type":"Feature","id":"riveratlas-40352469","bbox":[76.63541666666632,39.98541666666603,76.68541666666638,40.05624999999935],"properties":{"id":"riveratlas-40352469","order":3,"discharge":0.0430000014603138},"geometry":{"type":"MultiLineString","coordinates":[[[76.635417,40.05625],[76.635417,40.052083],[76.639583,40.047917],[76.639583,40.04375],[76.64375,40.039583],[76.64375,40.022917],[76.647917,40.01875],[76.647917,40.010417],[76.664583,39.99375],[76.68125,39.99375],[76.685417,39.989583],[76.685417,39.985417]]]}},{"type":"Feature","id":"riveratlas-40352473","bbox":[79.27708333333297,39.98541666666603,79.43958333333299,40.04791666666603],"properties":{"id":"riveratlas-40352473","order":4,"discharge":0.01600000075995922},"geometry":{"type":"MultiLineString","coordinates":[[[79.277083,39.985417],[79.289583,39.985417],[79.29375,39.989583],[79.297917,39.989583],[79.310417,40.002083],[79.352083,40.002083],[79.35625,40.00625],[79.360417,40.00625],[79.36875,40.014583],[79.372917,40.014583],[79.38125,40.022917],[79.385417,40.022917],[79.397917,40.035417],[79.402083,40.035417],[79.40625,40.039583],[79.43125,40.039583],[79.439583,40.047917]]]}},{"type":"Feature","id":"riveratlas-40352474","bbox":[79.90624999999974,39.98541666666603,79.91874999999963,40.002083333332706],"properties":{"id":"riveratlas-40352474","order":3,"discharge":0.027000000700354576},"geometry":{"type":"MultiLineString","coordinates":[[[79.91875,39.985417],[79.914583,39.989583],[79.914583,39.99375],[79.90625,40.002083]]]}},{"type":"Feature","id":"riveratlas-40352589","bbox":[75.99791666666638,39.98124999999937,76.08124999999968,40.135416666666025],"properties":{"id":"riveratlas-40352589","order":3,"discharge":0.37599998712539673},"geometry":{"type":"MultiLineString","coordinates":[[[75.997917,40.135417],[75.997917,40.13125],[76.010417,40.11875],[76.014583,40.11875],[76.047917,40.085417],[76.047917,40.08125],[76.052083,40.077083],[76.052083,40.072917],[76.05625,40.06875],[76.05625,40.052083],[76.060417,40.047917],[76.060417,40.035417],[76.064583,40.03125],[76.064583,40.027083],[76.072917,40.01875],[76.072917,39.99375],[76.077083,39.989583],[76.077083,39.985417],[76.08125,39.98125]]]}},{"type":"Feature","id":"riveratlas-40352976","bbox":[77.68958333333299,39.968749999999396,77.77708333333298,40.039583333332715],"properties":{"id":"riveratlas-40352976","order":3,"discharge":0},"geometry":{"type":"MultiLineString","coordinates":[[[77.689583,39.96875],[77.702083,39.96875],[77.714583,39.98125],[77.71875,39.98125],[77.722917,39.985417],[77.73125,39.985417],[77.735417,39.989583],[77.739583,39.989583],[77.76875,40.01875],[77.76875,40.027083],[77.777083,40.035417],[77.772917,40.039583]]]}},{"type":"Feature","id":"riveratlas-40353103","bbox":[75.10624999999979,39.96458333333269,75.13541666666636,40.00624999999936],"properties":{"id":"riveratlas-40353103","order":3,"discharge":0.9950000047683716},"geometry":{"type":"MultiLineString","coordinates":[[[75.10625,40.00625],[75.10625,39.997917],[75.110417,39.99375],[75.114583,39.99375],[75.127083,39.98125],[75.127083,39.977083],[75.13125,39.972917],[75.13125,39.96875],[75.135417,39.964583]]]}},{"type":"Feature","id":"riveratlas-40353224","bbox":[75.5020833333331,39.96041666666604,75.52291666666648,40.00208333333271],"properties":{"id":"riveratlas-40353224","order":4,"discharge":5.85099983215332},"geometry":{"type":"MultiLineString","coordinates":[[[75.502083,40.002083],[75.514583,39.989583],[75.514583,39.972917],[75.522917,39.964583],[75.522917,39.960417]]]}},{"type":"Feature","id":"riveratlas-40353344","bbox":[78.9729166666663,39.95624999999938,79.23541666666641,40.002083333332706],"properties":{"id":"riveratlas-40353344","order":3,"discharge":0},"geometry":{"type":"MultiLineString","coordinates":[[[78.972917,39.997917],[78.977083,39.997917],[78.98125,40.002083],[78.985417,40.002083],[78.99375,39.99375],[79.002083,39.99375],[79.01875,39.977083],[79.022917,39.977083],[79.027083,39.972917],[79.03125,39.972917],[79.035417,39.977083],[79.039583,39.972917],[79.047917,39.972917],[79.052083,39.977083],[79.06875,39.977083],[79.072917,39.98125],[79.08125,39.98125],[79.085417,39.985417],[79.110417,39.985417],[79.122917,39.972917],[79.13125,39.972917],[79.135417,39.96875],[79.139583,39.96875],[79.14375,39.964583],[79.15625,39.964583],[79.164583,39.95625],[79.16875,39.95625],[79.18125,39.96875],[79.185417,39.96875],[79.189583,39.964583],[79.19375,39.964583],[79.197917,39.96875],[79.20625,39.96875],[79.214583,39.977083],[79.21875,39.972917],[79.23125,39.972917],[79.235417,39.977083]]]}},{"type":"Feature","id":"riveratlas-40359745","bbox":[75.7812499999998,39.73958333333267,76.05624999999968,40.04374999999936],"properties":{"id":"riveratlas-40359745","order":3,"discharge":0.6959999799728394},"geometry":{"type":"MultiLineString","coordinates":[[[75.78125,40.04375],[75.78125,40.035417],[75.785417,40.03125],[75.789583,40.03125],[75.79375,40.027083],[75.797917,40.027083],[75.810417,40.014583],[75.810417,40.010417],[75.814583,40.00625],[75.81875,40.00625],[75.827083,39.997917],[75.83125,39.997917],[75.835417,39.99375],[75.839583,39.99375],[75.84375,39.989583],[75.85625,39.989583],[75.864583,39.98125],[75.864583,39.977083],[75.86875,39.972917],[75.86875,39.960417],[75.872917,39.95625],[75.872917,39.94375],[75.889583,39.927083],[75.89375,39.927083],[75.897917,39.922917],[75.902083,39.922917],[75.90625,39.91875],[75.90625,39.914583],[75.914583,39.90625],[75.91875,39.90625],[75.922917,39.902083],[75.935417,39.902083],[75.94375,39.89375],[75.94375,39.889583],[75.947917,39.885417],[75.947917,39.852083],[75.94375,39.847917],[75.985417,39.80625],[75.985417,39.802083],[75.99375,39.79375],[75.997917,39.79375],[76.002083,39.789583],[76.002083,39.785417],[76.00625,39.78125],[76.010417,39.78125],[76.04375,39.747917],[76.052083,39.747917],[76.05625,39.74375],[76.052083,39.739583]]]}}]}
