{"type":"FeatureCollection","features":[{"type":"Feature","id":"riveratlas-41314324","bbox":[79.98124999999968,14.84374999999978,80.01458333333302,14.852083333333097],"properties":{"id":"riveratlas-41314324","order":3,"discharge":1.3370000123977661},"geometry":{"type":"MultiLineString","coordinates":[[[79.98125,14.852083],[79.985417,14.847917],[80.00625,14.847917],[80.010417,14.84375],[80.014583,14.847917]]]}},{"type":"Feature","id":"riveratlas-41314688","bbox":[79.9604166666663,14.822916666666409,80.02708333333301,14.839583333333085],"properties":{"id":"riveratlas-41314688","order":3,"discharge":3.3440001010894775},"geometry":{"type":"MultiLineString","coordinates":[[[79.960417,14.827083],[79.96875,14.827083],[79.972917,14.83125],[79.972917,14.835417],[79.977083,14.839583],[79.98125,14.839583],[79.985417,14.835417],[79.997917,14.835417],[80.002083,14.83125],[80.002083,14.827083],[80.00625,14.822917],[80.027083,14.822917]]]}},{"type":"Feature","id":"riveratlas-41314689","bbox":[80.01458333333304,14.822916666666409,80.02708333333301,14.847916666666443],"properties":{"id":"riveratlas-41314689","order":3,"discharge":1.5700000524520874},"geometry":{"type":"MultiLineString","coordinates":[[[80.014583,14.847917],[80.01875,14.847917],[80.027083,14.839583],[80.027083,14.822917]]]}},{"type":"Feature","id":"riveratlas-41314838","bbox":[80.05624999999978,14.814583333333097,80.08958333333297,14.818749999999756],"properties":{"id":"riveratlas-41314838","order":4,"discharge":6.406000137329102},"geometry":{"type":"MultiLineString","coordinates":[[[80.05625,14.814583],[80.060417,14.81875],[80.089583,14.81875]]]}},{"type":"Feature","id":"riveratlas-41314925","bbox":[80.02708333333302,14.810416666666434,80.05624999999976,14.82291666666641],"properties":{"id":"riveratlas-41314925","order":4,"discharge":4.9720001220703125},"geometry":{"type":"MultiLineString","coordinates":[[[80.027083,14.822917],[80.035417,14.814583],[80.04375,14.814583],[80.047917,14.810417],[80.052083,14.814583],[80.05625,14.814583]]]}},{"type":"Feature","id":"riveratlas-41316097","bbox":[80.03958333333296,14.747916666666434,80.06041666666628,14.814583333333095],"properties":{"id":"riveratlas-41316097","order":3,"discharge":1.3940000534057617},"geometry":{"type":"MultiLineString","coordinates":[[[80.039583,14.747917],[80.047917,14.75625],[80.047917,14.772917],[80.052083,14.777083],[80.052083,14.785417],[80.047917,14.789583],[80.047917,14.79375],[80.060417,14.80625],[80.05625,14.810417],[80.05625,14.814583]]]}},{"type":"Feature","id":"riveratlas-41319352","bbox":[80.13958333333304,14.568749999999774,80.1437499999997,14.568749999999774],"properties":{"id":"riveratlas-41319352","order":6,"discharge":139.00599670410156},"geometry":{"type":"MultiLineString","coordinates":[[[80.139583,14.56875],[80.14375,14.56875]]]}},{"type":"Feature","id":"riveratlas-41319354","bbox":[80.1437499999997,14.568749999999774,80.16458333333307,14.568749999999774],"properties":{"id":"riveratlas-41319354","order":6,"discharge":138.9770050048828},"geometry":{"type":"MultiLineString","coordinates":[[[80.14375,14.56875],[80.164583,14.56875]]]}},{"type":"Feature","id":"riveratlas-41319806","bbox":[80.11874999999966,14.543749999999783,80.13958333333304,14.568749999999776],"properties":{"id":"riveratlas-41319806","order":6,"discharge":138.91799926757812},"geometry":{"type":"MultiLineString","coordinates":[[[80.11875,14.54375],[80.13125,14.55625],[80.13125,14.560417],[80.139583,14.56875]]]}},{"type":"Feature","id":"riveratlas-41319966","bbox":[80.10208333333296,14.535416666666428,80.11874999999968,14.543749999999788],"properties":{"id":"riveratlas-41319966","order":6,"discharge":138.97799682617188},"geometry":{"type":"MultiLineString","coordinates":[[[80.102083,14.535417],[80.10625,14.539583],[80.114583,14.539583],[80.11875,14.54375]]]}},{"type":"Feature","id":"riveratlas-41320036","bbox":[80.06041666666627,14.531249999999766,80.10208333333294,14.539583333333125],"properties":{"id":"riveratlas-41320036","order":6,"discharge":138.95899963378906},"geometry":{"type":"MultiLineString","coordinates":[[[80.060417,14.53125],[80.072917,14.53125],[80.077083,14.535417],[80.085417,14.535417],[80.089583,14.539583],[80.09375,14.539583],[80.097917,14.535417],[80.102083,14.535417]]]}},{"type":"Feature","id":"riveratlas-41321051","bbox":[80.0187499999997,14.477083333333091,80.06041666666628,14.531249999999778],"properties":{"id":"riveratlas-41321051","order":6,"discharge":138.52000427246094},"geometry":{"type":"MultiLineString","coordinates":[[[80.01875,14.477083],[80.022917,14.48125],[80.027083,14.48125],[80.052083,14.50625],[80.047917,14.510417],[80.047917,14.514583],[80.052083,14.51875],[80.052083,14.522917],[80.060417,14.53125]]]}},{"type":"Feature","id":"riveratlas-41321127","bbox":[80.00624999999971,14.472916666666471,80.01874999999968,14.477083333333088],"properties":{"id":"riveratlas-41321127","order":6,"discharge":136.5919952392578},"geometry":{"type":"MultiLineString","coordinates":[[[80.00625,14.472917],[80.010417,14.477083],[80.01875,14.477083]]]}},{"type":"Feature","id":"riveratlas-41321225","bbox":[79.98541666666634,14.468749999999766,80.00624999999971,14.472916666666466],"properties":{"id":"riveratlas-41321225","order":6,"discharge":135.56900024414062},"geometry":{"type":"MultiLineString","coordinates":[[[79.985417,14.46875],[79.997917,14.46875],[80.002083,14.472917],[80.00625,14.472917]]]}},{"type":"Feature","id":"riveratlas-41325686","bbox":[80.08958333333297,14.235416666666431,80.12291666666631,14.252083333333108],"properties":{"id":"riveratlas-41325686","order":4,"discharge":32.0890007019043},"geometry":{"type":"MultiLineString","coordinates":[[[80.089583,14.235417],[80.097917,14.24375],[80.10625,14.24375],[80.114583,14.252083],[80.11875,14.247917],[80.122917,14.247917]]]}},{"type":"Feature","id":"riveratlas-41325973","bbox":[80.05208333333294,14.218749999999794,80.08958333333295,14.235416666666428],"properties":{"id":"riveratlas-41325973","order":4,"discharge":31.351999282836914},"geometry":{"type":"MultiLineString","coordinates":[[[80.052083,14.21875],[80.064583,14.23125],[80.06875,14.227083],[80.08125,14.227083],[80.089583,14.235417]]]}},{"type":"Feature","id":"riveratlas-41326395","bbox":[79.96874999999963,14.197916666666465,80.00208333333298,14.2187499999998],"properties":{"id":"riveratlas-41326395","order":3,"discharge":4.076000213623047},"geometry":{"type":"MultiLineString","coordinates":[[[79.96875,14.21875],[79.96875,14.214583],[79.972917,14.210417],[79.989583,14.210417],[80.002083,14.197917]]]}},{"type":"Feature","id":"riveratlas-41326396","bbox":[80.00208333333299,14.197916666666465,80.01458333333305,14.197916666666465],"properties":{"id":"riveratlas-41326396","order":3,"discharge":4.460999965667725},"geometry":{"type":"MultiLineString","coordinates":[[[80.002083,14.197917],[80.014583,14.197917]]]}},{"type":"Feature","id":"riveratlas-41326501","bbox":[80.01458333333304,14.19374999999976,80.0354166666664,14.19791666666646],"properties":{"id":"riveratlas-41326501","order":3,"discharge":4.735000133514404},"geometry":{"type":"MultiLineString","coordinates":[[[80.014583,14.197917],[80.01875,14.19375],[80.035417,14.19375]]]}},{"type":"Feature","id":"riveratlas-41326502","bbox":[80.0354166666664,14.19374999999976,80.05208333333296,14.218749999999794],"properties":{"id":"riveratlas-41326502","order":4,"discharge":28.61199951171875},"geometry":{"type":"MultiLineString","coordinates":[[[80.035417,14.19375],[80.039583,14.19375],[80.04375,14.197917],[80.04375,14.202083],[80.039583,14.20625],[80.04375,14.210417],[80.047917,14.210417],[80.052083,14.214583],[80.052083,14.21875]]]}},{"type":"Feature","id":"riveratlas-41327489","bbox":[79.9229166666664,14.143749999999777,80.03541666666642,14.193749999999762],"properties":{"id":"riveratlas-41327489","order":4,"discharge":23.402000427246094},"geometry":{"type":"MultiLineString","coordinates":[[[79.922917,14.14375],[79.947917,14.14375],[79.952083,14.147917],[79.95625,14.147917],[79.960417,14.152083],[79.96875,14.152083],[79.972917,14.15625],[80.002083,14.15625],[80.010417,14.164583],[80.010417,14.16875],[80.035417,14.19375]]]}},{"type":"Feature","id":"riveratlas-41329018","bbox":[80.114583333333,14.068749999999802,80.13541666666637,14.07708333333312],"properties":{"id":"riveratlas-41329018","order":4,"discharge":21.238000869750977},"geometry":{"type":"MultiLineString","coordinates":[[[80.114583,14.072917],[80.114583,14.077083],[80.11875,14.077083],[80.127083,14.06875],[80.135417,14.06875]]]}},{"type":"Feature","id":"riveratlas-41330402","bbox":[80.01041666666637,13.997916666666434,80.114583333333,14.072916666666455],"properties":{"id":"riveratlas-41330402","order":4,"discharge":18.735000610351562},"geometry":{"type":"MultiLineString","coordinates":[[[80.010417,14.00625],[80.014583,14.010417],[80.03125,14.010417],[80.04375,13.997917],[80.05625,13.997917],[80.060417,14.002083],[80.064583,14.002083],[80.072917,14.010417],[80.077083,14.010417],[80.08125,14.014583],[80.08125,14.01875],[80.09375,14.01875],[80.097917,14.022917],[80.097917,14.027083],[80.09375,14.03125],[80.102083,14.039583],[80.102083,14.04375],[80.097917,14.047917],[80.097917,14.052083],[80.10625,14.060417],[80.110417,14.060417],[80.114583,14.064583],[80.114583,14.072917]]]}},{"type":"Feature","id":"riveratlas-41330671","bbox":[79.9604166666663,13.98541666666646,80.01041666666637,14.006249999999794],"properties":{"id":"riveratlas-41330671","order":4,"discharge":17.100000381469727},"geometry":{"type":"MultiLineString","coordinates":[[[79.960417,13.985417],[79.964583,13.989583],[79.96875,13.989583],[79.972917,13.99375],[79.985417,13.99375],[79.989583,13.997917],[79.99375,13.997917],[79.997917,14.002083],[80.002083,14.002083],[80.00625,14.00625],[80.010417,14.00625]]]}},{"type":"Feature","id":"riveratlas-41334545","bbox":[80.06458333333299,13.793749999999797,80.06874999999961,13.81874999999979],"properties":{"id":"riveratlas-41334545","order":3,"discharge":2.055999994277954},"geometry":{"type":"MultiLineString","coordinates":[[[80.06875,13.81875],[80.06875,13.810417],[80.064583,13.80625],[80.064583,13.79375]]]}},{"type":"Feature","id":"riveratlas-41334714","bbox":[80.06458333333299,13.785416666666443,80.06458333333299,13.793749999999802],"properties":{"id":"riveratlas-41334714","order":3,"discharge":2.296999931335449},"geometry":{"type":"MultiLineString","coordinates":[[[80.064583,13.79375],[80.064583,13.785417]]]}},{"type":"Feature","id":"riveratlas-41335462","bbox":[80.06458333333299,13.743749999999771,80.06874999999961,13.785416666666439],"properties":{"id":"riveratlas-41335462","order":3,"discharge":2.6500000953674316},"geometry":{"type":"MultiLineString","coordinates":[[[80.064583,13.785417],[80.06875,13.78125],[80.06875,13.772917],[80.064583,13.76875],[80.064583,13.760417],[80.06875,13.75625],[80.06875,13.74375]]]}},{"type":"Feature","id":"riveratlas-41335594","bbox":[80.0687499999996,13.735416666666445,80.08124999999966,13.743749999999762],"properties":{"id":"riveratlas-41335594","order":3,"discharge":2.8410000801086426},"geometry":{"type":"MultiLineString","coordinates":[[[80.06875,13.74375],[80.072917,13.739583],[80.077083,13.739583],[80.08125,13.735417]]]}},{"type":"Feature","id":"riveratlas-41335595","bbox":[80.08124999999964,13.735416666666445,80.11458333333299,13.739583333333105],"properties":{"id":"riveratlas-41335595","order":3,"discharge":3.0250000953674316},"geometry":{"type":"MultiLineString","coordinates":[[[80.08125,13.735417],[80.10625,13.735417],[80.110417,13.739583],[80.114583,13.739583]]]}},{"type":"Feature","id":"riveratlas-41336267","bbox":[79.96874999999963,13.7020833333331,80.00208333333298,13.73541666666645],"properties":{"id":"riveratlas-41336267","order":3,"discharge":6.548999786376953},"geometry":{"type":"MultiLineString","coordinates":[[[79.96875,13.735417],[79.977083,13.727083],[79.985417,13.727083],[80.002083,13.710417],[80.002083,13.702083]]]}},{"type":"Feature","id":"riveratlas-41336600","bbox":[80.00208333333299,13.681249999999814,80.01458333333305,13.702083333333107],"properties":{"id":"riveratlas-41336600","order":4,"discharge":10.755000114440918},"geometry":{"type":"MultiLineString","coordinates":[[[80.002083,13.702083],[80.00625,13.702083],[80.00625,13.697917],[80.014583,13.689583],[80.014583,13.68125]]]}},{"type":"Feature","id":"riveratlas-41336850","bbox":[79.95624999999964,13.668749999999783,80.002083333333,13.702083333333093],"properties":{"id":"riveratlas-41336850","order":3,"discharge":4.385000228881836},"geometry":{"type":"MultiLineString","coordinates":[[[79.95625,13.66875],[79.960417,13.672917],[79.964583,13.672917],[79.972917,13.68125],[79.972917,13.685417],[79.989583,13.702083],[80.002083,13.702083]]]}},{"type":"Feature","id":"riveratlas-41336851","bbox":[80.09374999999963,13.668749999999783,80.11874999999966,13.739583333333103],"properties":{"id":"riveratlas-41336851","order":3,"discharge":3.6470000743865967},"geometry":{"type":"MultiLineString","coordinates":[[[80.114583,13.739583],[80.11875,13.735417],[80.11875,13.73125],[80.110417,13.722917],[80.110417,13.71875],[80.097917,13.70625],[80.097917,13.689583],[80.09375,13.685417],[80.09375,13.68125],[80.10625,13.66875]]]}},{"type":"Feature","id":"riveratlas-41337444","bbox":[80.01458333333304,13.635416666666437,80.04791666666638,13.681249999999807],"properties":{"id":"riveratlas-41337444","order":4,"discharge":10.663999557495117},"geometry":{"type":"MultiLineString","coordinates":[[[80.014583,13.68125],[80.03125,13.664583],[80.03125,13.652083],[80.047917,13.635417]]]}},{"type":"Feature","id":"riveratlas-41337530","bbox":[80.0479166666664,13.631249999999774,80.0729166666663,13.635416666666433],"properties":{"id":"riveratlas-41337530","order":4,"discharge":10.569000244140625},"geometry":{"type":"MultiLineString","coordinates":[[[80.047917,13.635417],[80.052083,13.63125],[80.072917,13.63125]]]}},{"type":"Feature","id":"riveratlas-41340279","bbox":[80.10208333333296,13.485416666666445,80.11458333333302,13.518749999999796],"properties":{"id":"riveratlas-41340279","order":3,"discharge":4.468999862670898},"geometry":{"type":"MultiLineString","coordinates":[[[80.102083,13.485417],[80.10625,13.489583],[80.10625,13.49375],[80.110417,13.497917],[80.110417,13.510417],[80.114583,13.514583],[80.114583,13.51875]]]}},{"type":"Feature","id":"riveratlas-41340523","bbox":[80.08958333333297,13.472916666666471,80.10208333333294,13.485416666666447],"properties":{"id":"riveratlas-41340523","order":3,"discharge":3.865999937057495},"geometry":{"type":"MultiLineString","coordinates":[[[80.089583,13.472917],[80.102083,13.485417]]]}},{"type":"Feature","id":"riveratlas-41340679","bbox":[80.06458333333299,13.464583333333103,80.08958333333298,13.472916666666462],"properties":{"id":"riveratlas-41340679","order":3,"discharge":3.2249999046325684},"geometry":{"type":"MultiLineString","coordinates":[[[80.064583,13.464583],[80.06875,13.46875],[80.085417,13.46875],[80.089583,13.472917]]]}},{"type":"Feature","id":"riveratlas-41341499","bbox":[80.29374999999973,13.418749999999783,80.2979166666664,13.427083333333142],"properties":{"id":"riveratlas-41341499","order":4,"discharge":12.86299991607666},"geometry":{"type":"MultiLineString","coordinates":[[[80.29375,13.41875],[80.29375,13.422917],[80.297917,13.427083]]]}},{"type":"Feature","id":"riveratlas-41342293","bbox":[80.25624999999965,13.372916666666448,80.29374999999975,13.418749999999775],"properties":{"id":"riveratlas-41342293","order":4,"discharge":12.609000205993652},"geometry":{"type":"MultiLineString","coordinates":[[[80.25625,13.372917],[80.25625,13.377083],[80.260417,13.38125],[80.260417,13.385417],[80.26875,13.39375],[80.26875,13.402083],[80.272917,13.40625],[80.28125,13.40625],[80.29375,13.41875]]]}},{"type":"Feature","id":"riveratlas-41343058","bbox":[80.0479166666664,13.331249999999777,80.18124999999972,13.35624999999977],"properties":{"id":"riveratlas-41343058","order":3,"discharge":9.831000328063965},"geometry":{"type":"MultiLineString","coordinates":[[[80.047917,13.339583],[80.077083,13.339583],[80.08125,13.34375],[80.08125,13.347917],[80.089583,13.35625],[80.10625,13.35625],[80.114583,13.347917],[80.11875,13.347917],[80.122917,13.34375],[80.127083,13.34375],[80.13125,13.339583],[80.135417,13.339583],[80.139583,13.335417],[80.14375,13.335417],[80.147917,13.339583],[80.152083,13.335417],[80.15625,13.335417],[80.160417,13.339583],[80.172917,13.339583],[80.18125,13.33125]]]}},{"type":"Feature","id":"riveratlas-41343059","bbox":[80.18124999999972,13.331249999999777,80.25624999999965,13.372916666666445],"properties":{"id":"riveratlas-41343059","order":4,"discharge":11.92300033569336},"geometry":{"type":"MultiLineString","coordinates":[[[80.18125,13.33125],[80.185417,13.33125],[80.197917,13.34375],[80.202083,13.34375],[80.20625,13.339583],[80.21875,13.339583],[80.222917,13.34375],[80.24375,13.34375],[80.247917,13.347917],[80.247917,13.352083],[80.25625,13.360417],[80.25625,13.372917]]]}},{"type":"Feature","id":"riveratlas-41343203","bbox":[80.16874999999962,13.322916666666465,80.18124999999972,13.331249999999782],"properties":{"id":"riveratlas-41343203","order":3,"discharge":1.809000015258789},"geometry":{"type":"MultiLineString","coordinates":[[[80.16875,13.322917],[80.172917,13.322917],[80.18125,13.33125]]]}},{"type":"Feature","id":"riveratlas-41343361","bbox":[80.3187499999996,13.314583333333111,80.32291666666643,13.314583333333111],"properties":{"id":"riveratlas-41343361","order":3,"discharge":1.5390000343322754},"geometry":{"type":"MultiLineString","coordinates":[[[80.31875,13.314583],[80.322917,13.314583]]]}},{"type":"Feature","id":"riveratlas-41343362","bbox":[80.32291666666643,13.314583333333111,80.33958333333298,13.360416666666481],"properties":{"id":"riveratlas-41343362","order":3,"discharge":2.0980000495910645},"geometry":{"type":"MultiLineString","coordinates":[[[80.322917,13.314583],[80.327083,13.31875],[80.327083,13.322917],[80.33125,13.327083],[80.33125,13.33125],[80.327083,13.335417],[80.33125,13.339583],[80.33125,13.35625],[80.335417,13.360417],[80.339583,13.360417]]]}},{"type":"Feature","id":"riveratlas-41343969","bbox":[79.9437499999996,13.281249999999794,80.0479166666664,13.339583333333138],"properties":{"id":"riveratlas-41343969","order":3,"discharge":8.510000228881836},"geometry":{"type":"MultiLineString","coordinates":[[[79.94375,13.297917],[79.947917,13.29375],[79.95625,13.29375],[79.960417,13.289583],[79.960417,13.285417],[79.964583,13.28125],[79.96875,13.285417],[79.972917,13.285417],[79.977083,13.289583],[79.989583,13.289583],[79.99375,13.29375],[80.00625,13.29375],[80.01875,13.30625],[80.01875,13.314583],[80.022917,13.31875],[80.03125,13.31875],[80.047917,13.335417],[80.047917,13.339583]]]}},{"type":"Feature","id":"riveratlas-41344908","bbox":[80.09374999999963,13.227083333333148,80.25624999999965,13.281249999999792],"properties":{"id":"riveratlas-41344908","order":5,"discharge":26.09600067138672},"geometry":{"type":"MultiLineString","coordinates":[[[80.09375,13.227083],[80.097917,13.227083],[80.10625,13.235417],[80.110417,13.235417],[80.122917,13.247917],[80.127083,13.24375],[80.13125,13.24375],[80.13125,13.25625],[80.135417,13.260417],[80.16875,13.260417],[80.177083,13.26875],[80.18125,13.26875],[80.185417,13.272917],[80.19375,13.272917],[80.202083,13.28125],[80.210417,13.28125],[80.214583,13.277083],[80.227083,13.277083],[80.23125,13.272917],[80.239583,13.272917],[80.24375,13.26875],[80.247917,13.26875],[80.25625,13.260417],[80.25625,13.247917],[80.252083,13.24375]]]}},{"type":"Feature","id":"riveratlas-41345003","bbox":[79.93958333333299,13.222916666666457,80.09374999999964,13.239583333333133],"properties":{"id":"riveratlas-41345003","order":5,"discharge":22.277000427246094},"geometry":{"type":"MultiLineString","coordinates":[[[79.939583,13.23125],[79.947917,13.222917],[79.95625,13.222917],[79.964583,13.23125],[79.977083,13.23125],[79.98125,13.227083],[79.985417,13.227083],[79.989583,13.222917],[79.997917,13.222917],[80.002083,13.227083],[80.00625,13.227083],[80.010417,13.23125],[80.035417,13.23125],[80.039583,13.227083],[80.052083,13.239583],[80.05625,13.239583],[80.060417,13.235417],[80.06875,13.235417],[80.072917,13.23125],[80.08125,13.23125],[80.085417,13.235417],[80.09375,13.227083]]]}},{"type":"Feature","id":"riveratlas-41345244","bbox":[80.25208333333299,13.210416666666482,80.3062499999996,13.243749999999793],"properties":{"id":"riveratlas-41345244","order":5,"discharge":26.67300033569336},"geometry":{"type":"MultiLineString","coordinates":[[[80.252083,13.24375],[80.25625,13.239583],[80.25625,13.23125],[80.260417,13.227083],[80.264583,13.227083],[80.277083,13.214583],[80.289583,13.214583],[80.29375,13.210417],[80.30625,13.210417]]]}},{"type":"Feature","id":"riveratlas-41345245","bbox":[80.30624999999961,13.210416666666482,80.32708333333294,13.2187499999998],"properties":{"id":"riveratlas-41345245","order":5,"discharge":31.489999771118164},"geometry":{"type":"MultiLineString","coordinates":[[[80.30625,13.210417],[80.310417,13.210417],[80.31875,13.21875],[80.322917,13.21875],[80.327083,13.214583]]]}},{"type":"Feature","id":"riveratlas-41345673","bbox":[80.2979166666664,13.185416666666491,80.30624999999962,13.210416666666484],"properties":{"id":"riveratlas-41345673","order":3,"discharge":4.745999813079834},"geometry":{"type":"MultiLineString","coordinates":[[[80.297917,13.185417],[80.30625,13.19375],[80.30625,13.210417]]]}},{"type":"Feature","id":"riveratlas-41347628","bbox":[80.1729166666664,13.068749999999802,80.17708333333293,13.068749999999802],"properties":{"id":"riveratlas-41347628","order":3,"discharge":6.1519999504089355},"geometry":{"type":"MultiLineString","coordinates":[[[80.172917,13.06875],[80.177083,13.06875]]]}},{"type":"Feature","id":"riveratlas-41347784","bbox":[80.114583333333,13.060416666666477,80.17291666666638,13.068749999999794],"properties":{"id":"riveratlas-41347784","order":3,"discharge":5.625},"geometry":{"type":"MultiLineString","coordinates":[[[80.114583,13.06875],[80.11875,13.064583],[80.122917,13.064583],[80.127083,13.06875],[80.13125,13.06875],[80.135417,13.064583],[80.139583,13.064583],[80.14375,13.060417],[80.147917,13.060417],[80.152083,13.064583],[80.15625,13.060417],[80.160417,13.064583],[80.16875,13.064583],[80.172917,13.06875]]]}},{"type":"Feature","id":"riveratlas-41347786","bbox":[80.17708333333294,13.060416666666477,80.28958333333301,13.08124999999981],"properties":{"id":"riveratlas-41347786","order":3,"discharge":6.943999767303467},"geometry":{"type":"MultiLineString","coordinates":[[[80.177083,13.06875],[80.18125,13.072917],[80.197917,13.072917],[80.210417,13.060417],[80.214583,13.060417],[80.227083,13.072917],[80.23125,13.06875],[80.247917,13.06875],[80.25625,13.077083],[80.260417,13.077083],[80.264583,13.08125],[80.26875,13.08125],[80.272917,13.077083],[80.28125,13.077083],[80.289583,13.06875]]]}},{"type":"Feature","id":"riveratlas-41347852","bbox":[79.9729166666663,13.056249999999771,80.11458333333302,13.102083333333141],"properties":{"id":"riveratlas-41347852","order":3,"discharge":4.65500020980835},"geometry":{"type":"MultiLineString","coordinates":[[[79.972917,13.102083],[79.989583,13.102083],[79.99375,13.097917],[79.997917,13.097917],[80.002083,13.09375],[80.01875,13.09375],[80.022917,13.089583],[80.047917,13.089583],[80.052083,13.085417],[80.05625,13.089583],[80.060417,13.085417],[80.064583,13.085417],[80.06875,13.08125],[80.06875,13.077083],[80.064583,13.072917],[80.08125,13.05625],[80.085417,13.060417],[80.102083,13.060417],[80.110417,13.06875],[80.114583,13.06875]]]}},{"type":"Feature","id":"riveratlas-41348800","bbox":[80.16874999999962,13.00208333333314,80.27291666666638,13.027083333333133],"properties":{"id":"riveratlas-41348800","order":4,"discharge":10.217000007629395},"geometry":{"type":"MultiLineString","coordinates":[[[80.16875,13.00625],[80.172917,13.002083],[80.177083,13.002083],[80.18125,13.00625],[80.18125,13.014583],[80.19375,13.027083],[80.20625,13.027083],[80.214583,13.01875],[80.235417,13.01875],[80.24375,13.027083],[80.25625,13.014583],[80.272917,13.014583]]]}},{"type":"Feature","id":"riveratlas-41348952","bbox":[80.13958333333304,12.993749999999771,80.1687499999996,13.006249999999788],"properties":{"id":"riveratlas-41348952","order":4,"discharge":9.14900016784668},"geometry":{"type":"MultiLineString","coordinates":[[[80.139583,12.997917],[80.14375,12.997917],[80.147917,12.99375],[80.15625,12.99375],[80.16875,13.00625]]]}},{"type":"Feature","id":"riveratlas-41349318","bbox":[80.114583333333,12.972916666666485,80.13958333333304,12.997916666666478],"properties":{"id":"riveratlas-41349318","order":4,"discharge":6.863999843597412},"geometry":{"type":"MultiLineString","coordinates":[[[80.114583,12.972917],[80.11875,12.977083],[80.11875,12.985417],[80.122917,12.989583],[80.13125,12.989583],[80.139583,12.997917]]]}},{"type":"Feature","id":"riveratlas-41349475","bbox":[80.10624999999962,12.964583333333117,80.11458333333302,12.972916666666476],"properties":{"id":"riveratlas-41349475","order":4,"discharge":6.482999801635742},"geometry":{"type":"MultiLineString","coordinates":[[[80.10625,12.964583],[80.114583,12.972917]]]}},{"type":"Feature","id":"riveratlas-41350019","bbox":[80.08958333333297,12.935416666666477,80.1062499999996,12.964583333333128],"properties":{"id":"riveratlas-41350019","order":4,"discharge":6.192999839782715},"geometry":{"type":"MultiLineString","coordinates":[[[80.089583,12.935417],[80.089583,12.939583],[80.097917,12.947917],[80.097917,12.952083],[80.10625,12.960417],[80.10625,12.964583]]]}},{"type":"Feature","id":"riveratlas-41350204","bbox":[79.99791666666633,12.927083333333108,80.02708333333302,12.935416666666468],"properties":{"id":"riveratlas-41350204","order":3,"discharge":1.5679999589920044},"geometry":{"type":"MultiLineString","coordinates":[[[79.997917,12.927083],[80.002083,12.927083],[80.00625,12.93125],[80.01875,12.93125],[80.022917,12.935417],[80.027083,12.935417]]]}},{"type":"Feature","id":"riveratlas-41350205","bbox":[80.02708333333302,12.927083333333108,80.06874999999961,12.935416666666468],"properties":{"id":"riveratlas-41350205","order":3,"discharge":3.2990000247955322},"geometry":{"type":"MultiLineString","coordinates":[[[80.027083,12.935417],[80.039583,12.935417],[80.04375,12.93125],[80.052083,12.93125],[80.05625,12.927083],[80.06875,12.927083]]]}},{"type":"Feature","id":"riveratlas-41350206","bbox":[80.0687499999996,12.927083333333108,80.077083333333,12.927083333333108],"properties":{"id":"riveratlas-41350206","order":4,"discharge":5.63700008392334},"geometry":{"type":"MultiLineString","coordinates":[[[80.06875,12.927083],[80.077083,12.927083]]]}},{"type":"Feature","id":"riveratlas-41350207","bbox":[80.07708333333298,12.927083333333108,80.08958333333295,12.935416666666468],"properties":{"id":"riveratlas-41350207","order":4,"discharge":5.796000003814697},"geometry":{"type":"MultiLineString","coordinates":[[[80.077083,12.927083],[80.08125,12.93125],[80.085417,12.93125],[80.089583,12.935417]]]}},{"type":"Feature","id":"riveratlas-41350524","bbox":[80.05624999999978,12.910416666666485,80.06874999999958,12.927083333333119],"properties":{"id":"riveratlas-41350524","order":3,"discharge":2.246999979019165},"geometry":{"type":"MultiLineString","coordinates":[[[80.05625,12.910417],[80.06875,12.922917],[80.06875,12.927083]]]}},{"type":"Feature","id":"riveratlas-41350882","bbox":[80.05208333333294,12.889583333333142,80.05624999999978,12.910416666666476],"properties":{"id":"riveratlas-41350882","order":3,"discharge":1.996000051498413},"geometry":{"type":"MultiLineString","coordinates":[[[80.052083,12.889583],[80.05625,12.89375],[80.05625,12.910417]]]}},{"type":"Feature","id":"riveratlas-41352172","bbox":[80.23124999999962,12.818749999999831,80.23958333333293,12.918749999999802],"properties":{"id":"riveratlas-41352172","order":3,"discharge":4.068999767303467},"geometry":{"type":"MultiLineString","coordinates":[[[80.23125,12.91875],[80.235417,12.914583],[80.235417,12.89375],[80.239583,12.889583],[80.239583,12.85625],[80.235417,12.852083],[80.235417,12.81875]]]}},{"type":"Feature","id":"riveratlas-41352369","bbox":[80.23541666666628,12.806249999999814,80.23958333333294,12.818749999999831],"properties":{"id":"riveratlas-41352369","order":3,"discharge":4.465000152587891},"geometry":{"type":"MultiLineString","coordinates":[[[80.235417,12.81875],[80.239583,12.814583],[80.239583,12.80625]]]}},{"type":"Feature","id":"riveratlas-41353176","bbox":[80.21458333333297,12.764583333333142,80.2354166666663,12.785416666666476],"properties":{"id":"riveratlas-41353176","order":3,"discharge":2.4049999713897705},"geometry":{"type":"MultiLineString","coordinates":[[[80.214583,12.764583],[80.235417,12.785417]]]}},{"type":"Feature","id":"riveratlas-41353237","bbox":[80.2104166666663,12.76041666666648,80.21458333333297,12.764583333333139],"properties":{"id":"riveratlas-41353237","order":3,"discharge":1.7130000591278076},"geometry":{"type":"MultiLineString","coordinates":[[[80.210417,12.760417],[80.214583,12.764583]]]}},{"type":"Feature","id":"riveratlas-41355161","bbox":[80.15624999999969,12.656249999999808,80.19791666666632,12.677083333333142],"properties":{"id":"riveratlas-41355161","order":3,"discharge":3.446000099182129},"geometry":{"type":"MultiLineString","coordinates":[[[80.15625,12.66875],[80.160417,12.66875],[80.164583,12.672917],[80.16875,12.672917],[80.172917,12.677083],[80.185417,12.677083],[80.189583,12.672917],[80.19375,12.672917],[80.197917,12.66875],[80.197917,12.65625]]]}},{"type":"Feature","id":"riveratlas-41355238","bbox":[80.10624999999962,12.652083333333145,80.13124999999965,12.668749999999779],"properties":{"id":"riveratlas-41355238","order":3,"discharge":2.302000045776367},"geometry":{"type":"MultiLineString","coordinates":[[[80.10625,12.66875],[80.110417,12.66875],[80.114583,12.664583],[80.11875,12.664583],[80.13125,12.652083]]]}},{"type":"Feature","id":"riveratlas-41355239","bbox":[80.13124999999965,12.652083333333145,80.15624999999969,12.668749999999779],"properties":{"id":"riveratlas-41355239","order":3,"discharge":2.7929999828338623},"geometry":{"type":"MultiLineString","coordinates":[[[80.13125,12.652083],[80.135417,12.65625],[80.139583,12.65625],[80.14375,12.660417],[80.147917,12.660417],[80.15625,12.66875]]]}},{"type":"Feature","id":"riveratlas-41356120","bbox":[80.18541666666627,12.60208333333312,80.19791666666633,12.656249999999806],"properties":{"id":"riveratlas-41356120","order":3,"discharge":3.880000114440918},"geometry":{"type":"MultiLineString","coordinates":[[[80.197917,12.65625],[80.197917,12.652083],[80.19375,12.647917],[80.19375,12.639583],[80.189583,12.635417],[80.189583,12.63125],[80.185417,12.627083],[80.185417,12.610417],[80.19375,12.602083]]]}},{"type":"Feature","id":"riveratlas-41357335","bbox":[79.99374999999966,12.535416666666457,80.00624999999972,12.547916666666474],"properties":{"id":"riveratlas-41357335","order":5,"discharge":66.8239974975586},"geometry":{"type":"MultiLineString","coordinates":[[[79.99375,12.547917],[80.00625,12.535417]]]}},{"type":"Feature","id":"riveratlas-41357425","bbox":[79.989583333333,12.531249999999808,80.00624999999972,12.535416666666467],"properties":{"id":"riveratlas-41357425","order":4,"discharge":13.361000061035156},"geometry":{"type":"MultiLineString","coordinates":[[[79.989583,12.53125],[80.002083,12.53125],[80.00625,12.535417]]]}},{"type":"Feature","id":"riveratlas-41357578","bbox":[80.00624999999971,12.52291666666644,80.01458333333302,12.535416666666457],"properties":{"id":"riveratlas-41357578","order":5,"discharge":80.23999786376953},"geometry":{"type":"MultiLineString","coordinates":[[[80.00625,12.535417],[80.010417,12.53125],[80.010417,12.527083],[80.014583,12.522917]]]}},{"type":"Feature","id":"riveratlas-41357761","bbox":[80.01458333333304,12.514583333333128,80.0354166666664,12.522916666666445],"properties":{"id":"riveratlas-41357761","order":5,"discharge":80.50199890136719},"geometry":{"type":"MultiLineString","coordinates":[[[80.014583,12.522917],[80.022917,12.522917],[80.027083,12.51875],[80.03125,12.51875],[80.035417,12.514583]]]}},{"type":"Feature","id":"riveratlas-41357941","bbox":[80.0354166666664,12.506249999999817,80.05208333333296,12.514583333333134],"properties":{"id":"riveratlas-41357941","order":5,"discharge":80.86499786376953},"geometry":{"type":"MultiLineString","coordinates":[[[80.035417,12.514583],[80.039583,12.510417],[80.04375,12.510417],[80.047917,12.50625],[80.052083,12.50625]]]}},{"type":"Feature","id":"riveratlas-41358027","bbox":[80.05208333333294,12.502083333333154,80.06874999999958,12.506249999999813],"properties":{"id":"riveratlas-41358027","order":5,"discharge":81.0250015258789},"geometry":{"type":"MultiLineString","coordinates":[[[80.052083,12.50625],[80.05625,12.50625],[80.060417,12.502083],[80.06875,12.502083]]]}},{"type":"Feature","id":"riveratlas-41358029","bbox":[80.0687499999996,12.502083333333154,80.0729166666663,12.502083333333154],"properties":{"id":"riveratlas-41358029","order":5,"discharge":82.00399780273438},"geometry":{"type":"MultiLineString","coordinates":[[[80.06875,12.502083],[80.072917,12.502083]]]}},{"type":"Feature","id":"riveratlas-41358663","bbox":[80.07291666666632,12.468749999999808,80.1562499999997,12.50208333333316],"properties":{"id":"riveratlas-41358663","order":5,"discharge":81.1969985961914},"geometry":{"type":"MultiLineString","coordinates":[[[80.072917,12.502083],[80.077083,12.497917],[80.08125,12.497917],[80.089583,12.489583],[80.09375,12.489583],[80.097917,12.49375],[80.102083,12.49375],[80.114583,12.48125],[80.122917,12.48125],[80.127083,12.477083],[80.127083,12.472917],[80.13125,12.46875],[80.139583,12.46875],[80.14375,12.472917],[80.147917,12.46875],[80.15625,12.46875]]]}},{"type":"Feature","id":"riveratlas-41360934","bbox":[80.05208333333294,12.339583333333131,80.06041666666626,12.34791666666649],"properties":{"id":"riveratlas-41360934","order":3,"discharge":1.9930000305175781},"geometry":{"type":"MultiLineString","coordinates":[[[80.052083,12.347917],[80.060417,12.339583]]]}},{"type":"Feature","id":"riveratlas-41361117","bbox":[80.02291666666636,12.33124999999982,80.05624999999979,12.339583333333136],"properties":{"id":"riveratlas-41361117","order":3,"discharge":2.25},"geometry":{"type":"MultiLineString","coordinates":[[[80.022917,12.33125],[80.035417,12.33125],[80.039583,12.335417],[80.047917,12.335417],[80.052083,12.339583],[80.05625,12.335417]]]}}]}
