{"type":"FeatureCollection","features":[{"type":"Feature","id":"riveratlas-40352247","bbox":[80.15624999999969,39.99374999999939,80.20624999999963,40.06041666666605],"properties":{"id":"riveratlas-40352247","order":3,"discharge":0.04800000041723251},"geometry":{"type":"MultiLineString","coordinates":[[[80.164583,39.99375],[80.15625,40.002083],[80.160417,40.00625],[80.160417,40.022917],[80.164583,40.027083],[80.177083,40.027083],[80.18125,40.03125],[80.18125,40.035417],[80.189583,40.04375],[80.189583,40.052083],[80.19375,40.05625],[80.197917,40.05625],[80.202083,40.060417],[80.20625,40.05625]]]}},{"type":"Feature","id":"riveratlas-40352476","bbox":[82.89791666666625,39.98541666666603,82.99791666666626,40.10208333333272],"properties":{"id":"riveratlas-40352476","order":6,"discharge":13.133000373840332},"geometry":{"type":"MultiLineString","coordinates":[[[82.914583,39.985417],[82.897917,40.002083],[82.897917,40.010417],[82.902083,40.014583],[82.897917,40.01875],[82.897917,40.022917],[82.90625,40.03125],[82.90625,40.035417],[82.914583,40.04375],[82.91875,40.04375],[82.939583,40.064583],[82.939583,40.072917],[82.94375,40.077083],[82.977083,40.077083],[82.98125,40.08125],[82.98125,40.09375],[82.985417,40.097917],[82.99375,40.097917],[82.997917,40.102083]]]}},{"type":"Feature","id":"riveratlas-40352477","bbox":[83.47708333333301,39.98541666666603,83.51041666666625,40.018749999999386],"properties":{"id":"riveratlas-40352477","order":3,"discharge":0.06400000303983688},"geometry":{"type":"MultiLineString","coordinates":[[[83.477083,39.985417],[83.48125,39.989583],[83.489583,39.989583],[83.497917,39.997917],[83.49375,40.002083],[83.510417,40.01875]]]}},{"type":"Feature","id":"riveratlas-40352599","bbox":[80.44791666666643,39.98124999999937,80.46874999999964,40.0270833333327],"properties":{"id":"riveratlas-40352599","order":3,"discharge":0.03400000184774399},"geometry":{"type":"MultiLineString","coordinates":[[[80.45625,39.98125],[80.464583,39.989583],[80.464583,39.997917],[80.46875,40.002083],[80.46875,40.00625],[80.447917,40.027083]]]}},{"type":"Feature","id":"riveratlas-40352604","bbox":[84.56458333333288,39.98124999999937,84.59374999999957,40.002083333332706],"properties":{"id":"riveratlas-40352604","order":4,"discharge":0.06199999898672104},"geometry":{"type":"MultiLineString","coordinates":[[[84.564583,39.98125],[84.585417,40.002083],[84.59375,40.002083]]]}},{"type":"Feature","id":"riveratlas-40352852","bbox":[80.82291666666637,39.97291666666606,80.8395833333331,40.052083333332696],"properties":{"id":"riveratlas-40352852","order":7,"discharge":7.419000148773193},"geometry":{"type":"MultiLineString","coordinates":[[[80.83125,39.972917],[80.827083,39.977083],[80.827083,39.985417],[80.822917,39.989583],[80.822917,39.997917],[80.835417,40.010417],[80.827083,40.01875],[80.835417,40.027083],[80.835417,40.035417],[80.839583,40.039583],[80.835417,40.04375],[80.839583,40.047917],[80.839583,40.052083]]]}},{"type":"Feature","id":"riveratlas-40352853","bbox":[80.99791666666627,39.97291666666606,81.01458333333291,40.010416666666025],"properties":{"id":"riveratlas-40352853","order":3,"discharge":0.0989999994635582},"geometry":{"type":"MultiLineString","coordinates":[[[80.997917,39.972917],[81.002083,39.977083],[81.002083,39.98125],[81.00625,39.985417],[81.010417,39.985417],[81.014583,39.989583],[81.014583,39.997917],[81.010417,40.002083],[81.010417,40.00625],[81.014583,40.010417]]]}},{"type":"Feature","id":"riveratlas-40352982","bbox":[80.68541666666638,39.968749999999396,80.70624999999971,40.002083333332706],"properties":{"id":"riveratlas-40352982","order":5,"discharge":0.3709999918937683},"geometry":{"type":"MultiLineString","coordinates":[[[80.70625,39.96875],[80.702083,39.972917],[80.702083,39.98125],[80.69375,39.989583],[80.689583,39.989583],[80.685417,39.99375],[80.685417,40.002083]]]}},{"type":"Feature","id":"riveratlas-40352988","bbox":[82.6312499999996,39.968749999999396,82.6604166666663,40.09374999999936],"properties":{"id":"riveratlas-40352988","order":4,"discharge":0.22599999606609344},"geometry":{"type":"MultiLineString","coordinates":[[[82.635417,39.96875],[82.64375,39.977083],[82.64375,39.985417],[82.647917,39.989583],[82.647917,39.99375],[82.639583,40.002083],[82.639583,40.00625],[82.635417,40.010417],[82.635417,40.022917],[82.639583,40.027083],[82.635417,40.03125],[82.635417,40.035417],[82.63125,40.039583],[82.635417,40.04375],[82.635417,40.052083],[82.639583,40.05625],[82.639583,40.064583],[82.652083,40.077083],[82.652083,40.085417],[82.660417,40.09375]]]}},{"type":"Feature","id":"riveratlas-40353118","bbox":[81.20208333333298,39.96458333333269,81.2187499999997,40.05208333333269],"properties":{"id":"riveratlas-40353118","order":3,"discharge":0.10599999874830246},"geometry":{"type":"MultiLineString","coordinates":[[[81.202083,39.964583],[81.20625,39.96875],[81.20625,39.99375],[81.210417,39.997917],[81.210417,40.002083],[81.214583,40.00625],[81.214583,40.010417],[81.21875,40.014583],[81.21875,40.01875],[81.214583,40.022917],[81.214583,40.03125],[81.21875,40.035417],[81.21875,40.052083]]]}},{"type":"Feature","id":"riveratlas-40353123","bbox":[83.56458333333293,39.96458333333269,83.62708333333289,40.04374999999937],"properties":{"id":"riveratlas-40353123","order":3,"discharge":0.07900000363588333},"geometry":{"type":"MultiLineString","coordinates":[[[83.564583,39.964583],[83.564583,39.96875],[83.56875,39.972917],[83.56875,39.977083],[83.572917,39.98125],[83.577083,39.98125],[83.585417,39.989583],[83.589583,39.989583],[83.597917,39.997917],[83.602083,39.997917],[83.610417,40.00625],[83.610417,40.010417],[83.60625,40.014583],[83.610417,40.01875],[83.610417,40.022917],[83.627083,40.039583],[83.627083,40.04375]]]}},{"type":"Feature","id":"riveratlas-40353125","bbox":[83.69791666666626,39.96458333333269,83.73958333333302,40.118749999999345],"properties":{"id":"riveratlas-40353125","order":4,"discharge":0.08100000023841858},"geometry":{"type":"MultiLineString","coordinates":[[[83.70625,39.964583],[83.710417,39.96875],[83.714583,39.96875],[83.722917,39.977083],[83.714583,39.985417],[83.722917,39.99375],[83.727083,39.99375],[83.73125,39.997917],[83.73125,40.00625],[83.735417,40.010417],[83.735417,40.022917],[83.739583,40.027083],[83.739583,40.039583],[83.710417,40.06875],[83.710417,40.077083],[83.727083,40.09375],[83.727083,40.102083],[83.722917,40.10625],[83.71875,40.10625],[83.714583,40.110417],[83.710417,40.110417],[83.70625,40.114583],[83.702083,40.114583],[83.697917,40.11875]]]}},{"type":"Feature","id":"riveratlas-40353126","bbox":[84.1979166666662,39.96458333333269,84.23958333333296,40.0020833333327],"properties":{"id":"riveratlas-40353126","order":3,"discharge":0.12300000339746475},"geometry":{"type":"MultiLineString","coordinates":[[[84.197917,39.964583],[84.222917,39.989583],[84.227083,39.989583],[84.239583,40.002083]]]}},{"type":"Feature","id":"riveratlas-40353346","bbox":[81.52291666666625,39.95624999999938,81.53958333333297,40.152083333332705],"properties":{"id":"riveratlas-40353346","order":5,"discharge":0.8880000114440918},"geometry":{"type":"MultiLineString","coordinates":[[[81.522917,39.95625],[81.522917,39.98125],[81.527083,39.985417],[81.527083,39.99375],[81.53125,39.997917],[81.53125,40.014583],[81.535417,40.01875],[81.535417,40.03125],[81.539583,40.035417],[81.539583,40.10625],[81.535417,40.110417],[81.535417,40.14375],[81.527083,40.152083]]]}},{"type":"Feature","id":"riveratlas-40353461","bbox":[80.48541666666628,39.952083333332716,80.53541666666635,40.102083333332715],"properties":{"id":"riveratlas-40353461","order":3,"discharge":0.23499999940395355},"geometry":{"type":"MultiLineString","coordinates":[[[80.497917,39.952083],[80.497917,39.964583],[80.502083,39.96875],[80.502083,39.98125],[80.489583,39.99375],[80.489583,40.002083],[80.485417,40.00625],[80.489583,40.010417],[80.489583,40.01875],[80.502083,40.03125],[80.502083,40.035417],[80.49375,40.04375],[80.49375,40.05625],[80.510417,40.072917],[80.514583,40.072917],[80.522917,40.08125],[80.527083,40.077083],[80.53125,40.08125],[80.53125,40.097917],[80.535417,40.102083]]]}},{"type":"Feature","id":"riveratlas-40353463","bbox":[81.90624999999957,39.952083333332716,81.9104166666664,40.01041666666602],"properties":{"id":"riveratlas-40353463","order":4,"discharge":0.35600000619888306},"geometry":{"type":"MultiLineString","coordinates":[[[81.90625,39.952083],[81.90625,39.960417],[81.910417,39.964583],[81.910417,39.972917],[81.90625,39.977083],[81.90625,39.99375],[81.910417,39.997917],[81.90625,40.002083],[81.90625,40.010417]]]}},{"type":"Feature","id":"riveratlas-40353704","bbox":[83.17708333333294,39.94374999999936,83.23124999999955,40.01458333333268],"properties":{"id":"riveratlas-40353704","order":3,"discharge":0.1599999964237213},"geometry":{"type":"MultiLineString","coordinates":[[[83.177083,39.94375],[83.177083,39.947917],[83.185417,39.95625],[83.185417,39.960417],[83.19375,39.96875],[83.197917,39.96875],[83.202083,39.972917],[83.202083,39.977083],[83.210417,39.985417],[83.210417,39.989583],[83.214583,39.99375],[83.214583,39.997917],[83.222917,40.00625],[83.227083,40.00625],[83.227083,40.010417],[83.23125,40.014583]]]}},{"type":"Feature","id":"riveratlas-40353819","bbox":[82.41874999999968,39.9395833333327,82.58124999999957,40.047916666666026],"properties":{"id":"riveratlas-40353819","order":3,"discharge":0.06300000101327896},"geometry":{"type":"MultiLineString","coordinates":[[[82.41875,39.939583],[82.427083,39.947917],[82.43125,39.947917],[82.435417,39.952083],[82.435417,39.960417],[82.44375,39.96875],[82.447917,39.96875],[82.452083,39.972917],[82.452083,39.977083],[82.45625,39.98125],[82.460417,39.98125],[82.464583,39.985417],[82.472917,39.985417],[82.477083,39.989583],[82.477083,39.997917],[82.489583,40.010417],[82.489583,40.01875],[82.497917,40.027083],[82.50625,40.01875],[82.510417,40.01875],[82.514583,40.022917],[82.527083,40.022917],[82.53125,40.027083],[82.53125,40.03125],[82.535417,40.035417],[82.539583,40.03125],[82.54375,40.03125],[82.547917,40.035417],[82.547917,40.039583],[82.552083,40.04375],[82.577083,40.04375],[82.58125,40.047917]]]}},{"type":"Feature","id":"riveratlas-40354052","bbox":[82.11041666666628,39.931249999999345,82.16874999999975,40.01458333333268],"properties":{"id":"riveratlas-40354052","order":5,"discharge":0.3479999899864197},"geometry":{"type":"MultiLineString","coordinates":[[[82.110417,39.93125],[82.110417,39.935417],[82.11875,39.94375],[82.13125,39.94375],[82.14375,39.95625],[82.14375,39.960417],[82.147917,39.964583],[82.147917,39.96875],[82.152083,39.972917],[82.152083,39.977083],[82.164583,39.989583],[82.164583,39.997917],[82.16875,40.002083],[82.15625,40.014583]]]}},{"type":"Feature","id":"riveratlas-40354176","bbox":[84.04374999999956,39.92708333333268,84.18124999999954,40.06041666666604],"properties":{"id":"riveratlas-40354176","order":3,"discharge":0.03400000184774399},"geometry":{"type":"MultiLineString","coordinates":[[[84.04375,39.927083],[84.04375,39.93125],[84.052083,39.939583],[84.064583,39.939583],[84.077083,39.952083],[84.09375,39.952083],[84.097917,39.947917],[84.10625,39.95625],[84.10625,39.96875],[84.114583,39.977083],[84.114583,39.98125],[84.110417,39.985417],[84.110417,39.99375],[84.114583,39.997917],[84.11875,39.997917],[84.122917,40.002083],[84.122917,40.00625],[84.172917,40.05625],[84.177083,40.05625],[84.18125,40.060417]]]}},{"type":"Feature","id":"riveratlas-40354178","bbox":[84.76041666666626,39.92708333333268,84.86874999999955,40.33124999999935],"properties":{"id":"riveratlas-40354178","order":4,"discharge":0.08100000023841858},"geometry":{"type":"MultiLineString","coordinates":[[[84.760417,39.927083],[84.760417,39.94375],[84.772917,39.95625],[84.772917,39.96875],[84.777083,39.972917],[84.777083,39.977083],[84.78125,39.98125],[84.78125,39.989583],[84.785417,39.99375],[84.785417,40.002083],[84.79375,40.010417],[84.79375,40.014583],[84.802083,40.022917],[84.802083,40.027083],[84.810417,40.035417],[84.810417,40.039583],[84.81875,40.047917],[84.81875,40.05625],[84.822917,40.060417],[84.827083,40.060417],[84.835417,40.06875],[84.835417,40.085417],[84.83125,40.089583],[84.83125,40.09375],[84.839583,40.102083],[84.839583,40.110417],[84.84375,40.114583],[84.84375,40.11875],[84.847917,40.122917],[84.847917,40.135417],[84.852083,40.139583],[84.85625,40.139583],[84.860417,40.14375],[84.85625,40.147917],[84.860417,40.152083],[84.860417,40.15625],[84.864583,40.160417],[84.864583,40.172917],[84.860417,40.177083],[84.860417,40.189583],[84.864583,40.19375],[84.860417,40.197917],[84.860417,40.21875],[84.847917,40.23125],[84.847917,40.260417],[84.85625,40.26875],[84.85625,40.277083],[84.864583,40.285417],[84.864583,40.302083],[84.86875,40.30625],[84.86875,40.322917],[84.864583,40.327083],[84.864583,40.33125]]]}},{"type":"Feature","id":"riveratlas-40354408","bbox":[83.36874999999955,39.91874999999937,83.41041666666622,40.002083333332706],"properties":{"id":"riveratlas-40354408","order":4,"discharge":0.12600000202655792},"geometry":{"type":"MultiLineString","coordinates":[[[83.36875,39.91875],[83.36875,39.927083],[83.377083,39.935417],[83.377083,39.94375],[83.36875,39.952083],[83.372917,39.95625],[83.377083,39.95625],[83.385417,39.964583],[83.385417,39.96875],[83.397917,39.98125],[83.397917,39.989583],[83.410417,40.002083]]]}},{"type":"Feature","id":"riveratlas-40354624","bbox":[80.55624999999972,39.910416666666045,80.58541666666629,40.10624999999937],"properties":{"id":"riveratlas-40354624","order":3,"discharge":0.07599999755620956},"geometry":{"type":"MultiLineString","coordinates":[[[80.577083,39.910417],[80.577083,39.914583],[80.585417,39.922917],[80.585417,39.927083],[80.572917,39.939583],[80.572917,39.960417],[80.577083,39.964583],[80.577083,39.96875],[80.585417,39.977083],[80.585417,39.98125],[80.58125,39.985417],[80.58125,39.989583],[80.577083,39.99375],[80.577083,40.01875],[80.58125,40.022917],[80.572917,40.03125],[80.572917,40.04375],[80.58125,40.052083],[80.577083,40.05625],[80.572917,40.05625],[80.572917,40.064583],[80.560417,40.077083],[80.560417,40.085417],[80.55625,40.089583],[80.55625,40.102083],[80.560417,40.10625]]]}},{"type":"Feature","id":"riveratlas-40354757","bbox":[80.36041666666628,39.906249999999396,80.44791666666644,40.027083333332705],"properties":{"id":"riveratlas-40354757","order":4,"discharge":0.550000011920929},"geometry":{"type":"MultiLineString","coordinates":[[[80.372917,39.90625],[80.372917,39.922917],[80.364583,39.93125],[80.364583,39.939583],[80.360417,39.94375],[80.360417,39.95625],[80.36875,39.964583],[80.372917,39.964583],[80.377083,39.960417],[80.385417,39.96875],[80.385417,39.972917],[80.389583,39.977083],[80.39375,39.977083],[80.397917,39.98125],[80.40625,39.98125],[80.414583,39.989583],[80.414583,39.99375],[80.41875,39.997917],[80.41875,40.010417],[80.427083,40.01875],[80.435417,40.01875],[80.439583,40.022917],[80.44375,40.022917],[80.447917,40.027083]]]}},{"type":"Feature","id":"riveratlas-40355138","bbox":[81.11874999999961,39.89374999999938,81.13124999999958,40.010416666666025],"properties":{"id":"riveratlas-40355138","order":3,"discharge":0.08399999886751175},"geometry":{"type":"MultiLineString","coordinates":[[[81.13125,39.89375],[81.13125,39.910417],[81.122917,39.91875],[81.122917,39.939583],[81.11875,39.94375],[81.127083,39.952083],[81.127083,39.972917],[81.122917,39.977083],[81.122917,39.99375],[81.11875,39.997917],[81.11875,40.002083],[81.122917,40.00625],[81.127083,40.00625],[81.13125,40.010417]]]}},{"type":"Feature","id":"riveratlas-40355139","bbox":[82.73541666666623,39.89374999999938,82.88124999999961,40.04791666666603],"properties":{"id":"riveratlas-40355139","order":3,"discharge":0.07000000029802322},"geometry":{"type":"MultiLineString","coordinates":[[[82.735417,39.89375],[82.739583,39.897917],[82.739583,39.90625],[82.75625,39.922917],[82.75625,39.93125],[82.760417,39.935417],[82.764583,39.935417],[82.777083,39.947917],[82.777083,39.952083],[82.78125,39.95625],[82.785417,39.95625],[82.789583,39.960417],[82.789583,39.964583],[82.79375,39.96875],[82.79375,39.985417],[82.802083,39.99375],[82.802083,40.002083],[82.80625,40.00625],[82.810417,40.00625],[82.814583,40.010417],[82.814583,40.014583],[82.827083,40.027083],[82.83125,40.027083],[82.839583,40.035417],[82.839583,40.039583],[82.847917,40.047917],[82.86875,40.047917],[82.872917,40.04375],[82.877083,40.04375],[82.88125,40.039583]]]}},{"type":"Feature","id":"riveratlas-40355382","bbox":[82.28541666666635,39.88541666666601,82.43958333333292,40.09374999999935],"properties":{"id":"riveratlas-40355382","order":3,"discharge":0.07800000160932541},"geometry":{"type":"MultiLineString","coordinates":[[[82.285417,39.885417],[82.289583,39.889583],[82.289583,39.90625],[82.29375,39.910417],[82.297917,39.910417],[82.310417,39.922917],[82.314583,39.922917],[82.327083,39.935417],[82.327083,39.947917],[82.335417,39.95625],[82.335417,39.960417],[82.34375,39.96875],[82.34375,39.972917],[82.347917,39.977083],[82.347917,39.99375],[82.35625,40.002083],[82.35625,40.014583],[82.364583,40.022917],[82.364583,40.03125],[82.36875,40.035417],[82.372917,40.035417],[82.385417,40.047917],[82.39375,40.047917],[82.414583,40.06875],[82.414583,40.072917],[82.427083,40.085417],[82.422917,40.089583],[82.427083,40.09375],[82.439583,40.09375]]]}},{"type":"Feature","id":"riveratlas-40355388","bbox":[84.21041666666625,39.88541666666601,84.26041666666632,40.0020833333327],"properties":{"id":"riveratlas-40355388","order":3,"discharge":0.03700000047683716},"geometry":{"type":"MultiLineString","coordinates":[[[84.210417,39.885417],[84.214583,39.889583],[84.214583,39.89375],[84.21875,39.897917],[84.21875,39.902083],[84.227083,39.910417],[84.227083,39.91875],[84.235417,39.927083],[84.235417,39.93125],[84.23125,39.935417],[84.23125,39.939583],[84.239583,39.947917],[84.252083,39.947917],[84.25625,39.952083],[84.25625,39.95625],[84.260417,39.960417],[84.247917,39.972917],[84.247917,39.98125],[84.239583,39.989583],[84.239583,40.002083]]]}},{"type":"Feature","id":"riveratlas-40355496","bbox":[83.72708333333296,39.88124999999936,83.81874999999961,40.010416666666025],"properties":{"id":"riveratlas-40355496","order":3,"discharge":0.012000000104308128},"geometry":{"type":"MultiLineString","coordinates":[[[83.727083,39.88125],[83.73125,39.885417],[83.73125,39.889583],[83.74375,39.902083],[83.74375,39.90625],[83.772917,39.935417],[83.772917,39.939583],[83.777083,39.94375],[83.777083,39.947917],[83.80625,39.977083],[83.80625,39.985417],[83.810417,39.989583],[83.810417,39.997917],[83.81875,40.00625],[83.81875,40.010417]]]}},{"type":"Feature","id":"riveratlas-40355630","bbox":[84.97291666666624,39.8770833333327,84.99791666666623,40.00624999999936],"properties":{"id":"riveratlas-40355630","order":3,"discharge":0.027000000700354576},"geometry":{"type":"MultiLineString","coordinates":[[[84.972917,39.877083],[84.972917,39.88125],[84.985417,39.89375],[84.985417,39.90625],[84.989583,39.910417],[84.989583,39.914583],[84.985417,39.91875],[84.985417,39.927083],[84.99375,39.935417],[84.99375,39.939583],[84.997917,39.94375],[84.99375,39.947917],[84.997917,39.952083],[84.997917,39.964583],[84.99375,39.96875],[84.99375,39.977083],[84.997917,39.98125],[84.997917,39.985417],[84.99375,39.989583],[84.99375,40.002083],[84.989583,40.00625]]]}},{"type":"Feature","id":"riveratlas-40355885","bbox":[84.35624999999956,39.86874999999939,84.45624999999953,40.07291666666603],"properties":{"id":"riveratlas-40355885","order":5,"discharge":4.531000137329102},"geometry":{"type":"MultiLineString","coordinates":[[[84.360417,39.86875],[84.360417,39.88125],[84.36875,39.889583],[84.36875,39.89375],[84.35625,39.90625],[84.35625,39.922917],[84.364583,39.93125],[84.364583,39.935417],[84.372917,39.94375],[84.372917,39.947917],[84.38125,39.95625],[84.38125,39.964583],[84.385417,39.96875],[84.389583,39.96875],[84.397917,39.977083],[84.397917,39.98125],[84.402083,39.985417],[84.402083,40.002083],[84.452083,40.052083],[84.452083,40.064583],[84.45625,40.06875],[84.452083,40.072917]]]}},{"type":"Feature","id":"riveratlas-40356723","bbox":[84.9104166666663,39.83958333333269,84.98958333333289,40.00624999999936],"properties":{"id":"riveratlas-40356723","order":4,"discharge":0.07400000095367432},"geometry":{"type":"MultiLineString","coordinates":[[[84.910417,39.84375],[84.914583,39.84375],[84.91875,39.839583],[84.927083,39.839583],[84.935417,39.847917],[84.935417,39.864583],[84.939583,39.86875],[84.939583,39.872917],[84.947917,39.88125],[84.947917,39.89375],[84.95625,39.902083],[84.947917,39.910417],[84.947917,39.922917],[84.939583,39.93125],[84.95625,39.947917],[84.95625,39.952083],[84.952083,39.95625],[84.952083,39.96875],[84.95625,39.972917],[84.960417,39.972917],[84.964583,39.977083],[84.96875,39.977083],[84.972917,39.98125],[84.972917,39.989583],[84.989583,40.00625]]]}},{"type":"Feature","id":"riveratlas-40357219","bbox":[83.80624999999955,39.82291666666605,83.99374999999961,40.064583333332706],"properties":{"id":"riveratlas-40357219","order":6,"discharge":11.220000267028809},"geometry":{"type":"MultiLineString","coordinates":[[[83.80625,39.822917],[83.810417,39.822917],[83.822917,39.835417],[83.827083,39.835417],[83.852083,39.860417],[83.852083,39.864583],[83.860417,39.872917],[83.860417,39.885417],[83.872917,39.897917],[83.872917,39.90625],[83.877083,39.910417],[83.877083,39.914583],[83.910417,39.947917],[83.910417,39.96875],[83.93125,39.989583],[83.947917,39.989583],[83.96875,40.010417],[83.977083,40.010417],[83.985417,40.01875],[83.985417,40.027083],[83.989583,40.03125],[83.989583,40.035417],[83.99375,40.039583],[83.99375,40.052083],[83.98125,40.064583]]]}},{"type":"Feature","id":"riveratlas-40357220","bbox":[84.38541666666626,39.82291666666605,84.50624999999961,40.05208333333269],"properties":{"id":"riveratlas-40357220","order":3,"discharge":0.03099999949336052},"geometry":{"type":"MultiLineString","coordinates":[[[84.385417,39.822917],[84.397917,39.835417],[84.397917,39.872917],[84.40625,39.88125],[84.40625,39.902083],[84.439583,39.935417],[84.447917,39.935417],[84.460417,39.947917],[84.460417,39.952083],[84.472917,39.964583],[84.477083,39.964583],[84.48125,39.96875],[84.48125,39.972917],[84.485417,39.977083],[84.485417,40.00625],[84.497917,40.01875],[84.497917,40.022917],[84.502083,40.027083],[84.502083,40.04375],[84.50625,40.047917],[84.502083,40.052083]]]}},{"type":"Feature","id":"riveratlas-40360157","bbox":[83.07708333333298,39.72708333333269,83.26458333333291,40.01458333333267],"properties":{"id":"riveratlas-40360157","order":4,"discharge":0.17399999499320984},"geometry":{"type":"MultiLineString","coordinates":[[[83.077083,39.727083],[83.097917,39.747917],[83.102083,39.747917],[83.11875,39.764583],[83.11875,39.76875],[83.13125,39.78125],[83.13125,39.785417],[83.152083,39.80625],[83.152083,39.814583],[83.160417,39.822917],[83.160417,39.827083],[83.172917,39.839583],[83.172917,39.84375],[83.177083,39.847917],[83.177083,39.852083],[83.16875,39.860417],[83.16875,39.86875],[83.177083,39.877083],[83.18125,39.877083],[83.197917,39.89375],[83.19375,39.897917],[83.214583,39.91875],[83.214583,39.927083],[83.21875,39.93125],[83.222917,39.93125],[83.247917,39.95625],[83.252083,39.95625],[83.25625,39.960417],[83.25625,39.96875],[83.264583,39.977083],[83.264583,39.98125],[83.260417,39.985417],[83.260417,39.99375],[83.25625,39.997917],[83.247917,39.997917],[83.239583,40.00625],[83.235417,40.00625],[83.23125,40.010417],[83.23125,40.014583]]]}},{"type":"Feature","id":"riveratlas-40360611","bbox":[84.49791666666627,39.71041666666607,84.61041666666621,40.002083333332706],"properties":{"id":"riveratlas-40360611","order":6,"discharge":5.2829999923706055},"geometry":{"type":"MultiLineString","coordinates":[[[84.510417,39.710417],[84.510417,39.71875],[84.502083,39.727083],[84.502083,39.73125],[84.497917,39.735417],[84.497917,39.747917],[84.502083,39.752083],[84.502083,39.764583],[84.50625,39.76875],[84.50625,39.772917],[84.510417,39.777083],[84.514583,39.777083],[84.51875,39.78125],[84.51875,39.785417],[84.522917,39.789583],[84.522917,39.80625],[84.527083,39.810417],[84.527083,39.814583],[84.547917,39.835417],[84.547917,39.847917],[84.55625,39.85625],[84.55625,39.860417],[84.564583,39.86875],[84.564583,39.872917],[84.56875,39.877083],[84.56875,39.88125],[84.572917,39.885417],[84.572917,39.889583],[84.577083,39.89375],[84.577083,39.897917],[84.58125,39.902083],[84.58125,39.910417],[84.585417,39.914583],[84.585417,39.922917],[84.602083,39.939583],[84.602083,39.95625],[84.60625,39.960417],[84.60625,39.96875],[84.610417,39.972917],[84.610417,39.985417],[84.59375,40.002083]]]}}]}
