{"type":"FeatureCollection","features":[{"type":"Feature","id":"riveratlas-41190405","bbox":[85.57708333333292,19.997916666666335,85.59374999999964,20.006249999999692],"properties":{"id":"riveratlas-41190405","order":4,"discharge":15.572999954223633},"geometry":{"type":"MultiLineString","coordinates":[[[85.577083,20.00625],[85.585417,19.997917],[85.59375,19.997917]]]}},{"type":"Feature","id":"riveratlas-41190819","bbox":[85.59374999999963,19.981249999999655,85.63124999999955,19.99791666666633],"properties":{"id":"riveratlas-41190819","order":4,"discharge":17.003000259399414},"geometry":{"type":"MultiLineString","coordinates":[[[85.59375,19.997917],[85.597917,19.99375],[85.610417,19.99375],[85.614583,19.989583],[85.627083,19.989583],[85.63125,19.985417],[85.63125,19.98125]]]}},{"type":"Feature","id":"riveratlas-41190820","bbox":[85.63124999999954,19.981249999999655,85.65208333333287,20.010416666666348],"properties":{"id":"riveratlas-41190820","order":3,"discharge":17.084999084472656},"geometry":{"type":"MultiLineString","coordinates":[[[85.652083,20.010417],[85.652083,20.00625],[85.647917,20.002083],[85.647917,19.997917],[85.64375,19.99375],[85.64375,19.989583],[85.635417,19.98125],[85.63125,19.98125]]]}},{"type":"Feature","id":"riveratlas-41191019","bbox":[85.68541666666621,19.972916666666343,85.71874999999964,20.031249999999687],"properties":{"id":"riveratlas-41191019","order":3,"discharge":5.3429999351501465},"geometry":{"type":"MultiLineString","coordinates":[[[85.71875,20.03125],[85.710417,20.022917],[85.710417,20.014583],[85.70625,20.010417],[85.70625,20.00625],[85.697917,19.997917],[85.697917,19.989583],[85.685417,19.977083],[85.685417,19.972917]]]}},{"type":"Feature","id":"riveratlas-41191352","bbox":[85.68124999999955,19.96041666666637,85.68541666666621,19.972916666666343],"properties":{"id":"riveratlas-41191352","order":3,"discharge":5.9710001945495605},"geometry":{"type":"MultiLineString","coordinates":[[[85.685417,19.972917],[85.68125,19.96875],[85.68125,19.960417]]]}},{"type":"Feature","id":"riveratlas-41191656","bbox":[85.61874999999955,19.94791666666635,85.63124999999953,19.981249999999662],"properties":{"id":"riveratlas-41191656","order":4,"discharge":34.255001068115234},"geometry":{"type":"MultiLineString","coordinates":[[[85.63125,19.98125],[85.63125,19.96875],[85.627083,19.964583],[85.627083,19.95625],[85.61875,19.947917]]]}},{"type":"Feature","id":"riveratlas-41191786","bbox":[85.93541666666621,19.94374999999969,85.94791666666619,19.960416666666365],"properties":{"id":"riveratlas-41191786","order":3,"discharge":5.701000213623047},"geometry":{"type":"MultiLineString","coordinates":[[[85.947917,19.960417],[85.939583,19.952083],[85.939583,19.947917],[85.935417,19.94375]]]}},{"type":"Feature","id":"riveratlas-41191888","bbox":[86.1312499999996,19.93958333333304,86.14791666666619,19.94791666666636],"properties":{"id":"riveratlas-41191888","order":3,"discharge":13.574000358581543},"geometry":{"type":"MultiLineString","coordinates":[[[86.13125,19.947917],[86.139583,19.947917],[86.147917,19.939583]]]}},{"type":"Feature","id":"riveratlas-41191889","bbox":[86.14791666666619,19.93958333333304,86.164583333333,19.94791666666636],"properties":{"id":"riveratlas-41191889","order":3,"discharge":14.015000343322754},"geometry":{"type":"MultiLineString","coordinates":[[[86.147917,19.939583],[86.15625,19.939583],[86.164583,19.947917]]]}},{"type":"Feature","id":"riveratlas-41192003","bbox":[86.11874999999961,19.935416666666335,86.13124999999958,19.94791666666635],"properties":{"id":"riveratlas-41192003","order":3,"discharge":12.815999984741211},"geometry":{"type":"MultiLineString","coordinates":[[[86.11875,19.935417],[86.13125,19.947917]]]}},{"type":"Feature","id":"riveratlas-41192105","bbox":[85.93124999999955,19.93124999999967,85.93541666666621,19.94374999999969],"properties":{"id":"riveratlas-41192105","order":3,"discharge":6.256999969482422},"geometry":{"type":"MultiLineString","coordinates":[[[85.935417,19.94375],[85.93125,19.939583],[85.93125,19.93125]]]}},{"type":"Feature","id":"riveratlas-41192183","bbox":[85.3187499999996,19.927083333333023,85.327083333333,19.927083333333023],"properties":{"id":"riveratlas-41192183","order":3,"discharge":1.7389999628067017},"geometry":{"type":"MultiLineString","coordinates":[[[85.31875,19.927083],[85.327083,19.927083]]]}},{"type":"Feature","id":"riveratlas-41192296","bbox":[85.59791666666618,19.92291666666636,85.61874999999955,19.94791666666635],"properties":{"id":"riveratlas-41192296","order":4,"discharge":34.7140007019043},"geometry":{"type":"MultiLineString","coordinates":[[[85.61875,19.947917],[85.61875,19.94375],[85.597917,19.922917]]]}},{"type":"Feature","id":"riveratlas-41192412","bbox":[85.36874999999955,19.918749999999697,85.38124999999953,19.918749999999697],"properties":{"id":"riveratlas-41192412","order":3,"discharge":2.7660000324249268},"geometry":{"type":"MultiLineString","coordinates":[[[85.36875,19.91875],[85.38125,19.91875]]]}},{"type":"Feature","id":"riveratlas-41192416","bbox":[86.16458333333301,19.918749999999697,86.18958333333288,19.947916666666348],"properties":{"id":"riveratlas-41192416","order":3,"discharge":14.822999954223633},"geometry":{"type":"MultiLineString","coordinates":[[[86.164583,19.947917],[86.16875,19.947917],[86.18125,19.935417],[86.185417,19.935417],[86.189583,19.93125],[86.189583,19.91875]]]}},{"type":"Feature","id":"riveratlas-41192525","bbox":[85.32708333333298,19.91458333333305,85.36874999999957,19.927083333333023],"properties":{"id":"riveratlas-41192525","order":3,"discharge":2.255000114440918},"geometry":{"type":"MultiLineString","coordinates":[[[85.327083,19.927083],[85.339583,19.927083],[85.34375,19.922917],[85.347917,19.922917],[85.35625,19.914583],[85.360417,19.914583],[85.364583,19.91875],[85.36875,19.91875]]]}},{"type":"Feature","id":"riveratlas-41192922","bbox":[86.03124999999952,19.89791666666637,86.1187499999996,19.96458333333303],"properties":{"id":"riveratlas-41192922","order":3,"discharge":11.104999542236328},"geometry":{"type":"MultiLineString","coordinates":[[[86.03125,19.964583],[86.035417,19.960417],[86.035417,19.95625],[86.039583,19.952083],[86.039583,19.947917],[86.04375,19.94375],[86.04375,19.93125],[86.052083,19.922917],[86.052083,19.914583],[86.05625,19.910417],[86.064583,19.910417],[86.072917,19.902083],[86.085417,19.902083],[86.089583,19.897917],[86.097917,19.897917],[86.102083,19.902083],[86.110417,19.902083],[86.114583,19.90625],[86.114583,19.910417],[86.10625,19.91875],[86.10625,19.922917],[86.11875,19.935417]]]}},{"type":"Feature","id":"riveratlas-41192923","bbox":[86.18958333333288,19.89791666666637,86.21458333333291,19.918749999999704],"properties":{"id":"riveratlas-41192923","order":3,"discharge":15.406000137329102},"geometry":{"type":"MultiLineString","coordinates":[[[86.189583,19.91875],[86.202083,19.90625],[86.20625,19.90625],[86.214583,19.897917]]]}},{"type":"Feature","id":"riveratlas-41193121","bbox":[85.58958333333297,19.889583333333015,85.5979166666662,19.922916666666367],"properties":{"id":"riveratlas-41193121","order":4,"discharge":35.13199996948242},"geometry":{"type":"MultiLineString","coordinates":[[[85.597917,19.922917],[85.597917,19.897917],[85.589583,19.889583]]]}},{"type":"Feature","id":"riveratlas-41193122","bbox":[85.58958333333297,19.889583333333015,85.60624999999952,19.889583333333015],"properties":{"id":"riveratlas-41193122","order":3,"discharge":11.954000473022461},"geometry":{"type":"MultiLineString","coordinates":[[[85.60625,19.889583],[85.589583,19.889583]]]}},{"type":"Feature","id":"riveratlas-41193123","bbox":[85.6062499999995,19.889583333333015,85.68124999999957,19.960416666666376],"properties":{"id":"riveratlas-41193123","order":3,"discharge":7.567999839782715},"geometry":{"type":"MultiLineString","coordinates":[[[85.68125,19.960417],[85.677083,19.95625],[85.677083,19.939583],[85.672917,19.935417],[85.672917,19.93125],[85.66875,19.927083],[85.66875,19.910417],[85.652083,19.89375],[85.647917,19.89375],[85.64375,19.889583],[85.639583,19.889583],[85.635417,19.89375],[85.610417,19.89375],[85.60625,19.889583]]]}},{"type":"Feature","id":"riveratlas-41193443","bbox":[85.38124999999954,19.877083333333026,85.4270833333329,19.918749999999694],"properties":{"id":"riveratlas-41193443","order":3,"discharge":3.7820000648498535},"geometry":{"type":"MultiLineString","coordinates":[[[85.38125,19.91875],[85.397917,19.902083],[85.40625,19.902083],[85.410417,19.897917],[85.410417,19.89375],[85.427083,19.877083]]]}},{"type":"Feature","id":"riveratlas-41193668","bbox":[85.90208333333285,19.86874999999967,85.93124999999955,19.931249999999675],"properties":{"id":"riveratlas-41193668","order":3,"discharge":6.965000152587891},"geometry":{"type":"MultiLineString","coordinates":[[[85.93125,19.93125],[85.91875,19.91875],[85.91875,19.910417],[85.914583,19.90625],[85.914583,19.902083],[85.90625,19.89375],[85.90625,19.872917],[85.902083,19.86875]]]}},{"type":"Feature","id":"riveratlas-41193896","bbox":[85.8979166666663,19.86041666666636,85.90208333333284,19.86874999999968],"properties":{"id":"riveratlas-41193896","order":3,"discharge":7.375999927520752},"geometry":{"type":"MultiLineString","coordinates":[[[85.902083,19.86875],[85.902083,19.864583],[85.897917,19.860417]]]}},{"type":"Feature","id":"riveratlas-41193993","bbox":[85.8979166666663,19.856249999999655,85.8979166666663,19.860416666666357],"properties":{"id":"riveratlas-41193993","order":3,"discharge":7.627999782562256},"geometry":{"type":"MultiLineString","coordinates":[[[85.897917,19.860417],[85.897917,19.85625]]]}},{"type":"Feature","id":"riveratlas-41194125","bbox":[85.89374999999953,19.852083333332992,85.89791666666632,19.85624999999965],"properties":{"id":"riveratlas-41194125","order":3,"discharge":8.401000022888184},"geometry":{"type":"MultiLineString","coordinates":[[[85.897917,19.85625],[85.89375,19.852083]]]}},{"type":"Feature","id":"riveratlas-41194239","bbox":[85.74791666666633,19.847916666666343,85.75624999999955,19.847916666666343],"properties":{"id":"riveratlas-41194239","order":3,"discharge":17.39900016784668},"geometry":{"type":"MultiLineString","coordinates":[[[85.75625,19.847917],[85.747917,19.847917]]]}},{"type":"Feature","id":"riveratlas-41194240","bbox":[85.75624999999954,19.847916666666343,85.77291666666635,19.86041666666636],"properties":{"id":"riveratlas-41194240","order":3,"discharge":16.996999740600586},"geometry":{"type":"MultiLineString","coordinates":[[[85.772917,19.860417],[85.760417,19.847917],[85.75625,19.847917]]]}},{"type":"Feature","id":"riveratlas-41194350","bbox":[85.89374999999953,19.84374999999968,85.89791666666632,19.852083333333],"properties":{"id":"riveratlas-41194350","order":3,"discharge":8.967000007629395},"geometry":{"type":"MultiLineString","coordinates":[[[85.89375,19.852083],[85.89375,19.847917],[85.897917,19.84375]]]}},{"type":"Feature","id":"riveratlas-41194438","bbox":[85.56041666666627,19.839583333333017,85.58958333333297,19.889583333333004],"properties":{"id":"riveratlas-41194438","order":4,"discharge":47.11399841308594},"geometry":{"type":"MultiLineString","coordinates":[[[85.589583,19.889583],[85.585417,19.885417],[85.577083,19.885417],[85.572917,19.88125],[85.572917,19.86875],[85.560417,19.85625],[85.560417,19.839583]]]}},{"type":"Feature","id":"riveratlas-41194744","bbox":[85.56041666666627,19.827083333333043,85.56041666666627,19.839583333333017],"properties":{"id":"riveratlas-41194744","order":4,"discharge":47.61899948120117},"geometry":{"type":"MultiLineString","coordinates":[[[85.560417,19.839583],[85.560417,19.827083]]]}},{"type":"Feature","id":"riveratlas-41195005","bbox":[85.8979166666663,19.81874999999969,85.90624999999953,19.84374999999968],"properties":{"id":"riveratlas-41195005","order":3,"discharge":9.218000411987305},"geometry":{"type":"MultiLineString","coordinates":[[[85.897917,19.84375],[85.90625,19.835417],[85.90625,19.81875]]]}},{"type":"Feature","id":"riveratlas-41196295","bbox":[85.06458333333299,19.768749999999706,85.16874999999958,19.810416666666374],"properties":{"id":"riveratlas-41196295","order":3,"discharge":6.258999824523926},"geometry":{"type":"MultiLineString","coordinates":[[[85.064583,19.810417],[85.072917,19.802083],[85.077083,19.802083],[85.08125,19.797917],[85.09375,19.797917],[85.097917,19.79375],[85.097917,19.785417],[85.102083,19.78125],[85.10625,19.78125],[85.110417,19.785417],[85.114583,19.78125],[85.11875,19.78125],[85.127083,19.772917],[85.13125,19.772917],[85.135417,19.76875],[85.139583,19.772917],[85.164583,19.772917],[85.16875,19.76875]]]}},{"type":"Feature","id":"riveratlas-41196296","bbox":[85.18541666666627,19.768749999999706,85.21458333333284,19.802083333333016],"properties":{"id":"riveratlas-41196296","order":3,"discharge":3.509000062942505},"geometry":{"type":"MultiLineString","coordinates":[[[85.185417,19.802083],[85.189583,19.797917],[85.19375,19.797917],[85.197917,19.79375],[85.197917,19.789583],[85.210417,19.777083],[85.210417,19.772917],[85.214583,19.76875]]]}},{"type":"Feature","id":"riveratlas-41196478","bbox":[85.46874999999963,19.760416666666337,85.49374999999954,19.78958333333299],"properties":{"id":"riveratlas-41196478","order":3,"discharge":5.060999870300293},"geometry":{"type":"MultiLineString","coordinates":[[[85.49375,19.789583],[85.49375,19.785417],[85.46875,19.760417]]]}},{"type":"Feature","id":"riveratlas-41196601","bbox":[85.54791666666623,19.75624999999969,85.56041666666628,19.82708333333305],"properties":{"id":"riveratlas-41196601","order":4,"discharge":47.80099868774414},"geometry":{"type":"MultiLineString","coordinates":[[[85.560417,19.827083],[85.560417,19.80625],[85.55625,19.802083],[85.55625,19.772917],[85.552083,19.76875],[85.552083,19.764583],[85.547917,19.760417],[85.547917,19.75625]]]}},{"type":"Feature","id":"riveratlas-41196820","bbox":[85.21458333333285,19.747916666666363,85.26041666666622,19.7687499999997],"properties":{"id":"riveratlas-41196820","order":3,"discharge":4.203999996185303},"geometry":{"type":"MultiLineString","coordinates":[[[85.214583,19.76875],[85.21875,19.764583],[85.21875,19.760417],[85.222917,19.75625],[85.222917,19.752083],[85.227083,19.747917],[85.260417,19.747917]]]}},{"type":"Feature","id":"riveratlas-41196822","bbox":[85.2604166666662,19.747916666666363,85.37291666666623,19.747916666666363],"properties":{"id":"riveratlas-41196822","order":3,"discharge":5.434000015258789},"geometry":{"type":"MultiLineString","coordinates":[[[85.260417,19.747917],[85.372917,19.747917]]]}},{"type":"Feature","id":"riveratlas-41196823","bbox":[85.35208333333301,19.747916666666363,85.37291666666623,19.772916666666355],"properties":{"id":"riveratlas-41196823","order":3,"discharge":4.289999961853027},"geometry":{"type":"MultiLineString","coordinates":[[[85.352083,19.772917],[85.372917,19.752083],[85.372917,19.747917]]]}},{"type":"Feature","id":"riveratlas-41196923","bbox":[85.54791666666623,19.743749999999714,85.55624999999954,19.75624999999969],"properties":{"id":"riveratlas-41196923","order":4,"discharge":48.93899917602539},"geometry":{"type":"MultiLineString","coordinates":[[[85.547917,19.75625],[85.547917,19.752083],[85.55625,19.74375]]]}},{"type":"Feature","id":"riveratlas-41196924","bbox":[85.55624999999955,19.743749999999714,85.74791666666634,19.847916666666343],"properties":{"id":"riveratlas-41196924","order":3,"discharge":20.024999618530273},"geometry":{"type":"MultiLineString","coordinates":[[[85.747917,19.847917],[85.73125,19.847917],[85.722917,19.839583],[85.710417,19.839583],[85.697917,19.827083],[85.689583,19.827083],[85.68125,19.81875],[85.677083,19.81875],[85.66875,19.810417],[85.660417,19.810417],[85.65625,19.80625],[85.635417,19.80625],[85.627083,19.797917],[85.622917,19.797917],[85.614583,19.789583],[85.602083,19.789583],[85.59375,19.78125],[85.577083,19.78125],[85.572917,19.777083],[85.572917,19.772917],[85.560417,19.760417],[85.560417,19.747917],[85.55625,19.74375]]]}},{"type":"Feature","id":"riveratlas-41197236","bbox":[85.37291666666621,19.731249999999697,85.39374999999954,19.747916666666374],"properties":{"id":"riveratlas-41197236","order":4,"discharge":9.883000373840332},"geometry":{"type":"MultiLineString","coordinates":[[[85.372917,19.747917],[85.377083,19.747917],[85.39375,19.73125]]]}},{"type":"Feature","id":"riveratlas-41197637","bbox":[85.16874999999956,19.714583333333017,85.202083333333,19.768749999999702],"properties":{"id":"riveratlas-41197637","order":3,"discharge":6.986999988555908},"geometry":{"type":"MultiLineString","coordinates":[[[85.16875,19.76875],[85.177083,19.760417],[85.177083,19.752083],[85.18125,19.747917],[85.18125,19.74375],[85.185417,19.739583],[85.185417,19.735417],[85.189583,19.73125],[85.189583,19.727083],[85.202083,19.714583]]]}},{"type":"Feature","id":"riveratlas-41197638","bbox":[85.41874999999956,19.714583333333017,85.42708333333287,19.877083333333033],"properties":{"id":"riveratlas-41197638","order":3,"discharge":6.0960001945495605},"geometry":{"type":"MultiLineString","coordinates":[[[85.427083,19.877083],[85.427083,19.860417],[85.41875,19.852083],[85.41875,19.71875],[85.422917,19.714583]]]}},{"type":"Feature","id":"riveratlas-41197639","bbox":[85.42291666666623,19.714583333333017,85.46874999999963,19.760416666666345],"properties":{"id":"riveratlas-41197639","order":3,"discharge":6.357999801635742},"geometry":{"type":"MultiLineString","coordinates":[[[85.46875,19.760417],[85.464583,19.760417],[85.464583,19.75625],[85.422917,19.714583]]]}},{"type":"Feature","id":"riveratlas-41197739","bbox":[85.20208333333298,19.710416666666355,85.20624999999951,19.714583333333014],"properties":{"id":"riveratlas-41197739","order":3,"discharge":7.113999843597412},"geometry":{"type":"MultiLineString","coordinates":[[[85.202083,19.714583],[85.20625,19.710417]]]}},{"type":"Feature","id":"riveratlas-41197740","bbox":[85.20624999999953,19.710416666666355,85.41041666666625,19.710416666666355],"properties":{"id":"riveratlas-41197740","order":3,"discharge":9.149999618530273},"geometry":{"type":"MultiLineString","coordinates":[[[85.20625,19.710417],[85.410417,19.710417]]]}},{"type":"Feature","id":"riveratlas-41197741","bbox":[85.39374999999953,19.710416666666355,85.41041666666625,19.73124999999969],"properties":{"id":"riveratlas-41197741","order":4,"discharge":11.77400016784668},"geometry":{"type":"MultiLineString","coordinates":[[[85.39375,19.73125],[85.410417,19.714583],[85.410417,19.710417]]]}},{"type":"Feature","id":"riveratlas-41197742","bbox":[85.41874999999956,19.710416666666355,85.42291666666623,19.714583333333014],"properties":{"id":"riveratlas-41197742","order":4,"discharge":12.470000267028809},"geometry":{"type":"MultiLineString","coordinates":[[[85.422917,19.714583],[85.41875,19.710417]]]}},{"type":"Feature","id":"riveratlas-41197850","bbox":[85.41041666666624,19.706249999999706,85.41874999999955,19.710416666666365],"properties":{"id":"riveratlas-41197850","order":4,"discharge":20.958999633789062},"geometry":{"type":"MultiLineString","coordinates":[[[85.410417,19.710417],[85.414583,19.70625],[85.41875,19.710417]]]}},{"type":"Feature","id":"riveratlas-41197851","bbox":[85.41874999999956,19.706249999999706,85.42291666666623,19.710416666666365],"properties":{"id":"riveratlas-41197851","order":5,"discharge":33.44499969482422},"geometry":{"type":"MultiLineString","coordinates":[[[85.41875,19.710417],[85.422917,19.70625]]]}},{"type":"Feature","id":"riveratlas-41197853","bbox":[85.49374999999955,19.706249999999706,85.55624999999955,19.743749999999714],"properties":{"id":"riveratlas-41197853","order":4,"discharge":69.36399841308594},"geometry":{"type":"MultiLineString","coordinates":[[[85.55625,19.74375],[85.552083,19.739583],[85.54375,19.739583],[85.535417,19.73125],[85.53125,19.73125],[85.527083,19.727083],[85.522917,19.727083],[85.510417,19.714583],[85.50625,19.714583],[85.502083,19.710417],[85.497917,19.710417],[85.49375,19.70625]]]}},{"type":"Feature","id":"riveratlas-41198078","bbox":[85.42291666666623,19.697916666666337,85.42708333333289,19.706249999999695],"properties":{"id":"riveratlas-41198078","order":5,"discharge":34.41999816894531},"geometry":{"type":"MultiLineString","coordinates":[[[85.422917,19.70625],[85.422917,19.702083],[85.427083,19.697917]]]}},{"type":"Feature","id":"riveratlas-41198188","bbox":[85.38958333333287,19.69374999999969,85.42708333333287,19.697916666666348],"properties":{"id":"riveratlas-41198188","order":3,"discharge":14.496999740600586},"geometry":{"type":"MultiLineString","coordinates":[[[85.389583,19.69375],[85.39375,19.697917],[85.427083,19.697917]]]}},{"type":"Feature","id":"riveratlas-41198404","bbox":[85.36458333333289,19.685416666666363,85.38958333333288,19.69374999999968],"properties":{"id":"riveratlas-41198404","order":3,"discharge":14.045999526977539},"geometry":{"type":"MultiLineString","coordinates":[[[85.364583,19.685417],[85.36875,19.689583],[85.36875,19.69375],[85.389583,19.69375]]]}},{"type":"Feature","id":"riveratlas-41198773","bbox":[85.31458333333293,19.668749999999683,85.34791666666617,19.668749999999683],"properties":{"id":"riveratlas-41198773","order":3,"discharge":13.310999870300293},"geometry":{"type":"MultiLineString","coordinates":[[[85.314583,19.66875],[85.347917,19.66875]]]}},{"type":"Feature","id":"riveratlas-41198774","bbox":[85.34791666666618,19.668749999999683,85.3645833333329,19.68541666666636],"properties":{"id":"riveratlas-41198774","order":3,"discharge":13.58899974822998},"geometry":{"type":"MultiLineString","coordinates":[[[85.347917,19.66875],[85.364583,19.685417]]]}},{"type":"Feature","id":"riveratlas-41198775","bbox":[85.42708333333289,19.668749999999683,85.43958333333295,19.697916666666334],"properties":{"id":"riveratlas-41198775","order":5,"discharge":49.12200164794922},"geometry":{"type":"MultiLineString","coordinates":[[[85.427083,19.697917],[85.435417,19.689583],[85.435417,19.672917],[85.439583,19.66875]]]}},{"type":"Feature","id":"riveratlas-41198776","bbox":[85.43958333333293,19.668749999999683,85.49374999999954,19.70624999999969],"properties":{"id":"riveratlas-41198776","order":4,"discharge":70.17400360107422},"geometry":{"type":"MultiLineString","coordinates":[[[85.49375,19.70625],[85.489583,19.70625],[85.485417,19.702083],[85.477083,19.702083],[85.460417,19.685417],[85.45625,19.685417],[85.439583,19.66875]]]}},{"type":"Feature","id":"riveratlas-41198874","bbox":[85.25624999999954,19.664583333333034,85.31458333333292,19.668749999999694],"properties":{"id":"riveratlas-41198874","order":3,"discharge":11.960000038146973},"geometry":{"type":"MultiLineString","coordinates":[[[85.25625,19.664583],[85.285417,19.664583],[85.289583,19.66875],[85.314583,19.66875]]]}},{"type":"Feature","id":"riveratlas-41198875","bbox":[85.43958333333293,19.664583333333034,85.43958333333293,19.668749999999694],"properties":{"id":"riveratlas-41198875","order":5,"discharge":119.33599853515625},"geometry":{"type":"MultiLineString","coordinates":[[[85.439583,19.66875],[85.439583,19.664583]]]}},{"type":"Feature","id":"riveratlas-41199060","bbox":[85.43958333333293,19.656249999999666,85.49374999999954,19.664583333333024],"properties":{"id":"riveratlas-41199060","order":5,"discharge":120.61699676513672},"geometry":{"type":"MultiLineString","coordinates":[[[85.439583,19.664583],[85.44375,19.660417],[85.489583,19.660417],[85.49375,19.65625]]]}},{"type":"Feature","id":"riveratlas-41199386","bbox":[85.23541666666623,19.64374999999969,85.25624999999955,19.664583333333027],"properties":{"id":"riveratlas-41199386","order":3,"discharge":11.368000030517578},"geometry":{"type":"MultiLineString","coordinates":[[[85.235417,19.64375],[85.25625,19.664583]]]}},{"type":"Feature","id":"riveratlas-41199586","bbox":[85.22708333333301,19.63541666666638,85.23541666666624,19.6437499999997],"properties":{"id":"riveratlas-41199586","order":3,"discharge":8.491999626159668},"geometry":{"type":"MultiLineString","coordinates":[[[85.227083,19.635417],[85.235417,19.64375]]]}},{"type":"Feature","id":"riveratlas-41200490","bbox":[85.18958333333293,19.59791666666637,85.22708333333303,19.63541666666638],"properties":{"id":"riveratlas-41200490","order":3,"discharge":7.5980000495910645},"geometry":{"type":"MultiLineString","coordinates":[[[85.189583,19.597917],[85.227083,19.635417]]]}},{"type":"Feature","id":"riveratlas-41200695","bbox":[85.18124999999961,19.589583333333017,85.18958333333292,19.597916666666375],"properties":{"id":"riveratlas-41200695","order":3,"discharge":4.88700008392334},"geometry":{"type":"MultiLineString","coordinates":[[[85.18125,19.589583],[85.189583,19.597917]]]}},{"type":"Feature","id":"riveratlas-41201524","bbox":[85.1645833333329,19.5562499999997,85.18124999999962,19.58958333333301],"properties":{"id":"riveratlas-41201524","order":3,"discharge":3.5969998836517334},"geometry":{"type":"MultiLineString","coordinates":[[[85.164583,19.55625],[85.164583,19.560417],[85.16875,19.560417],[85.172917,19.564583],[85.172917,19.58125],[85.18125,19.589583]]]}},{"type":"Feature","id":"riveratlas-41202113","bbox":[85.14374999999959,19.53541666666637,85.16458333333291,19.556249999999707],"properties":{"id":"riveratlas-41202113","order":3,"discharge":2.7660000324249268},"geometry":{"type":"MultiLineString","coordinates":[[[85.14375,19.535417],[85.164583,19.55625]]]}},{"type":"Feature","id":"riveratlas-41205812","bbox":[84.98124999999956,19.38958333333303,85.02291666666623,19.41458333333302],"properties":{"id":"riveratlas-41205812","order":5,"discharge":145.3979949951172},"geometry":{"type":"MultiLineString","coordinates":[[[84.98125,19.414583],[84.989583,19.40625],[84.997917,19.40625],[85.014583,19.389583],[85.022917,19.389583]]]}},{"type":"Feature","id":"riveratlas-41205924","bbox":[85.02291666666625,19.385416666666366,85.03541666666622,19.389583333333025],"properties":{"id":"riveratlas-41205924","order":5,"discharge":145.66799926757812},"geometry":{"type":"MultiLineString","coordinates":[[[85.022917,19.389583],[85.027083,19.385417],[85.03125,19.389583],[85.035417,19.385417]]]}},{"type":"Feature","id":"riveratlas-41206151","bbox":[85.03541666666624,19.377083333333054,85.0479166666663,19.385416666666373],"properties":{"id":"riveratlas-41206151","order":5,"discharge":145.8719940185547},"geometry":{"type":"MultiLineString","coordinates":[[[85.035417,19.385417],[85.039583,19.38125],[85.04375,19.38125],[85.047917,19.377083]]]}},{"type":"Feature","id":"riveratlas-41206258","bbox":[85.04791666666628,19.37291666666635,85.064583333333,19.37708333333305],"properties":{"id":"riveratlas-41206258","order":5,"discharge":146.375},"geometry":{"type":"MultiLineString","coordinates":[[[85.047917,19.377083],[85.05625,19.377083],[85.060417,19.372917],[85.064583,19.372917]]]}}]}
