{"type":"FeatureCollection","features":[{"type":"Feature","id":"riveratlas-40352132","bbox":[85.14791666666625,39.99791666666605,85.19374999999961,40.2395833333327],"properties":{"id":"riveratlas-40352132","order":3,"discharge":0.020999999716877937},"geometry":{"type":"MultiLineString","coordinates":[[[85.18125,39.997917],[85.164583,40.014583],[85.164583,40.027083],[85.15625,40.035417],[85.15625,40.039583],[85.152083,40.04375],[85.152083,40.047917],[85.147917,40.052083],[85.160417,40.064583],[85.160417,40.06875],[85.16875,40.077083],[85.16875,40.08125],[85.177083,40.089583],[85.177083,40.097917],[85.185417,40.10625],[85.185417,40.110417],[85.18125,40.114583],[85.185417,40.11875],[85.185417,40.14375],[85.19375,40.152083],[85.19375,40.18125],[85.18125,40.19375],[85.18125,40.197917],[85.19375,40.210417],[85.19375,40.21875],[85.189583,40.222917],[85.189583,40.227083],[85.185417,40.23125],[85.185417,40.235417],[85.18125,40.235417],[85.177083,40.239583],[85.172917,40.239583]]]}},{"type":"Feature","id":"riveratlas-40352138","bbox":[89.36041666666611,39.99791666666605,89.43541666666621,40.02291666666604],"properties":{"id":"riveratlas-40352138","order":3,"discharge":0.4059999883174896},"geometry":{"type":"MultiLineString","coordinates":[[[89.360417,40.022917],[89.36875,40.022917],[89.377083,40.014583],[89.385417,40.014583],[89.389583,40.010417],[89.39375,40.014583],[89.402083,40.014583],[89.40625,40.010417],[89.410417,40.014583],[89.422917,40.014583],[89.427083,40.010417],[89.427083,40.00625],[89.435417,39.997917]]]}},{"type":"Feature","id":"riveratlas-40352139","bbox":[89.78124999999946,39.99791666666605,89.88124999999947,40.06041666666605],"properties":{"id":"riveratlas-40352139","order":4,"discharge":0.6700000166893005},"geometry":{"type":"MultiLineString","coordinates":[[[89.78125,39.997917],[89.79375,40.010417],[89.797917,40.010417],[89.80625,40.01875],[89.810417,40.01875],[89.83125,40.039583],[89.835417,40.039583],[89.839583,40.04375],[89.84375,40.04375],[89.847917,40.047917],[89.852083,40.047917],[89.85625,40.052083],[89.877083,40.052083],[89.88125,40.05625],[89.88125,40.060417]]]}},{"type":"Feature","id":"riveratlas-40352361","bbox":[85.97291666666624,39.98958333333268,85.9854166666663,40.022916666666035],"properties":{"id":"riveratlas-40352361","order":3,"discharge":0},"geometry":{"type":"MultiLineString","coordinates":[[[85.972917,40.022917],[85.977083,40.022917],[85.985417,40.014583],[85.985417,39.989583]]]}},{"type":"Feature","id":"riveratlas-40352480","bbox":[86.19374999999954,39.98541666666603,86.21874999999957,40.03958333333272],"properties":{"id":"riveratlas-40352480","order":4,"discharge":0},"geometry":{"type":"MultiLineString","coordinates":[[[86.202083,39.985417],[86.202083,39.989583],[86.19375,39.997917],[86.19375,40.014583],[86.21875,40.039583]]]}},{"type":"Feature","id":"riveratlas-40352737","bbox":[88.37291666666621,39.97708333333271,88.38541666666615,40.02708333333269],"properties":{"id":"riveratlas-40352737","order":8,"discharge":250.12899780273438},"geometry":{"type":"MultiLineString","coordinates":[[[88.385417,40.027083],[88.38125,40.027083],[88.377083,40.022917],[88.377083,40.00625],[88.38125,40.002083],[88.38125,39.989583],[88.372917,39.98125],[88.372917,39.977083]]]}},{"type":"Feature","id":"riveratlas-40353237","bbox":[88.94374999999948,39.96041666666604,89.0520833333329,40.106249999999385],"properties":{"id":"riveratlas-40353237","order":3,"discharge":0.16200000047683716},"geometry":{"type":"MultiLineString","coordinates":[[[88.94375,40.10625],[88.952083,40.097917],[88.952083,40.09375],[88.95625,40.089583],[88.95625,40.077083],[88.960417,40.072917],[88.960417,40.039583],[88.985417,40.014583],[88.985417,39.98125],[88.989583,39.977083],[89.01875,39.977083],[89.027083,39.96875],[89.035417,39.96875],[89.04375,39.960417],[89.047917,39.960417],[89.052083,39.964583]]]}},{"type":"Feature","id":"riveratlas-40353350","bbox":[85.32291666666626,39.95624999999938,85.36458333333289,40.010416666666025],"properties":{"id":"riveratlas-40353350","order":4,"discharge":0.9760000109672546},"geometry":{"type":"MultiLineString","coordinates":[[[85.322917,39.95625],[85.322917,39.964583],[85.339583,39.98125],[85.34375,39.98125],[85.347917,39.985417],[85.347917,39.989583],[85.360417,40.002083],[85.360417,40.00625],[85.364583,40.010417]]]}},{"type":"Feature","id":"riveratlas-40353827","bbox":[85.78541666666618,39.9395833333327,85.85208333333297,40.081249999999336],"properties":{"id":"riveratlas-40353827","order":3,"discharge":0},"geometry":{"type":"MultiLineString","coordinates":[[[85.785417,39.939583],[85.797917,39.952083],[85.797917,39.95625],[85.802083,39.960417],[85.802083,39.972917],[85.81875,39.989583],[85.81875,39.99375],[85.822917,39.997917],[85.822917,40.010417],[85.827083,40.014583],[85.827083,40.03125],[85.83125,40.035417],[85.83125,40.039583],[85.84375,40.052083],[85.84375,40.05625],[85.852083,40.064583],[85.852083,40.06875],[85.847917,40.072917],[85.835417,40.072917],[85.827083,40.08125]]]}},{"type":"Feature","id":"riveratlas-40353938","bbox":[86.34791666666624,39.935416666666036,86.3937499999996,40.118749999999345],"properties":{"id":"riveratlas-40353938","order":3,"discharge":0},"geometry":{"type":"MultiLineString","coordinates":[[[86.360417,39.935417],[86.360417,39.952083],[86.364583,39.95625],[86.364583,39.964583],[86.36875,39.96875],[86.36875,39.972917],[86.377083,39.98125],[86.377083,39.985417],[86.38125,39.989583],[86.38125,39.99375],[86.385417,39.997917],[86.385417,40.027083],[86.39375,40.035417],[86.39375,40.04375],[86.389583,40.047917],[86.389583,40.052083],[86.385417,40.05625],[86.385417,40.060417],[86.38125,40.064583],[86.38125,40.089583],[86.360417,40.110417],[86.35625,40.110417],[86.347917,40.11875]]]}},{"type":"Feature","id":"riveratlas-40353941","bbox":[86.51041666666626,39.935416666666036,86.53124999999963,40.03124999999939],"properties":{"id":"riveratlas-40353941","order":4,"discharge":0},"geometry":{"type":"MultiLineString","coordinates":[[[86.510417,39.935417],[86.522917,39.947917],[86.522917,39.98125],[86.527083,39.985417],[86.527083,40.002083],[86.522917,40.00625],[86.522917,40.027083],[86.527083,40.03125],[86.53125,40.03125]]]}},{"type":"Feature","id":"riveratlas-40353942","bbox":[86.58124999999953,39.935416666666036,86.6020833333329,40.081249999999336],"properties":{"id":"riveratlas-40353942","order":3,"discharge":0},"geometry":{"type":"MultiLineString","coordinates":[[[86.602083,39.935417],[86.602083,40.002083],[86.597917,40.00625],[86.597917,40.047917],[86.58125,40.064583],[86.58125,40.08125]]]}},{"type":"Feature","id":"riveratlas-40354059","bbox":[88.68541666666616,39.931249999999345,88.72291666666617,40.04374999999938],"properties":{"id":"riveratlas-40354059","order":4,"discharge":0.843999981880188},"geometry":{"type":"MultiLineString","coordinates":[[[88.685417,40.04375],[88.685417,40.039583],[88.689583,40.035417],[88.689583,40.027083],[88.69375,40.022917],[88.69375,39.98125],[88.702083,39.972917],[88.710417,39.972917],[88.714583,39.96875],[88.714583,39.939583],[88.722917,39.93125]]]}},{"type":"Feature","id":"riveratlas-40354411","bbox":[86.03541666666618,39.91874999999937,86.06874999999953,40.072916666666025],"properties":{"id":"riveratlas-40354411","order":3,"discharge":0},"geometry":{"type":"MultiLineString","coordinates":[[[86.047917,39.91875],[86.052083,39.922917],[86.052083,39.93125],[86.047917,39.935417],[86.047917,39.94375],[86.039583,39.952083],[86.039583,39.98125],[86.035417,39.985417],[86.035417,39.997917],[86.04375,40.00625],[86.04375,40.014583],[86.052083,40.022917],[86.052083,40.035417],[86.05625,40.039583],[86.05625,40.060417],[86.06875,40.072917]]]}},{"type":"Feature","id":"riveratlas-40354511","bbox":[85.92708333333289,39.91458333333271,85.95624999999959,40.00624999999936],"properties":{"id":"riveratlas-40354511","order":3,"discharge":0},"geometry":{"type":"MultiLineString","coordinates":[[[85.939583,39.914583],[85.927083,39.927083],[85.927083,39.952083],[85.93125,39.95625],[85.93125,39.972917],[85.947917,39.989583],[85.947917,39.99375],[85.952083,39.997917],[85.952083,40.002083],[85.95625,40.00625]]]}},{"type":"Feature","id":"riveratlas-40354633","bbox":[85.83541666666625,39.910416666666045,85.8687499999996,40.0020833333327],"properties":{"id":"riveratlas-40354633","order":4,"discharge":0},"geometry":{"type":"MultiLineString","coordinates":[[[85.84375,39.910417],[85.852083,39.91875],[85.852083,39.927083],[85.835417,39.94375],[85.839583,39.947917],[85.839583,39.952083],[85.84375,39.95625],[85.84375,39.960417],[85.852083,39.96875],[85.852083,39.972917],[85.85625,39.977083],[85.85625,39.98125],[85.864583,39.989583],[85.864583,39.997917],[85.86875,40.002083]]]}},{"type":"Feature","id":"riveratlas-40354635","bbox":[86.80208333333283,39.910416666666045,86.83124999999953,40.01041666666602],"properties":{"id":"riveratlas-40354635","order":3,"discharge":0},"geometry":{"type":"MultiLineString","coordinates":[[[86.802083,39.910417],[86.802083,39.95625],[86.80625,39.960417],[86.80625,39.972917],[86.810417,39.977083],[86.810417,39.989583],[86.814583,39.99375],[86.814583,40.002083],[86.822917,40.010417],[86.827083,40.010417],[86.83125,40.00625]]]}},{"type":"Feature","id":"riveratlas-40355016","bbox":[87.33958333333297,39.89791666666603,87.37291666666616,40.006249999999355],"properties":{"id":"riveratlas-40355016","order":4,"discharge":0},"geometry":{"type":"MultiLineString","coordinates":[[[87.339583,39.897917],[87.34375,39.897917],[87.347917,39.902083],[87.347917,39.960417],[87.360417,39.972917],[87.360417,39.99375],[87.372917,40.00625]]]}},{"type":"Feature","id":"riveratlas-40355498","bbox":[87.42708333333289,39.88124999999936,87.44791666666626,40.03958333333272],"properties":{"id":"riveratlas-40355498","order":3,"discharge":0},"geometry":{"type":"MultiLineString","coordinates":[[[87.447917,39.88125],[87.43125,39.897917],[87.43125,39.939583],[87.427083,39.94375],[87.427083,40.01875],[87.43125,40.022917],[87.43125,40.03125],[87.435417,40.035417],[87.435417,40.039583]]]}},{"type":"Feature","id":"riveratlas-40356015","bbox":[85.61041666666628,39.864583333332725,85.64791666666625,40.03541666666606],"properties":{"id":"riveratlas-40356015","order":4,"discharge":0},"geometry":{"type":"MultiLineString","coordinates":[[[85.610417,39.864583],[85.610417,39.872917],[85.614583,39.877083],[85.614583,39.885417],[85.610417,39.889583],[85.610417,39.89375],[85.61875,39.902083],[85.61875,39.927083],[85.622917,39.93125],[85.622917,39.935417],[85.627083,39.939583],[85.627083,39.952083],[85.635417,39.960417],[85.635417,39.972917],[85.639583,39.977083],[85.639583,39.989583],[85.64375,39.99375],[85.64375,40.010417],[85.647917,40.014583],[85.647917,40.022917],[85.635417,40.035417]]]}},{"type":"Feature","id":"riveratlas-40356972","bbox":[85.49374999999955,39.831249999999365,85.54374999999958,40.09374999999935],"properties":{"id":"riveratlas-40356972","order":3,"discharge":0},"geometry":{"type":"MultiLineString","coordinates":[[[85.51875,39.83125],[85.51875,39.847917],[85.53125,39.860417],[85.53125,39.86875],[85.527083,39.872917],[85.527083,39.877083],[85.53125,39.88125],[85.53125,39.889583],[85.527083,39.89375],[85.527083,39.927083],[85.522917,39.93125],[85.522917,39.935417],[85.51875,39.939583],[85.51875,39.985417],[85.522917,39.989583],[85.522917,39.99375],[85.54375,40.014583],[85.54375,40.022917],[85.527083,40.039583],[85.522917,40.039583],[85.51875,40.04375],[85.51875,40.05625],[85.50625,40.06875],[85.50625,40.077083],[85.497917,40.085417],[85.497917,40.089583],[85.49375,40.09375]]]}},{"type":"Feature","id":"riveratlas-40358370","bbox":[86.38958333333292,39.785416666666045,86.43124999999955,40.03541666666606],"properties":{"id":"riveratlas-40358370","order":3,"discharge":0},"geometry":{"type":"MultiLineString","coordinates":[[[86.39375,39.785417],[86.39375,39.789583],[86.389583,39.79375],[86.389583,39.797917],[86.39375,39.802083],[86.39375,39.810417],[86.40625,39.822917],[86.40625,39.83125],[86.402083,39.835417],[86.402083,39.84375],[86.414583,39.85625],[86.414583,39.864583],[86.41875,39.86875],[86.422917,39.86875],[86.427083,39.872917],[86.427083,39.885417],[86.414583,39.897917],[86.43125,39.914583],[86.43125,39.927083],[86.427083,39.93125],[86.427083,39.939583],[86.41875,39.947917],[86.41875,39.972917],[86.422917,39.977083],[86.422917,40.022917],[86.427083,40.027083],[86.427083,40.03125],[86.43125,40.035417]]]}},{"type":"Feature","id":"riveratlas-40358843","bbox":[85.08124999999953,39.768749999999365,85.13958333333288,40.14791666666604],"properties":{"id":"riveratlas-40358843","order":4,"discharge":0.026000000536441803},"geometry":{"type":"MultiLineString","coordinates":[[[85.08125,39.76875],[85.09375,39.78125],[85.09375,39.79375],[85.102083,39.802083],[85.10625,39.802083],[85.110417,39.80625],[85.110417,39.810417],[85.11875,39.81875],[85.11875,39.83125],[85.114583,39.835417],[85.122917,39.84375],[85.11875,39.847917],[85.11875,39.88125],[85.122917,39.885417],[85.122917,39.889583],[85.127083,39.89375],[85.127083,39.902083],[85.13125,39.90625],[85.13125,39.91875],[85.127083,39.922917],[85.127083,39.927083],[85.122917,39.93125],[85.122917,39.935417],[85.11875,39.939583],[85.11875,39.94375],[85.13125,39.95625],[85.13125,39.964583],[85.122917,39.972917],[85.122917,39.977083],[85.11875,39.98125],[85.11875,39.997917],[85.122917,40.002083],[85.122917,40.022917],[85.110417,40.035417],[85.10625,40.035417],[85.102083,40.039583],[85.10625,40.04375],[85.10625,40.047917],[85.110417,40.052083],[85.110417,40.072917],[85.11875,40.08125],[85.11875,40.085417],[85.13125,40.097917],[85.13125,40.114583],[85.135417,40.11875],[85.135417,40.122917],[85.139583,40.127083],[85.139583,40.135417],[85.13125,40.14375],[85.127083,40.14375],[85.122917,40.147917]]]}},{"type":"Feature","id":"riveratlas-40359627","bbox":[86.9770833333329,39.74374999999937,87.02708333333293,40.00624999999936],"properties":{"id":"riveratlas-40359627","order":3,"discharge":0},"geometry":{"type":"MultiLineString","coordinates":[[[86.977083,40.00625],[86.985417,39.997917],[86.985417,39.864583],[86.99375,39.85625],[86.99375,39.797917],[87.010417,39.78125],[87.010417,39.75625],[87.022917,39.74375],[87.027083,39.74375]]]}},{"type":"Feature","id":"riveratlas-40366462","bbox":[85.61041666666628,39.506249999999376,85.68124999999957,40.09374999999935],"properties":{"id":"riveratlas-40366462","order":3,"discharge":0},"geometry":{"type":"MultiLineString","coordinates":[[[85.627083,39.50625],[85.622917,39.510417],[85.622917,39.514583],[85.61875,39.51875],[85.614583,39.51875],[85.610417,39.522917],[85.610417,39.527083],[85.61875,39.535417],[85.61875,39.539583],[85.63125,39.552083],[85.63125,39.560417],[85.64375,39.572917],[85.635417,39.58125],[85.635417,39.59375],[85.63125,39.597917],[85.635417,39.602083],[85.635417,39.60625],[85.639583,39.610417],[85.64375,39.610417],[85.652083,39.61875],[85.652083,39.627083],[85.65625,39.63125],[85.652083,39.635417],[85.647917,39.635417],[85.63125,39.652083],[85.63125,39.685417],[85.627083,39.689583],[85.63125,39.69375],[85.63125,39.702083],[85.64375,39.714583],[85.64375,39.71875],[85.647917,39.722917],[85.647917,39.727083],[85.65625,39.735417],[85.660417,39.735417],[85.664583,39.739583],[85.672917,39.739583],[85.677083,39.74375],[85.677083,39.760417],[85.664583,39.772917],[85.664583,39.79375],[85.65625,39.802083],[85.65625,39.814583],[85.647917,39.822917],[85.647917,39.860417],[85.677083,39.889583],[85.677083,39.902083],[85.66875,39.910417],[85.66875,39.914583],[85.664583,39.91875],[85.664583,39.922917],[85.66875,39.927083],[85.66875,39.939583],[85.672917,39.94375],[85.672917,39.960417],[85.68125,39.96875],[85.68125,39.972917],[85.677083,39.977083],[85.677083,39.989583],[85.672917,39.99375],[85.677083,39.997917],[85.677083,40.002083],[85.672917,40.00625],[85.677083,40.010417],[85.677083,40.089583],[85.68125,40.09375]]]}}]}
