{"type":"FeatureCollection","features":[{"type":"Feature","id":"riveratlas-41340133","bbox":[92.92291666666611,13.493749999999757,92.92708333333277,13.497916666666457],"properties":{"id":"riveratlas-41340133","order":3,"discharge":1.9010000228881836},"geometry":{"type":"MultiLineString","coordinates":[[[92.927083,13.49375],[92.922917,13.497917]]]}},{"type":"Feature","id":"riveratlas-41341425","bbox":[92.88541666666615,13.422916666666431,92.89374999999954,13.43124999999979],"properties":{"id":"riveratlas-41341425","order":3,"discharge":1.1490000486373901},"geometry":{"type":"MultiLineString","coordinates":[[[92.89375,13.422917],[92.885417,13.43125]]]}},{"type":"Feature","id":"riveratlas-41342074","bbox":[92.87291666666616,13.385416666666465,92.9229166666661,13.414583333333116],"properties":{"id":"riveratlas-41342074","order":3,"discharge":2.315999984741211},"geometry":{"type":"MultiLineString","coordinates":[[[92.922917,13.389583],[92.914583,13.389583],[92.910417,13.385417],[92.897917,13.385417],[92.889583,13.39375],[92.889583,13.40625],[92.88125,13.414583],[92.872917,13.414583]]]}},{"type":"Feature","id":"riveratlas-41344235","bbox":[92.99791666666616,13.264583333333114,93.00624999999947,13.264583333333114],"properties":{"id":"riveratlas-41344235","order":3,"discharge":7.48799991607666},"geometry":{"type":"MultiLineString","coordinates":[[[92.997917,13.264583],[93.00625,13.264583]]]}},{"type":"Feature","id":"riveratlas-41344236","bbox":[93.00624999999948,13.264583333333114,93.0145833333328,13.277083333333131],"properties":{"id":"riveratlas-41344236","order":3,"discharge":8.229000091552734},"geometry":{"type":"MultiLineString","coordinates":[[[93.00625,13.264583],[93.010417,13.264583],[93.014583,13.26875],[93.014583,13.277083]]]}},{"type":"Feature","id":"riveratlas-41344461","bbox":[92.96874999999946,13.25208333333314,92.97291666666612,13.25208333333314],"properties":{"id":"riveratlas-41344461","order":3,"discharge":3.0510001182556152},"geometry":{"type":"MultiLineString","coordinates":[[[92.96875,13.252083],[92.972917,13.252083]]]}},{"type":"Feature","id":"riveratlas-41344463","bbox":[92.97291666666612,13.25208333333314,92.98124999999943,13.25208333333314],"properties":{"id":"riveratlas-41344463","order":3,"discharge":3.240999937057495},"geometry":{"type":"MultiLineString","coordinates":[[[92.972917,13.252083],[92.98125,13.252083]]]}},{"type":"Feature","id":"riveratlas-41344464","bbox":[92.98124999999945,13.25208333333314,92.99791666666617,13.264583333333116],"properties":{"id":"riveratlas-41344464","order":3,"discharge":6.989999771118164},"geometry":{"type":"MultiLineString","coordinates":[[[92.98125,13.252083],[92.989583,13.260417],[92.99375,13.260417],[92.997917,13.264583]]]}},{"type":"Feature","id":"riveratlas-41347466","bbox":[92.9354166666661,13.077083333333114,92.93958333333276,13.106249999999807],"properties":{"id":"riveratlas-41347466","order":3,"discharge":4.36899995803833},"geometry":{"type":"MultiLineString","coordinates":[[[92.939583,13.10625],[92.939583,13.09375],[92.935417,13.089583],[92.935417,13.08125],[92.939583,13.077083]]]}},{"type":"Feature","id":"riveratlas-41347631","bbox":[92.93958333333276,13.068749999999802,92.93958333333276,13.07708333333312],"properties":{"id":"riveratlas-41347631","order":3,"discharge":4.49399995803833},"geometry":{"type":"MultiLineString","coordinates":[[[92.939583,13.077083],[92.939583,13.06875]]]}},{"type":"Feature","id":"riveratlas-41347855","bbox":[92.86041666666611,13.056249999999771,92.87708333333283,13.068749999999788],"properties":{"id":"riveratlas-41347855","order":3,"discharge":1.7059999704360962},"geometry":{"type":"MultiLineString","coordinates":[[[92.860417,13.06875],[92.864583,13.064583],[92.864583,13.060417],[92.86875,13.05625],[92.877083,13.05625]]]}},{"type":"Feature","id":"riveratlas-41347987","bbox":[92.87708333333282,13.04791666666646,92.90624999999952,13.060416666666477],"properties":{"id":"riveratlas-41347987","order":3,"discharge":2.7149999141693115},"geometry":{"type":"MultiLineString","coordinates":[[[92.877083,13.05625],[92.885417,13.047917],[92.889583,13.047917],[92.89375,13.052083],[92.89375,13.05625],[92.897917,13.060417],[92.90625,13.060417]]]}},{"type":"Feature","id":"riveratlas-41350675","bbox":[92.79374999999939,12.902083333333117,92.80208333333279,12.914583333333134],"properties":{"id":"riveratlas-41350675","order":3,"discharge":5.973999977111816},"geometry":{"type":"MultiLineString","coordinates":[[[92.802083,12.902083],[92.797917,12.90625],[92.797917,12.910417],[92.79375,12.914583]]]}},{"type":"Feature","id":"riveratlas-41350738","bbox":[92.80208333333277,12.897916666666468,92.81041666666609,12.902083333333128],"properties":{"id":"riveratlas-41350738","order":3,"discharge":5.744999885559082},"geometry":{"type":"MultiLineString","coordinates":[[[92.810417,12.897917],[92.80625,12.897917],[92.802083,12.902083]]]}},{"type":"Feature","id":"riveratlas-41350740","bbox":[92.8104166666661,12.897916666666468,92.82291666666607,12.897916666666468],"properties":{"id":"riveratlas-41350740","order":3,"discharge":5.429999828338623},"geometry":{"type":"MultiLineString","coordinates":[[[92.822917,12.897917],[92.810417,12.897917]]]}},{"type":"Feature","id":"riveratlas-41351626","bbox":[92.82291666666609,12.847916666666471,92.84374999999946,12.897916666666456],"properties":{"id":"riveratlas-41351626","order":3,"discharge":5.098999977111816},"geometry":{"type":"MultiLineString","coordinates":[[[92.839583,12.847917],[92.84375,12.852083],[92.835417,12.860417],[92.835417,12.872917],[92.84375,12.88125],[92.84375,12.889583],[92.839583,12.89375],[92.83125,12.885417],[92.827083,12.889583],[92.827083,12.89375],[92.822917,12.897917]]]}},{"type":"Feature","id":"riveratlas-41351935","bbox":[92.83124999999941,12.831249999999805,92.83958333333281,12.847916666666482],"properties":{"id":"riveratlas-41351935","order":3,"discharge":3.805999994277954},"geometry":{"type":"MultiLineString","coordinates":[[[92.83125,12.83125],[92.835417,12.835417],[92.835417,12.839583],[92.839583,12.84375],[92.839583,12.847917]]]}},{"type":"Feature","id":"riveratlas-41352175","bbox":[92.82708333333275,12.818749999999831,92.83124999999941,12.831249999999807],"properties":{"id":"riveratlas-41352175","order":3,"discharge":3.3420000076293945},"geometry":{"type":"MultiLineString","coordinates":[[[92.827083,12.81875],[92.827083,12.827083],[92.83125,12.83125]]]}},{"type":"Feature","id":"riveratlas-41352454","bbox":[92.82291666666609,12.802083333333108,92.82708333333275,12.818749999999826],"properties":{"id":"riveratlas-41352454","order":3,"discharge":2.5199999809265137},"geometry":{"type":"MultiLineString","coordinates":[[[92.822917,12.802083],[92.827083,12.80625],[92.827083,12.81875]]]}},{"type":"Feature","id":"riveratlas-41352695","bbox":[92.81874999999943,12.789583333333134,92.82291666666609,12.80208333333311],"properties":{"id":"riveratlas-41352695","order":3,"discharge":2.2339999675750732},"geometry":{"type":"MultiLineString","coordinates":[[[92.81875,12.789583],[92.81875,12.797917],[92.822917,12.802083]]]}},{"type":"Feature","id":"riveratlas-41354526","bbox":[92.88124999999948,12.689583333333125,92.88958333333288,12.71458333333316],"properties":{"id":"riveratlas-41354526","order":3,"discharge":3.2019999027252197},"geometry":{"type":"MultiLineString","coordinates":[[[92.889583,12.714583],[92.885417,12.710417],[92.889583,12.70625],[92.885417,12.702083],[92.885417,12.697917],[92.88125,12.69375],[92.88125,12.689583]]]}},{"type":"Feature","id":"riveratlas-41354692","bbox":[92.77708333333274,12.6812499999998,92.78541666666605,12.727083333333127],"properties":{"id":"riveratlas-41354692","order":3,"discharge":2.622999906539917},"geometry":{"type":"MultiLineString","coordinates":[[[92.777083,12.727083],[92.777083,12.722917],[92.785417,12.714583],[92.785417,12.68125]]]}},{"type":"Feature","id":"riveratlas-41354777","bbox":[92.78541666666607,12.677083333333151,92.78541666666607,12.68124999999981],"properties":{"id":"riveratlas-41354777","order":3,"discharge":2.880000114440918},"geometry":{"type":"MultiLineString","coordinates":[[[92.785417,12.68125],[92.785417,12.677083]]]}},{"type":"Feature","id":"riveratlas-41354857","bbox":[92.88124999999948,12.672916666666488,92.88541666666615,12.689583333333122],"properties":{"id":"riveratlas-41354857","order":3,"discharge":4.489999771118164},"geometry":{"type":"MultiLineString","coordinates":[[[92.88125,12.689583],[92.88125,12.677083],[92.885417,12.672917]]]}},{"type":"Feature","id":"riveratlas-41354935","bbox":[92.75624999999948,12.668749999999783,92.7729166666662,12.672916666666483],"properties":{"id":"riveratlas-41354935","order":4,"discharge":10.588000297546387},"geometry":{"type":"MultiLineString","coordinates":[[[92.772917,12.672917],[92.76875,12.672917],[92.764583,12.66875],[92.760417,12.66875],[92.75625,12.672917]]]}},{"type":"Feature","id":"riveratlas-41354936","bbox":[92.77291666666619,12.668749999999783,92.77708333333273,12.672916666666483],"properties":{"id":"riveratlas-41354936","order":4,"discharge":10.291000366210938},"geometry":{"type":"MultiLineString","coordinates":[[[92.777083,12.66875],[92.772917,12.672917]]]}},{"type":"Feature","id":"riveratlas-41354937","bbox":[92.77708333333274,12.668749999999783,92.78541666666605,12.677083333333142],"properties":{"id":"riveratlas-41354937","order":3,"discharge":3.0950000286102295},"geometry":{"type":"MultiLineString","coordinates":[[[92.785417,12.677083],[92.777083,12.66875]]]}},{"type":"Feature","id":"riveratlas-41354940","bbox":[92.88541666666615,12.668749999999783,92.88958333333285,12.672916666666483],"properties":{"id":"riveratlas-41354940","order":3,"discharge":4.688000202178955},"geometry":{"type":"MultiLineString","coordinates":[[[92.885417,12.672917],[92.889583,12.66875]]]}},{"type":"Feature","id":"riveratlas-41355022","bbox":[92.77708333333274,12.664583333333134,92.78124999999953,12.668749999999793],"properties":{"id":"riveratlas-41355022","order":3,"discharge":6.993000030517578},"geometry":{"type":"MultiLineString","coordinates":[[[92.78125,12.664583],[92.777083,12.66875]]]}},{"type":"Feature","id":"riveratlas-41355101","bbox":[92.88958333333287,12.660416666666471,92.88958333333287,12.668749999999788],"properties":{"id":"riveratlas-41355101","order":3,"discharge":5.047999858856201},"geometry":{"type":"MultiLineString","coordinates":[[[92.889583,12.66875],[92.889583,12.660417]]]}},{"type":"Feature","id":"riveratlas-41355166","bbox":[92.84791666666612,12.656249999999808,92.85208333333279,12.656249999999808],"properties":{"id":"riveratlas-41355166","order":3,"discharge":1.5720000267028809},"geometry":{"type":"MultiLineString","coordinates":[[[92.847917,12.65625],[92.852083,12.65625]]]}},{"type":"Feature","id":"riveratlas-41355169","bbox":[92.88124999999948,12.656249999999808,92.88958333333288,12.660416666666467],"properties":{"id":"riveratlas-41355169","order":3,"discharge":3.4709999561309814},"geometry":{"type":"MultiLineString","coordinates":[[[92.88125,12.65625],[92.885417,12.660417],[92.889583,12.660417]]]}},{"type":"Feature","id":"riveratlas-41355170","bbox":[92.88958333333287,12.656249999999808,92.89374999999953,12.660416666666467],"properties":{"id":"riveratlas-41355170","order":4,"discharge":8.564000129699707},"geometry":{"type":"MultiLineString","coordinates":[[[92.889583,12.660417],[92.89375,12.65625]]]}},{"type":"Feature","id":"riveratlas-41355241","bbox":[92.85208333333279,12.652083333333145,92.88124999999948,12.656249999999805],"properties":{"id":"riveratlas-41355241","order":3,"discharge":3.180999994277954},"geometry":{"type":"MultiLineString","coordinates":[[[92.852083,12.65625],[92.864583,12.65625],[92.86875,12.652083],[92.877083,12.652083],[92.88125,12.65625]]]}},{"type":"Feature","id":"riveratlas-41355306","bbox":[92.78124999999952,12.647916666666454,92.78124999999952,12.66458333333313],"properties":{"id":"riveratlas-41355306","order":3,"discharge":6.566999912261963},"geometry":{"type":"MultiLineString","coordinates":[[[92.78125,12.647917],[92.78125,12.664583]]]}},{"type":"Feature","id":"riveratlas-41355374","bbox":[92.78124999999952,12.643749999999791,92.78124999999952,12.64791666666645],"properties":{"id":"riveratlas-41355374","order":3,"discharge":6.396999835968018},"geometry":{"type":"MultiLineString","coordinates":[[[92.78125,12.64375],[92.78125,12.647917]]]}},{"type":"Feature","id":"riveratlas-41355376","bbox":[92.89374999999953,12.643749999999791,92.90208333333275,12.656249999999808],"properties":{"id":"riveratlas-41355376","order":4,"discharge":8.696999549865723},"geometry":{"type":"MultiLineString","coordinates":[[[92.89375,12.65625],[92.89375,12.652083],[92.902083,12.64375]]]}},{"type":"Feature","id":"riveratlas-41355754","bbox":[92.90208333333274,12.622916666666463,92.92291666666611,12.643749999999796],"properties":{"id":"riveratlas-41355754","order":4,"discharge":11.359000205993652},"geometry":{"type":"MultiLineString","coordinates":[[[92.902083,12.64375],[92.910417,12.635417],[92.914583,12.635417],[92.922917,12.627083],[92.922917,12.622917]]]}},{"type":"Feature","id":"riveratlas-41355881","bbox":[92.92291666666611,12.614583333333137,92.95624999999941,12.631249999999813],"properties":{"id":"riveratlas-41355881","order":4,"discharge":11.640999794006348},"geometry":{"type":"MultiLineString","coordinates":[[[92.922917,12.622917],[92.93125,12.614583],[92.947917,12.63125],[92.95625,12.63125]]]}},{"type":"Feature","id":"riveratlas-41357842","bbox":[92.86041666666611,12.510416666666465,92.86458333333282,12.543749999999816],"properties":{"id":"riveratlas-41357842","order":3,"discharge":2.6730000972747803},"geometry":{"type":"MultiLineString","coordinates":[[[92.860417,12.54375],[92.860417,12.535417],[92.864583,12.53125],[92.864583,12.514583],[92.860417,12.510417]]]}},{"type":"Feature","id":"riveratlas-41357945","bbox":[92.85208333333279,12.506249999999817,92.8604166666661,12.510416666666476],"properties":{"id":"riveratlas-41357945","order":3,"discharge":3.197000026702881},"geometry":{"type":"MultiLineString","coordinates":[[[92.860417,12.510417],[92.85625,12.50625],[92.852083,12.50625]]]}},{"type":"Feature","id":"riveratlas-41358125","bbox":[92.8395833333328,12.497916666666448,92.85208333333277,12.506249999999808],"properties":{"id":"riveratlas-41358125","order":3,"discharge":3.48799991607666},"geometry":{"type":"MultiLineString","coordinates":[[[92.852083,12.50625],[92.84375,12.497917],[92.839583,12.497917]]]}},{"type":"Feature","id":"riveratlas-41358363","bbox":[92.8395833333328,12.485416666666474,92.8395833333328,12.49791666666645],"properties":{"id":"riveratlas-41358363","order":3,"discharge":5.245999813079834},"geometry":{"type":"MultiLineString","coordinates":[[[92.839583,12.497917],[92.839583,12.485417]]]}},{"type":"Feature","id":"riveratlas-41358450","bbox":[92.8395833333328,12.481249999999825,92.84374999999946,12.485416666666485],"properties":{"id":"riveratlas-41358450","order":3,"discharge":6.117000102996826},"geometry":{"type":"MultiLineString","coordinates":[[[92.839583,12.485417],[92.84375,12.48125]]]}},{"type":"Feature","id":"riveratlas-41358452","bbox":[92.91874999999939,12.481249999999825,92.93541666666611,12.493749999999801],"properties":{"id":"riveratlas-41358452","order":3,"discharge":3.3929998874664307},"geometry":{"type":"MultiLineString","coordinates":[[[92.91875,12.489583],[92.922917,12.489583],[92.927083,12.49375],[92.935417,12.485417],[92.935417,12.48125]]]}},{"type":"Feature","id":"riveratlas-41358738","bbox":[92.84374999999946,12.464583333333145,92.84791666666612,12.481249999999822],"properties":{"id":"riveratlas-41358738","order":3,"discharge":6.526000022888184},"geometry":{"type":"MultiLineString","coordinates":[[[92.84375,12.48125],[92.84375,12.46875],[92.847917,12.464583]]]}},{"type":"Feature","id":"riveratlas-41358806","bbox":[92.84791666666612,12.460416666666482,92.85208333333279,12.464583333333142],"properties":{"id":"riveratlas-41358806","order":3,"discharge":6.7820000648498535},"geometry":{"type":"MultiLineString","coordinates":[[[92.847917,12.464583],[92.852083,12.460417]]]}},{"type":"Feature","id":"riveratlas-41359098","bbox":[92.85208333333279,12.443749999999802,92.88124999999948,12.460416666666479],"properties":{"id":"riveratlas-41359098","order":3,"discharge":7.3520002365112305},"geometry":{"type":"MultiLineString","coordinates":[[[92.852083,12.460417],[92.85625,12.45625],[92.860417,12.45625],[92.872917,12.44375],[92.88125,12.44375]]]}},{"type":"Feature","id":"riveratlas-41359289","bbox":[92.7895833333329,12.435416666666491,92.80624999999945,12.468749999999801],"properties":{"id":"riveratlas-41359289","order":3,"discharge":3.255000114440918},"geometry":{"type":"MultiLineString","coordinates":[[[92.789583,12.46875],[92.79375,12.46875],[92.797917,12.464583],[92.797917,12.447917],[92.79375,12.44375],[92.79375,12.439583],[92.797917,12.435417],[92.802083,12.439583],[92.80625,12.439583]]]}},{"type":"Feature","id":"riveratlas-41359290","bbox":[92.80624999999944,12.435416666666491,92.81458333333275,12.43958333333315],"properties":{"id":"riveratlas-41359290","order":3,"discharge":3.6429998874664307},"geometry":{"type":"MultiLineString","coordinates":[[[92.80625,12.439583],[92.810417,12.435417],[92.814583,12.435417]]]}},{"type":"Feature","id":"riveratlas-41359385","bbox":[92.81458333333276,12.431249999999785,92.82708333333274,12.435416666666486],"properties":{"id":"riveratlas-41359385","order":3,"discharge":4.954999923706055},"geometry":{"type":"MultiLineString","coordinates":[[[92.814583,12.435417],[92.81875,12.435417],[92.822917,12.43125],[92.827083,12.43125]]]}},{"type":"Feature","id":"riveratlas-41359466","bbox":[92.88124999999948,12.427083333333137,92.8979166666662,12.443749999999813],"properties":{"id":"riveratlas-41359466","order":3,"discharge":8.300999641418457},"geometry":{"type":"MultiLineString","coordinates":[[[92.88125,12.44375],[92.897917,12.427083]]]}},{"type":"Feature","id":"riveratlas-41359613","bbox":[92.89791666666619,12.418749999999811,92.90208333333273,12.427083333333128],"properties":{"id":"riveratlas-41359613","order":3,"discharge":8.470999717712402},"geometry":{"type":"MultiLineString","coordinates":[[[92.897917,12.427083],[92.897917,12.422917],[92.902083,12.41875]]]}},{"type":"Feature","id":"riveratlas-41360572","bbox":[92.7437499999995,12.360416666666474,92.7520833333328,12.372916666666491],"properties":{"id":"riveratlas-41360572","order":3,"discharge":3.5360000133514404},"geometry":{"type":"MultiLineString","coordinates":[[[92.752083,12.372917],[92.747917,12.36875],[92.747917,12.364583],[92.74375,12.360417]]]}},{"type":"Feature","id":"riveratlas-41360785","bbox":[92.73958333333283,12.3479166666665,92.7437499999995,12.360416666666476],"properties":{"id":"riveratlas-41360785","order":3,"discharge":3.931999921798706},"geometry":{"type":"MultiLineString","coordinates":[[[92.74375,12.360417],[92.74375,12.352083],[92.739583,12.347917]]]}},{"type":"Feature","id":"riveratlas-41361119","bbox":[92.73958333333283,12.33124999999982,92.73958333333283,12.347916666666496],"properties":{"id":"riveratlas-41361119","order":3,"discharge":4.289999961853027},"geometry":{"type":"MultiLineString","coordinates":[[[92.739583,12.347917],[92.739583,12.33125]]]}},{"type":"Feature","id":"riveratlas-41361620","bbox":[92.73541666666617,12.302083333333123,92.73958333333283,12.331249999999816],"properties":{"id":"riveratlas-41361620","order":3,"discharge":5.052999973297119},"geometry":{"type":"MultiLineString","coordinates":[[[92.739583,12.33125],[92.739583,12.314583],[92.735417,12.310417],[92.735417,12.302083]]]}},{"type":"Feature","id":"riveratlas-41365561","bbox":[92.7437499999995,12.072916666666494,92.74791666666616,12.072916666666494],"properties":{"id":"riveratlas-41365561","order":3,"discharge":9.925999641418457},"geometry":{"type":"MultiLineString","coordinates":[[[92.74375,12.072917],[92.747917,12.072917]]]}},{"type":"Feature","id":"riveratlas-41365950","bbox":[92.71041666666613,12.047916666666502,92.74374999999948,12.072916666666496],"properties":{"id":"riveratlas-41365950","order":3,"discharge":6.364999771118164},"geometry":{"type":"MultiLineString","coordinates":[[[92.710417,12.047917],[92.714583,12.047917],[92.71875,12.052083],[92.722917,12.052083],[92.74375,12.072917]]]}},{"type":"Feature","id":"riveratlas-41366022","bbox":[92.6854166666661,12.043749999999797,92.70624999999943,12.047916666666497],"properties":{"id":"riveratlas-41366022","order":3,"discharge":4.948999881744385},"geometry":{"type":"MultiLineString","coordinates":[[[92.685417,12.047917],[92.689583,12.04375],[92.70625,12.04375]]]}},{"type":"Feature","id":"riveratlas-41366023","bbox":[92.70624999999941,12.043749999999797,92.71041666666612,12.047916666666497],"properties":{"id":"riveratlas-41366023","order":3,"discharge":5.642000198364258},"geometry":{"type":"MultiLineString","coordinates":[[[92.70625,12.04375],[92.710417,12.047917]]]}},{"type":"Feature","id":"riveratlas-41369589","bbox":[92.68958333333276,11.814583333333168,92.69791666666607,11.814583333333168],"properties":{"id":"riveratlas-41369589","order":3,"discharge":4.728000164031982},"geometry":{"type":"MultiLineString","coordinates":[[[92.689583,11.814583],[92.697917,11.814583]]]}},{"type":"Feature","id":"riveratlas-41369591","bbox":[92.69791666666609,11.814583333333168,92.7062499999994,11.814583333333168],"properties":{"id":"riveratlas-41369591","order":3,"discharge":5.275000095367432},"geometry":{"type":"MultiLineString","coordinates":[[[92.697917,11.814583],[92.70625,11.814583]]]}},{"type":"Feature","id":"riveratlas-41369592","bbox":[92.70624999999941,11.814583333333168,92.71458333333281,11.822916666666485],"properties":{"id":"riveratlas-41369592","order":3,"discharge":6.934999942779541},"geometry":{"type":"MultiLineString","coordinates":[[[92.70625,11.814583],[92.714583,11.822917]]]}},{"type":"Feature","id":"riveratlas-41369838","bbox":[92.67708333333277,11.797916666666488,92.68958333333275,11.814583333333164],"properties":{"id":"riveratlas-41369838","order":3,"discharge":2.2799999713897705},"geometry":{"type":"MultiLineString","coordinates":[[[92.677083,11.797917],[92.68125,11.802083],[92.68125,11.80625],[92.689583,11.814583]]]}},{"type":"Feature","id":"riveratlas-41371336","bbox":[92.69791666666609,11.70208333333317,92.69791666666609,11.718749999999805],"properties":{"id":"riveratlas-41371336","order":3,"discharge":2.7109999656677246},"geometry":{"type":"MultiLineString","coordinates":[[[92.697917,11.71875],[92.697917,11.702083]]]}},{"type":"Feature","id":"riveratlas-41371391","bbox":[92.69791666666609,11.69791666666648,92.70208333333275,11.70208333333318],"properties":{"id":"riveratlas-41371391","order":3,"discharge":3.2290000915527344},"geometry":{"type":"MultiLineString","coordinates":[[[92.697917,11.702083],[92.702083,11.697917]]]}},{"type":"Feature","id":"riveratlas-41372573","bbox":[92.69374999999943,11.618749999999842,92.69374999999943,11.635416666666476],"properties":{"id":"riveratlas-41372573","order":3,"discharge":3.246000051498413},"geometry":{"type":"MultiLineString","coordinates":[[[92.69375,11.61875],[92.69375,11.635417]]]}},{"type":"Feature","id":"riveratlas-41372626","bbox":[92.68958333333276,11.614583333333137,92.69374999999943,11.618749999999837],"properties":{"id":"riveratlas-41372626","order":3,"discharge":2.871999979019165},"geometry":{"type":"MultiLineString","coordinates":[[[92.689583,11.614583],[92.69375,11.61875]]]}},{"type":"Feature","id":"riveratlas-41382304","bbox":[92.4645833333328,10.843749999999808,92.4729166666662,10.864583333333185],"properties":{"id":"riveratlas-41382304","order":3,"discharge":4.177999973297119},"geometry":{"type":"MultiLineString","coordinates":[[[92.472917,10.84375],[92.472917,10.847917],[92.46875,10.852083],[92.46875,10.860417],[92.464583,10.864583]]]}},{"type":"Feature","id":"riveratlas-41383185","bbox":[92.39374999999941,10.76458333333317,92.39791666666625,10.781249999999805],"properties":{"id":"riveratlas-41383185","order":3,"discharge":6.434999942779541},"geometry":{"type":"MultiLineString","coordinates":[[[92.397917,10.764583],[92.39375,10.76875],[92.39375,10.78125]]]}},{"type":"Feature","id":"riveratlas-41383231","bbox":[92.39791666666625,10.760416666666508,92.42708333333277,10.777083333333142],"properties":{"id":"riveratlas-41383231","order":3,"discharge":6.192999839782715},"geometry":{"type":"MultiLineString","coordinates":[[[92.422917,10.760417],[92.427083,10.764583],[92.427083,10.772917],[92.422917,10.777083],[92.410417,10.777083],[92.40625,10.772917],[92.40625,10.76875],[92.402083,10.764583],[92.397917,10.764583]]]}},{"type":"Feature","id":"riveratlas-41383281","bbox":[92.55208333333277,10.75624999999986,92.56874999999941,10.777083333333152],"properties":{"id":"riveratlas-41383281","order":3,"discharge":6.321000099182129},"geometry":{"type":"MultiLineString","coordinates":[[[92.552083,10.777083],[92.55625,10.772917],[92.560417,10.772917],[92.564583,10.76875],[92.564583,10.760417],[92.56875,10.75625]]]}},{"type":"Feature","id":"riveratlas-41383338","bbox":[92.41874999999945,10.752083333333154,92.42291666666611,10.760416666666513],"properties":{"id":"riveratlas-41383338","order":3,"discharge":5.514999866485596},"geometry":{"type":"MultiLineString","coordinates":[[[92.41875,10.752083],[92.41875,10.75625],[92.422917,10.760417]]]}},{"type":"Feature","id":"riveratlas-41383390","bbox":[92.5604166666661,10.747916666666491,92.56874999999941,10.75624999999985],"properties":{"id":"riveratlas-41383390","order":3,"discharge":3.381999969482422},"geometry":{"type":"MultiLineString","coordinates":[[[92.560417,10.747917],[92.560417,10.752083],[92.564583,10.75625],[92.56875,10.75625]]]}},{"type":"Feature","id":"riveratlas-41383391","bbox":[92.56874999999943,10.747916666666491,92.58541666666615,10.75624999999985],"properties":{"id":"riveratlas-41383391","order":4,"discharge":10.08899974822998},"geometry":{"type":"MultiLineString","coordinates":[[[92.56875,10.75625],[92.572917,10.752083],[92.577083,10.752083],[92.58125,10.747917],[92.585417,10.747917]]]}},{"type":"Feature","id":"riveratlas-41383623","bbox":[92.41874999999945,10.727083333333162,92.43124999999942,10.752083333333156],"properties":{"id":"riveratlas-41383623","order":3,"discharge":4.479000091552734},"geometry":{"type":"MultiLineString","coordinates":[[[92.43125,10.727083],[92.41875,10.739583],[92.41875,10.752083]]]}},{"type":"Feature","id":"riveratlas-41383721","bbox":[92.43124999999944,10.71874999999985,92.43958333333275,10.727083333333168],"properties":{"id":"riveratlas-41383721","order":3,"discharge":4.02400016784668},"geometry":{"type":"MultiLineString","coordinates":[[[92.439583,10.71875],[92.43125,10.727083]]]}},{"type":"Feature","id":"riveratlas-41383722","bbox":[92.43958333333276,10.71874999999985,92.44374999999943,10.71874999999985],"properties":{"id":"riveratlas-41383722","order":3,"discharge":1.4110000133514404},"geometry":{"type":"MultiLineString","coordinates":[[[92.44375,10.71875],[92.439583,10.71875]]]}}]}
