{"type":"FeatureCollection","features":[{"type":"Feature","id":"riveratlas-40352140","bbox":[90.64374999999953,39.99791666666605,90.65208333333293,40.018749999999386],"properties":{"id":"riveratlas-40352140","order":4,"discharge":0.6980000138282776},"geometry":{"type":"MultiLineString","coordinates":[[[90.652083,39.997917],[90.652083,40.002083],[90.647917,40.00625],[90.647917,40.014583],[90.64375,40.01875]]]}},{"type":"Feature","id":"riveratlas-40352141","bbox":[90.8562499999995,39.99791666666605,90.86458333333282,40.02291666666604],"properties":{"id":"riveratlas-40352141","order":4,"discharge":0.375},"geometry":{"type":"MultiLineString","coordinates":[[[90.864583,39.997917],[90.864583,40.010417],[90.860417,40.014583],[90.860417,40.01875],[90.85625,40.022917]]]}},{"type":"Feature","id":"riveratlas-40352146","bbox":[93.57708333333275,39.99791666666605,93.57708333333275,40.002083333332706],"properties":{"id":"riveratlas-40352146","order":3,"discharge":0.03500000014901161},"geometry":{"type":"MultiLineString","coordinates":[[[93.577083,39.997917],[93.577083,40.002083]]]}},{"type":"Feature","id":"riveratlas-40352483","bbox":[91.61041666666611,39.98541666666603,91.6354166666661,40.01458333333269],"properties":{"id":"riveratlas-40352483","order":3,"discharge":0.14000000059604645},"geometry":{"type":"MultiLineString","coordinates":[[[91.610417,39.985417],[91.610417,39.99375],[91.622917,40.00625],[91.627083,40.00625],[91.635417,40.014583]]]}},{"type":"Feature","id":"riveratlas-40352614","bbox":[91.07708333333281,39.98124999999937,91.08958333333278,40.03541666666606],"properties":{"id":"riveratlas-40352614","order":3,"discharge":0.19900000095367432},"geometry":{"type":"MultiLineString","coordinates":[[[91.085417,39.98125],[91.085417,39.985417],[91.08125,39.989583],[91.08125,39.997917],[91.085417,40.002083],[91.085417,40.014583],[91.089583,40.01875],[91.089583,40.03125],[91.085417,40.035417],[91.08125,40.03125],[91.077083,40.035417]]]}},{"type":"Feature","id":"riveratlas-40352615","bbox":[91.50624999999948,39.98124999999937,91.52708333333281,40.00624999999936],"properties":{"id":"riveratlas-40352615","order":3,"discharge":0.23399999737739563},"geometry":{"type":"MultiLineString","coordinates":[[[91.50625,39.98125],[91.50625,39.989583],[91.510417,39.99375],[91.514583,39.99375],[91.527083,40.00625]]]}},{"type":"Feature","id":"riveratlas-40352618","bbox":[93.03958333333284,39.98124999999937,93.06041666666609,40.01458333333268],"properties":{"id":"riveratlas-40352618","order":3,"discharge":0.05999999865889549},"geometry":{"type":"MultiLineString","coordinates":[[[93.039583,39.98125],[93.052083,39.99375],[93.05625,39.99375],[93.060417,39.997917],[93.05625,40.002083],[93.05625,40.010417],[93.052083,40.014583]]]}},{"type":"Feature","id":"riveratlas-40352747","bbox":[94.82291666666609,39.97708333333271,94.87708333333282,40.0020833333327],"properties":{"id":"riveratlas-40352747","order":4,"discharge":0.08399999886751175},"geometry":{"type":"MultiLineString","coordinates":[[[94.877083,39.977083],[94.872917,39.98125],[94.847917,39.98125],[94.839583,39.989583],[94.839583,39.99375],[94.835417,39.997917],[94.827083,39.997917],[94.822917,40.002083]]]}},{"type":"Feature","id":"riveratlas-40352866","bbox":[91.84374999999952,39.97291666666606,91.87291666666609,40.01458333333269],"properties":{"id":"riveratlas-40352866","order":3,"discharge":0.10499999672174454},"geometry":{"type":"MultiLineString","coordinates":[[[91.872917,39.972917],[91.872917,39.985417],[91.86875,39.989583],[91.86875,39.99375],[91.860417,40.002083],[91.85625,40.002083],[91.84375,40.014583]]]}},{"type":"Feature","id":"riveratlas-40353008","bbox":[92.28541666666607,39.968749999999396,92.3395833333328,40.09374999999936],"properties":{"id":"riveratlas-40353008","order":5,"discharge":0.11299999803304672},"geometry":{"type":"MultiLineString","coordinates":[[[92.285417,39.96875],[92.289583,39.972917],[92.289583,39.977083],[92.30625,39.99375],[92.30625,39.997917],[92.314583,40.00625],[92.31875,40.00625],[92.31875,40.010417],[92.322917,40.014583],[92.322917,40.027083],[92.33125,40.035417],[92.33125,40.04375],[92.335417,40.047917],[92.335417,40.064583],[92.339583,40.06875],[92.339583,40.077083],[92.335417,40.08125],[92.339583,40.085417],[92.33125,40.09375]]]}},{"type":"Feature","id":"riveratlas-40353133","bbox":[91.81874999999948,39.96458333333269,91.84374999999952,40.01458333333267],"properties":{"id":"riveratlas-40353133","order":3,"discharge":0.08799999952316284},"geometry":{"type":"MultiLineString","coordinates":[[[91.81875,39.964583],[91.81875,39.972917],[91.83125,39.985417],[91.83125,39.99375],[91.839583,40.002083],[91.839583,40.00625],[91.84375,40.010417],[91.84375,40.014583]]]}},{"type":"Feature","id":"riveratlas-40353239","bbox":[91.1937499999996,39.96041666666604,91.23958333333276,40.00208333333271],"properties":{"id":"riveratlas-40353239","order":4,"discharge":0.39500001072883606},"geometry":{"type":"MultiLineString","coordinates":[[[91.239583,39.960417],[91.235417,39.960417],[91.23125,39.964583],[91.23125,39.96875],[91.227083,39.96875],[91.21875,39.977083],[91.21875,39.98125],[91.20625,39.99375],[91.202083,39.99375],[91.19375,40.002083]]]}},{"type":"Feature","id":"riveratlas-40353473","bbox":[90.4187499999995,39.952083333332716,90.42708333333282,40.01874999999938],"properties":{"id":"riveratlas-40353473","order":8,"discharge":235.43499755859375},"geometry":{"type":"MultiLineString","coordinates":[[[90.422917,39.952083],[90.422917,39.960417],[90.427083,39.964583],[90.427083,39.96875],[90.422917,39.972917],[90.422917,40.00625],[90.41875,40.010417],[90.41875,40.01875]]]}},{"type":"Feature","id":"riveratlas-40353715","bbox":[91.73124999999945,39.94374999999936,91.7895833333328,40.039583333332715],"properties":{"id":"riveratlas-40353715","order":4,"discharge":0.1459999978542328},"geometry":{"type":"MultiLineString","coordinates":[[[91.73125,39.94375],[91.73125,39.952083],[91.74375,39.964583],[91.74375,39.96875],[91.764583,39.989583],[91.764583,39.99375],[91.785417,40.014583],[91.785417,40.022917],[91.789583,40.027083],[91.789583,40.03125],[91.785417,40.035417],[91.78125,40.035417],[91.777083,40.039583]]]}},{"type":"Feature","id":"riveratlas-40353955","bbox":[94.33124999999947,39.935416666666036,94.4354166666661,40.0020833333327],"properties":{"id":"riveratlas-40353955","order":5,"discharge":6.795000076293945},"geometry":{"type":"MultiLineString","coordinates":[[[94.33125,39.935417],[94.33125,39.952083],[94.339583,39.960417],[94.34375,39.960417],[94.347917,39.964583],[94.352083,39.964583],[94.360417,39.972917],[94.364583,39.972917],[94.36875,39.977083],[94.372917,39.977083],[94.377083,39.98125],[94.38125,39.98125],[94.385417,39.985417],[94.389583,39.985417],[94.39375,39.989583],[94.402083,39.989583],[94.410417,39.997917],[94.422917,39.997917],[94.427083,40.002083],[94.435417,40.002083]]]}},{"type":"Feature","id":"riveratlas-40354065","bbox":[92.04374999999945,39.931249999999345,92.0854166666662,40.143749999999386],"properties":{"id":"riveratlas-40354065","order":4,"discharge":0.006000000052154064},"geometry":{"type":"MultiLineString","coordinates":[[[92.04375,39.93125],[92.047917,39.935417],[92.047917,39.947917],[92.052083,39.952083],[92.052083,39.95625],[92.047917,39.960417],[92.047917,39.964583],[92.04375,39.96875],[92.04375,39.977083],[92.047917,39.98125],[92.047917,39.985417],[92.052083,39.985417],[92.06875,40.002083],[92.06875,40.01875],[92.072917,40.022917],[92.06875,40.027083],[92.06875,40.03125],[92.077083,40.039583],[92.077083,40.05625],[92.08125,40.060417],[92.08125,40.064583],[92.085417,40.06875],[92.08125,40.072917],[92.08125,40.097917],[92.077083,40.102083],[92.08125,40.10625],[92.072917,40.114583],[92.08125,40.122917],[92.08125,40.127083],[92.085417,40.13125],[92.08125,40.135417],[92.08125,40.139583],[92.077083,40.14375]]]}},{"type":"Feature","id":"riveratlas-40354190","bbox":[90.06458333333282,39.92708333333268,90.12708333333278,40.01458333333268],"properties":{"id":"riveratlas-40354190","order":5,"discharge":2.4100000858306885},"geometry":{"type":"MultiLineString","coordinates":[[[90.064583,39.927083],[90.089583,39.952083],[90.089583,39.95625],[90.110417,39.977083],[90.110417,39.98125],[90.114583,39.985417],[90.114583,39.989583],[90.11875,39.99375],[90.11875,39.997917],[90.122917,40.002083],[90.122917,40.00625],[90.127083,40.010417],[90.127083,40.014583]]]}},{"type":"Feature","id":"riveratlas-40354194","bbox":[93.98541666666623,39.92708333333268,94.02291666666606,40.04374999999937],"properties":{"id":"riveratlas-40354194","order":4,"discharge":0.2199999988079071},"geometry":{"type":"MultiLineString","coordinates":[[[94.022917,39.927083],[94.01875,39.93125],[94.01875,39.939583],[94.00625,39.952083],[94.00625,39.985417],[94.002083,39.989583],[94.002083,39.99375],[93.997917,39.997917],[93.997917,40.00625],[93.99375,40.010417],[93.99375,40.014583],[93.989583,40.01875],[93.989583,40.022917],[93.985417,40.027083],[93.985417,40.04375]]]}},{"type":"Feature","id":"riveratlas-40354897","bbox":[93.98541666666623,39.90208333333273,94.08541666666615,40.04374999999937],"properties":{"id":"riveratlas-40354897","order":4,"discharge":0.3880000114440918},"geometry":{"type":"MultiLineString","coordinates":[[[94.085417,39.902083],[94.08125,39.90625],[94.08125,39.910417],[94.077083,39.914583],[94.077083,39.91875],[94.06875,39.927083],[94.06875,39.93125],[94.05625,39.94375],[94.05625,39.947917],[94.052083,39.952083],[94.052083,39.972917],[94.047917,39.977083],[94.047917,39.98125],[94.04375,39.985417],[94.039583,39.985417],[94.03125,39.99375],[94.03125,39.997917],[94.027083,40.002083],[94.027083,40.00625],[94.014583,40.01875],[94.014583,40.022917],[94.00625,40.03125],[94.002083,40.03125],[93.99375,40.039583],[93.989583,40.039583],[93.985417,40.04375]]]}},{"type":"Feature","id":"riveratlas-40355393","bbox":[92.82708333333275,39.88541666666601,92.88124999999948,40.006249999999355],"properties":{"id":"riveratlas-40355393","order":3,"discharge":0.0860000029206276},"geometry":{"type":"MultiLineString","coordinates":[[[92.83125,39.885417],[92.827083,39.889583],[92.827083,39.89375],[92.83125,39.897917],[92.83125,39.914583],[92.839583,39.922917],[92.839583,39.94375],[92.847917,39.952083],[92.847917,39.95625],[92.85625,39.95625],[92.864583,39.964583],[92.864583,39.972917],[92.86875,39.977083],[92.86875,39.98125],[92.872917,39.985417],[92.872917,40.002083],[92.877083,40.00625],[92.88125,40.00625]]]}},{"type":"Feature","id":"riveratlas-40355513","bbox":[94.06458333333282,39.88124999999936,94.25624999999935,40.04791666666603],"properties":{"id":"riveratlas-40355513","order":3,"discharge":0.21199999749660492},"geometry":{"type":"MultiLineString","coordinates":[[[94.25625,39.88125],[94.247917,39.88125],[94.24375,39.885417],[94.222917,39.885417],[94.21875,39.889583],[94.214583,39.889583],[94.210417,39.885417],[94.20625,39.885417],[94.202083,39.889583],[94.19375,39.889583],[94.189583,39.89375],[94.185417,39.89375],[94.18125,39.897917],[94.172917,39.897917],[94.164583,39.90625],[94.160417,39.90625],[94.147917,39.91875],[94.14375,39.91875],[94.139583,39.922917],[94.135417,39.922917],[94.110417,39.947917],[94.10625,39.947917],[94.08125,39.972917],[94.08125,39.977083],[94.085417,39.98125],[94.085417,39.997917],[94.08125,40.002083],[94.08125,40.010417],[94.06875,40.022917],[94.06875,40.035417],[94.072917,40.039583],[94.064583,40.047917]]]}},{"type":"Feature","id":"riveratlas-40356261","bbox":[93.30208333333272,39.85624999999937,93.32291666666609,40.10208333333272],"properties":{"id":"riveratlas-40356261","order":4,"discharge":0.10100000351667404},"geometry":{"type":"MultiLineString","coordinates":[[[93.30625,39.85625],[93.30625,39.864583],[93.310417,39.86875],[93.30625,39.872917],[93.30625,39.885417],[93.302083,39.889583],[93.302083,39.91875],[93.30625,39.922917],[93.30625,39.95625],[93.310417,39.960417],[93.310417,39.964583],[93.314583,39.96875],[93.314583,39.977083],[93.31875,39.98125],[93.31875,40.014583],[93.314583,40.01875],[93.314583,40.027083],[93.322917,40.035417],[93.322917,40.039583],[93.31875,40.04375],[93.31875,40.047917],[93.314583,40.052083],[93.314583,40.060417],[93.302083,40.072917],[93.30625,40.077083],[93.30625,40.085417],[93.314583,40.09375],[93.310417,40.097917],[93.310417,40.102083]]]}},{"type":"Feature","id":"riveratlas-40356377","bbox":[90.9645833333328,39.85208333333271,91.00624999999947,40.02291666666604],"properties":{"id":"riveratlas-40356377","order":4,"discharge":0.36800000071525574},"geometry":{"type":"MultiLineString","coordinates":[[[91.002083,39.852083],[91.002083,39.85625],[91.00625,39.860417],[91.002083,39.864583],[91.002083,39.86875],[90.997917,39.872917],[90.997917,39.902083],[91.002083,39.90625],[91.002083,39.91875],[91.00625,39.922917],[91.00625,39.927083],[91.002083,39.93125],[91.002083,39.939583],[90.997917,39.94375],[90.997917,39.95625],[90.989583,39.964583],[90.989583,39.972917],[90.985417,39.977083],[90.985417,40.002083],[90.98125,40.00625],[90.98125,40.014583],[90.972917,40.022917],[90.964583,40.022917]]]}},{"type":"Feature","id":"riveratlas-40356735","bbox":[93.74374999999944,39.83958333333269,93.82708333333282,40.12291666666605],"properties":{"id":"riveratlas-40356735","order":4,"discharge":0.18000000715255737},"geometry":{"type":"MultiLineString","coordinates":[[[93.752083,39.839583],[93.752083,39.84375],[93.75625,39.847917],[93.752083,39.852083],[93.75625,39.85625],[93.75625,39.860417],[93.760417,39.864583],[93.760417,39.86875],[93.75625,39.872917],[93.76875,39.885417],[93.777083,39.885417],[93.78125,39.889583],[93.78125,39.897917],[93.789583,39.90625],[93.79375,39.90625],[93.80625,39.91875],[93.810417,39.91875],[93.814583,39.922917],[93.814583,39.927083],[93.81875,39.93125],[93.81875,39.935417],[93.814583,39.939583],[93.814583,39.96875],[93.81875,39.972917],[93.81875,39.98125],[93.822917,39.985417],[93.822917,40.014583],[93.827083,40.01875],[93.822917,40.022917],[93.81875,40.022917],[93.810417,40.03125],[93.810417,40.039583],[93.802083,40.047917],[93.797917,40.047917],[93.79375,40.04375],[93.785417,40.052083],[93.764583,40.052083],[93.752083,40.064583],[93.752083,40.06875],[93.747917,40.072917],[93.747917,40.11875],[93.74375,40.122917]]]}},{"type":"Feature","id":"riveratlas-40357235","bbox":[93.38541666666615,39.82291666666605,93.43124999999951,40.056249999999345],"properties":{"id":"riveratlas-40357235","order":4,"discharge":0.12999999523162842},"geometry":{"type":"MultiLineString","coordinates":[[[93.43125,39.822917],[93.427083,39.827083],[93.427083,39.83125],[93.422917,39.835417],[93.422917,39.839583],[93.41875,39.84375],[93.41875,39.85625],[93.422917,39.860417],[93.422917,39.864583],[93.41875,39.86875],[93.41875,39.877083],[93.414583,39.88125],[93.414583,39.902083],[93.410417,39.90625],[93.410417,39.91875],[93.40625,39.922917],[93.402083,39.922917],[93.397917,39.927083],[93.397917,39.935417],[93.39375,39.939583],[93.39375,39.964583],[93.397917,39.96875],[93.397917,39.977083],[93.402083,39.98125],[93.402083,39.99375],[93.397917,39.997917],[93.397917,40.002083],[93.402083,40.00625],[93.402083,40.010417],[93.397917,40.014583],[93.397917,40.022917],[93.39375,40.027083],[93.39375,40.035417],[93.389583,40.039583],[93.389583,40.04375],[93.39375,40.047917],[93.385417,40.05625]]]}}]}
