{"type":"FeatureCollection","features":[{"type":"Feature","id":"riveratlas-40352155","bbox":[97.68958333333265,39.99791666666605,97.722916666666,40.010416666666025],"properties":{"id":"riveratlas-40352155","order":3,"discharge":0.07900000363588333},"geometry":{"type":"MultiLineString","coordinates":[[[97.689583,39.997917],[97.69375,40.002083],[97.697917,40.002083],[97.702083,40.00625],[97.710417,40.00625],[97.714583,40.010417],[97.722917,40.010417]]]}},{"type":"Feature","id":"riveratlas-40352158","bbox":[99.19374999999937,39.99791666666605,99.20624999999934,40.00624999999937],"properties":{"id":"riveratlas-40352158","order":3,"discharge":0.14499999582767487},"geometry":{"type":"MultiLineString","coordinates":[[[99.19375,39.997917],[99.202083,40.00625],[99.20625,40.00625]]]}},{"type":"Feature","id":"riveratlas-40352261","bbox":[96.7479166666661,39.99374999999939,96.797916666666,40.01874999999938],"properties":{"id":"riveratlas-40352261","order":6,"discharge":20.61199951171875},"geometry":{"type":"MultiLineString","coordinates":[[[96.797917,39.99375],[96.789583,40.002083],[96.785417,40.002083],[96.78125,40.00625],[96.76875,40.00625],[96.764583,40.002083],[96.75625,40.002083],[96.747917,40.010417],[96.747917,40.01875]]]}},{"type":"Feature","id":"riveratlas-40352263","bbox":[97.47708333333267,39.99374999999939,97.51458333333277,40.010416666666025],"properties":{"id":"riveratlas-40352263","order":3,"discharge":0.04699999839067459},"geometry":{"type":"MultiLineString","coordinates":[[[97.514583,39.99375],[97.497917,39.99375],[97.49375,39.997917],[97.489583,39.997917],[97.477083,40.010417]]]}},{"type":"Feature","id":"riveratlas-40352379","bbox":[97.39374999999941,39.98958333333268,97.42708333333285,40.03958333333271],"properties":{"id":"riveratlas-40352379","order":4,"discharge":0.2849999964237213},"geometry":{"type":"MultiLineString","coordinates":[[[97.427083,39.989583],[97.427083,39.99375],[97.410417,40.010417],[97.410417,40.014583],[97.402083,40.022917],[97.402083,40.027083],[97.39375,40.035417],[97.39375,40.039583]]]}},{"type":"Feature","id":"riveratlas-40352494","bbox":[99.38124999999937,39.98541666666603,99.46458333333267,40.131249999999376],"properties":{"id":"riveratlas-40352494","order":3,"discharge":0.10199999809265137},"geometry":{"type":"MultiLineString","coordinates":[[[99.464583,39.985417],[99.464583,39.989583],[99.460417,39.99375],[99.45625,39.99375],[99.452083,39.997917],[99.44375,39.997917],[99.439583,40.002083],[99.435417,39.997917],[99.43125,40.002083],[99.43125,40.014583],[99.427083,40.01875],[99.422917,40.01875],[99.41875,40.014583],[99.414583,40.01875],[99.414583,40.022917],[99.422917,40.03125],[99.422917,40.047917],[99.41875,40.052083],[99.41875,40.06875],[99.414583,40.072917],[99.41875,40.077083],[99.41875,40.085417],[99.414583,40.089583],[99.414583,40.09375],[99.41875,40.097917],[99.40625,40.110417],[99.40625,40.114583],[99.402083,40.11875],[99.397917,40.11875],[99.385417,40.13125],[99.38125,40.13125]]]}},{"type":"Feature","id":"riveratlas-40352628","bbox":[99.33541666666602,39.98124999999937,99.35624999999935,40.072916666666025],"properties":{"id":"riveratlas-40352628","order":6,"discharge":34.202999114990234},"geometry":{"type":"MultiLineString","coordinates":[[[99.347917,39.98125],[99.347917,39.989583],[99.34375,39.99375],[99.34375,40.014583],[99.335417,40.022917],[99.339583,40.027083],[99.339583,40.04375],[99.34375,40.047917],[99.34375,40.05625],[99.35625,40.06875],[99.35625,40.072917]]]}},{"type":"Feature","id":"riveratlas-40352753","bbox":[97.25624999999943,39.97708333333271,97.30624999999932,40.01458333333267],"properties":{"id":"riveratlas-40352753","order":3,"discharge":0.0860000029206276},"geometry":{"type":"MultiLineString","coordinates":[[[97.25625,39.977083],[97.26875,39.989583],[97.26875,39.99375],[97.277083,40.002083],[97.28125,40.002083],[97.289583,40.010417],[97.29375,40.010417],[97.297917,40.014583],[97.30625,40.014583]]]}},{"type":"Feature","id":"riveratlas-40352884","bbox":[98.87291666666599,39.97291666666606,98.8812499999993,40.01458333333269],"properties":{"id":"riveratlas-40352884","order":5,"discharge":9.913000106811523},"geometry":{"type":"MultiLineString","coordinates":[[[98.88125,39.972917],[98.877083,39.977083],[98.877083,39.98125],[98.872917,39.985417],[98.872917,39.997917],[98.877083,40.002083],[98.877083,40.00625],[98.88125,40.010417],[98.88125,40.014583]]]}},{"type":"Feature","id":"riveratlas-40353016","bbox":[97.80624999999932,39.968749999999396,97.93124999999932,40.16874999999938],"properties":{"id":"riveratlas-40353016","order":4,"discharge":0.40799999237060547},"geometry":{"type":"MultiLineString","coordinates":[[[97.80625,39.96875],[97.80625,39.985417],[97.810417,39.989583],[97.810417,39.997917],[97.814583,40.002083],[97.814583,40.00625],[97.81875,40.010417],[97.81875,40.014583],[97.822917,40.01875],[97.822917,40.022917],[97.827083,40.027083],[97.827083,40.035417],[97.835417,40.04375],[97.835417,40.047917],[97.84375,40.05625],[97.84375,40.060417],[97.85625,40.072917],[97.85625,40.077083],[97.872917,40.09375],[97.872917,40.097917],[97.910417,40.135417],[97.910417,40.139583],[97.914583,40.14375],[97.914583,40.147917],[97.922917,40.15625],[97.922917,40.160417],[97.93125,40.16875]]]}},{"type":"Feature","id":"riveratlas-40353140","bbox":[95.95624999999936,39.96458333333269,95.9645833333328,40.022916666666035],"properties":{"id":"riveratlas-40353140","order":4,"discharge":0.4830000102519989},"geometry":{"type":"MultiLineString","coordinates":[[[95.95625,39.964583],[95.964583,39.972917],[95.964583,40.022917]]]}},{"type":"Feature","id":"riveratlas-40353965","bbox":[97.69374999999948,39.935416666666036,97.72708333333267,40.01041666666602],"properties":{"id":"riveratlas-40353965","order":3,"discharge":0.07400000095367432},"geometry":{"type":"MultiLineString","coordinates":[[[97.69375,39.935417],[97.69375,39.939583],[97.710417,39.95625],[97.710417,39.964583],[97.714583,39.96875],[97.714583,39.985417],[97.727083,39.997917],[97.722917,40.002083],[97.722917,40.010417]]]}},{"type":"Feature","id":"riveratlas-40355037","bbox":[98.110416666666,39.89791666666603,98.27291666666602,40.34374999999937],"properties":{"id":"riveratlas-40355037","order":3,"discharge":0},"geometry":{"type":"MultiLineString","coordinates":[[[98.210417,39.897917],[98.214583,39.902083],[98.21875,39.902083],[98.24375,39.927083],[98.247917,39.927083],[98.252083,39.93125],[98.252083,39.935417],[98.25625,39.939583],[98.25625,39.94375],[98.260417,39.947917],[98.260417,39.960417],[98.264583,39.964583],[98.264583,39.96875],[98.26875,39.972917],[98.26875,39.98125],[98.272917,39.985417],[98.26875,39.989583],[98.26875,40.002083],[98.264583,40.00625],[98.264583,40.010417],[98.247917,40.027083],[98.247917,40.03125],[98.24375,40.035417],[98.24375,40.04375],[98.239583,40.047917],[98.239583,40.052083],[98.235417,40.05625],[98.235417,40.064583],[98.222917,40.077083],[98.222917,40.08125],[98.202083,40.102083],[98.202083,40.10625],[98.197917,40.110417],[98.197917,40.114583],[98.19375,40.11875],[98.19375,40.135417],[98.189583,40.139583],[98.189583,40.14375],[98.18125,40.152083],[98.177083,40.152083],[98.177083,40.15625],[98.172917,40.160417],[98.172917,40.172917],[98.177083,40.177083],[98.177083,40.197917],[98.172917,40.202083],[98.172917,40.20625],[98.16875,40.210417],[98.16875,40.222917],[98.164583,40.227083],[98.164583,40.23125],[98.160417,40.235417],[98.164583,40.239583],[98.160417,40.24375],[98.160417,40.25625],[98.152083,40.264583],[98.152083,40.26875],[98.147917,40.272917],[98.147917,40.285417],[98.14375,40.289583],[98.14375,40.297917],[98.13125,40.310417],[98.13125,40.314583],[98.127083,40.31875],[98.127083,40.33125],[98.11875,40.339583],[98.114583,40.339583],[98.110417,40.34375]]]}},{"type":"Feature","id":"riveratlas-40356623","bbox":[95.23124999999939,39.84374999999938,95.28958333333286,40.0020833333327],"properties":{"id":"riveratlas-40356623","order":3,"discharge":0.12399999797344208},"geometry":{"type":"MultiLineString","coordinates":[[[95.289583,39.84375],[95.289583,39.852083],[95.285417,39.85625],[95.285417,39.86875],[95.28125,39.872917],[95.28125,39.877083],[95.277083,39.88125],[95.277083,39.889583],[95.272917,39.89375],[95.272917,39.902083],[95.26875,39.90625],[95.26875,39.910417],[95.264583,39.914583],[95.264583,39.927083],[95.260417,39.93125],[95.260417,39.935417],[95.25625,39.939583],[95.25625,39.94375],[95.247917,39.952083],[95.247917,39.960417],[95.24375,39.964583],[95.24375,39.972917],[95.239583,39.977083],[95.239583,39.985417],[95.235417,39.989583],[95.235417,39.997917],[95.23125,40.002083]]]}}]}
